Year,m,d,Time,Time zone,Cloud amount (1/8),Pressure (msl) (hPa),Relative humidity (%),Precipitation intensity (mm/h),Snow depth (cm),Air temperature (degC),Dew-point temperature (degC),Horizontal visibility (m),Wind direction (deg),Gust speed (m/s),Wind speed (m/s)
2018,5,1,00:00,UTC,8,1011.1,77,,,7.4,3.6,50000,64,5.9,2.3
2018,5,1,00:10,UTC,8,1010.7,77,,,7.4,3.6,50000,75,4.6,2.7
2018,5,1,00:20,UTC,8,1010.5,76,,,7.5,3.6,50000,63,4.8,2.8
2018,5,1,00:30,UTC,8,1010.2,76,,,7.5,3.6,48833,64,5.9,3.2
2018,5,1,00:40,UTC,8,1010.4,75,,,7.6,3.5,46357,70,5.6,2.8
2018,5,1,00:50,UTC,8,1010.1,75,,,7.7,3.6,39438,69,6.3,3
2018,5,1,01:00,UTC,8,1010,76,,,7.7,3.6,34915,61,4.9,2.8
2018,5,1,01:10,UTC,8,1010,76,,,7.7,3.7,30641,66,4.9,2.8
2018,5,1,01:20,UTC,8,1009.7,77,,,7.7,3.8,31066,56,5.3,3.1
2018,5,1,01:30,UTC,8,1009.4,77,,,7.7,3.9,34914,62,6.6,3.2
2018,5,1,01:40,UTC,8,1009.3,77,,,7.7,4,37458,63,5.5,3.2
2018,5,1,01:50,UTC,8,1009.2,77,,,7.7,4,29835,64,6.4,3.2
2018,5,1,02:00,UTC,7,1008.9,77,,,7.7,4,33513,63,6.3,3.4
2018,5,1,02:10,UTC,7,1008.8,78,,,7.7,4.1,37099,62,5.2,2.8
2018,5,1,02:20,UTC,7,1008.8,79,,,7.7,4.2,40714,60,6.2,3.2
2018,5,1,02:30,UTC,8,1008.8,79,,,7.7,4.3,41478,70,6.4,3.2
2018,5,1,02:40,UTC,8,1008.9,80,,,7.7,4.4,38698,72,5.8,3.2
2018,5,1,02:50,UTC,8,1009.4,80,,,7.7,4.5,41810,63,4.9,3
2018,5,1,03:00,UTC,8,1009.8,80,,,7.8,4.5,37508,59,4.8,2.1
2018,5,1,03:10,UTC,8,1009.9,79,,,7.8,4.5,43782,65,5.1,2.2
2018,5,1,03:20,UTC,8,1009.5,80,,,7.8,4.6,40801,71,3.6,2.3
2018,5,1,03:30,UTC,8,1009.2,80,,,7.8,4.6,43605,61,5.5,2.8
2018,5,1,03:40,UTC,7,1009.1,80,,,7.8,4.6,40825,69,5.5,3
2018,5,1,03:50,UTC,7,1008.9,80,,,7.8,4.6,46170,68,5.6,3.2
2018,5,1,04:00,UTC,7,1008.8,80,,,7.8,4.5,48821,67,5.8,3.2
2018,5,1,04:10,UTC,7,1008.6,79,,,7.8,4.5,45841,70,5.4,3.2
2018,5,1,04:20,UTC,8,1008.4,79,,,7.9,4.4,45034,62,6.4,3
2018,5,1,04:30,UTC,8,1008.3,78,,,8,4.3,40587,70,6.3,3.4
2018,5,1,04:40,UTC,8,1008.3,79,,,7.9,4.4,32998,82,7.5,3.8
2018,5,1,04:50,UTC,8,1008.1,82,,,7.7,4.8,22322,77,8.5,4
2018,5,1,05:00,UTC,8,1007.9,83,,,7.6,4.8,23232,78,6.9,3.8
2018,5,1,05:10,UTC,8,1007.8,83,,,7.5,4.8,20198,75,7.8,4.5
2018,5,1,05:20,UTC,8,1007.6,84,,,7.4,5,23008,70,8.4,4.7
2018,5,1,05:30,UTC,8,1007.5,86,,,7.4,5.1,24547,70,6.3,3.8
2018,5,1,05:40,UTC,8,1007.4,87,,,7.3,5.2,17981,73,6.4,3.7
2018,5,1,05:50,UTC,8,1007.2,88,,,7.2,5.4,16352,69,6.1,3.6
2018,5,1,06:00,UTC,8,1007.3,90,,,7.1,5.5,16245,69,7.3,4.2
2018,5,1,06:10,UTC,8,1007.1,91,,,7.1,5.6,26874,67,6.3,3.5
2018,5,1,06:20,UTC,8,1007,91,,,7.2,5.8,33523,69,8,4.2
2018,5,1,06:30,UTC,8,1007.1,90,,,7.4,5.9,39569,76,8.4,4.2
2018,5,1,06:40,UTC,8,1007,89,,,7.6,5.9,43351,79,8.4,4.6
2018,5,1,06:50,UTC,8,1007.1,89,,,7.7,6,48041,83,7.8,3.8
2018,5,1,07:00,UTC,8,1007.2,88,,,7.7,5.8,50000,82,7.8,3.7
2018,5,1,07:10,UTC,8,1007.3,87,,,7.8,5.8,50000,82,5.8,3.4
2018,5,1,07:20,UTC,8,1007.2,86,,,7.9,5.7,50000,88,7.6,4
2018,5,1,07:30,UTC,8,1007.1,84,,,8.1,5.6,47870,90,7.6,3.9
2018,5,1,07:40,UTC,8,1007.2,84,,,8.1,5.6,48877,88,8.1,5
2018,5,1,07:50,UTC,8,1006.9,84,,,8.2,5.5,50000,90,8.7,5.2
2018,5,1,08:00,UTC,8,1006.6,83,,,8.3,5.6,46586,85,9.1,5
2018,5,1,08:10,UTC,8,1006.9,83,,,8.3,5.6,48237,95,9.3,5
2018,5,1,08:20,UTC,8,1007,84,,,8.3,5.7,43747,98,6.6,4.4
2018,5,1,08:30,UTC,8,1006.8,83,,,8.3,5.5,39978,95,8.2,5
2018,5,1,08:40,UTC,8,1006.5,82,,,8.2,5.3,39972,90,11.4,6.4
2018,5,1,08:50,UTC,8,1006.5,84,,,8.3,5.7,50000,95,9.9,6.2
2018,5,1,09:00,UTC,8,1006.5,83,,,8.5,5.8,46738,97,9,5.7
2018,5,1,09:10,UTC,8,1006.1,82,,,8.4,5.6,48466,96,12.8,8.4
2018,5,1,09:20,UTC,8,1006.4,83,,,8.1,5.3,49118,94,13.4,8.1
2018,5,1,09:30,UTC,8,1006.2,84,,,7.8,5.3,49770,97,13.2,8.7
2018,5,1,09:40,UTC,8,1006.5,85,,,7.5,5.1,46075,101,12.9,9.1
2018,5,1,09:50,UTC,8,1006.5,87,,,7.3,5.4,14326,95,12.8,8.7
2018,5,1,10:00,UTC,8,1006.7,88,,,7.4,5.5,12036,94,12.5,7.6
2018,5,1,10:10,UTC,8,1006.7,88,,,7.5,5.6,29305,94,11,7
2018,5,1,10:20,UTC,8,1006.5,88,,,7.4,5.5,35501,94,10.9,6.7
2018,5,1,10:30,UTC,8,1006.7,88,,,7.4,5.6,42531,92,11.4,6
2018,5,1,10:40,UTC,8,1006.8,88,,,7.3,5.5,40045,89,11.4,6.4
2018,5,1,10:50,UTC,8,1006.8,89,,,7.3,5.6,23773,92,9.8,6.3
2018,5,1,11:00,UTC,8,1007.1,90,,,7.1,5.7,10501,93,10.1,6.5
2018,5,1,11:10,UTC,8,1007.1,92,,,7,5.8,5887,96,11.2,5.8
2018,5,1,11:20,UTC,8,1007.3,93,,,6.9,5.9,4281,93,9.2,5.7
2018,5,1,11:30,UTC,8,1007.5,94,,,6.9,6,3995,92,9.3,5
2018,5,1,11:40,UTC,8,1007.5,95,,,6.8,6,2951,90,11.1,5.6
2018,5,1,11:50,UTC,8,1007.7,96,,,6.7,6.1,2752,95,9.2,5.7
2018,5,1,12:00,UTC,8,1007.6,96,,,6.7,6.1,2897,94,8.5,5.4
2018,5,1,12:10,UTC,8,1007.4,96,,,6.6,6.1,2680,92,8.4,5.5
2018,5,1,12:20,UTC,8,1007.1,97,,,6.7,6.2,2738,82,8.1,4.9
2018,5,1,12:30,UTC,8,1007.3,97,,,6.7,6.2,2569,89,9.2,5.6
2018,5,1,12:40,UTC,8,1007.5,97,,,6.6,6.2,2718,94,8.1,5.4
2018,5,1,12:50,UTC,8,1007.6,98,,,6.6,6.3,2803,94,7.8,4.8
2018,5,1,13:00,UTC,8,1007.5,98,,,6.6,6.3,2683,88,9.1,5.6
2018,5,1,13:10,UTC,8,1007.5,98,,,6.7,6.4,2468,93,9.8,5.4
2018,5,1,13:20,UTC,8,1007.5,98,,,6.6,6.3,2634,93,9.4,6.1
2018,5,1,13:30,UTC,8,1007.7,97,,,6.6,6.2,2682,91,8.3,5.2
2018,5,1,13:40,UTC,8,1007.9,98,,,6.6,6.2,2664,97,9.1,5.7
2018,5,1,13:50,UTC,8,1007.9,98,,,6.6,6.3,2519,100,8.4,5
2018,5,1,14:00,UTC,8,1008,98,,,6.6,6.3,2570,102,8.2,5.5
2018,5,1,14:10,UTC,8,1008,98,,,6.6,6.2,2780,100,7.9,5.3
2018,5,1,14:20,UTC,8,1008.1,98,,,6.6,6.2,2719,99,7.2,5.3
2018,5,1,14:30,UTC,8,1008.3,98,,,6.6,6.2,3300,101,6.9,4.8
2018,5,1,14:40,UTC,8,1008.3,98,,,6.6,6.3,3425,106,6.1,4.4
2018,5,1,14:50,UTC,8,1008.1,98,,,6.6,6.3,3062,108,7.6,4.7
2018,5,1,15:00,UTC,8,1008.1,98,,,6.6,6.3,3566,107,7.8,4.8
2018,5,1,15:10,UTC,8,1008.2,98,,,6.4,6.1,4251,110,8.9,5.6
2018,5,1,15:20,UTC,8,1008.1,98,,,6.2,6,4516,113,7.8,5.6
2018,5,1,15:30,UTC,8,1008.5,98,,,6.1,5.8,4980,120,7,4.9
2018,5,1,15:40,UTC,8,1008.5,98,,,5.8,5.6,5158,113,6.7,4.9
2018,5,1,15:50,UTC,8,1008.6,99,,,5.7,5.5,5483,110,5.4,3.7
2018,5,1,16:00,UTC,8,1008.7,99,,,5.7,5.5,4994,115,4.2,3.2
2018,5,1,16:10,UTC,8,1008.6,99,,,5.5,5.3,2309,125,4.1,2.8
2018,5,1,16:20,UTC,8,1008.6,99,,,5.6,5.5,1547,113,3.7,2.6
2018,5,1,16:30,UTC,8,1008.6,99,,,5.5,5.4,2447,147,3.4,2.6
2018,5,1,16:40,UTC,8,1008.6,100,,,5.4,5.4,2093,147,3.1,2.4
2018,5,1,16:50,UTC,8,1008.5,100,,,5.4,5.4,1868,157,2.7,1.8
2018,5,1,17:00,UTC,8,1008.7,100,,,5.4,5.3,1272,163,2.3,1.8
2018,5,1,17:10,UTC,8,1008.6,100,,,5.5,5.5,1330,158,2.4,1.5
2018,5,1,17:20,UTC,8,1008.7,100,,,5.5,5.5,1242,181,2.4,1.6
2018,5,1,17:30,UTC,8,1008.8,100,,,5.5,5.5,1374,181,2.1,1.4
2018,5,1,17:40,UTC,8,1009,100,,,5.6,5.5,1489,174,2.8,2
2018,5,1,17:50,UTC,8,1009.2,100,,,5.6,5.6,2382,185,3,2.3
2018,5,1,18:00,UTC,8,1009.2,100,,,5.6,5.6,4565,183,2.8,2.1
2018,5,1,18:10,UTC,8,1009.2,100,,,5.6,5.6,4519,188,2.4,1.8
2018,5,1,18:20,UTC,8,1009.3,100,,,5.6,5.6,5020,227,2.3,1.5
2018,5,1,18:30,UTC,8,1009.6,100,,,5.6,5.6,4046,198,3.1,2.2
2018,5,1,18:40,UTC,8,1009.8,100,,,5.7,5.6,3163,191,3.2,2.3
2018,5,1,18:50,UTC,8,1009.7,100,,,5.6,5.5,2958,188,3.5,2.4
2018,5,1,19:00,UTC,8,1010.1,100,,,5.6,5.6,2645,190,3.4,2.6
2018,5,1,19:10,UTC,8,1010.1,100,,,5.6,5.5,1722,197,3,2.2
2018,5,1,19:20,UTC,8,1010.2,100,,,5.6,5.5,1071,184,2.6,2.1
2018,5,1,19:30,UTC,8,1010.3,100,,,5.5,5.5,861,191,2.8,2.2
2018,5,1,19:40,UTC,9,1010.2,100,,,5.5,5.5,687,199,3.2,2.4
2018,5,1,19:50,UTC,9,1010.2,100,,,5.5,5.5,567,190,2.6,2
2018,5,1,20:00,UTC,9,1010,100,,,5.5,5.5,552,162,1.8,1
2018,5,1,20:10,UTC,9,1010,100,,,5.5,5.5,596,156,1.5,1.2
2018,5,1,20:20,UTC,9,1010.1,100,,,5.5,5.5,597,155,2.3,1.8
2018,5,1,20:30,UTC,9,1010.2,100,,,5.5,5.5,614,143,2.8,2.1
2018,5,1,20:40,UTC,9,1010,100,,,5.4,5.4,645,139,2.6,1.8
2018,5,1,20:50,UTC,8,1010.1,100,,,5.5,5.5,835,148,1.3,0.8
2018,5,1,21:00,UTC,8,1010.5,100,,,5.4,5.4,1481,201,2.2,1.5
2018,5,1,21:10,UTC,8,1010.6,100,,,5.4,5.4,1184,208,2.2,1.6
2018,5,1,21:20,UTC,8,1010.6,100,,,5.4,5.4,1277,187,2.6,1.9
2018,5,1,21:30,UTC,8,1010.5,100,,,5.4,5.4,1077,221,1.8,0.8
2018,5,1,21:40,UTC,8,1010.8,100,,,5.4,5.4,1279,238,1.6,1.1
2018,5,1,21:50,UTC,9,1010.7,100,,,5.3,5.3,977,278,1.5,0.6
2018,5,1,22:00,UTC,9,1010.6,100,,,5.3,5.3,598,58,1.2,0.7
2018,5,1,22:10,UTC,9,1010.7,100,,,5.3,5.3,467,0,0,0
2018,5,1,22:20,UTC,9,1010.4,100,,,5.2,5.2,283,54,1.5,0.9
2018,5,1,22:30,UTC,9,1010.4,100,,,5.3,5.2,349,5,1.7,0.7
2018,5,1,22:40,UTC,9,1010.3,100,,,5.3,5.3,418,80,1.7,0.8
2018,5,1,22:50,UTC,7,1010.1,100,,,5.4,5.4,935,98,4.9,1.8
2018,5,1,23:00,UTC,7,1010.8,100,,,5.6,5.6,1902,72,4.1,1.9
2018,5,1,23:10,UTC,7,1010.6,100,,,5.7,5.7,4479,167,2.7,1.2
2018,5,1,23:20,UTC,8,1010.4,100,,,5.6,5.6,3177,342,2.2,1.2
2018,5,1,23:30,UTC,8,1010.4,100,,,5.6,5.6,3337,96,1.6,1
2018,5,1,23:40,UTC,8,1010.2,100,,,5.6,5.6,2732,101,2.4,1.5
2018,5,1,23:50,UTC,8,1009.9,100,,,5.6,5.6,3143,73,3.4,2.2
2018,5,2,00:00,UTC,8,1009.7,100,,,5.5,5.5,3151,68,3.1,1.9
2018,5,2,00:10,UTC,8,1009.6,100,,,5.4,5.4,3305,68,2.8,1.7
2018,5,2,00:20,UTC,8,1009.6,100,,,5.3,5.3,3143,44,2.7,1.3
2018,5,2,00:30,UTC,8,1009.8,100,,,5.3,5.3,1746,136,4,2.1
2018,5,2,00:40,UTC,9,1009.9,100,,,5.3,5.3,1159,117,2.4,1.3
2018,5,2,00:50,UTC,9,1009.5,100,,,5.2,5.2,745,73,1.9,1.4
2018,5,2,01:00,UTC,9,1009.6,100,,,5.2,5.2,572,73,2,1.2
2018,5,2,01:10,UTC,9,1009.9,100,,,5.3,5.3,684,133,2.8,1.7
2018,5,2,01:20,UTC,8,1009.8,100,,,5.3,5.3,1452,161,2.5,1.7
2018,5,2,01:30,UTC,9,1010.2,100,,,5.1,5.1,1052,135,3.7,2.6
2018,5,2,01:40,UTC,8,1010.4,100,,,4.9,4.9,1160,179,4.1,2.8
2018,5,2,01:50,UTC,9,1010.7,100,,,4.8,4.7,906,172,3.4,2.3
2018,5,2,02:00,UTC,9,1010.9,100,,,4.6,4.6,798,172,3.3,2.1
2018,5,2,02:10,UTC,9,1010.6,100,,,4.4,4.4,394,152,3.8,2.6
2018,5,2,02:20,UTC,9,1010.7,100,,,4.3,4.3,480,134,3.7,2.4
2018,5,2,02:30,UTC,9,1010.9,100,,,4,4,347,156,3.7,2.8
2018,5,2,02:40,UTC,9,1010.8,100,,,4.1,4.1,273,153,2.9,1.9
2018,5,2,02:50,UTC,9,1010.7,100,,,4.1,4.1,261,135,2.5,1.8
2018,5,2,03:00,UTC,9,1010.6,100,,,4.2,4.2,275,115,2.8,2
2018,5,2,03:10,UTC,8,1010.2,100,,,4.3,4.3,766,55,2.3,1.4
2018,5,2,03:20,UTC,8,1010.2,100,,,4.4,4.4,4476,93,3.9,2.3
2018,5,2,03:30,UTC,8,1010.1,100,,,4.5,4.5,5859,92,3.6,2
2018,5,2,03:40,UTC,8,1010.1,100,,,4.6,4.6,6542,102,3.5,2.2
2018,5,2,03:50,UTC,8,1010.2,100,,,4.7,4.7,7528,105,4.2,2.8
2018,5,2,04:00,UTC,8,1010.2,100,,,4.8,4.7,6633,100,3.8,2
2018,5,2,04:10,UTC,8,1010.1,100,,,4.9,4.9,7257,144,2.2,1.3
2018,5,2,04:20,UTC,8,1010.1,100,,,5,5,6093,109,2.5,1.6
2018,5,2,04:30,UTC,8,1009.9,100,,,5,5,6881,99,3.7,2
2018,5,2,04:40,UTC,8,1010.1,100,,,5,5,7977,96,3.1,1.9
2018,5,2,04:50,UTC,8,1010,100,,,5,5,6435,95,2.2,1.4
2018,5,2,05:00,UTC,8,1010.2,100,,,5.2,5.2,6959,143,1.9,1.2
2018,5,2,05:10,UTC,8,1010.4,100,,,5.3,5.3,5689,238,5.7,2.3
2018,5,2,05:20,UTC,8,1010,100,,,5.5,5.5,5937,318,2.1,1.2
2018,5,2,05:30,UTC,8,1010.6,100,,,5.6,5.6,5416,124,2.9,1.6
2018,5,2,05:40,UTC,8,1010.8,100,,,5.4,5.4,5537,170,6.8,4
2018,5,2,05:50,UTC,8,1010.2,100,,,5.4,5.4,5024,127,3,1.3
2018,5,2,06:00,UTC,8,1010.2,100,,,5.5,5.4,5242,29,2.3,1.3
2018,5,2,06:10,UTC,8,1010,100,,,5.6,5.6,5529,84,2,1.1
2018,5,2,06:20,UTC,8,1010.1,100,,,5.8,5.7,6140,346,1.3,0.8
2018,5,2,06:30,UTC,8,1010.2,100,,,6,6,7176,112,3,2.2
2018,5,2,06:40,UTC,8,1010,100,,,6.4,6.3,7218,114,3.4,2.4
2018,5,2,06:50,UTC,8,1009.8,99,,,6.5,6.4,7102,97,2.3,1.4
2018,5,2,07:00,UTC,8,1009.6,99,,,6.6,6.5,7092,96,2.6,1.9
2018,5,2,07:10,UTC,8,1009.6,99,,,7.1,7,7792,104,2.5,1.9
2018,5,2,07:20,UTC,7,1009.8,99,,,7.6,7.4,6313,121,2.4,1.5
2018,5,2,07:30,UTC,7,1010.1,98,,,7.7,7.4,14168,160,2.7,1.7
2018,5,2,07:40,UTC,7,1010.2,98,,,7.9,7.6,12891,175,2.7,1.7
2018,5,2,07:50,UTC,8,1010.3,97,,,8,7.5,19877,188,3.3,2.3
2018,5,2,08:00,UTC,8,1010.5,94,,,7.9,7,26964,212,5.4,3.1
2018,5,2,08:10,UTC,8,1010.7,95,,,7.6,6.8,21027,191,6.7,4.4
2018,5,2,08:20,UTC,8,1010.8,95,,,7.7,7,19718,181,5.8,4
2018,5,2,08:30,UTC,7,1010.8,90,,,8.3,6.8,26253,220,8.3,5.1
2018,5,2,08:40,UTC,7,1011,87,,,8.5,6.4,36153,215,8.4,5.5
2018,5,2,08:50,UTC,6,1011,83,,,8.2,5.4,32198,206,9.4,6.3
2018,5,2,09:00,UTC,7,1011.2,85,,,8.1,5.7,35420,212,10.5,6.7
2018,5,2,09:10,UTC,7,1011.3,86,,,7.9,5.6,34999,211,9.1,6.1
2018,5,2,09:20,UTC,8,1011.4,86,,,8.1,5.9,28473,204,9.2,6
2018,5,2,09:30,UTC,8,1011.4,85,,,8.2,5.9,31297,199,7.8,5.3
2018,5,2,09:40,UTC,7,1011.5,86,,,8.1,5.8,28852,203,8.4,5.9
2018,5,2,09:50,UTC,7,1011.7,86,,,7.9,5.7,23403,209,7.6,5.2
2018,5,2,10:00,UTC,7,1011.6,85,,,8.2,5.8,30133,208,8.4,5.6
2018,5,2,10:10,UTC,7,1011.7,85,,,8.2,5.8,27329,213,7.9,5.4
2018,5,2,10:20,UTC,7,1011.9,85,,,8.2,5.9,27442,207,8,4.9
2018,5,2,10:30,UTC,7,1012,85,,,8.3,6,27204,211,7.5,5.1
2018,5,2,10:40,UTC,8,1012.2,85,,,8.1,5.8,23541,206,8.9,5.8
2018,5,2,10:50,UTC,8,1012.3,85,,,8.3,5.9,26689,214,8.5,5.2
2018,5,2,11:00,UTC,8,1012.3,85,,,8.1,5.7,29127,203,8.7,6.1
2018,5,2,11:10,UTC,8,1012.4,85,,,7.9,5.5,26537,202,9,6.3
2018,5,2,11:20,UTC,8,1012.6,86,,,8,5.8,25937,207,9.3,6
2018,5,2,11:30,UTC,8,1012.8,86,,,7.8,5.6,26561,205,8,5.6
2018,5,2,11:40,UTC,8,1012.9,85,,,8.2,5.8,25269,219,8.3,4.5
2018,5,2,11:50,UTC,7,1012.9,82,,,8.5,5.6,25648,211,8.7,5
2018,5,2,12:00,UTC,7,1012.9,82,,,9.1,6.2,35635,213,7.6,5.4
2018,5,2,12:10,UTC,3,1013,81,,,9.1,6,32046,194,8.3,5.6
2018,5,2,12:20,UTC,4,1013.1,80,,,8.9,5.5,26476,190,9.2,6.2
2018,5,2,12:30,UTC,3,1013.2,80,,,8.8,5.6,33736,198,8.9,6.4
2018,5,2,12:40,UTC,6,1013.3,82,,,8.3,5.4,28548,187,8.1,5.9
2018,5,2,12:50,UTC,7,1013.5,83,,,8.5,5.8,24843,200,8.3,6
2018,5,2,13:00,UTC,8,1013.4,84,,,7.9,5.4,25492,201,8.4,5.7
2018,5,2,13:10,UTC,7,1013.6,83,,,8.1,5.3,28545,206,8,5.3
2018,5,2,13:20,UTC,7,1013.6,84,,,8.2,5.6,28032,207,7.7,4.7
2018,5,2,13:30,UTC,7,1013.6,84,,,8.2,5.6,30934,198,8.5,5.1
2018,5,2,13:40,UTC,7,1013.7,84,,,8,5.4,29556,201,8.6,5.9
2018,5,2,13:50,UTC,8,1013.8,85,,,8,5.6,29292,195,7.6,5.7
2018,5,2,14:00,UTC,8,1013.9,85,,,7.8,5.4,33945,204,8.7,5.6
2018,5,2,14:10,UTC,8,1014,85,,,7.8,5.4,36110,210,7.9,5
2018,5,2,14:20,UTC,8,1014.1,84,,,7.9,5.4,35607,210,6.9,4.4
2018,5,2,14:30,UTC,8,1014.1,84,,,8,5.5,32071,214,6.7,4.6
2018,5,2,14:40,UTC,8,1014.1,83,,,8.2,5.5,37006,220,6.8,4
2018,5,2,14:50,UTC,8,1014.2,82,,,8.4,5.5,44369,212,6.7,4.3
2018,5,2,15:00,UTC,8,1014.3,82,,,8.1,5.3,42053,205,7.1,4.7
2018,5,2,15:10,UTC,8,1014.4,82,,,8.2,5.4,44380,200,7.9,5.1
2018,5,2,15:20,UTC,8,1014.4,83,,,8.1,5.3,41289,210,8.3,5.5
2018,5,2,15:30,UTC,8,1014.6,82,,,8.3,5.3,40019,212,7.7,5.3
2018,5,2,15:40,UTC,8,1014.7,82,,,8,5.2,44008,204,7.7,5.1
2018,5,2,15:50,UTC,8,1014.8,82,,,8.1,5.3,42328,220,8.4,5.5
2018,5,2,16:00,UTC,7,1014.7,82,,,8.2,5.2,37919,216,8.4,5.4
2018,5,2,16:10,UTC,6,1014.8,81,,,8.4,5.4,42304,225,9.5,5
2018,5,2,16:20,UTC,7,1014.9,81,,,8.5,5.4,43683,211,7.6,4.9
2018,5,2,16:30,UTC,7,1014.9,81,,,8.4,5.3,46896,202,7.4,5.3
2018,5,2,16:40,UTC,6,1015,82,,,8.1,5.3,45842,217,6.6,4.8
2018,5,2,16:50,UTC,4,1015,82,,,8.1,5.3,41406,218,6.5,4.1
2018,5,2,17:00,UTC,4,1015,82,,,8,5.1,50000,212,7.2,4.6
2018,5,2,17:10,UTC,2,1015.1,83,,,7.9,5.1,48761,220,6.2,3.6
2018,5,2,17:20,UTC,2,1015.2,84,,,7.9,5.2,47817,227,4.2,2.8
2018,5,2,17:30,UTC,5,1015.4,83,,,7.9,5.1,43748,220,6.4,3.7
2018,5,2,17:40,UTC,7,1015.5,83,,,7.9,5.2,45760,219,6.7,4.3
2018,5,2,17:50,UTC,8,1015.5,82,,,8,5,49129,222,7.9,5.2
2018,5,2,18:00,UTC,8,1015.5,82,,,7.9,5,49335,235,5.8,3.9
2018,5,2,18:10,UTC,8,1015.5,83,,,7.8,5,50000,233,5,3.4
2018,5,2,18:20,UTC,7,1015.5,83,,,7.7,5,48824,239,4.1,2.5
2018,5,2,18:30,UTC,7,1015.7,83,,,7.6,5,50000,237,4.8,2.8
2018,5,2,18:40,UTC,7,1015.8,84,,,7.5,5,47623,234,3.8,2.7
2018,5,2,18:50,UTC,8,1015.9,85,,,7.4,5.1,50000,221,3.7,2.8
2018,5,2,19:00,UTC,7,1016,85,,,7.5,5.2,50000,226,4.4,3
2018,5,2,19:10,UTC,7,1016.1,86,,,7.4,5.2,43712,224,4.2,2.7
2018,5,2,19:20,UTC,7,1016.2,86,,,7.4,5.2,50000,210,5,3.4
2018,5,2,19:30,UTC,8,1016.2,87,,,7.2,5.1,44810,205,5.4,3.3
2018,5,2,19:40,UTC,8,1016.1,89,,,6.8,5.1,35190,187,3.9,2.7
2018,5,2,19:50,UTC,8,1016.1,89,,,6.7,5,37754,187,3.9,2.8
2018,5,2,20:00,UTC,8,1016.2,90,,,6.5,4.9,32363,186,3.6,2.6
2018,5,2,20:10,UTC,8,1016.1,90,,,6.4,4.9,34348,179,3.8,2.8
2018,5,2,20:20,UTC,8,1016.4,92,,,6.1,4.9,22398,182,4.4,2.8
2018,5,2,20:30,UTC,8,1016.4,92,,,6.1,5,23599,193,2.9,1.9
2018,5,2,20:40,UTC,8,1016.3,91,,,6.2,4.9,23171,187,3.4,2.4
2018,5,2,20:50,UTC,8,1016.3,91,,,6.2,4.9,23045,190,3.7,2.6
2018,5,2,21:00,UTC,8,1016.2,92,,,6.2,4.9,25029,188,3.8,2.5
2018,5,2,21:10,UTC,8,1016.5,92,,,6.2,5,25341,193,4.5,2.9
2018,5,2,21:20,UTC,8,1016.5,92,,,6.3,5,24434,198,3,1.9
2018,5,2,21:30,UTC,8,1016.5,91,,,6.3,5,25369,194,3.4,2.5
2018,5,2,21:40,UTC,8,1016.6,92,,,6.3,5.1,25324,202,2.9,2
2018,5,2,21:50,UTC,8,1016.5,91,,,6.4,5.1,26834,207,3.7,1.8
2018,5,2,22:00,UTC,8,1016.5,91,,,6.4,5.1,27572,189,4.3,2.6
2018,5,2,22:10,UTC,8,1016.8,92,,,6.3,5.1,24216,285,2.7,1.6
2018,5,2,22:20,UTC,8,1016.9,92,,,6.4,5.2,25674,302,1.9,1
2018,5,2,22:30,UTC,8,1016.9,91,,,6.5,5.2,26560,271,2,1.1
2018,5,2,22:40,UTC,8,1017,91,,,6.5,5.2,25519,221,3.1,1.8
2018,5,2,22:50,UTC,8,1017.1,91,,,6.5,5.2,25845,216,2.6,1.7
2018,5,2,23:00,UTC,8,1017.1,91,,,6.5,5.3,25818,206,3.3,1.8
2018,5,2,23:10,UTC,8,1017.1,91,,,6.6,5.3,25800,193,4,2.7
2018,5,2,23:20,UTC,8,1017.2,92,,,6.5,5.2,25311,211,3.1,2.1
2018,5,2,23:30,UTC,8,1017.2,92,,,6.5,5.2,23890,202,2.9,2.1
2018,5,2,23:40,UTC,7,1017.1,92,,,6.3,5.2,18747,190,4.3,2.4
2018,5,2,23:50,UTC,7,1017.1,92,,,6.2,5.1,19460,195,3.4,2.6
2018,5,3,00:00,UTC,7,1017.2,94,,,6,5,18295,202,2.9,2.3
2018,5,3,00:10,UTC,5,1017.3,94,,,5.9,5,16031,206,3.6,2.4
2018,5,3,00:20,UTC,6,1017.4,94,,,5.7,4.8,15982,224,3.6,2.3
2018,5,3,00:30,UTC,6,1017.5,94,,,5.9,5,16718,225,3.5,2.1
2018,5,3,00:40,UTC,7,1017.7,94,,,5.8,4.9,16930,247,4.6,2.2
2018,5,3,00:50,UTC,7,1017.9,94,,,5.7,4.9,16643,245,3.7,2.3
2018,5,3,01:00,UTC,7,1017.8,95,,,5.7,4.9,14833,258,3.2,1.9
2018,5,3,01:10,UTC,8,1018,95,,,5.6,4.9,14673,277,2.5,1.6
2018,5,3,01:20,UTC,8,1018.1,95,,,5.6,4.9,14309,240,2.1,1.5
2018,5,3,01:30,UTC,8,1018.2,96,,,5.5,4.9,13287,233,4.2,2.6
2018,5,3,01:40,UTC,8,1018.3,96,,,5.5,4.9,12038,248,3.8,2.3
2018,5,3,01:50,UTC,8,1018.2,96,,,5.5,4.9,11351,258,2.8,1.8
2018,5,3,02:00,UTC,8,1018.2,96,,,5.5,4.9,11634,277,3.3,2.1
2018,5,3,02:10,UTC,8,1018.3,96,,,5.5,5,11256,260,3,2.2
2018,5,3,02:20,UTC,8,1018.5,96,,,5.5,5,10693,241,3,1.9
2018,5,3,02:30,UTC,8,1018.4,97,,,5.5,5,10235,229,3.4,2
2018,5,3,02:40,UTC,8,1018.5,97,,,5.5,5,10235,269,2.6,1.5
2018,5,3,02:50,UTC,8,1018.6,97,,,5.5,5.1,10399,255,3.3,1.8
2018,5,3,03:00,UTC,8,1018.5,97,,,5.6,5.1,10678,268,2.8,1.6
2018,5,3,03:10,UTC,8,1018.4,97,,,5.6,5.1,10516,293,2.5,1.5
2018,5,3,03:20,UTC,8,1018.6,97,,,5.6,5.1,10267,246,3.9,2.3
2018,5,3,03:30,UTC,8,1018.6,97,,,5.4,4.9,9136,235,3,2
2018,5,3,03:40,UTC,8,1018.6,97,,,5.6,5.2,8590,280,2.3,1.4
2018,5,3,03:50,UTC,8,1018.5,97,,,5.6,5.2,8680,316,2.2,1.5
2018,5,3,04:00,UTC,8,1018.6,97,,,5.4,5,7402,310,2.4,1.6
2018,5,3,04:10,UTC,8,1018.6,97,,,5.4,5,7076,273,1.8,1.3
2018,5,3,04:20,UTC,8,1018.8,98,,,5.2,4.9,3057,258,2.3,1.6
2018,5,3,04:30,UTC,8,1019.1,98,,,5.4,5.2,3000,253,1.8,0.9
2018,5,3,04:40,UTC,8,1019.1,98,,,5.7,5.4,6601,250,3.1,2
2018,5,3,04:50,UTC,8,1019.1,97,,,5.7,5.3,7184,228,3.5,2.1
2018,5,3,05:00,UTC,8,1019.3,97,,,5.9,5.5,7748,217,2.8,1.8
2018,5,3,05:10,UTC,8,1019.4,97,,,6.1,5.6,8197,198,2.7,1.8
2018,5,3,05:20,UTC,8,1019.5,96,,,6.2,5.7,7424,211,3.7,2
2018,5,3,05:30,UTC,8,1019.4,95,,,6.1,5.4,7637,200,2.7,1.4
2018,5,3,05:40,UTC,8,1019.5,94,,,6.3,5.5,7956,158,2.1,0.9
2018,5,3,05:50,UTC,8,1019.6,94,,,6.4,5.5,8827,207,3,1.4
2018,5,3,06:00,UTC,8,1019.6,94,,,6.6,5.8,9210,252,2.4,1.3
2018,5,3,06:10,UTC,8,1019.5,92,,,6.7,5.6,9775,247,1.6,0.9
2018,5,3,06:20,UTC,8,1019.8,92,,,6.9,5.6,10943,224,2.6,1.3
2018,5,3,06:30,UTC,8,1019.9,92,,,6.8,5.6,10133,172,3.3,2.1
2018,5,3,06:40,UTC,8,1020,92,,,6.8,5.6,10633,190,3.8,2.3
2018,5,3,06:50,UTC,8,1020,93,,,6.4,5.3,9498,211,3.6,2.3
2018,5,3,07:00,UTC,8,1020,94,,,6.5,5.6,8297,161,3.6,2.1
2018,5,3,07:10,UTC,8,1020.1,93,,,6.4,5.4,8017,171,2.6,1.4
2018,5,3,07:20,UTC,8,1020.1,92,,,7.4,6.1,9703,158,2,1.1
2018,5,3,07:30,UTC,7,1020.1,87,,,8,6,14505,178,2,1
2018,5,3,07:40,UTC,7,1020,82,,,8.9,6,18322,147,1.8,0.7
2018,5,3,07:50,UTC,4,1019.9,80,,,9.5,6.3,20852,237,1.5,0.6
2018,5,3,08:00,UTC,2,1019.9,74,,,10,5.7,23319,186,1.6,0.9
2018,5,3,08:10,UTC,0,1019.8,71,,,11,5.9,24428,142,1.5,0.8
2018,5,3,08:20,UTC,0,1019.8,70,,,10.8,5.6,26116,160,3.2,2
2018,5,3,08:30,UTC,0,1019.7,70,,,11.1,5.7,30291,166,4,2.6
2018,5,3,08:40,UTC,0,1019.7,65,,,11.4,5.1,32727,173,4.1,2.8
2018,5,3,08:50,UTC,0,1019.6,62,,,11.9,4.9,40964,200,4.5,2.4
2018,5,3,09:00,UTC,0,1019.5,60,,,12,4.4,33741,179,3.8,2.6
2018,5,3,09:10,UTC,0,1019.5,58,,,11.9,3.9,40740,177,4.9,2.8
2018,5,3,09:20,UTC,0,1019.6,60,,,11.9,4.4,40381,183,4.2,2.5
2018,5,3,09:30,UTC,0,1019.7,54,,,11.7,2.8,47110,191,5.3,3.1
2018,5,3,09:40,UTC,3,1019.6,63,,,12.4,5.5,46172,184,4.4,2.7
2018,5,3,09:50,UTC,5,1019.7,58,,,12,4,39869,170,6,4
2018,5,3,10:00,UTC,6,1019.8,66,,,12.1,6,36050,174,6,4.3
2018,5,3,10:10,UTC,4,1019.8,68,,,11.5,5.7,34884,209,5.8,3.9
2018,5,3,10:20,UTC,2,1019.9,66,,,11.5,5.4,38714,192,4.6,3.5
2018,5,3,10:30,UTC,1,1019.9,65,,,11.7,5.4,41237,186,4.7,3.4
2018,5,3,10:40,UTC,4,1019.9,64,,,12.2,5.6,46780,192,6.4,3.4
2018,5,3,10:50,UTC,4,1019.8,62,,,12.1,5.1,41502,198,5.2,3.3
2018,5,3,11:00,UTC,2,1019.9,57,,,12.4,4.2,43836,167,5.4,3.8
2018,5,3,11:10,UTC,1,1019.8,57,,,12.1,3.7,38351,145,6,4.9
2018,5,3,11:20,UTC,0,1019.8,59,,,12.4,4.6,49413,143,6.5,4.4
2018,5,3,11:30,UTC,0,1019.8,57,,,12.4,4.2,45197,146,6.5,4.4
2018,5,3,11:40,UTC,1,1019.7,59,,,11.7,4.1,48500,143,6,4.5
2018,5,3,11:50,UTC,1,1019.7,60,,,12.1,4.6,42400,140,6.3,4.4
2018,5,3,12:00,UTC,3,1019.5,61,,,11.8,4.6,38577,142,6.2,4.3
2018,5,3,12:10,UTC,5,1019.4,61,,,12.5,5.3,44804,137,6.3,4.1
2018,5,3,12:20,UTC,4,1019.2,61,,,12.3,5.1,47386,126,6.1,4.1
2018,5,3,12:30,UTC,3,1019.1,61,,,12.5,5.1,41876,132,5.4,3.4
2018,5,3,12:40,UTC,1,1018.9,58,,,12.4,4.4,44018,128,5.2,3.7
2018,5,3,12:50,UTC,1,1018.9,61,,,12.3,5,43626,117,5.8,4
2018,5,3,13:00,UTC,2,1018.9,62,,,12,4.9,43426,117,6.7,4.3
2018,5,3,13:10,UTC,4,1018.8,62,,,12,5,50000,111,5.9,4.1
2018,5,3,13:20,UTC,4,1018.8,64,,,11.6,5,48683,111,6,4
2018,5,3,13:30,UTC,6,1018.5,62,,,11.2,4.3,50000,103,7.2,5
2018,5,3,13:40,UTC,7,1018.3,63,,,11.1,4.3,50000,104,8.2,6
2018,5,3,13:50,UTC,7,1018.1,62,,,11.4,4.3,44410,109,7.2,5.2
2018,5,3,14:00,UTC,7,1018.1,61,,,11.2,4,45454,100,7.3,5.1
2018,5,3,14:10,UTC,7,1018,63,,,11.1,4.4,50000,95,7.1,5.2
2018,5,3,14:20,UTC,6,1017.9,65,,,10.9,4.6,36983,96,7.9,5.8
2018,5,3,14:30,UTC,7,1017.8,66,,,10.6,4.5,49147,103,8.7,6.5
2018,5,3,14:40,UTC,7,1017.9,66,,,10.5,4.5,49162,100,8.1,5.6
2018,5,3,14:50,UTC,8,1017.7,68,,,10.4,4.7,46250,99,7.1,4.7
2018,5,3,15:00,UTC,8,1017.6,71,,,9.9,4.9,39400,93,6,4.4
2018,5,3,15:10,UTC,8,1017.5,78,,,9.6,5.9,33556,98,5.6,3.7
2018,5,3,15:20,UTC,8,1017.5,80,,,9.2,6,28493,108,5.7,4
2018,5,3,15:30,UTC,8,1017.5,81,,,8.8,5.7,32007,105,6.3,4.1
2018,5,3,15:40,UTC,8,1017.6,85,,,8.3,5.9,29473,97,6.6,4.8
2018,5,3,15:50,UTC,8,1017.6,87,,,8.1,6,28751,96,6,4
2018,5,3,16:00,UTC,8,1017.4,88,,,7.9,6,24515,94,5.7,3.8
2018,5,3,16:10,UTC,8,1017.3,89,,,7.8,6.1,30321,99,6.2,4
2018,5,3,16:20,UTC,8,1017.1,89,,,7.8,6,38367,92,5.3,3.7
2018,5,3,16:30,UTC,8,1017,88,,,7.6,5.8,39399,93,5.9,3.9
2018,5,3,16:40,UTC,8,1016.9,87,,,7.7,5.6,41858,96,6.6,4.1
2018,5,3,16:50,UTC,8,1016.8,85,,,7.7,5.3,31961,97,7.5,4.4
2018,5,3,17:00,UTC,8,1016.9,85,,,7.7,5.4,33894,105,6.2,4.3
2018,5,3,17:10,UTC,8,1017,83,,,7.7,5.1,28789,110,7,4.5
2018,5,3,17:20,UTC,8,1017,86,,,7.5,5.3,16420,109,6.1,4.4
2018,5,3,17:30,UTC,8,1017,88,,,7.3,5.5,12814,109,5.5,3.9
2018,5,3,17:40,UTC,8,1016.9,88,,,7.4,5.5,15894,106,7.9,4.8
2018,5,3,17:50,UTC,8,1016.9,87,,,7.3,5.3,10100,106,9.1,5.7
2018,5,3,18:00,UTC,8,1016.8,86,,,7.4,5.3,49387,107,7.1,4.9
2018,5,3,18:10,UTC,8,1016.7,85,,,7.6,5.3,44346,106,6.1,4.3
2018,5,3,18:20,UTC,8,1016.4,85,,,7.6,5.3,42153,89,5.3,3.5
2018,5,3,18:30,UTC,8,1016.4,86,,,7.6,5.4,49257,89,6.1,3.6
2018,5,3,18:40,UTC,8,1016.3,84,,,7.9,5.4,47409,95,5.9,4.1
2018,5,3,18:50,UTC,8,1016.5,84,,,7.9,5.3,43700,99,6.9,4.8
2018,5,3,19:00,UTC,8,1016.4,85,,,7.9,5.6,30704,105,7.4,4.5
2018,5,3,19:10,UTC,8,1016.4,86,,,8,5.7,21958,116,7.3,5.2
2018,5,3,19:20,UTC,8,1016.3,88,,,7.6,5.7,14014,108,7.8,5.5
2018,5,3,19:30,UTC,8,1016.3,86,,,7.5,5.3,22965,109,8.8,6.5
2018,5,3,19:40,UTC,8,1016.2,86,,,7.3,5.1,37186,108,8.9,5.8
2018,5,3,19:50,UTC,8,1016,86,,,7.2,4.9,24824,109,9.1,6.1
2018,5,3,20:00,UTC,8,1015.7,86,,,7.1,5,11486,103,9,6.1
2018,5,3,20:10,UTC,8,1015.2,85,,,7.4,5.1,15927,93,8.8,6
2018,5,3,20:20,UTC,8,1015.1,86,,,7.5,5.3,29330,91,7.9,5.2
2018,5,3,20:30,UTC,8,1014.8,87,,,7.5,5.5,29231,96,9,5.9
2018,5,3,20:40,UTC,8,1014.8,87,,,7.6,5.6,22405,95,8,5.7
2018,5,3,20:50,UTC,8,1014.6,87,,,7.8,5.8,28328,98,9.4,6.1
2018,5,3,21:00,UTC,8,1014.4,86,,,8,5.9,36060,98,9.9,6.3
2018,5,3,21:10,UTC,8,1014.4,87,,,8,5.9,31022,102,9.9,7
2018,5,3,21:20,UTC,8,1014.4,88,,,8,6.1,20876,103,10.4,7.1
2018,5,3,21:30,UTC,8,1014.1,88,,,8.1,6.2,21942,99,10.5,6.6
2018,5,3,21:40,UTC,8,1013.9,89,,,8.1,6.4,23752,97,8.9,6.2
2018,5,3,21:50,UTC,8,1013.5,87,,,8.4,6.3,30686,96,9.6,6.6
2018,5,3,22:00,UTC,8,1013.4,83,,,8.8,6.1,50000,99,10.7,6.8
2018,5,3,22:10,UTC,8,1013.2,81,,,9.3,6.1,39764,101,10.9,7.2
2018,5,3,22:20,UTC,8,1013,81,,,9.3,6.2,35526,101,11,7.6
2018,5,3,22:30,UTC,8,1012.9,80,,,9.5,6.2,38738,100,12.7,8.1
2018,5,3,22:40,UTC,8,1013,78,,,9.7,6.1,45122,105,10.8,7.5
2018,5,3,22:50,UTC,8,1012.7,79,,,9.6,6.2,40938,106,12,6.8
2018,5,3,23:00,UTC,8,1012.5,83,,,9.1,6.3,27466,104,11.5,7.5
2018,5,3,23:10,UTC,8,1012.8,85,,,9,6.5,37553,106,10.8,7.1
2018,5,3,23:20,UTC,8,1012.6,86,,,8.7,6.5,42810,103,11.1,7.7
2018,5,3,23:30,UTC,8,1012.8,86,,,8.6,6.4,43337,108,10.5,7.1
2018,5,3,23:40,UTC,8,1013,85,,,8.6,6.2,39976,123,7.6,5.2
2018,5,3,23:50,UTC,8,1012.4,85,,,8.4,6,40802,105,10.9,7.7
2018,5,4,00:00,UTC,7,1012.5,86,,,8,5.9,46458,101,12,8.7
2018,5,4,00:10,UTC,7,1012.9,86,,,8.1,5.8,42575,124,10.3,6.5
2018,5,4,00:20,UTC,7,1012.7,87,,,7.9,5.8,42492,109,10.9,7.3
2018,5,4,00:30,UTC,8,1012.7,87,,,7.9,5.9,38639,120,7.1,4.3
2018,5,4,00:40,UTC,8,1012.5,87,,,7.9,5.9,35382,115,5.6,4
2018,5,4,00:50,UTC,8,1012.6,88,,,7.6,5.7,41279,122,6.6,3.7
2018,5,4,01:00,UTC,8,1012.5,88,,,7.4,5.5,40598,126,6.4,4.1
2018,5,4,01:10,UTC,8,1012.6,87,,,7.5,5.5,43051,132,6,3.6
2018,5,4,01:20,UTC,8,1012.7,88,,,7.6,5.8,42006,135,4.8,3.1
2018,5,4,01:30,UTC,8,1012.8,88,,,7.6,5.8,37057,137,5.1,3.4
2018,5,4,01:40,UTC,8,1012.8,89,,,7.6,5.9,42820,147,5.9,3.7
2018,5,4,01:50,UTC,8,1012.8,90,,,7.4,5.8,29213,149,5,2.9
2018,5,4,02:00,UTC,8,1012.6,92,,,7.3,6.1,24601,160,4.2,2.9
2018,5,4,02:10,UTC,8,1012.7,93,,,7.3,6.3,30634,176,4.2,2.9
2018,5,4,02:20,UTC,8,1012.7,94,,,7.3,6.3,23893,169,4.2,2.9
2018,5,4,02:30,UTC,8,1012.8,95,,,7.5,6.6,17719,202,6.2,3.3
2018,5,4,02:40,UTC,8,1013,94,,,7.6,6.6,20461,225,6.9,4.5
2018,5,4,02:50,UTC,8,1013,92,,,7.8,6.6,27101,240,6.2,3.9
2018,5,4,03:00,UTC,8,1013.1,89,,,7.9,6.2,32886,246,7,4.1
2018,5,4,03:10,UTC,8,1013.2,88,,,7.9,6.1,38688,249,7.3,5
2018,5,4,03:20,UTC,8,1013.4,88,,,7.9,6,42575,253,7.4,4.6
2018,5,4,03:30,UTC,7,1013.5,84,,,7.9,5.4,39744,254,6.4,4.4
2018,5,4,03:40,UTC,7,1013.6,84,,,8.1,5.6,42629,250,7,4.2
2018,5,4,03:50,UTC,7,1013.8,81,,,7.9,4.8,49329,243,7.8,4.9
2018,5,4,04:00,UTC,7,1014,81,,,7.8,4.7,50000,246,10.4,5.1
2018,5,4,04:10,UTC,7,1014.1,81,,,7.6,4.6,50000,248,7.9,4.8
2018,5,4,04:20,UTC,7,1014.3,81,,,7.7,4.7,50000,248,6.4,4
2018,5,4,04:30,UTC,7,1014.3,81,,,7.6,4.5,50000,244,9.5,5.5
2018,5,4,04:40,UTC,7,1014.5,82,,,7.7,4.7,50000,245,9.6,4.8
2018,5,4,04:50,UTC,7,1014.6,79,,,7.7,4.3,50000,244,7.4,5.1
2018,5,4,05:00,UTC,7,1014.7,78,,,8,4.4,48441,242,8.2,5.1
2018,5,4,05:10,UTC,7,1014.7,78,,,7.7,4.2,46690,244,7.3,4.6
2018,5,4,05:20,UTC,4,1014.7,76,,,8.2,4.2,50000,242,7.7,4.3
2018,5,4,05:30,UTC,4,1014.9,74,,,8.4,4,43702,250,9,4.8
2018,5,4,05:40,UTC,5,1015,75,,,8.3,4.1,50000,248,8.4,5.5
2018,5,4,05:50,UTC,7,1015.1,74,,,8,3.8,50000,243,8.6,6.1
2018,5,4,06:00,UTC,7,1015.2,76,,,8.3,4.3,50000,242,8.9,4.7
2018,5,4,06:10,UTC,7,1015.3,74,,,8.3,4,45940,235,6.7,4.4
2018,5,4,06:20,UTC,7,1015.3,75,,,8.2,4.2,49496,229,8.1,5.2
2018,5,4,06:30,UTC,7,1015.3,76,,,8.2,4.2,50000,228,7,5
2018,5,4,06:40,UTC,7,1015.4,82,,,7.7,4.9,45348,196,7.2,4.8
2018,5,4,06:50,UTC,7,1015.6,87,,,6.9,4.8,26746,179,7.7,5.6
2018,5,4,07:00,UTC,8,1015.6,89,,,6.8,5.1,23621,178,7.4,5.3
2018,5,4,07:10,UTC,8,1015.7,89,,,6.7,5.1,27030,176,6.7,5.2
2018,5,4,07:20,UTC,7,1015.7,88,,,7.1,5.3,32890,174,7.2,5.4
2018,5,4,07:30,UTC,7,1015.7,89,,,6.9,5.2,21948,175,7.2,5.4
2018,5,4,07:40,UTC,7,1015.7,86,,,7.3,5.2,24617,188,6.5,4.7
2018,5,4,07:50,UTC,8,1015.8,85,,,8.3,5.8,32722,186,7.3,4.4
2018,5,4,08:00,UTC,7,1015.7,83,,,8.2,5.5,30519,193,6.4,4.4
2018,5,4,08:10,UTC,7,1015.9,82,,,8,5.1,33866,180,6.6,4.6
2018,5,4,08:20,UTC,7,1015.9,82,,,8.1,5.2,30227,180,7,5.3
2018,5,4,08:30,UTC,7,1016.1,81,,,8.3,5.2,35410,179,6.7,4.9
2018,5,4,08:40,UTC,7,1016.1,81,,,8.2,5.1,28880,181,7.6,5.7
2018,5,4,08:50,UTC,7,1016,79,,,8.7,5.3,34468,186,7.7,5.6
2018,5,4,09:00,UTC,7,1016,77,,,9.4,5.6,30485,183,7.3,4.9
2018,5,4,09:10,UTC,7,1016,78,,,9.4,5.8,30138,184,7.6,5.5
2018,5,4,09:20,UTC,7,1016,75,,,9.4,5.2,30143,185,7.8,5.8
2018,5,4,09:30,UTC,7,1016.2,76,,,9.3,5.2,30511,182,8.3,6.7
2018,5,4,09:40,UTC,7,1016.3,76,,,9.1,5.1,31840,188,8.6,6.4
2018,5,4,09:50,UTC,7,1016.4,77,,,9.2,5.4,32123,184,7.4,5.5
2018,5,4,10:00,UTC,4,1016.3,76,,,9.5,5.5,26935,184,7.7,5.8
2018,5,4,10:10,UTC,4,1016.5,73,,,10,5.5,26110,188,7.9,5.2
2018,5,4,10:20,UTC,5,1016.6,74,,,9.6,5.1,27961,200,8.8,6.1
2018,5,4,10:30,UTC,4,1016.6,75,,,9.6,5.3,28111,185,8.6,5.9
2018,5,4,10:40,UTC,5,1016.8,75,,,9.4,5.2,24174,175,8.9,6.3
2018,5,4,10:50,UTC,6,1017,78,,,8.4,4.7,31200,180,8.6,6.2
2018,5,4,11:00,UTC,7,1017,77,,,8.8,4.9,27100,177,7.7,6
2018,5,4,11:10,UTC,5,1017.1,75,,,8.9,4.7,34225,186,8,5.6
2018,5,4,11:20,UTC,5,1017.2,73,,,10.3,5.6,31090,202,7.9,5.7
2018,5,4,11:30,UTC,5,1017.3,69,,,10.2,4.8,39952,219,8.2,5.5
2018,5,4,11:40,UTC,6,1017.3,68,,,10.9,5.1,38250,227,7.7,5.6
2018,5,4,11:50,UTC,7,1017.4,67,,,11.6,5.7,41121,222,6.6,4.1
2018,5,4,12:00,UTC,6,1017.4,66,,,11.4,5.2,32084,217,8.4,5.4
2018,5,4,12:10,UTC,4,1017.5,66,,,11.2,5.1,36798,215,7.5,5.4
2018,5,4,12:20,UTC,3,1017.6,67,,,10.6,4.7,38374,202,9.1,6
2018,5,4,12:30,UTC,5,1017.5,64,,,11.5,5,40456,198,9,6.2
2018,5,4,12:40,UTC,5,1017.7,66,,,11.3,5.2,33847,207,9,5.8
2018,5,4,12:50,UTC,6,1017.8,65,,,10.7,4.5,38996,204,10.2,7.2
2018,5,4,13:00,UTC,4,1017.8,67,,,11.1,5.1,35433,206,9,6.3
2018,5,4,13:10,UTC,5,1017.8,64,,,11.1,4.6,44380,214,9.3,6.2
2018,5,4,13:20,UTC,4,1017.9,67,,,10.7,4.8,48412,210,9,6.2
2018,5,4,13:30,UTC,4,1017.9,66,,,11.3,5.1,40448,199,9.3,6.6
2018,5,4,13:40,UTC,5,1018,64,,,11.4,4.7,35186,214,8.2,5.3
2018,5,4,13:50,UTC,3,1018,64,,,10.8,4.3,47106,212,7.5,5.2
2018,5,4,14:00,UTC,3,1018,65,,,11.3,5,44208,197,6.9,4.9
2018,5,4,14:10,UTC,5,1018,58,,,11.8,3.9,35820,223,7.5,4.2
2018,5,4,14:20,UTC,6,1018.1,57,,,11.8,3.4,50000,245,6.6,4.3
2018,5,4,14:30,UTC,7,1018.1,56,,,12.3,3.7,45578,262,6.7,4.3
2018,5,4,14:40,UTC,7,1018.2,68,,,9.9,4.2,40689,207,8.2,5.3
2018,5,4,14:50,UTC,6,1018.3,71,,,9.5,4.5,42862,200,6.8,4.7
2018,5,4,15:00,UTC,6,1018.4,70,,,10.4,5,43178,210,5.3,3.4
2018,5,4,15:10,UTC,7,1018.3,68,,,10.5,4.9,46433,201,6.2,4.1
2018,5,4,15:20,UTC,7,1018.3,62,,,11.2,4.1,50000,234,4.8,3.1
2018,5,4,15:30,UTC,7,1018.3,56,,,11.8,3.3,38646,279,7.7,4.8
2018,5,4,15:40,UTC,6,1018.4,59,,,11.2,3.4,45716,276,8.3,5.5
2018,5,4,15:50,UTC,4,1018.4,60,,,10.9,3.4,50000,297,7.6,5
2018,5,4,16:00,UTC,2,1018.5,60,,,10.9,3.4,50000,286,7.6,4.9
2018,5,4,16:10,UTC,1,1018.7,60,,,10.5,3.1,50000,285,8,5.3
2018,5,4,16:20,UTC,0,1018.7,61,,,10.3,3,48925,284,7.6,5.1
2018,5,4,16:30,UTC,0,1018.8,61,,,10,2.7,46062,282,7.6,5.1
2018,5,4,16:40,UTC,3,1019,63,,,9.6,2.9,50000,287,7.4,5.3
2018,5,4,16:50,UTC,3,1019.1,64,,,9.2,2.8,50000,278,7.1,5.1
2018,5,4,17:00,UTC,2,1019.3,66,,,8.9,3,50000,278,6.2,4.4
2018,5,4,17:10,UTC,3,1019.3,67,,,8.8,3.1,50000,289,5.9,4
2018,5,4,17:20,UTC,5,1019.4,68,,,8.7,3.1,50000,286,6.9,4.3
2018,5,4,17:30,UTC,7,1019.5,67,,,8.7,3,50000,287,6.3,4.8
2018,5,4,17:40,UTC,7,1019.6,68,,,8.5,2.8,50000,301,6.8,4.9
2018,5,4,17:50,UTC,7,1019.6,68,,,8.4,2.8,50000,317,7.5,4.2
2018,5,4,18:00,UTC,8,1019.8,67,,,8.5,2.7,50000,300,6,4.4
2018,5,4,18:10,UTC,8,1019.8,68,,,8.4,2.9,50000,302,6.9,4.5
2018,5,4,18:20,UTC,8,1019.8,69,,,8.4,3.1,50000,293,6,3.6
2018,5,4,18:30,UTC,8,1019.9,70,,,8.3,3.2,50000,280,5.4,3.7
2018,5,4,18:40,UTC,8,1019.9,71,,,8.3,3.3,50000,289,4.7,3.2
2018,5,4,18:50,UTC,8,1019.8,71,,,8.2,3.2,50000,296,5,3.4
2018,5,4,19:00,UTC,8,1019.9,70,,,8.2,3.1,50000,292,6.7,4.1
2018,5,4,19:10,UTC,8,1019.9,71,,,8.1,3.1,50000,286,6.2,4.1
2018,5,4,19:20,UTC,8,1020,71,,,8,3.1,50000,291,7.4,4.3
2018,5,4,19:30,UTC,8,1020,72,,,7.9,3.3,50000,301,4.8,3.1
2018,5,4,19:40,UTC,8,1020,72,,,8,3.2,50000,307,5.4,3
2018,5,4,19:50,UTC,8,1020.1,71,,,8,3.1,50000,290,5.2,3.1
2018,5,4,20:00,UTC,8,1020.2,72,,,7.9,3.2,50000,293,5.1,3
2018,5,4,20:10,UTC,8,1020.3,73,,,7.9,3.3,50000,287,5.8,3.6
2018,5,4,20:20,UTC,8,1020.3,73,,,7.8,3.3,50000,287,6,3.8
2018,5,4,20:30,UTC,8,1020.3,74,,,7.7,3.3,50000,291,5.2,3.1
2018,5,4,20:40,UTC,8,1020.4,74,,,7.7,3.3,50000,281,4.5,3
2018,5,4,20:50,UTC,8,1020.6,75,,,7.6,3.5,50000,273,4.1,3
2018,5,4,21:00,UTC,8,1020.8,75,,,7.6,3.4,50000,279,4,2.5
2018,5,4,21:10,UTC,8,1020.9,76,,,7.5,3.5,50000,280,5.2,3.6
2018,5,4,21:20,UTC,8,1021,77,,,7.4,3.5,50000,266,5.7,3.8
2018,5,4,21:30,UTC,8,1021,77,,,7.2,3.5,50000,259,5.6,3.9
2018,5,4,21:40,UTC,8,1021,78,,,7.2,3.6,50000,268,4.8,3.6
2018,5,4,21:50,UTC,8,1021,78,,,7.1,3.6,50000,271,5.6,3.5
2018,5,4,22:00,UTC,8,1021,78,,,7.1,3.6,50000,281,4.4,2.9
2018,5,4,22:10,UTC,8,1021.1,78,,,7.1,3.6,50000,279,4.6,3.2
2018,5,4,22:20,UTC,8,1021,79,,,7,3.6,50000,276,4.6,3.2
2018,5,4,22:30,UTC,8,1021,79,,,7,3.7,50000,280,5.2,3.4
2018,5,4,22:40,UTC,8,1021,80,,,7,3.7,50000,283,4.8,3.2
2018,5,4,22:50,UTC,8,1021,80,,,6.9,3.7,50000,280,5.2,3.2
2018,5,4,23:00,UTC,8,1021,80,,,7,3.7,50000,288,5.4,3.6
2018,5,4,23:10,UTC,8,1021,80,,,7,3.7,50000,293,6,4.2
2018,5,4,23:20,UTC,8,1021,80,,,7,3.8,50000,294,5.6,3.4
2018,5,4,23:30,UTC,8,1021.1,80,,,7,3.7,50000,290,6.2,3.2
2018,5,4,23:40,UTC,8,1021.1,81,,,7,3.9,50000,286,5.2,3.3
2018,5,4,23:50,UTC,8,1021.3,81,,,6.9,3.9,50000,290,4.9,3.5
2018,5,5,00:00,UTC,8,1021.3,81,,,6.9,3.9,50000,288,4.4,2.9
2018,5,5,00:10,UTC,8,1021.4,80,,,6.9,3.8,50000,288,6.1,3.3
2018,5,5,00:20,UTC,8,1021.4,78,,,6.9,3.3,50000,314,7,4.5
2018,5,5,00:30,UTC,8,1021.5,79,,,6.9,3.4,50000,314,5.4,3.4
2018,5,5,00:40,UTC,8,1021.5,80,,,6.8,3.6,50000,304,5.4,3.2
2018,5,5,00:50,UTC,8,1021.7,80,,,6.9,3.6,50000,305,4.4,2.6
2018,5,5,01:00,UTC,8,1021.7,79,,,6.9,3.6,50000,291,7,4
2018,5,5,01:10,UTC,8,1021.8,79,,,6.9,3.5,50000,310,6,3.8
2018,5,5,01:20,UTC,8,1021.7,81,,,6.8,3.8,50000,303,5.8,3.7
2018,5,5,01:30,UTC,8,1021.8,81,,,6.8,3.8,50000,298,5.7,3.6
2018,5,5,01:40,UTC,8,1021.7,81,,,6.8,3.8,50000,306,4.9,3.8
2018,5,5,01:50,UTC,8,1021.8,81,,,6.8,3.8,50000,294,4.1,2.8
2018,5,5,02:00,UTC,8,1021.7,81,,,6.8,3.7,50000,299,5.7,3.2
2018,5,5,02:10,UTC,8,1021.7,82,,,6.8,3.9,50000,292,5,3.3
2018,5,5,02:20,UTC,8,1021.6,82,,,6.7,3.9,50000,281,4.7,3.2
2018,5,5,02:30,UTC,8,1021.6,81,,,6.6,3.6,50000,314,6.7,4.6
2018,5,5,02:40,UTC,8,1021.7,80,,,6.5,3.3,50000,322,7,4.5
2018,5,5,02:50,UTC,8,1021.8,80,,,6.5,3.2,50000,323,5.2,3.8
2018,5,5,03:00,UTC,8,1021.9,80,,,6.5,3.3,50000,319,4.6,3.3
2018,5,5,03:10,UTC,8,1022,80,,,6.4,3.2,50000,312,6.3,3.8
2018,5,5,03:20,UTC,8,1022,79,,,6.2,2.9,50000,309,7.9,5
2018,5,5,03:30,UTC,8,1022.1,77,,,6,2.3,50000,320,8.4,5.3
2018,5,5,03:40,UTC,8,1022.2,77,,,5.9,2.2,50000,318,7.5,5.3
2018,5,5,03:50,UTC,8,1022.2,77,,,5.9,2.2,50000,321,8,5.2
2018,5,5,04:00,UTC,8,1022.3,78,,,5.8,2.1,50000,313,7.7,4.8
2018,5,5,04:10,UTC,8,1022.4,78,,,5.9,2.4,50000,310,7,4.5
2018,5,5,04:20,UTC,8,1022.5,76,,,5.8,2,50000,328,8.4,4.6
2018,5,5,04:30,UTC,8,1022.5,76,,,5.8,1.9,50000,344,7.4,5.4
2018,5,5,04:40,UTC,8,1022.6,76,,,6,2,50000,339,8.2,5.1
2018,5,5,04:50,UTC,8,1022.7,76,,,6,2,50000,331,7.8,5.6
2018,5,5,05:00,UTC,8,1022.7,76,,,6.1,2.1,47037,331,7.2,5.4
2018,5,5,05:10,UTC,8,1022.7,74,,,6.5,2.2,44546,343,7,4.8
2018,5,5,05:20,UTC,8,1022.8,74,,,6.4,2.1,50000,347,7.4,5.5
2018,5,5,05:30,UTC,8,1022.9,74,,,6.3,2.1,50000,346,6.7,4.8
2018,5,5,05:40,UTC,8,1023,74,,,6.5,2.3,50000,344,7,5.3
2018,5,5,05:50,UTC,7,1023.1,74,,,6.7,2.4,45838,337,6.8,5
2018,5,5,06:00,UTC,7,1023.1,73,,,7,2.4,50000,346,7.5,5
2018,5,5,06:10,UTC,7,1023.2,73,,,6.9,2.4,48371,338,8,6.1
2018,5,5,06:20,UTC,7,1023.3,74,,,6.9,2.5,45494,342,6.9,5.1
2018,5,5,06:30,UTC,6,1023.4,73,,,7,2.6,49032,346,6.9,5
2018,5,5,06:40,UTC,4,1023.4,73,,,7.2,2.7,50000,332,7.3,5.2
2018,5,5,06:50,UTC,3,1023.5,73,,,7.2,2.6,49846,339,6.5,5
2018,5,5,07:00,UTC,1,1023.5,73,,,7.3,2.7,50000,338,5.8,4.4
2018,5,5,07:10,UTC,1,1023.5,72,,,7.4,2.7,42899,349,4.9,3.5
2018,5,5,07:20,UTC,2,1023.6,73,,,7.3,2.7,50000,327,5.9,4.2
2018,5,5,07:30,UTC,1,1023.7,70,,,8.3,3.2,42818,311,6.3,3.4
2018,5,5,07:40,UTC,1,1023.9,70,,,8.6,3.3,36534,335,6,4
2018,5,5,07:50,UTC,0,1023.9,68,,,9,3.5,41037,349,5.2,3.2
2018,5,5,08:00,UTC,0,1024,68,,,8.7,3,43041,323,6.1,3.9
2018,5,5,08:10,UTC,0,1024,66,,,9,3,43191,306,6.5,3.3
2018,5,5,08:20,UTC,0,1024.1,65,,,9.8,3.6,44824,314,6,3.2
2018,5,5,08:30,UTC,0,1024.1,63,,,9.7,2.9,34349,321,5.3,2.9
2018,5,5,08:40,UTC,0,1024.1,65,,,9.6,3.3,43358,351,5.1,3.4
2018,5,5,08:50,UTC,0,1024.1,63,,,10.4,3.8,42862,334,6.2,2.8
2018,5,5,09:00,UTC,0,1024.2,63,,,10.8,4,42833,344,4.7,2.7
2018,5,5,09:10,UTC,0,1024.2,61,,,10.2,3.1,43694,308,4.2,1.8
2018,5,5,09:20,UTC,0,1024.2,59,,,11,3.3,43854,216,4.2,1.8
2018,5,5,09:30,UTC,0,1024.2,61,,,11.1,3.7,44325,353,4.7,2.3
2018,5,5,09:40,UTC,0,1024.3,58,,,11.4,3.5,41015,185,2.8,1.4
2018,5,5,09:50,UTC,2,1024.3,58,,,11.6,3.7,36521,344,4.6,2.4
2018,5,5,10:00,UTC,1,1024.3,56,,,11.4,3,45450,289,5.9,3
2018,5,5,10:10,UTC,1,1024.2,57,,,11.6,3.4,38371,258,5.5,2.5
2018,5,5,10:20,UTC,0,1024.2,56,,,12,3.4,43925,272,5.7,3
2018,5,5,10:30,UTC,2,1024.2,54,,,12.9,3.9,35597,240,5.2,2.5
2018,5,5,10:40,UTC,2,1024.2,61,,,12,4.7,31325,200,6.2,4
2018,5,5,10:50,UTC,1,1024.2,62,,,11.9,4.9,50000,192,7.4,5.7
2018,5,5,11:00,UTC,1,1024.2,62,,,11.4,4.4,33214,188,7,5.2
2018,5,5,11:10,UTC,2,1024.3,62,,,11.6,4.6,44629,199,6.5,5.4
2018,5,5,11:20,UTC,4,1024.3,64,,,11.5,4.9,38636,205,6.1,4.4
2018,5,5,11:30,UTC,2,1024.3,62,,,11.8,4.7,44215,193,6.7,4.7
2018,5,5,11:40,UTC,1,1024.3,62,,,11.8,4.7,41736,179,6.5,5.1
2018,5,5,11:50,UTC,1,1024.3,59,,,12.5,4.6,38216,178,7.3,5.5
2018,5,5,12:00,UTC,2,1024.3,59,,,12.5,4.8,40099,193,6,4.9
2018,5,5,12:10,UTC,1,1024.3,60,,,12.9,5.2,36000,188,5.8,4.7
2018,5,5,12:20,UTC,2,1024.4,59,,,13.1,5.2,45818,190,6.1,4.6
2018,5,5,12:30,UTC,2,1024.3,59,,,13.2,5.3,45693,188,6.1,4.2
2018,5,5,12:40,UTC,3,1024.3,57,,,13.5,5.1,41170,185,6,4.5
2018,5,5,12:50,UTC,4,1024.1,57,,,13.6,5.1,41070,183,6.1,4.2
2018,5,5,13:00,UTC,4,1024.1,56,,,13.9,5.3,42871,186,6.1,4.6
2018,5,5,13:10,UTC,5,1024.2,53,,,14.5,5.1,48480,201,5.6,3.4
2018,5,5,13:20,UTC,6,1024.2,54,,,14.2,5.1,42691,193,5.9,4.2
2018,5,5,13:30,UTC,7,1024.1,53,,,14.5,5.1,47014,177,7.8,4.5
2018,5,5,13:40,UTC,7,1024.3,54,,,14,4.9,50000,167,6.6,4.5
2018,5,5,13:50,UTC,7,1024.4,53,,,14.5,5.1,50000,230,5.9,3
2018,5,5,14:00,UTC,6,1024.4,56,,,13.8,5.1,46958,190,4.4,2.8
2018,5,5,14:10,UTC,7,1024.5,56,,,14,5.4,48028,224,3.8,2.4
2018,5,5,14:20,UTC,5,1024.5,58,,,13.4,5.2,50000,207,3.7,2.2
2018,5,5,14:30,UTC,3,1024.5,59,,,13.4,5.4,50000,188,3.3,1.8
2018,5,5,14:40,UTC,1,1024.4,57,,,14.6,6.1,38339,174,4.3,2.5
2018,5,5,14:50,UTC,1,1024.4,55,,,14.1,5.2,44806,178,5.2,3.2
2018,5,5,15:00,UTC,1,1024.4,54,,,14.4,5.1,49273,170,5.4,3.3
2018,5,5,15:10,UTC,1,1024.3,52,,,14.6,4.9,43147,183,3.4,2.7
2018,5,5,15:20,UTC,0,1024.2,56,,,14,5.4,45061,187,4.6,3.7
2018,5,5,15:30,UTC,0,1024.2,57,,,14,5.5,50000,185,5.3,4.1
2018,5,5,15:40,UTC,0,1024.1,55,,,14.2,5.4,43281,182,5.4,4.5
2018,5,5,15:50,UTC,0,1024.2,57,,,14.2,5.6,47380,183,5.2,3.8
2018,5,5,16:00,UTC,0,1024.2,56,,,14,5.3,40312,182,4.5,3
2018,5,5,16:10,UTC,0,1024.3,57,,,14,5.5,50000,182,3.5,2.6
2018,5,5,16:20,UTC,1,1024.3,59,,,13.5,5.5,46634,180,2.9,2.2
2018,5,5,16:30,UTC,0,1024.3,59,,,13.4,5.6,47677,175,3.5,2.4
2018,5,5,16:40,UTC,0,1024.4,58,,,13.7,5.6,50000,181,2.8,1.8
2018,5,5,16:50,UTC,0,1024.4,57,,,14,5.7,44030,158,2.6,1.7
2018,5,5,17:00,UTC,0,1024.5,58,,,14,5.8,49947,119,2.4,1.3
2018,5,5,17:10,UTC,0,1024.4,59,,,13.6,5.8,50000,174,3.4,2
2018,5,5,17:20,UTC,0,1024.4,60,,,13.2,5.6,50000,185,3.7,2.1
2018,5,5,17:30,UTC,0,1024.4,61,,,13.2,5.8,50000,179,2.8,2
2018,5,5,17:40,UTC,0,1024.6,63,,,12.7,5.7,50000,183,3.4,2.5
2018,5,5,17:50,UTC,0,1024.6,62,,,12.6,5.6,50000,177,2.3,1.3
2018,5,5,18:00,UTC,0,1024.7,63,,,12.5,5.7,49251,185,2.5,1.7
2018,5,5,18:10,UTC,0,1024.7,65,,,12.3,5.8,50000,182,2.1,1.4
2018,5,5,18:20,UTC,0,1024.7,66,,,11.9,5.7,50000,170,1.9,1.2
2018,5,5,18:30,UTC,0,1024.9,69,,,11.1,5.6,50000,127,1.3,0.8
2018,5,5,18:40,UTC,0,1024.9,69,,,11.2,5.8,50000,137,1.7,1.1
2018,5,5,18:50,UTC,0,1025,71,,,10.6,5.7,49210,161,1.2,0.8
2018,5,5,19:00,UTC,0,1025,75,,,9.9,5.7,47945,143,1.3,0.7
2018,5,5,19:10,UTC,0,1025,78,,,9.4,5.7,50000,96,1.4,0.9
2018,5,5,19:20,UTC,0,1025,81,,,8.3,5.2,40543,53,1.1,0.6
2018,5,5,19:30,UTC,0,1025.1,85,,,7.6,5.3,39347,0,0,0
2018,5,5,19:40,UTC,0,1025,85,,,7.8,5.5,41717,99,1.2,0.7
2018,5,5,19:50,UTC,0,1025,84,,,8,5.4,42000,125,1.2,0.9
2018,5,5,20:00,UTC,0,1025.1,84,,,7,4.5,40967,110,0.9,0.7
2018,5,5,20:10,UTC,0,1025.2,87,,,6.8,4.8,47306,104,1.1,0.8
2018,5,5,20:20,UTC,0,1025.2,89,,,6.9,5.3,47296,131,1.1,0.5
2018,5,5,20:30,UTC,0,1025.3,89,,,6.2,4.5,47242,0,0,0
2018,5,5,20:40,UTC,0,1025.3,90,,,6.4,4.9,48581,107,1,0.8
2018,5,5,20:50,UTC,0,1025.2,87,,,6.3,4.3,41657,69,1,0.6
2018,5,5,21:00,UTC,0,1025.2,94,,,6,5,37773,48,0.9,0.6
2018,5,5,21:10,UTC,0,1025.2,94,,,5.3,4.5,35111,0,0,0
2018,5,5,21:20,UTC,0,1025.3,93,,,5.8,4.7,43823,201,1.5,0.8
2018,5,5,21:30,UTC,0,1025.3,92,,,6.1,4.9,46734,0,0,0
2018,5,5,21:40,UTC,0,1025.3,93,,,5.9,4.9,44151,0,0,0
2018,5,5,21:50,UTC,0,1025.4,91,,,4.9,3.5,43859,0,0,0
2018,5,5,22:00,UTC,0,1025.4,93,,,4.4,3.4,35599,0,0,0
2018,5,5,22:10,UTC,0,1025.4,94,,,4.5,3.6,40728,0,0,0
2018,5,5,22:20,UTC,0,1025.5,95,,,4.4,3.7,38805,0,0,0
2018,5,5,22:30,UTC,0,1025.6,95,,,4.7,4,38777,0,0,0
2018,5,5,22:40,UTC,0,1025.6,97,,,4.6,4.1,36315,107,0.9,0.7
2018,5,5,22:50,UTC,0,1025.5,96,,,4,3.5,43148,92,1,0.7
2018,5,5,23:00,UTC,0,1025.5,95,,,3.8,3.1,14734,0,0,0
2018,5,5,23:10,UTC,0,1025.5,97,,,4.1,3.7,1068,79,0.9,0.6
2018,5,5,23:20,UTC,0,1025.4,97,,,4,3.6,26403,0,0,0
2018,5,5,23:30,UTC,0,1025.5,97,,,3.4,3,2684,0,0,0
2018,5,5,23:40,UTC,0,1025.5,98,,,3.5,3.2,16507,0,0,0
2018,5,5,23:50,UTC,0,1025.5,98,,,3.6,3.4,1047,0,0,0
2018,5,6,00:00,UTC,0,1025.5,98,,,3.1,2.9,32174,0,0,0
2018,5,6,00:10,UTC,0,1025.5,99,,,3.3,3.1,937,0,0,0
2018,5,6,00:20,UTC,0,1025.5,99,,,3.3,3.1,1398,0,0,0
2018,5,6,00:30,UTC,0,1025.6,99,,,2.9,2.7,814,0,0,0
2018,5,6,00:40,UTC,0,1025.6,99,,,2.8,2.6,873,0,0,0
2018,5,6,00:50,UTC,0,1025.6,99,,,3,2.8,1792,0,0,0
2018,5,6,01:00,UTC,0,1025.7,99,,,2.6,2.4,293,0,0,0
2018,5,6,01:10,UTC,0,1025.7,99,,,2.7,2.6,815,0,0,0
2018,5,6,01:20,UTC,0,1025.7,98,,,2.2,1.9,41215,0,0,0
2018,5,6,01:30,UTC,0,1025.6,99,,,2.4,2.3,750,0,0,0
2018,5,6,01:40,UTC,0,1025.6,99,,,2.7,2.6,1488,123,0.8,0.7
2018,5,6,01:50,UTC,0,1025.6,99,,,2.7,2.6,1041,120,0.9,0.7
2018,5,6,02:00,UTC,0,1025.5,98,,,2.3,2,1769,84,1.1,0.6
2018,5,6,02:10,UTC,0,1025.5,98,,,2,1.8,26186,0,0,0
2018,5,6,02:20,UTC,0,1025.4,99,,,2.1,1.9,7285,103,0.8,0.6
2018,5,6,02:30,UTC,0,1025.4,99,,,1.9,1.8,2091,0,0,0
2018,5,6,02:40,UTC,0,1025.5,99,,,2,1.9,26275,0,0,0
2018,5,6,02:50,UTC,0,1025.5,99,,,2.2,2,423,0,0,0
2018,5,6,03:00,UTC,0,1025.6,99,,,2.4,2.3,567,96,0.7,0.5
2018,5,6,03:10,UTC,0,1025.5,99,,,3,2.9,1533,0,0,0
2018,5,6,03:20,UTC,0,1025.5,100,,,3.1,3,1004,0,0,0
2018,5,6,03:30,UTC,0,1025.5,100,,,4.4,4.3,7452,131,0.9,0.5
2018,5,6,03:40,UTC,0,1025.5,96,,,4.6,4.1,31975,114,0.9,0.5
2018,5,6,03:50,UTC,0,1025.5,93,,,5.4,4.4,22451,0,0,0
2018,5,6,04:00,UTC,0,1025.4,93,,,5.9,4.8,19509,0,0,0
2018,5,6,04:10,UTC,0,1025.4,93,,,6.8,5.7,31186,0,0,0
2018,5,6,04:20,UTC,0,1025.3,82,,,8.9,5.9,37133,0,0,0
2018,5,6,04:30,UTC,0,1025.3,77,,,9,5.1,35796,231,1.2,0.6
2018,5,6,04:40,UTC,0,1025.3,69,,,9.8,4.4,41211,244,3,1.6
2018,5,6,04:50,UTC,0,1025.3,66,,,10.2,4.2,43294,226,2.4,1.6
2018,5,6,05:00,UTC,0,1025.3,64,,,10.8,4.3,49092,239,2.7,1.5
2018,5,6,05:10,UTC,0,1025.3,63,,,11.2,4.5,42899,230,2.6,1.8
2018,5,6,05:20,UTC,0,1025.3,61,,,11.5,4.4,49954,218,3.3,2.3
2018,5,6,05:30,UTC,0,1025.4,60,,,11.5,4,42831,223,3.9,2.7
2018,5,6,05:40,UTC,0,1025.3,57,,,11.8,3.6,39011,224,4.3,3.2
2018,5,6,05:50,UTC,0,1025.3,57,,,12,3.9,41390,225,4.9,3.3
2018,5,6,06:00,UTC,0,1025.2,56,,,12.5,3.9,46137,225,3.4,2.3
2018,5,6,06:10,UTC,0,1025.3,55,,,12.4,3.6,45133,229,5,3.4
2018,5,6,06:20,UTC,0,1025.4,55,,,12.5,3.8,47378,234,5.1,3.5
2018,5,6,06:30,UTC,0,1025.4,57,,,12.7,4.5,36087,206,4.6,3.3
2018,5,6,06:40,UTC,0,1025.3,59,,,12.9,5,45269,188,5.3,3.6
2018,5,6,06:50,UTC,0,1025.4,61,,,12.7,5.4,41575,186,5.4,3.3
2018,5,6,07:00,UTC,0,1025.4,56,,,13,4.5,35690,185,6.1,4
2018,5,6,07:10,UTC,0,1025.4,56,,,13.4,4.9,47055,215,7.2,4
2018,5,6,07:20,UTC,0,1025.2,53,,,13.4,3.9,39605,199,7.1,5.1
2018,5,6,07:30,UTC,0,1025.2,51,,,13.5,3.5,37446,199,7.4,5.2
2018,5,6,07:40,UTC,0,1025.3,52,,,13.6,4.1,39086,208,7.7,4.7
2018,5,6,07:50,UTC,0,1025.1,53,,,13.6,4.3,34194,191,6.5,4.9
2018,5,6,08:00,UTC,0,1025,56,,,13.5,4.8,38236,186,6.9,5
2018,5,6,08:10,UTC,0,1024.9,56,,,13.5,4.9,38531,191,7.2,5.1
2018,5,6,08:20,UTC,0,1025,56,,,14,5.4,36171,193,6.9,4.5
2018,5,6,08:30,UTC,0,1024.9,56,,,13.7,5,35671,192,7.3,4.9
2018,5,6,08:40,UTC,0,1024.9,58,,,13.4,5.3,33367,180,8,5.5
2018,5,6,08:50,UTC,0,1024.8,57,,,13.7,5.3,31870,183,7.7,5.4
2018,5,6,09:00,UTC,0,1024.9,57,,,13.5,5.2,30361,187,8.1,5.4
2018,5,6,09:10,UTC,0,1024.9,56,,,13.7,5.2,30278,190,7.3,5.3
2018,5,6,09:20,UTC,0,1024.7,57,,,13.3,5,29281,178,8.4,5.9
2018,5,6,09:30,UTC,0,1024.6,58,,,13.3,5.2,26339,184,8.6,5.8
2018,5,6,09:40,UTC,0,1024.7,57,,,13.9,5.5,35572,180,7.5,5.6
2018,5,6,09:50,UTC,0,1024.6,57,,,13.9,5.5,29021,197,8.5,6.3
2018,5,6,10:00,UTC,0,1024.5,60,,,13.9,6.2,31898,194,8.4,6.1
2018,5,6,10:10,UTC,0,1024.5,58,,,13.6,5.6,36531,188,8.3,6.5
2018,5,6,10:20,UTC,0,1024.4,60,,,14.1,6.6,25967,195,8.9,6.2
2018,5,6,10:30,UTC,0,1024.4,61,,,13.7,6.2,31597,183,8.3,5.7
2018,5,6,10:40,UTC,0,1024.2,61,,,13.9,6.5,30672,182,8.1,6.2
2018,5,6,10:50,UTC,0,1024,59,,,14,6.1,31297,180,8.3,5.8
2018,5,6,11:00,UTC,0,1024,59,,,14.1,6.2,28014,185,8.3,6.5
2018,5,6,11:10,UTC,0,1023.9,59,,,14.6,6.7,33075,182,7.7,5.9
2018,5,6,11:20,UTC,0,1023.9,60,,,15.2,7.4,29464,196,8.4,5.4
2018,5,6,11:30,UTC,0,1023.8,59,,,15,7.1,29949,198,6.9,4.8
2018,5,6,11:40,UTC,0,1023.8,59,,,14.8,6.9,29543,220,9.3,6.1
2018,5,6,11:50,UTC,0,1023.8,56,,,15.1,6.4,32061,212,9,6.1
2018,5,6,12:00,UTC,0,1023.7,57,,,15.3,6.8,30630,197,9,6.5
2018,5,6,12:10,UTC,0,1023.7,57,,,15.4,6.8,28300,199,8.1,6.2
2018,5,6,12:20,UTC,0,1023.7,57,,,15.3,6.7,29866,203,8.9,6.3
2018,5,6,12:30,UTC,0,1023.5,56,,,15.5,6.8,33492,215,8.9,6.2
2018,5,6,12:40,UTC,0,1023.4,57,,,15.6,7,45099,212,9.6,5.9
2018,5,6,12:50,UTC,0,1023.2,55,,,16.1,7.1,28343,204,9.8,5.9
2018,5,6,13:00,UTC,0,1023.2,55,,,16.3,7.2,31813,217,8.3,5.4
2018,5,6,13:10,UTC,0,1022.9,55,,,15.9,6.9,35429,213,9.4,6.1
2018,5,6,13:20,UTC,0,1023,56,,,15.9,7,40440,214,11.5,6.8
2018,5,6,13:30,UTC,0,1022.9,56,,,15.6,6.8,32537,207,10,6.6
2018,5,6,13:40,UTC,0,1022.9,57,,,16,7.5,38959,210,8.2,5.3
2018,5,6,13:50,UTC,0,1022.7,56,,,16.1,7.3,27336,207,9.9,6.6
2018,5,6,14:00,UTC,0,1022.9,55,,,15.9,6.9,34420,223,9.1,5.8
2018,5,6,14:10,UTC,0,1022.9,57,,,15.7,7.1,32673,219,10.1,6.4
2018,5,6,14:20,UTC,0,1022.8,58,,,15.8,7.6,35549,224,10.2,6.6
2018,5,6,14:30,UTC,0,1023,60,,,15.6,7.8,32822,229,11,7.1
2018,5,6,14:40,UTC,0,1023.1,61,,,15,7.5,37086,222,10.1,7.4
2018,5,6,14:50,UTC,0,1023,60,,,15.4,7.7,33201,223,9.2,6.3
2018,5,6,15:00,UTC,0,1023,59,,,16,7.9,36297,222,8.9,5.8
2018,5,6,15:10,UTC,0,1022.8,59,,,15.5,7.6,35820,225,8.6,6.3
2018,5,6,15:20,UTC,0,1022.7,58,,,15.5,7.3,38332,226,9.5,6.3
2018,5,6,15:30,UTC,0,1022.5,57,,,15.7,7.2,33283,206,6.6,4.8
2018,5,6,15:40,UTC,0,1022.5,58,,,15.8,7.5,41378,210,6.7,4.3
2018,5,6,15:50,UTC,0,1022.4,59,,,15.2,7.4,39928,202,7.4,5.1
2018,5,6,16:00,UTC,0,1022.3,60,,,15.2,7.5,42004,193,7.2,5.5
2018,5,6,16:10,UTC,0,1022.3,60,,,15,7.3,40954,204,7.3,5.3
2018,5,6,16:20,UTC,0,1022.4,61,,,15,7.5,32884,210,7.2,4.7
2018,5,6,16:30,UTC,0,1022.3,63,,,14.7,7.6,33773,207,6.4,4.8
2018,5,6,16:40,UTC,0,1022.2,63,,,14.5,7.6,39713,207,7.3,4.3
2018,5,6,16:50,UTC,0,1022.2,66,,,14.1,7.7,39623,200,7.3,5.3
2018,5,6,17:00,UTC,0,1022.2,68,,,13.6,7.7,37397,196,6.2,4.7
2018,5,6,17:10,UTC,0,1022,69,,,13.2,7.6,43813,196,6.4,4.5
2018,5,6,17:20,UTC,0,1022.2,70,,,13,7.6,44291,197,5.5,3.9
2018,5,6,17:30,UTC,2,1022.3,71,,,12.9,7.7,41563,199,5.5,3.8
2018,5,6,17:40,UTC,3,1022.4,71,,,12.7,7.5,47814,214,4.7,3
2018,5,6,17:50,UTC,2,1022.4,71,,,12.5,7.5,48216,208,4.4,2.8
2018,5,6,18:00,UTC,1,1022.4,73,,,12.2,7.4,42451,194,3.8,2.6
2018,5,6,18:10,UTC,0,1022.4,76,,,11.6,7.5,36923,189,4.4,3.1
2018,5,6,18:20,UTC,0,1022.4,77,,,11.4,7.6,30730,201,4,3
2018,5,6,18:30,UTC,2,1022.3,78,,,11,7.3,29216,175,3.9,2.8
2018,5,6,18:40,UTC,5,1022.4,80,,,10.6,7.3,25121,178,4.2,2.9
2018,5,6,18:50,UTC,6,1022.4,82,,,10.1,7.1,26281,181,3.7,2.9
2018,5,6,19:00,UTC,7,1022.5,83,,,9.6,6.9,23735,185,3.8,3
2018,5,6,19:10,UTC,5,1022.5,84,,,9.4,6.8,24865,180,3.7,2.8
2018,5,6,19:20,UTC,2,1022.4,85,,,9.2,6.8,22263,172,3.9,2.8
2018,5,6,19:30,UTC,1,1022.5,86,,,8.9,6.7,21098,183,3.7,2.6
2018,5,6,19:40,UTC,1,1022.5,87,,,9,6.9,20616,184,2.4,1.9
2018,5,6,19:50,UTC,2,1022.5,87,,,9.1,7,21554,187,2.4,1.8
2018,5,6,20:00,UTC,2,1022.7,86,,,8.9,6.7,21773,202,1.8,1.2
2018,5,6,20:10,UTC,1,1022.8,88,,,8.6,6.8,21651,236,1.4,0.7
2018,5,6,20:20,UTC,1,1022.6,87,,,9.2,7.1,22033,206,2.1,1.3
2018,5,6,20:30,UTC,0,1022.7,86,,,9.1,6.9,23648,212,2.3,1.5
2018,5,6,20:40,UTC,0,1022.7,87,,,9.1,7.1,22653,203,2.1,1.5
2018,5,6,20:50,UTC,1,1022.7,87,,,9.1,7.1,22050,213,2,1.4
2018,5,6,21:00,UTC,2,1022.7,86,,,8.4,6.2,21954,232,1.6,1.2
2018,5,6,21:10,UTC,2,1022.8,92,,,7.8,6.6,19466,262,1.1,0.8
2018,5,6,21:20,UTC,1,1022.8,93,,,8,6.8,19725,282,1.9,1
2018,5,6,21:30,UTC,1,1022.9,92,,,8,6.7,20777,267,1.4,0.9
2018,5,6,21:40,UTC,0,1023,88,,,7.4,5.6,23474,242,2.1,1.4
2018,5,6,21:50,UTC,0,1022.8,93,,,7.2,6.1,19334,228,2.1,1.2
2018,5,6,22:00,UTC,0,1022.8,93,,,7.4,6.4,21698,197,1.7,0.6
2018,5,6,22:10,UTC,0,1022.9,94,,,7.2,6.4,19130,167,1,0.6
2018,5,6,22:20,UTC,0,1022.8,94,,,7.1,6.1,15517,180,1.2,0.8
2018,5,6,22:30,UTC,0,1023,96,,,6.2,5.7,11501,0,0,0
2018,5,6,22:40,UTC,0,1023,98,,,6.3,6,8001,178,1,0.6
2018,5,6,22:50,UTC,0,1023,98,,,6.3,6,11995,0,0,0
2018,5,6,23:00,UTC,0,1023.1,97,,,5.4,5,8806,0,0,0
2018,5,6,23:10,UTC,0,1023.1,98,,,5.4,5.1,2332,137,0.9,0.6
2018,5,6,23:20,UTC,0,1023,99,,,6.2,6,9620,164,1.2,0.9
2018,5,6,23:30,UTC,0,1023.1,98,,,6.5,6.2,14377,197,1.3,0.9
2018,5,6,23:40,UTC,0,1023.1,97,,,5.9,5.5,14099,196,1.4,1.1
2018,5,6,23:50,UTC,0,1023.2,97,,,5.5,5.1,12409,230,1.2,0.7
2018,5,7,00:00,UTC,0,1023,98,,,5.8,5.5,6794,186,1,0.6
2018,5,7,00:10,UTC,0,1023.1,99,,,6,5.7,6689,154,1,0.7
2018,5,7,00:20,UTC,0,1023,99,,,6.1,5.9,9302,145,0.9,0.7
2018,5,7,00:30,UTC,0,1023,98,,,4.7,4.4,4572,0,0,0
2018,5,7,00:40,UTC,0,1023.1,99,,,4.8,4.6,4857,0,0,0
2018,5,7,00:50,UTC,0,1023,99,,,4.6,4.4,6090,0,0,0
2018,5,7,01:00,UTC,0,1022.9,99,,,5,4.9,1296,136,0.7,0.5
2018,5,7,01:10,UTC,0,1022.9,99,,,4.8,4.7,749,0,0,0
2018,5,7,01:20,UTC,0,1022.9,99,,,4.1,3.9,15760,0,0,0
2018,5,7,01:30,UTC,0,1022.9,99,,,4.1,4,6675,0,0,0
2018,5,7,01:40,UTC,0,1023,99,,,4.2,4.1,593,160,1,0.6
2018,5,7,01:50,UTC,0,1023,99,,,4.3,4.2,282,0,0,0
2018,5,7,02:00,UTC,0,1023.1,99,,,3.7,3.6,1046,0,0,0
2018,5,7,02:10,UTC,0,1023,99,,,4.2,4.1,3846,0,0,0
2018,5,7,02:20,UTC,0,1023,100,,,4.8,4.7,888,156,0.8,0.6
2018,5,7,02:30,UTC,0,1022.9,99,,,4.7,4.6,998,140,1.2,0.9
2018,5,7,02:40,UTC,0,1022.8,99,,,3.6,3.5,2606,0,0,0
2018,5,7,02:50,UTC,0,1022.8,99,,,3.7,3.7,3048,0,0,0
2018,5,7,03:00,UTC,0,1022.9,100,,,4.3,4.2,513,0,0,0
2018,5,7,03:10,UTC,0,1022.9,100,,,4.9,4.8,1290,137,0.8,0.6
2018,5,7,03:20,UTC,0,1022.9,100,,,4.8,4.7,4471,0,0,0
2018,5,7,03:30,UTC,0,1022.9,100,,,5.4,5.4,3351,0,0,0
2018,5,7,03:40,UTC,0,1022.9,100,,,6.6,6.5,5443,0,0,0
2018,5,7,03:50,UTC,0,1022.7,98,,,7.3,6.9,8878,98,1,0.6
2018,5,7,04:00,UTC,0,1022.7,93,,,8.2,7.1,10940,0,0,0
2018,5,7,04:10,UTC,0,1022.7,90,,,8.4,6.9,13947,360,1,0.7
2018,5,7,04:20,UTC,0,1022.6,87,,,9,7,17363,0,0,0
2018,5,7,04:30,UTC,0,1022.6,85,,,9.7,7.3,18257,0,0,0
2018,5,7,04:40,UTC,0,1022.6,83,,,10,7.4,18596,74,0.9,0.6
2018,5,7,04:50,UTC,0,1022.6,80,,,10.7,7.3,20715,0,0,0
2018,5,7,05:00,UTC,0,1022.6,79,,,10.9,7.4,19991,0,0,0
2018,5,7,05:10,UTC,0,1022.5,80,,,11.1,7.7,20260,0,0,0
2018,5,7,05:20,UTC,0,1022.4,79,,,11.3,7.7,26765,0,0,0
2018,5,7,05:30,UTC,0,1022.4,77,,,11.9,8,22851,234,1.2,0.6
2018,5,7,05:40,UTC,0,1022.3,75,,,12.4,8.1,22504,236,1.7,0.8
2018,5,7,05:50,UTC,0,1022.2,73,,,12.9,8.2,27846,174,2.8,1.1
2018,5,7,06:00,UTC,0,1022.3,75,,,13.1,8.7,23038,194,2.8,1.9
2018,5,7,06:10,UTC,0,1022.2,72,,,13.5,8.5,25532,178,3.2,2
2018,5,7,06:20,UTC,0,1022.3,72,,,13.6,8.7,30743,192,3,1.8
2018,5,7,06:30,UTC,0,1022.3,71,,,14.3,9,29788,182,2.5,1.5
2018,5,7,06:40,UTC,0,1022.3,70,,,14.2,8.8,27231,176,3.9,2.3
2018,5,7,06:50,UTC,0,1022.3,70,,,14.4,8.9,28610,173,4,2.8
2018,5,7,07:00,UTC,0,1022.3,69,,,14.2,8.6,26745,179,4,2.8
2018,5,7,07:10,UTC,0,1022.3,68,,,14.5,8.6,31539,185,4.3,2.9
2018,5,7,07:20,UTC,0,1022.2,66,,,14.7,8.4,20656,173,4.7,3.2
2018,5,7,07:30,UTC,0,1022.1,68,,,14.5,8.7,23072,181,4.8,3.4
2018,5,7,07:40,UTC,0,1022.1,68,,,14.6,8.7,23694,180,5.1,3.9
2018,5,7,07:50,UTC,0,1022.2,67,,,15.1,9.1,23257,192,4.9,3.2
2018,5,7,08:00,UTC,0,1022.3,67,,,14.8,8.7,24388,201,5,3.7
2018,5,7,08:10,UTC,0,1022.2,67,,,15.4,9.4,26643,205,4.9,3.4
2018,5,7,08:20,UTC,0,1022,65,,,15.3,8.7,28075,180,5.2,3.5
2018,5,7,08:30,UTC,0,1022.1,65,,,14.9,8.4,27245,176,5.3,3.9
2018,5,7,08:40,UTC,0,1022,64,,,15.8,8.9,22964,179,5.5,3.5
2018,5,7,08:50,UTC,0,1022,65,,,15.5,8.9,22809,186,6,4.4
2018,5,7,09:00,UTC,0,1022,64,,,15.4,8.6,23403,190,5.3,4
2018,5,7,09:10,UTC,0,1021.8,63,,,15.7,8.6,30929,186,5.8,4
2018,5,7,09:20,UTC,0,1021.7,62,,,16.2,8.8,24240,173,4.9,3.7
2018,5,7,09:30,UTC,0,1021.6,62,,,16.5,9.3,25805,184,5.6,4.1
2018,5,7,09:40,UTC,0,1021.5,61,,,16.2,8.7,26925,177,5.8,4.3
2018,5,7,09:50,UTC,0,1021.4,60,,,16.4,8.7,27086,168,5.9,4.4
2018,5,7,10:00,UTC,0,1021.3,61,,,15.8,8.3,29214,180,6.9,4.9
2018,5,7,10:10,UTC,0,1020.8,59,,,16.2,8.3,27405,169,7.2,4.8
2018,5,7,10:20,UTC,0,1020.9,60,,,16.7,8.8,29397,181,6.9,4.9
2018,5,7,10:30,UTC,0,1021,59,,,17,8.9,30553,191,6.4,4.6
2018,5,7,10:40,UTC,0,1020.9,59,,,17.6,9.4,32171,194,7.1,4.6
2018,5,7,10:50,UTC,0,1020.7,58,,,17.8,9.3,26245,188,6.7,4.3
2018,5,7,11:00,UTC,0,1020.5,57,,,17.5,8.8,25785,184,7,4.9
2018,5,7,11:10,UTC,0,1020.2,58,,,17.5,9.1,29003,182,7.2,5.3
2018,5,7,11:20,UTC,0,1020.2,58,,,17.5,9.3,32250,176,7.2,5.5
2018,5,7,11:30,UTC,0,1020.1,57,,,17.3,8.8,32819,187,7.9,5.1
2018,5,7,11:40,UTC,0,1020.1,58,,,17.8,9.4,28960,193,7.6,5.5
2018,5,7,11:50,UTC,0,1020,60,,,17.5,9.6,32010,190,6.4,5
2018,5,7,12:00,UTC,0,1020,60,,,16.9,9.1,33748,199,7.1,5.2
2018,5,7,12:10,UTC,0,1020,61,,,16.8,9.2,28758,200,7.5,5.3
2018,5,7,12:20,UTC,0,1019.8,59,,,18,9.8,23794,193,6.3,4.5
2018,5,7,12:30,UTC,0,1019.8,57,,,18.3,9.7,32520,204,7,5
2018,5,7,12:40,UTC,0,1019.6,57,,,18.7,10.1,27234,199,7.7,5.5
2018,5,7,12:50,UTC,0,1019.4,57,,,18.3,9.7,29079,190,7.2,5
2018,5,7,13:00,UTC,0,1019.4,57,,,18.6,9.8,29837,196,7.7,5.7
2018,5,7,13:10,UTC,0,1019.3,57,,,18.3,9.7,29114,193,8.1,5.7
2018,5,7,13:20,UTC,0,1019.2,57,,,18.7,9.9,24213,192,8.3,5.3
2018,5,7,13:30,UTC,0,1019.2,55,,,18.6,9.4,29167,195,7.1,5.2
2018,5,7,13:40,UTC,0,1019.2,58,,,17.7,9.3,29253,191,7.3,5.3
2018,5,7,13:50,UTC,0,1019.1,57,,,17.7,9.1,25541,190,6.5,4.8
2018,5,7,14:00,UTC,0,1019,58,,,17.7,9.4,33962,195,7.1,5.3
2018,5,7,14:10,UTC,0,1018.9,57,,,17.7,9,23050,198,7,5
2018,5,7,14:20,UTC,0,1018.8,59,,,17.1,9,27860,190,7.4,5.5
2018,5,7,14:30,UTC,0,1018.7,58,,,17.3,8.9,27622,197,7.3,4.9
2018,5,7,14:40,UTC,0,1018.7,59,,,16.9,8.7,30192,199,7.6,5.3
2018,5,7,14:50,UTC,0,1018.6,59,,,16.7,8.7,23335,200,7.4,5.4
2018,5,7,15:00,UTC,0,1018.6,60,,,16.6,8.8,30909,203,7.4,5.5
2018,5,7,15:10,UTC,0,1018.6,59,,,16.9,9,34836,202,7.1,5.1
2018,5,7,15:20,UTC,0,1018.6,59,,,16.8,8.9,32078,199,6.8,5.2
2018,5,7,15:30,UTC,0,1018.5,60,,,16.5,8.6,27915,200,7.2,5.5
2018,5,7,15:40,UTC,0,1018.5,59,,,16.8,8.6,35073,202,6.3,4.9
2018,5,7,15:50,UTC,0,1018.5,59,,,16.8,8.6,33538,205,6.6,5.1
2018,5,7,16:00,UTC,0,1018.5,59,,,16.8,8.7,29251,203,6.7,4.8
2018,5,7,16:10,UTC,0,1018.5,60,,,16.4,8.6,31623,196,7.3,5
2018,5,7,16:20,UTC,0,1018.5,60,,,16.6,8.8,24964,191,6.7,4.4
2018,5,7,16:30,UTC,0,1018.5,60,,,16.7,8.9,27463,193,6.2,4
2018,5,7,16:40,UTC,0,1018.5,59,,,16.8,8.7,29169,198,5.1,3.8
2018,5,7,16:50,UTC,0,1018.5,59,,,16.5,8.5,20233,200,5.1,3.5
2018,5,7,17:00,UTC,0,1018.4,62,,,15.7,8.4,32087,190,4.5,3.3
2018,5,7,17:10,UTC,0,1018.5,63,,,15.4,8.5,32478,186,4.3,3.4
2018,5,7,17:20,UTC,0,1018.5,65,,,15.2,8.6,30657,195,4.3,3.2
2018,5,7,17:30,UTC,0,1018.5,65,,,15.3,8.7,36694,202,4.4,3.4
2018,5,7,17:40,UTC,0,1018.4,64,,,15.7,8.9,30606,211,4.5,3.3
2018,5,7,17:50,UTC,0,1018.5,63,,,15.8,8.8,27578,225,4,2.9
2018,5,7,18:00,UTC,0,1018.5,64,,,15.7,8.9,30350,227,4.6,3.4
2018,5,7,18:10,UTC,0,1018.6,66,,,15,8.6,28785,217,4.8,2.9
2018,5,7,18:20,UTC,0,1018.7,68,,,14.6,8.7,28884,207,4,2.3
2018,5,7,18:30,UTC,0,1018.8,70,,,14,8.7,30984,210,3.2,2.1
2018,5,7,18:40,UTC,0,1018.9,68,,,14.5,8.8,31341,230,3.8,2.8
2018,5,7,18:50,UTC,0,1018.9,69,,,14.4,8.8,30797,222,3.7,2.7
2018,5,7,19:00,UTC,0,1019,69,,,14.4,8.8,29190,225,2.9,1.9
2018,5,7,19:10,UTC,0,1019,70,,,14,8.6,28263,209,2.7,1.8
2018,5,7,19:20,UTC,0,1019,75,,,12.6,8.2,31170,168,2.1,1.4
2018,5,7,19:30,UTC,0,1019.1,75,,,13.1,8.7,34626,175,3,2.1
2018,5,7,19:40,UTC,0,1019.1,76,,,12.6,8.4,33919,202,2.8,2.2
2018,5,7,19:50,UTC,0,1019.2,75,,,12.7,8.4,33110,212,2.2,1.5
2018,5,7,20:00,UTC,0,1019.2,77,,,12.1,8.2,34405,216,1.7,1.2
2018,5,7,20:10,UTC,0,1019.3,78,,,11.7,8,30956,230,2,1.5
2018,5,7,20:20,UTC,0,1019.3,79,,,12,8.4,33685,228,1.9,1.3
2018,5,7,20:30,UTC,0,1019.3,77,,,11.9,8,31545,236,2.5,1.7
2018,5,7,20:40,UTC,0,1019.4,79,,,11.2,7.7,29079,232,1.8,1
2018,5,7,20:50,UTC,0,1019.5,84,,,10.4,7.9,30712,267,1.5,0.7
2018,5,7,21:00,UTC,0,1019.5,86,,,10.4,8.1,33779,347,1.2,0.5
2018,5,7,21:10,UTC,0,1019.6,87,,,9.2,7.3,30659,318,1.7,1.1
2018,5,7,21:20,UTC,0,1019.6,92,,,9.5,8.2,28953,306,1.8,1.2
2018,5,7,21:30,UTC,0,1019.6,82,,,10.2,7.2,32298,306,2.2,1.5
2018,5,7,21:40,UTC,0,1019.7,84,,,9.9,7.3,31855,314,2.1,1.3
2018,5,7,21:50,UTC,0,1019.8,81,,,10.6,7.4,30709,318,2.6,1.7
2018,5,7,22:00,UTC,0,1019.8,72,,,12.5,7.6,38420,305,3,1.8
2018,5,7,22:10,UTC,0,1019.8,71,,,12.6,7.5,40084,303,3.1,2.1
2018,5,7,22:20,UTC,0,1019.9,72,,,12.3,7.3,38841,306,3,2.1
2018,5,7,22:30,UTC,0,1020.1,73,,,11.7,7.1,42967,311,2.7,1.9
2018,5,7,22:40,UTC,0,1020.1,75,,,11.5,7.2,40001,317,2.2,1.5
2018,5,7,22:50,UTC,0,1020.1,82,,,10.6,7.5,39788,339,1.8,1.1
2018,5,7,23:00,UTC,0,1020.1,86,,,9.8,7.6,34618,2,0.9,0.5
2018,5,7,23:10,UTC,0,1020.1,85,,,9.8,7.5,35997,13,1.4,0.5
2018,5,7,23:20,UTC,0,1020.2,87,,,9.6,7.5,42596,0,0,0
2018,5,7,23:30,UTC,0,1020.2,85,,,9.3,6.9,35576,340,1.4,0.9
2018,5,7,23:40,UTC,0,1020.3,91,,,8.8,7.4,31781,0,0,0
2018,5,7,23:50,UTC,0,1020.3,90,,,8.9,7.2,38597,0,0,0
2018,5,8,00:00,UTC,0,1020.3,89,,,8.5,6.8,36235,0,0,0
2018,5,8,00:10,UTC,0,1020.3,90,,,8.7,7.1,37084,349,1.7,1
2018,5,8,00:20,UTC,0,1020.4,90,,,7.7,6.2,38269,328,1.9,1.4
2018,5,8,00:30,UTC,0,1020.4,88,,,8.3,6.5,31289,326,2.4,1.8
2018,5,8,00:40,UTC,0,1020.5,89,,,7.7,5.9,35700,325,2.2,1.8
2018,5,8,00:50,UTC,0,1020.5,91,,,7.5,6.1,41222,316,2.1,1.7
2018,5,8,01:00,UTC,0,1020.5,92,,,7.4,6.2,39250,350,2.3,1.4
2018,5,8,01:10,UTC,0,1020.5,93,,,7.8,6.7,32039,10,1.2,0.5
2018,5,8,01:20,UTC,0,1020.8,93,,,8.1,7,33448,0,0,0
2018,5,8,01:30,UTC,0,1021.1,91,,,7.9,6.6,39023,284,1.5,0.6
2018,5,8,01:40,UTC,0,1021.2,93,,,7.5,6.4,30107,0,0,0
2018,5,8,01:50,UTC,0,1021.3,95,,,7.7,6.9,33997,35,1.1,0.6
2018,5,8,02:00,UTC,0,1021.4,95,,,7.5,6.7,31963,0,0,0
2018,5,8,02:10,UTC,0,1021.5,94,,,6.2,5.3,24574,0,0,0
2018,5,8,02:20,UTC,0,1021.6,96,,,6.4,5.9,34061,0,0,0
2018,5,8,02:30,UTC,0,1021.7,93,,,6.1,5.1,31760,329,1.3,0.6
2018,5,8,02:40,UTC,0,1021.8,96,,,6.2,5.6,34030,0,0,0
2018,5,8,02:50,UTC,0,1021.9,96,,,7,6.4,26600,0,0,0
2018,5,8,03:00,UTC,0,1022.1,92,,,6.8,5.6,29911,355,2.5,1.6
2018,5,8,03:10,UTC,0,1022.2,92,,,7.3,6.1,34018,359,2.3,1.4
2018,5,8,03:20,UTC,0,1022.3,87,,,8.8,6.7,37171,359,2.3,1.2
2018,5,8,03:30,UTC,0,1022.4,83,,,9.8,7,40162,346,2.4,1.4
2018,5,8,03:40,UTC,0,1022.4,82,,,10.3,7.3,36053,352,2,1.4
2018,5,8,03:50,UTC,0,1022.4,75,,,11.6,7.4,32148,10,3.9,1.4
2018,5,8,04:00,UTC,0,1022.4,73,,,12.1,7.4,26689,20,4,1.7
2018,5,8,04:10,UTC,2,1022.5,71,,,12.4,7.3,29077,32,4.6,2.1
2018,5,8,04:20,UTC,5,1022.6,69,,,12.5,6.9,29954,36,6.2,2.7
2018,5,8,04:30,UTC,7,1022.7,68,,,12.5,6.8,27881,39,5.8,2.7
2018,5,8,04:40,UTC,6,1022.9,69,,,12.5,6.9,26269,58,5.2,2.9
2018,5,8,04:50,UTC,3,1023,66,,,12.3,6.2,30227,43,4.5,2
2018,5,8,05:00,UTC,1,1023,63,,,12.2,5.4,32800,45,6.6,2.7
2018,5,8,05:10,UTC,2,1023,61,,,12.4,5.1,32052,43,4.1,2.1
2018,5,8,05:20,UTC,1,1023.1,60,,,12.3,4.7,42269,23,5.1,2.3
2018,5,8,05:30,UTC,1,1023,59,,,12.4,4.6,47689,18,4.9,2.6
2018,5,8,05:40,UTC,1,1023.2,58,,,12.6,4.6,42531,28,5,2.5
2018,5,8,05:50,UTC,1,1023.3,58,,,12.5,4.4,35369,46,4.5,2.7
2018,5,8,06:00,UTC,1,1023.2,59,,,12.8,4.9,42263,42,4.4,2.2
2018,5,8,06:10,UTC,1,1023.2,57,,,13.6,5.2,40268,51,3.7,2
2018,5,8,06:20,UTC,0,1023.3,59,,,13.4,5.5,37408,22,4,2.3
2018,5,8,06:30,UTC,0,1023.4,59,,,13.2,5.3,38282,14,5,3
2018,5,8,06:40,UTC,0,1023.4,59,,,13.1,5.3,,21,4.8,2.4
2018,5,8,06:50,UTC,2,1023.5,57,,,13.7,5.3,47322,9,4.5,2.2
2018,5,8,07:00,UTC,4,1023.6,58,,,13.7,5.6,41400,17,4.2,2.3
2018,5,8,07:10,UTC,2,1023.6,57,,,13.9,5.5,36793,21,3.8,2.3
2018,5,8,07:20,UTC,4,1023.5,57,,,14,5.5,39050,22,3.6,1.6
2018,5,8,07:30,UTC,5,1023.5,55,,,14.4,5.6,40190,56,3.6,1.8
2018,5,8,07:40,UTC,3,1023.4,52,,,14.9,5.1,40710,112,3.4,1.5
2018,5,8,07:50,UTC,2,1023.5,53,,,14.8,5.3,,39,3.3,1.2
2018,5,8,08:00,UTC,0,1023.5,50,,,14.8,4.5,35663,6,4.7,1.8
2018,5,8,08:10,UTC,0,1023.6,53,,,15.3,5.7,44851,6,2.7,1.3
2018,5,8,08:20,UTC,0,1023.5,49,,,15.2,4.5,32485,292,2.7,1.2
2018,5,8,08:30,UTC,0,1023.5,47,,,15.8,4.5,31697,191,2,1.1
2018,5,8,08:40,UTC,0,1023.5,46,,,15.7,4.1,29327,174,2.9,1.4
2018,5,8,08:50,UTC,0,1023.5,49,,,16,5.2,36671,2,4.6,2.2
2018,5,8,09:00,UTC,0,1023.5,46,,,16.1,4.6,45381,283,4.5,3
2018,5,8,09:10,UTC,0,1023.4,48,,,16.3,5.3,38516,288,5,2.8
2018,5,8,09:20,UTC,0,1023.4,48,,,16.6,5.4,36221,344,4.6,2.6
2018,5,8,09:30,UTC,0,1023.3,45,,,16.7,4.7,42331,92,3.8,1.9
2018,5,8,09:40,UTC,0,1023.3,45,,,16.3,4.3,31412,150,4.9,3.3
2018,5,8,09:50,UTC,0,1023.1,45,,,15.4,3.5,35401,144,5.4,3.4
2018,5,8,10:00,UTC,0,1023.1,45,,,15.7,3.9,27866,143,6.5,4.2
2018,5,8,10:10,UTC,0,1023,46,,,15.4,3.7,34498,140,6,4.1
2018,5,8,10:20,UTC,0,1022.9,45,,,15.3,3.4,29295,146,5.6,3.8
2018,5,8,10:30,UTC,0,1022.9,43,,,15.9,3.2,28856,148,6.4,4
2018,5,8,10:40,UTC,0,1023,42,,,15.1,2.3,30555,157,5.6,3.8
2018,5,8,10:50,UTC,0,1022.9,42,,,15.7,3,37542,154,5.2,3.3
2018,5,8,11:00,UTC,0,1023,42,,,15.7,2.9,34796,147,6.1,4.1
2018,5,8,11:10,UTC,0,1022.8,40,,,15.8,2.1,36540,160,5.7,3.5
2018,5,8,11:20,UTC,0,1022.8,42,,,15.6,2.6,36608,182,6.2,4
2018,5,8,11:30,UTC,0,1022.7,42,,,16.3,3.2,32033,183,7.7,3.7
2018,5,8,11:40,UTC,0,1022.7,39,,,15.6,1.7,32940,180,7,4.8
2018,5,8,11:50,UTC,0,1022.6,42,,,16.2,3.4,31322,192,5.8,4.2
2018,5,8,12:00,UTC,0,1022.7,42,,,16,3,35928,195,6.2,4.4
2018,5,8,12:10,UTC,0,1022.6,43,,,15.5,3.2,32410,194,6,4.4
2018,5,8,12:20,UTC,0,1022.5,43,,,15.5,3.1,39777,196,6.1,4.3
2018,5,8,12:30,UTC,0,1022.5,44,,,15.6,3.4,37981,204,5.9,4.3
2018,5,8,12:40,UTC,0,1022.5,44,,,15.2,3,39165,206,6.4,4.8
2018,5,8,12:50,UTC,0,1022.5,43,,,15.1,2.6,47312,203,6.1,4.5
2018,5,8,13:00,UTC,0,1022.4,42,,,15.7,2.9,38129,206,5.7,4.3
2018,5,8,13:10,UTC,0,1022.4,43,,,15.3,2.7,37001,196,6,4.7
2018,5,8,13:20,UTC,0,1022.3,43,,,15,2.4,37003,190,5.7,4.4
2018,5,8,13:30,UTC,0,1022.2,42,,,15.5,2.7,35759,182,5.9,4.5
2018,5,8,13:40,UTC,0,1022.1,42,,,15.4,2.4,33867,183,5.8,4.5
2018,5,8,13:50,UTC,0,1022.2,42,,,15.3,2.5,39367,183,5.2,3.8
2018,5,8,14:00,UTC,0,1022.2,42,,,15.4,2.5,44216,174,6,4.3
2018,5,8,14:10,UTC,0,1022.1,42,,,15.4,2.7,37752,180,6.2,4.3
2018,5,8,14:20,UTC,0,1022.1,41,,,15.4,2.3,38496,175,6.1,4.1
2018,5,8,14:30,UTC,0,1022.1,40,,,15.3,1.9,37446,193,5.7,4.3
2018,5,8,14:40,UTC,0,1022.1,41,,,15.1,2.1,41102,192,5.8,4.3
2018,5,8,14:50,UTC,0,1022.3,43,,,15.2,2.7,45552,193,5.4,4.2
2018,5,8,15:00,UTC,0,1022.2,41,,,14.7,1.8,39988,204,5.7,4.4
2018,5,8,15:10,UTC,0,1022.3,41,,,15,1.8,38177,205,5.5,4.1
2018,5,8,15:20,UTC,0,1022.3,41,,,14.7,1.6,43554,205,5,4.2
2018,5,8,15:30,UTC,0,1022.2,41,,,14.5,1.5,47463,201,5.2,4.2
2018,5,8,15:40,UTC,0,1022.3,42,,,14.6,1.6,38776,207,5.1,4.1
2018,5,8,15:50,UTC,0,1022.1,42,,,14.5,1.5,46401,200,4.9,3.9
2018,5,8,16:00,UTC,0,1021.9,43,,,14.5,2.2,39709,210,4.6,3.6
2018,5,8,16:10,UTC,0,1022.1,43,,,14.4,1.9,42751,211,5,3.8
2018,5,8,16:20,UTC,0,1022.2,43,,,14.5,2.1,47226,207,4.5,3.4
2018,5,8,16:30,UTC,0,1022.2,44,,,14.3,2.1,47232,213,4.2,3.1
2018,5,8,16:40,UTC,0,1022.1,45,,,14.3,2.4,49421,201,4.1,3.1
2018,5,8,16:50,UTC,0,1022.1,46,,,14.3,2.9,43229,207,4.3,2.9
2018,5,8,17:00,UTC,0,1022.1,47,,,14,2.8,50000,200,3.5,2.6
2018,5,8,17:10,UTC,0,1022,46,,,14,2.7,48203,201,3.1,2.5
2018,5,8,17:20,UTC,0,1022,47,,,14,2.7,50000,202,2.8,2.3
2018,5,8,17:30,UTC,0,1022.2,48,,,13.7,2.8,49387,223,2.6,1.9
2018,5,8,17:40,UTC,2,1022.2,49,,,13.3,2.7,46694,246,2.5,2
2018,5,8,17:50,UTC,3,1022.2,47,,,13.4,2.4,49141,232,2.5,1.8
2018,5,8,18:00,UTC,2,1022.3,48,,,13.2,2.3,50000,228,1.7,1.2
2018,5,8,18:10,UTC,1,1022.2,49,,,12.7,2.3,50000,230,1.2,0.8
2018,5,8,18:20,UTC,0,1022.3,54,,,11.8,2.8,50000,220,1.2,0.7
2018,5,8,18:30,UTC,0,1022.4,54,,,11.5,2.5,48356,0,0,0
2018,5,8,18:40,UTC,0,1022.5,57,,,11.1,3,50000,0,0,0
2018,5,8,18:50,UTC,0,1022.5,60,,,10.4,2.9,45781,111,0.8,0.6
2018,5,8,19:00,UTC,0,1022.5,61,,,10.3,3.1,47603,92,1,0.7
2018,5,8,19:10,UTC,0,1022.5,65,,,8.9,2.7,48389,0,0,0
2018,5,8,19:20,UTC,0,1022.5,70,,,8.4,3.3,46748,0,0,0
2018,5,8,19:30,UTC,0,1022.5,72,,,8.5,3.8,47275,0,0,0
2018,5,8,19:40,UTC,0,1022.5,74,,,8.2,3.8,45587,0,0,0
2018,5,8,19:50,UTC,0,1022.5,73,,,7.7,3.3,44270,0,0,0
2018,5,8,20:00,UTC,0,1022.5,76,,,7.9,3.9,38517,0,0,0
2018,5,8,20:10,UTC,0,1022.5,75,,,7.3,3.2,39577,0,0,0
2018,5,8,20:20,UTC,0,1022.6,78,,,6.8,3.2,38434,0,0,0
2018,5,8,20:30,UTC,0,1022.7,79,,,7.3,3.9,34983,89,0.9,0.6
2018,5,8,20:40,UTC,0,1022.8,76,,,6.8,2.9,34495,0,0,0
2018,5,8,20:50,UTC,0,1023,80,,,6.5,3.2,37138,0,0,0
2018,5,8,21:00,UTC,0,1023,82,,,6.2,3.3,29875,0,0,0
2018,5,8,21:10,UTC,0,1023,84,,,6.4,3.9,30211,24,0.8,0.5
2018,5,8,21:20,UTC,0,1022.9,86,,,5.9,3.7,29764,49,0.7,0.5
2018,5,8,21:30,UTC,0,1023,87,,,5.4,3.4,30561,0,0,0
2018,5,8,21:40,UTC,0,1023,89,,,4.9,3.2,22776,0,0,0
2018,5,8,21:50,UTC,0,1023,87,,,5.5,3.6,29964,0,0,0
2018,5,8,22:00,UTC,0,1023.1,86,,,5.4,3.3,23676,0,0,0
2018,5,8,22:10,UTC,0,1023.2,86,,,5.6,3.5,27514,136,0.9,0.6
2018,5,8,22:20,UTC,0,1023.2,86,,,5.7,3.5,33536,94,1.2,1
2018,5,8,22:30,UTC,0,1023.2,88,,,4.8,3,28567,0,0,0
2018,5,8,22:40,UTC,0,1023.2,89,,,4.6,3,28704,0,0,0
2018,5,8,22:50,UTC,0,1023.3,92,,,4.6,3.3,29708,0,0,0
2018,5,8,23:00,UTC,0,1023.4,90,,,4.7,3.1,31832,116,1.3,0.7
2018,5,8,23:10,UTC,0,1023.5,88,,,5.3,3.5,38710,143,1.7,0.8
2018,5,8,23:20,UTC,0,1023.5,90,,,4.1,2.6,39283,0,0,0
2018,5,8,23:30,UTC,0,1023.5,93,,,4.1,3,29849,0,0,0
2018,5,8,23:40,UTC,0,1023.6,92,,,4.2,3,31409,59,0.9,0.6
2018,5,8,23:50,UTC,0,1023.7,93,,,4.3,3.2,34016,79,0.9,0.6
2018,5,9,00:00,UTC,0,1023.7,93,,,3.7,2.6,29843,0,0,0
2018,5,9,00:10,UTC,0,1023.7,95,,,3.3,2.6,26975,330,0.8,0.6
2018,5,9,00:20,UTC,0,1023.7,96,,,3.3,2.7,28716,360,0.9,0.6
2018,5,9,00:30,UTC,0,1023.7,96,,,3.1,2.6,30269,0,0,0
2018,5,9,00:40,UTC,0,1023.9,94,,,2.5,1.6,33248,8,1.1,0.7
2018,5,9,00:50,UTC,0,1024,95,,,2.5,1.7,34583,0,0,0
2018,5,9,01:00,UTC,0,1024,96,,,2.5,1.9,36221,0,0,0
2018,5,9,01:10,UTC,0,1024.1,97,,,3,2.5,29732,47,0.8,0.7
2018,5,9,01:20,UTC,0,1024.1,95,,,2.4,1.6,32793,0,0,0
2018,5,9,01:30,UTC,0,1024.2,96,,,2.1,1.5,31271,0,0,0
2018,5,9,01:40,UTC,0,1024.2,97,,,2.1,1.6,16861,0,0,0
2018,5,9,01:50,UTC,0,1024.2,98,,,2.4,2,28135,331,0.8,0.7
2018,5,9,02:00,UTC,0,1024.2,98,,,2.3,2,27000,8,0.8,0.6
2018,5,9,02:10,UTC,0,1024.3,98,,,2.4,2,27449,0,0,0
2018,5,9,02:20,UTC,0,1024.3,97,,,2.1,1.7,35041,0,0,0
2018,5,9,02:30,UTC,0,1024.4,97,,,1.8,1.4,29416,317,1.1,0.8
2018,5,9,02:40,UTC,0,1024.5,98,,,2.2,1.9,35316,286,0.9,0.6
2018,5,9,02:50,UTC,0,1024.5,98,,,2.6,2.3,27893,273,1.2,0.6
2018,5,9,03:00,UTC,0,1024.5,97,,,2.6,2.2,31442,286,1.1,0.7
2018,5,9,03:10,UTC,0,1024.5,95,,,2.8,2.1,31673,0,0,0
2018,5,9,03:20,UTC,0,1024.6,90,,,3.9,2.4,37658,79,3.1,1
2018,5,9,03:30,UTC,0,1024.6,69,,,7.1,1.8,34621,87,3.4,1.8
2018,5,9,03:40,UTC,0,1024.6,63,,,8.4,1.8,43107,84,4.5,2.4
2018,5,9,03:50,UTC,0,1024.6,61,,,8.9,1.8,38398,86,4.7,2.9
2018,5,9,04:00,UTC,0,1024.6,60,,,9.2,1.9,43418,89,5,3
2018,5,9,04:10,UTC,0,1024.7,58,,,9.6,1.6,41176,85,4.2,2.9
2018,5,9,04:20,UTC,0,1024.7,58,,,9.8,1.8,32814,90,4.8,2.8
2018,5,9,04:30,UTC,0,1024.7,58,,,10.2,2.3,46256,95,4.7,3
2018,5,9,04:40,UTC,0,1024.7,55,,,10.3,1.8,35898,98,6.6,3.8
2018,5,9,04:50,UTC,0,1024.8,56,,,10.7,2.3,40100,94,5.7,3.8
2018,5,9,05:00,UTC,0,1024.9,54,,,11,2,37939,91,4.9,3.3
2018,5,9,05:10,UTC,0,1024.9,53,,,11.3,2,33978,101,5.3,3.6
2018,5,9,05:20,UTC,0,1024.9,50,,,11.6,1.7,44158,92,5.8,3.7
2018,5,9,05:30,UTC,0,1024.9,48,,,11.9,1.3,38777,96,5.6,4
2018,5,9,05:40,UTC,0,1025,46,,,12.4,1,44788,104,5.5,3.3
2018,5,9,05:50,UTC,0,1025,43,,,12.3,0.1,34446,120,6.8,4.7
2018,5,9,06:00,UTC,0,1025.1,43,,,12.9,0.7,43464,116,5.1,3.3
2018,5,9,06:10,UTC,0,1025.1,44,,,13,1.1,41818,121,5.6,3.7
2018,5,9,06:20,UTC,0,1025.2,46,,,13.2,1.7,33140,109,4.9,3.4
2018,5,9,06:30,UTC,0,1025.2,42,,,12.6,-0.1,32872,126,7.2,5.2
2018,5,9,06:40,UTC,0,1025.3,42,,,12.9,0.3,42892,125,7.2,4.7
2018,5,9,06:50,UTC,0,1025.5,40,,,13,-0.4,37162,124,6,3.6
2018,5,9,07:00,UTC,0,1025.5,38,,,13.9,-0.2,36051,117,5.7,3.4
2018,5,9,07:10,UTC,0,1025.5,38,,,13.4,-0.6,35212,96,5.8,4.4
2018,5,9,07:20,UTC,0,1025.5,41,,,13.2,0.4,33379,91,6.2,4.3
2018,5,9,07:30,UTC,0,1025.6,41,,,13.4,0.6,39395,123,7.4,4.7
2018,5,9,07:40,UTC,0,1025.7,42,,,13,0.2,42300,122,6.7,5.2
2018,5,9,07:50,UTC,0,1025.7,40,,,13.4,-0.1,42128,130,6.9,5
2018,5,9,08:00,UTC,0,1025.7,41,,,13.6,0.5,36009,133,6.5,4.5
2018,5,9,08:10,UTC,0,1025.6,39,,,13.8,0.2,50000,113,5.7,4.1
2018,5,9,08:20,UTC,0,1025.7,39,,,14.6,0.7,38371,102,5.7,3.3
2018,5,9,08:30,UTC,0,1025.7,40,,,14.9,1.3,38418,114,5.2,3.6
2018,5,9,08:40,UTC,0,1025.7,38,,,14.5,0.2,41009,124,6.2,4.3
2018,5,9,08:50,UTC,0,1025.7,37,,,15,0.6,29470,111,6.6,4.4
2018,5,9,09:00,UTC,0,1025.7,40,,,14.3,0.8,50000,92,7,4.8
2018,5,9,09:10,UTC,0,1025.6,37,,,14.6,0,35041,96,7.3,4.6
2018,5,9,09:20,UTC,0,1025.6,37,,,14.4,-0.1,44651,103,7.4,5.5
2018,5,9,09:30,UTC,0,1025.6,40,,,15.4,1.9,39879,105,7.8,4.9
2018,5,9,09:40,UTC,0,1025.6,38,,,14.7,0.4,38967,124,8,5
2018,5,9,09:50,UTC,0,1025.6,37,,,15,0.4,34526,109,7.8,5.4
2018,5,9,10:00,UTC,0,1025.6,36,,,15,0.2,42434,123,8,5.5
2018,5,9,10:10,UTC,0,1025.5,38,,,15.1,0.7,35573,124,8.2,5.8
2018,5,9,10:20,UTC,0,1025.5,36,,,15.1,0.2,34453,107,8.4,5.1
2018,5,9,10:30,UTC,0,1025.5,35,,,15.3,-0.1,37280,91,7.8,5.1
2018,5,9,10:40,UTC,0,1025.5,37,,,15.1,0.3,34626,96,8.7,5.2
2018,5,9,10:50,UTC,0,1025.4,36,,,15.1,0.2,37968,101,11.2,5.3
2018,5,9,11:00,UTC,0,1025.4,39,,,15.1,1.1,35362,95,8.4,5.3
2018,5,9,11:10,UTC,0,1025.5,38,,,14.1,0.2,28947,108,8.7,5.1
2018,5,9,11:20,UTC,0,1025.4,36,,,15,-0.1,35302,95,8.8,5.4
2018,5,9,11:30,UTC,0,1025.5,38,,,14.7,0.6,42955,83,8.8,5.3
2018,5,9,11:40,UTC,0,1025.4,38,,,14.5,0.2,35374,114,8.4,5.6
2018,5,9,11:50,UTC,0,1025.3,37,,,14.5,0.1,36881,116,9.1,5.8
2018,5,9,12:00,UTC,0,1025.3,37,,,14.4,-0.1,41620,117,8.8,6.1
2018,5,9,12:10,UTC,0,1025.3,37,,,14.3,-0.2,46011,108,8,6.1
2018,5,9,12:20,UTC,0,1025.3,36,,,14.2,-0.6,38433,117,8.5,6.6
2018,5,9,12:30,UTC,0,1025.2,36,,,14.2,-0.6,42590,110,9.5,6.9
2018,5,9,12:40,UTC,0,1025.2,37,,,14.6,0.2,39181,101,9,6.1
2018,5,9,12:50,UTC,0,1025.3,38,,,14.2,0,48135,107,8.8,6.6
2018,5,9,13:00,UTC,0,1025.2,36,,,14.5,-0.5,43185,97,7.8,4.9
2018,5,9,13:10,UTC,0,1025,36,,,14.5,-0.4,47085,111,8.8,5.5
2018,5,9,13:20,UTC,0,1025,34,,,14.2,-1.6,36703,89,9.8,5.5
2018,5,9,13:30,UTC,0,1024.9,34,,,14.6,-1.3,38823,95,9.2,5.1
2018,5,9,13:40,UTC,0,1024.9,34,,,14.4,-1.4,40815,80,9.6,5.5
2018,5,9,13:50,UTC,0,1025,35,,,14.7,-0.5,44035,82,8.4,5
2018,5,9,14:00,UTC,0,1024.8,36,,,14.6,-0.4,43303,111,9.6,6.7
2018,5,9,14:10,UTC,0,1024.8,36,,,14.8,-0.1,39233,108,8.6,5.9
2018,5,9,14:20,UTC,0,1024.6,36,,,14.7,-0.4,41370,109,8.6,5.9
2018,5,9,14:30,UTC,0,1024.5,36,,,14.7,-0.1,44701,108,8.9,6.3
2018,5,9,14:40,UTC,0,1024.4,35,,,14.3,-1.1,47724,103,9.1,6.7
2018,5,9,14:50,UTC,0,1024.3,36,,,14.5,-0.4,44159,96,7.7,5.5
2018,5,9,15:00,UTC,0,1024.3,36,,,14.2,-0.5,41180,113,7.4,5.4
2018,5,9,15:10,UTC,0,1024.2,36,,,14.1,-0.8,47337,108,7.9,5.2
2018,5,9,15:20,UTC,0,1024.1,36,,,14.4,-0.3,36737,110,8.5,5.5
2018,5,9,15:30,UTC,0,1024,35,,,14.4,-0.7,38010,107,8.8,5.7
2018,5,9,15:40,UTC,0,1024.1,36,,,14.1,-0.8,38118,102,9.3,6
2018,5,9,15:50,UTC,0,1024,34,,,13.9,-1.6,41905,91,7.9,5.4
2018,5,9,16:00,UTC,0,1024,35,,,14,-1.3,42549,104,8.2,5.4
2018,5,9,16:10,UTC,0,1024,36,,,14,-0.7,47744,105,8.5,5.1
2018,5,9,16:20,UTC,0,1023.9,37,,,13.7,-0.8,47721,106,8.3,5.8
2018,5,9,16:30,UTC,0,1023.9,38,,,13.7,-0.3,48850,104,7.8,5.5
2018,5,9,16:40,UTC,0,1023.8,38,,,13.5,-0.6,44786,99,7.5,5
2018,5,9,16:50,UTC,0,1023.8,38,,,13.4,-0.7,46974,94,9.8,5.4
2018,5,9,17:00,UTC,0,1023.6,39,,,13.3,-0.5,44230,89,7.4,4.7
2018,5,9,17:10,UTC,0,1023.6,40,,,13.1,-0.3,50000,98,8.4,5.3
2018,5,9,17:20,UTC,0,1023.5,41,,,12.9,-0.2,46373,92,7.7,4.9
2018,5,9,17:30,UTC,0,1023.6,42,,,12.8,0,45554,90,7.3,4.8
2018,5,9,17:40,UTC,0,1023.7,43,,,12.5,0.2,50000,91,6.9,4
2018,5,9,17:50,UTC,0,1023.6,44,,,12.2,0.3,50000,90,5.8,3.5
2018,5,9,18:00,UTC,0,1023.6,44,,,12,0.3,50000,87,4.7,2.8
2018,5,9,18:10,UTC,0,1023.6,46,,,11.5,0.4,50000,93,5.2,2.8
2018,5,9,18:20,UTC,0,1023.7,47,,,11.3,0.4,50000,99,5.1,3.5
2018,5,9,18:30,UTC,0,1023.7,50,,,10.7,0.5,50000,100,4.9,3.3
2018,5,9,18:40,UTC,0,1023.8,49,,,10.7,0.4,50000,94,4.8,3.2
2018,5,9,18:50,UTC,0,1023.7,49,,,10.4,0.3,50000,86,3.2,2.1
2018,5,9,19:00,UTC,0,1023.6,50,,,10.2,0.3,50000,85,3.5,2.2
2018,5,9,19:10,UTC,0,1023.6,51,,,9.9,0.2,50000,84,3.2,1.8
2018,5,9,19:20,UTC,0,1023.6,51,,,9.8,0.1,50000,78,3.4,1.7
2018,5,9,19:30,UTC,0,1023.6,51,,,9.6,0,50000,80,3.3,1.8
2018,5,9,19:40,UTC,0,1023.5,52,,,9.2,-0.1,50000,89,3.8,2
2018,5,9,19:50,UTC,0,1023.7,52,,,9.3,0,50000,68,2.8,1.5
2018,5,9,20:00,UTC,0,1023.7,53,,,9.1,0,50000,67,3,1.7
2018,5,9,20:10,UTC,0,1023.7,53,,,9.1,0,50000,66,3.4,2
2018,5,9,20:20,UTC,0,1023.8,57,,,8.2,0.1,50000,63,3,1.6
2018,5,9,20:30,UTC,0,1023.8,60,,,7.4,0.1,50000,34,3.2,1.2
2018,5,9,20:40,UTC,0,1023.9,62,,,7.4,0.5,50000,53,2.1,1.1
2018,5,9,20:50,UTC,0,1023.9,59,,,7.7,0.1,48773,69,2.4,1.4
2018,5,9,21:00,UTC,0,1024.1,59,,,7.5,0,50000,65,1.9,1.2
2018,5,9,21:10,UTC,0,1024.2,59,,,7.5,0,50000,55,2.2,1.4
2018,5,9,21:20,UTC,0,1024.2,61,,,7.1,0.1,50000,59,2.6,1.4
2018,5,9,21:30,UTC,0,1024.1,57,,,7.8,-0.2,50000,79,4,2.4
2018,5,9,21:40,UTC,0,1024.2,58,,,7.7,0,50000,71,3.4,2
2018,5,9,21:50,UTC,0,1024.2,58,,,7.9,0.2,50000,82,4.4,2.3
2018,5,9,22:00,UTC,0,1024.1,59,,,8.2,0.6,50000,88,4.7,3
2018,5,9,22:10,UTC,0,1024.2,61,,,8,1.1,50000,89,4.8,3.3
2018,5,9,22:20,UTC,0,1024.1,62,,,8.1,1.4,50000,88,4.6,3.2
2018,5,9,22:30,UTC,0,1024.2,65,,,8.2,2,50000,92,5,3
2018,5,9,22:40,UTC,0,1024.2,65,,,8.5,2.4,50000,86,4.8,3.2
2018,5,9,22:50,UTC,0,1024.3,66,,,8.5,2.5,48464,86,4.9,2.8
2018,5,9,23:00,UTC,0,1024.2,67,,,8.2,2.5,49373,82,4.4,2.7
2018,5,9,23:10,UTC,0,1024.2,69,,,8.1,2.9,49569,93,5.7,3.6
2018,5,9,23:20,UTC,0,1024.2,69,,,8.3,3.1,50000,92,5.8,3.7
2018,5,9,23:30,UTC,0,1024.1,70,,,8.3,3.1,43679,97,5.8,4.3
2018,5,9,23:40,UTC,0,1024.1,70,,,8.6,3.3,47298,98,6.6,4.7
2018,5,9,23:50,UTC,0,1024.1,70,,,8.4,3.1,45830,96,6.5,4.4
2018,5,10,00:00,UTC,0,1024.1,71,,,8.3,3.3,45582,97,5.5,4
2018,5,10,00:10,UTC,0,1024,72,,,8.1,3.3,46148,99,5.4,4.1
2018,5,10,00:20,UTC,0,1024.1,72,,,8.1,3.4,49650,99,6.1,4.6
2018,5,10,00:30,UTC,0,1024.1,73,,,7.9,3.4,47469,100,5.9,4.5
2018,5,10,00:40,UTC,0,1024.2,72,,,8.1,3.4,44490,98,6,4.3
2018,5,10,00:50,UTC,0,1024,73,,,8.1,3.5,49216,99,7.3,4.6
2018,5,10,01:00,UTC,0,1024.1,74,,,7.9,3.6,44973,100,7.3,4.8
2018,5,10,01:10,UTC,0,1024,76,,,7.7,3.8,47249,100,6.8,4.6
2018,5,10,01:20,UTC,0,1024,77,,,7.5,3.7,43322,99,6.4,4.5
2018,5,10,01:30,UTC,0,1024.1,77,,,7.7,3.8,48287,98,5.6,4.3
2018,5,10,01:40,UTC,0,1024.2,79,,,7.2,3.7,44421,102,5.3,3.9
2018,5,10,01:50,UTC,0,1024.3,79,,,7.3,3.8,46133,101,5.2,3.4
2018,5,10,02:00,UTC,0,1024.2,79,,,7.2,3.7,43464,98,4.4,3.1
2018,5,10,02:10,UTC,0,1024.3,79,,,7,3.7,46825,107,4.8,2.9
2018,5,10,02:20,UTC,0,1024.3,78,,,7.3,3.8,40894,96,6,3.2
2018,5,10,02:30,UTC,0,1024.3,78,,,7.4,3.8,48218,89,4.1,2.6
2018,5,10,02:40,UTC,0,1024.3,78,,,7.4,3.8,42880,83,4.2,2.3
2018,5,10,02:50,UTC,0,1024.4,78,,,7.4,3.8,45213,79,3.4,2
2018,5,10,03:00,UTC,0,1024.4,78,,,7.4,3.8,46186,82,3.7,2
2018,5,10,03:10,UTC,0,1024.4,78,,,7.6,3.9,42326,91,5.1,3
2018,5,10,03:20,UTC,0,1024.5,77,,,7.8,3.9,37851,95,5.1,3.3
2018,5,10,03:30,UTC,0,1024.5,75,,,8.1,4,35641,96,4.8,3.3
2018,5,10,03:40,UTC,0,1024.5,74,,,8.4,3.9,38882,98,5.2,3.6
2018,5,10,03:50,UTC,0,1024.5,70,,,8.8,3.7,37812,102,7.2,4.2
2018,5,10,04:00,UTC,0,1024.5,71,,,9,4,39630,99,5.6,4
2018,5,10,04:10,UTC,0,1024.5,67,,,9.5,3.6,42710,99,6.1,4.3
2018,5,10,04:20,UTC,0,1024.6,67,,,9.7,3.9,40016,101,6,4.1
2018,5,10,04:30,UTC,0,1024.6,64,,,10.1,3.7,41272,103,5.6,3.7
2018,5,10,04:40,UTC,0,1024.6,63,,,10.2,3.5,34151,99,5.6,4
2018,5,10,04:50,UTC,0,1024.5,61,,,10.6,3.4,38030,99,6.9,4.4
2018,5,10,05:00,UTC,0,1024.6,60,,,10.9,3.5,49029,105,6.7,4.5
2018,5,10,05:10,UTC,0,1024.6,58,,,11,3.1,44000,108,7.9,4.9
2018,5,10,05:20,UTC,0,1024.5,58,,,11,3,38523,98,6.4,4.8
2018,5,10,05:30,UTC,0,1024.5,57,,,11.2,3.1,39643,106,7.3,5
2018,5,10,05:40,UTC,0,1024.6,58,,,11.3,3.3,38224,110,7.5,5.2
2018,5,10,05:50,UTC,0,1024.8,58,,,11.5,3.4,49478,100,6.5,4.2
2018,5,10,06:00,UTC,0,1024.8,56,,,11.4,3,42675,101,6.8,5
2018,5,10,06:10,UTC,0,1024.9,56,,,11.9,3.3,34895,105,6.4,4.4
2018,5,10,06:20,UTC,0,1024.8,56,,,12,3.3,36193,97,7.3,4.9
2018,5,10,06:30,UTC,0,1024.8,55,,,12.1,3.4,31588,94,6.4,4.5
2018,5,10,06:40,UTC,0,1024.8,56,,,12.3,3.7,34356,95,6.3,4.3
2018,5,10,06:50,UTC,0,1024.8,53,,,12.6,3.4,50000,112,6.9,4.6
2018,5,10,07:00,UTC,0,1024.8,54,,,12.2,3.2,37726,103,7.5,5.5
2018,5,10,07:10,UTC,0,1024.8,53,,,12.4,3,44361,112,7.6,5.5
2018,5,10,07:20,UTC,0,1024.9,51,,,12.9,3,43683,111,6.5,4.9
2018,5,10,07:30,UTC,0,1025,51,,,13.5,3.5,37866,97,6.4,4
2018,5,10,07:40,UTC,0,1024.9,51,,,13.1,3.1,39235,97,5.3,3.7
2018,5,10,07:50,UTC,0,1024.8,50,,,13.3,3.2,36554,85,5.9,4.2
2018,5,10,08:00,UTC,0,1024.7,50,,,13.6,3.3,36639,87,7,4.7
2018,5,10,08:10,UTC,0,1024.8,49,,,14,3.5,36076,93,6,4.2
2018,5,10,08:20,UTC,0,1024.8,49,,,14.1,3.4,38411,93,6.9,4.8
2018,5,10,08:30,UTC,0,1024.8,48,,,14.2,3.2,37492,94,8.3,5.3
2018,5,10,08:40,UTC,0,1024.8,49,,,14.8,4,32563,94,7.5,5
2018,5,10,08:50,UTC,0,1024.9,49,,,14.5,4,37493,90,7.6,4.8
2018,5,10,09:00,UTC,0,1024.9,48,,,14.5,3.7,33858,93,8.6,5.6
2018,5,10,09:10,UTC,0,1024.8,48,,,14.4,3.4,39660,96,9.4,6.4
2018,5,10,09:20,UTC,0,1024.8,47,,,14.6,3.6,36005,101,9.5,6.6
2018,5,10,09:30,UTC,0,1025,48,,,14.2,3.5,37455,93,9.9,6.6
2018,5,10,09:40,UTC,0,1024.9,47,,,14.3,3.1,35317,95,9.8,7.2
2018,5,10,09:50,UTC,0,1024.9,45,,,14.3,2.6,28731,89,11,6.7
2018,5,10,10:00,UTC,0,1025,44,,,14.6,2.4,37165,90,10.7,6.5
2018,5,10,10:10,UTC,0,1024.9,45,,,15,3,29810,89,8.8,5.7
2018,5,10,10:20,UTC,0,1024.9,43,,,15.2,2.7,34663,91,8.7,6.1
2018,5,10,10:30,UTC,0,1024.8,43,,,15.2,2.8,33088,89,9.8,6.5
2018,5,10,10:40,UTC,0,1024.6,42,,,15.3,2.5,33772,97,11.3,7.1
2018,5,10,10:50,UTC,0,1024.6,41,,,15.4,2.2,35615,101,10.6,7.2
2018,5,10,11:00,UTC,0,1024.6,43,,,15.3,2.7,36202,91,10.6,7
2018,5,10,11:10,UTC,0,1024.8,41,,,15.7,2.5,34614,97,9.9,6
2018,5,10,11:20,UTC,0,1024.6,41,,,15.6,2.2,38534,107,10.2,6.4
2018,5,10,11:30,UTC,0,1024.7,40,,,15.9,2.4,36379,104,9.5,6.7
2018,5,10,11:40,UTC,0,1024.6,39,,,15.6,1.7,33967,98,10.8,7.3
2018,5,10,11:50,UTC,0,1024.6,38,,,15.3,1.2,36516,102,12.4,7.9
2018,5,10,12:00,UTC,0,1024.6,38,,,15.3,1.1,36762,102,12.3,8
2018,5,10,12:10,UTC,0,1024.6,38,,,15.7,1.4,37061,102,11.7,8.1
2018,5,10,12:20,UTC,0,1024.5,36,,,15.8,0.8,43779,102,11.7,8.5
2018,5,10,12:30,UTC,0,1024.3,35,,,15.7,0.2,38935,100,11.6,8.5
2018,5,10,12:40,UTC,0,1024.4,36,,,16.2,1,45131,105,13,8.4
2018,5,10,12:50,UTC,0,1024.4,35,,,16.4,0.9,39735,107,11.1,8
2018,5,10,13:00,UTC,0,1024.4,34,,,16.7,0.8,49084,102,10.6,6.6
2018,5,10,13:10,UTC,0,1024.2,34,,,16.4,0.3,39445,104,10.9,7.2
2018,5,10,13:20,UTC,0,1024.3,34,,,16.5,0.5,34355,107,11.2,7.2
2018,5,10,13:30,UTC,0,1024.3,35,,,16.7,1.1,31070,101,9.6,6.3
2018,5,10,13:40,UTC,0,1024.3,33,,,16.7,0.5,46143,100,9,5.9
2018,5,10,13:50,UTC,0,1024.4,35,,,16.1,0.5,41900,90,9.6,6.4
2018,5,10,14:00,UTC,0,1024.4,35,,,16.1,0.8,40511,86,9.4,6.3
2018,5,10,14:10,UTC,0,1024.4,36,,,16.2,1.2,42865,96,9,6.5
2018,5,10,14:20,UTC,0,1024.4,35,,,16.1,0.7,46602,100,9.7,6.8
2018,5,10,14:30,UTC,0,1024.3,34,,,16.3,0.6,40904,100,9.7,6.5
2018,5,10,14:40,UTC,0,1024.2,34,,,16.2,0.4,45798,104,10.3,6.6
2018,5,10,14:50,UTC,0,1024.1,35,,,16.1,0.5,39371,107,8.7,6.4
2018,5,10,15:00,UTC,0,1024,35,,,16.2,0.8,39811,110,10.9,7
2018,5,10,15:10,UTC,0,1023.9,34,,,16.1,0.3,45676,106,9.4,6.6
2018,5,10,15:20,UTC,0,1023.9,34,,,16.5,0.5,48319,107,8.4,5.6
2018,5,10,15:30,UTC,0,1024,35,,,16.7,1,45581,109,7.3,5.3
2018,5,10,15:40,UTC,0,1024,34,,,16.4,0.7,43596,87,6.2,4.1
2018,5,10,15:50,UTC,0,1024,34,,,16.3,0.3,37037,87,7.1,4.8
2018,5,10,16:00,UTC,0,1023.9,33,,,16.4,0.2,42530,89,6.7,4.4
2018,5,10,16:10,UTC,0,1023.9,34,,,16.2,0.4,43495,93,7.2,4.9
2018,5,10,16:20,UTC,0,1023.9,35,,,16.1,0.4,41037,88,7.2,4.6
2018,5,10,16:30,UTC,0,1023.8,34,,,15.8,-0.2,49272,88,8,5.3
2018,5,10,16:40,UTC,0,1023.8,34,,,15.7,-0.1,42421,88,7.3,4.7
2018,5,10,16:50,UTC,0,1023.7,35,,,15.6,0.1,45362,90,8.8,5.5
2018,5,10,17:00,UTC,0,1023.8,36,,,15.5,0.3,45406,94,6.9,5
2018,5,10,17:10,UTC,0,1023.8,36,,,15.4,0.3,46422,96,7.5,4.9
2018,5,10,17:20,UTC,0,1023.9,37,,,15.2,0.5,49648,95,7.4,4.5
2018,5,10,17:30,UTC,0,1023.9,37,,,15.2,0.5,50000,99,6.4,4.2
2018,5,10,17:40,UTC,0,1023.9,38,,,14.9,0.6,49682,94,7.2,4.3
2018,5,10,17:50,UTC,0,1023.8,38,,,14.8,0.6,44382,93,6.6,4.2
2018,5,10,18:00,UTC,0,1023.8,38,,,14.7,0.5,47259,92,5.2,3.6
2018,5,10,18:10,UTC,0,1023.9,40,,,14.2,0.6,49197,93,5.7,3.5
2018,5,10,18:20,UTC,0,1023.9,39,,,14.3,0.4,50000,88,4.8,3
2018,5,10,18:30,UTC,0,1023.9,40,,,14,0.5,49619,85,5,3.1
2018,5,10,18:40,UTC,0,1023.9,41,,,13.6,0.6,50000,85,5,2.7
2018,5,10,18:50,UTC,0,1023.9,42,,,13.2,0.6,46990,88,4.6,2.9
2018,5,10,19:00,UTC,0,1023.9,42,,,13.2,0.6,48465,85,5.5,3.1
2018,5,10,19:10,UTC,0,1023.9,43,,,12.9,0.6,47087,87,4.6,2.7
2018,5,10,19:20,UTC,0,1023.9,44,,,12.6,0.7,50000,80,3.8,2.3
2018,5,10,19:30,UTC,0,1023.9,45,,,12.2,0.7,49268,88,4.1,2.5
2018,5,10,19:40,UTC,0,1023.9,47,,,11.8,0.9,50000,93,4.5,3
2018,5,10,19:50,UTC,0,1024,50,,,10.9,0.8,49047,99,3.7,2.6
2018,5,10,20:00,UTC,0,1024,51,,,10.8,1.1,48560,98,3.9,2.6
2018,5,10,20:10,UTC,0,1024,53,,,10.4,1.2,48696,99,4.2,2.8
2018,5,10,20:20,UTC,0,1023.9,53,,,10.4,1.3,45701,101,4.3,3.3
2018,5,10,20:30,UTC,0,1024,53,,,10.5,1.4,47940,102,4,3.1
2018,5,10,20:40,UTC,0,1023.9,55,,,10.1,1.5,48148,103,4.3,3.3
2018,5,10,20:50,UTC,0,1023.9,54,,,10.6,1.8,49960,96,4.8,3.4
2018,5,10,21:00,UTC,0,1023.9,54,,,10.6,1.6,50000,97,4.6,2.7
2018,5,10,21:10,UTC,0,1024,55,,,10.2,1.7,43864,101,2.5,1.7
2018,5,10,21:20,UTC,0,1024.1,56,,,10.3,1.9,50000,100,2.9,1.7
2018,5,10,21:30,UTC,0,1024,57,,,10.1,1.8,46242,94,2.3,1.3
2018,5,10,21:40,UTC,0,1024,58,,,9.8,1.8,49479,99,2.4,1.3
2018,5,10,21:50,UTC,0,1024,59,,,9.7,2,48360,97,2.5,1.4
2018,5,10,22:00,UTC,0,1024,60,,,9.6,2.2,50000,90,2.4,1.3
2018,5,10,22:10,UTC,0,1024.1,62,,,9.5,2.6,48311,85,1.9,1.1
2018,5,10,22:20,UTC,0,1024.3,63,,,9.3,2.6,49009,85,1.7,0.9
2018,5,10,22:30,UTC,0,1024.3,65,,,9.2,2.9,50000,87,1.5,0.9
2018,5,10,22:40,UTC,0,1024.4,66,,,9.1,3.1,48450,86,1.4,0.8
2018,5,10,22:50,UTC,0,1024.4,67,,,9.1,3.2,50000,83,1.7,1.1
2018,5,10,23:00,UTC,0,1024.5,68,,,8.8,3.3,50000,88,1.9,1
2018,5,10,23:10,UTC,0,1024.6,71,,,7.4,2.4,46941,0,0,0
2018,5,10,23:20,UTC,0,1024.7,76,,,6.9,2.9,49407,17,1.4,0.9
2018,5,10,23:30,UTC,0,1024.7,75,,,7.3,3.2,47351,349,1.4,1.1
2018,5,10,23:40,UTC,0,1024.8,78,,,6.6,2.9,45650,1,1.6,1.1
2018,5,10,23:50,UTC,0,1024.9,82,,,5.4,2.6,43946,76,0.8,0.5
2018,5,11,00:00,UTC,0,1025,85,,,5,2.8,50000,97,0.7,0.5
2018,5,11,00:10,UTC,0,1024.9,85,,,4.8,2.5,48728,0,0,0
2018,5,11,00:20,UTC,0,1025,86,,,4.4,2.2,40737,0,0,0
2018,5,11,00:30,UTC,0,1025.1,87,,,4.1,2.1,40273,353,1,0.5
2018,5,11,00:40,UTC,0,1025.1,89,,,3.5,1.9,45773,6,1.3,0.9
2018,5,11,00:50,UTC,0,1025.1,88,,,3.6,1.9,44315,2,1.1,0.6
2018,5,11,01:00,UTC,0,1025.2,90,,,3.4,2,45416,358,1.4,0.9
2018,5,11,01:10,UTC,0,1025.2,91,,,3.6,2.3,43104,21,1.7,0.9
2018,5,11,01:20,UTC,0,1025.2,90,,,3.8,2.3,42789,0,0,0
2018,5,11,01:30,UTC,0,1025.4,89,,,2.9,1.2,42546,349,1.3,0.7
2018,5,11,01:40,UTC,0,1025.4,92,,,3.4,2.3,40882,89,1.4,1.1
2018,5,11,01:50,UTC,0,1025.4,88,,,3,1.2,41421,16,1.3,0.9
2018,5,11,02:00,UTC,0,1025.4,93,,,3.5,2.5,46711,4,1.5,1
2018,5,11,02:10,UTC,0,1025.4,91,,,3.5,2.2,38677,0,0,0
2018,5,11,02:20,UTC,0,1025.4,88,,,3.7,2,43180,0,0,0
2018,5,11,02:30,UTC,0,1025.5,90,,,3.8,2.3,43144,0,0,0
2018,5,11,02:40,UTC,0,1025.5,91,,,3.3,2,38436,341,1.5,1.2
2018,5,11,02:50,UTC,0,1025.5,88,,,3.7,1.9,39468,3,1.1,0.6
2018,5,11,03:00,UTC,0,1025.5,84,,,4.7,2.3,43745,359,1,0.7
2018,5,11,03:10,UTC,0,1025.6,84,,,4.9,2.4,38318,358,1.5,1.1
2018,5,11,03:20,UTC,0,1025.5,82,,,5,2.2,43003,53,1.3,0.6
2018,5,11,03:30,UTC,0,1025.5,81,,,6,3.1,34567,41,1.4,0.7
2018,5,11,03:40,UTC,0,1025.6,84,,,6.3,3.7,33379,343,1.3,0.9
2018,5,11,03:50,UTC,0,1025.6,78,,,7.3,3.7,36085,348,1.7,1.2
2018,5,11,04:00,UTC,0,1025.6,73,,,9.1,4.6,31035,41,1.4,0.6
2018,5,11,04:10,UTC,0,1025.6,67,,,10.3,4.5,36219,57,1.4,0.8
2018,5,11,04:20,UTC,0,1025.6,60,,,11,3.6,40853,88,2.8,1.5
2018,5,11,04:30,UTC,0,1025.6,57,,,11.4,3.1,39529,98,4.1,2.7
2018,5,11,04:40,UTC,0,1025.7,56,,,11.7,3.3,37396,98,4,2.5
2018,5,11,04:50,UTC,0,1025.8,56,,,12.3,3.8,43141,95,3.2,2.1
2018,5,11,05:00,UTC,0,1025.8,55,,,12.6,3.8,39255,100,4.2,2.6
2018,5,11,05:10,UTC,0,1025.8,54,,,12.8,3.8,41990,93,3.7,2.6
2018,5,11,05:20,UTC,0,1025.8,53,,,13.2,4,40578,95,3.7,2.8
2018,5,11,05:30,UTC,0,1025.8,51,,,13.7,3.9,44231,97,3.9,2.8
2018,5,11,05:40,UTC,0,1025.9,48,,,14.2,3.2,42458,117,4.4,3
2018,5,11,05:50,UTC,0,1026,47,,,14,2.9,39897,131,5,3.4
2018,5,11,06:00,UTC,0,1026,45,,,14.5,2.7,32225,122,4.2,3.1
2018,5,11,06:10,UTC,0,1026,44,,,14.7,2.6,39273,115,4.6,2.8
2018,5,11,06:20,UTC,0,1026,44,,,14.9,2.7,33858,106,4.5,3.2
2018,5,11,06:30,UTC,0,1026,44,,,15.3,3,35399,116,4.2,2.9
2018,5,11,06:40,UTC,0,1026,43,,,15.5,2.9,34675,120,5.2,3.2
2018,5,11,06:50,UTC,0,1025.9,45,,,15.9,3.9,39569,119,4.8,3
2018,5,11,07:00,UTC,0,1025.9,42,,,15.6,2.6,33049,109,4.9,3.5
2018,5,11,07:10,UTC,0,1025.9,43,,,16,3.2,42278,121,4.4,3.1
2018,5,11,07:20,UTC,0,1026,42,,,16.3,3.4,31186,123,4.3,3.2
2018,5,11,07:30,UTC,0,1026,38,,,16.6,2.3,34908,122,4.3,2.6
2018,5,11,07:40,UTC,0,1026,40,,,16.4,2.7,37219,148,5,3.4
2018,5,11,07:50,UTC,0,1026,41,,,16.8,3.3,37175,142,5.3,3.7
2018,5,11,08:00,UTC,0,1025.9,39,,,16.5,2.4,36300,127,5.2,3.5
2018,5,11,08:10,UTC,0,1025.9,39,,,17.1,2.9,33806,135,5.3,3.9
2018,5,11,08:20,UTC,0,1025.9,40,,,17.3,3.4,32926,122,5.3,3.4
2018,5,11,08:30,UTC,0,1025.9,38,,,17.3,2.9,30204,107,5.5,3.9
2018,5,11,08:40,UTC,0,1026,39,,,17.5,3.4,38167,122,5.9,3.9
2018,5,11,08:50,UTC,0,1026,38,,,17.6,3.1,28689,130,5.1,4.2
2018,5,11,09:00,UTC,0,1026,37,,,17.7,2.7,39183,126,6.1,4.1
2018,5,11,09:10,UTC,0,1025.9,37,,,18.3,3.5,36045,118,6,4.5
2018,5,11,09:20,UTC,0,1025.9,35,,,18,2.2,31208,114,6.4,4.7
2018,5,11,09:30,UTC,0,1025.9,33,,,18.3,1.9,36392,111,6.6,4.8
2018,5,11,09:40,UTC,0,1025.9,33,,,18.3,1.9,45454,120,7.1,5.2
2018,5,11,09:50,UTC,0,1025.9,33,,,18.7,2.3,34446,111,8.4,5.3
2018,5,11,10:00,UTC,0,1025.8,32,,,19.1,2.1,29665,107,7.5,5.5
2018,5,11,10:10,UTC,0,1025.8,31,,,18.8,1.3,30897,111,7.1,5.2
2018,5,11,10:20,UTC,0,1025.9,31,,,18.9,1.2,31774,115,7,5.2
2018,5,11,10:30,UTC,0,1025.9,30,,,19,0.9,34772,129,6.5,4.9
2018,5,11,10:40,UTC,0,1025.9,30,,,19,1,40947,113,7,5.5
2018,5,11,10:50,UTC,0,1025.9,30,,,18.8,1,32077,113,6.9,4.9
2018,5,11,11:00,UTC,0,1025.8,30,,,19,1,36080,100,7.7,4.9
2018,5,11,11:10,UTC,0,1025.9,31,,,18.7,1,36426,100,6.9,4.8
2018,5,11,11:20,UTC,0,1025.8,30,,,18.6,0.6,35605,99,8.8,5.5
2018,5,11,11:30,UTC,0,1025.9,30,,,18.4,0.5,31209,122,8.6,6.2
2018,5,11,11:40,UTC,0,1025.9,30,,,18.5,0.6,38794,112,8.1,6.3
2018,5,11,11:50,UTC,0,1025.8,30,,,18.9,1,46706,98,8.4,5.9
2018,5,11,12:00,UTC,0,1025.7,29,,,18.8,0.4,41452,95,8.3,5.8
2018,5,11,12:10,UTC,0,1025.6,28,,,18.7,-0.1,35926,103,8.7,6.9
2018,5,11,12:20,UTC,0,1025.6,28,,,19,0,48372,105,8.2,6.1
2018,5,11,12:30,UTC,0,1025.5,28,,,19,0.1,32326,104,8.4,6.5
2018,5,11,12:40,UTC,0,1025.5,28,,,19,0.1,36247,112,9.2,6.8
2018,5,11,12:50,UTC,0,1025.5,28,,,19.1,0.3,37046,123,8.6,6.5
2018,5,11,13:00,UTC,0,1025.5,29,,,19.4,1,36712,123,8.3,5.7
2018,5,11,13:10,UTC,0,1025.4,27,,,19.1,-0.1,43657,127,8.1,5.9
2018,5,11,13:20,UTC,0,1025.4,28,,,19.3,0.3,39621,118,9.1,6.2
2018,5,11,13:30,UTC,0,1025.3,28,,,19.4,0.3,40232,102,8.5,5.7
2018,5,11,13:40,UTC,0,1025.3,27,,,19.5,0.1,30419,115,7.4,5.4
2018,5,11,13:50,UTC,0,1025.2,29,,,19.7,0.9,37079,114,8.6,5.2
2018,5,11,14:00,UTC,0,1025.1,26,,,19.2,-0.7,39183,98,7.6,5.1
2018,5,11,14:10,UTC,0,1025,27,,,19.1,-0.5,35550,87,7.7,5.3
2018,5,11,14:20,UTC,0,1025.1,27,,,19.2,-0.2,39671,89,8.7,5.1
2018,5,11,14:30,UTC,0,1025.1,27,,,19.3,-0.1,44058,90,7.2,5.1
2018,5,11,14:40,UTC,0,1025.1,28,,,19.4,0.3,35879,93,6.7,4.1
2018,5,11,14:50,UTC,0,1025.1,28,,,19.3,0.5,41190,102,6.9,4.7
2018,5,11,15:00,UTC,0,1024.9,28,,,19.2,0.3,42160,96,7.1,3.6
2018,5,11,15:10,UTC,0,1024.9,28,,,19.3,0.4,37570,95,6.4,4.3
2018,5,11,15:20,UTC,0,1024.8,29,,,19.1,0.6,44495,91,8.2,5.2
2018,5,11,15:30,UTC,0,1024.7,29,,,19.2,0.7,50000,104,7.5,4.8
2018,5,11,15:40,UTC,0,1024.7,29,,,19.2,0.8,49137,109,7.3,5.2
2018,5,11,15:50,UTC,0,1024.8,29,,,19.2,0.7,47107,98,6.5,3.7
2018,5,11,16:00,UTC,0,1024.7,29,,,18.9,0.3,40787,97,6.9,4.4
2018,5,11,16:10,UTC,0,1024.7,30,,,18.7,0.5,36719,98,7.7,5.2
2018,5,11,16:20,UTC,0,1024.5,31,,,18.5,0.9,42733,104,7.2,5.4
2018,5,11,16:30,UTC,0,1024.6,31,,,18.5,1,38774,108,6.5,4.4
2018,5,11,16:40,UTC,0,1024.6,31,,,18.2,0.7,45071,100,6.6,4.7
2018,5,11,16:50,UTC,0,1024.5,33,,,18.2,1.6,42891,105,5.9,4
2018,5,11,17:00,UTC,0,1024.6,32,,,18.1,1,44371,87,5.5,3
2018,5,11,17:10,UTC,0,1024.6,32,,,17.9,0.7,43980,77,4.4,2.4
2018,5,11,17:20,UTC,0,1024.5,32,,,17.7,0.8,46538,85,4.3,2.6
2018,5,11,17:30,UTC,0,1024.5,33,,,17.3,1,46984,94,5.2,3.5
2018,5,11,17:40,UTC,0,1024.6,34,,,16.9,1.1,48783,101,4.6,2.9
2018,5,11,17:50,UTC,0,1024.6,35,,,16.7,1.2,49082,96,4,2.6
2018,5,11,18:00,UTC,0,1024.6,34,,,16.5,0.6,49993,96,5.3,3.2
2018,5,11,18:10,UTC,0,1024.5,35,,,16.1,0.4,49164,93,5.7,3.5
2018,5,11,18:20,UTC,0,1024.5,35,,,15.9,0.2,50000,92,5,3.5
2018,5,11,18:30,UTC,0,1024.5,35,,,15.6,0.3,50000,91,5.4,3.6
2018,5,11,18:40,UTC,0,1024.6,36,,,15.3,0.2,50000,91,4.8,3.3
2018,5,11,18:50,UTC,0,1024.6,35,,,15.3,0.1,50000,90,4.6,2.9
2018,5,11,19:00,UTC,0,1024.6,37,,,14.8,0.1,50000,87,3.7,2.1
2018,5,11,19:10,UTC,0,1024.7,37,,,14.8,0.1,50000,85,3.1,2
2018,5,11,19:20,UTC,0,1024.7,38,,,14.5,0.2,50000,87,3.1,1.7
2018,5,11,19:30,UTC,0,1024.7,39,,,13.9,0.2,50000,82,2.7,1.2
2018,5,11,19:40,UTC,0,1024.8,41,,,13.4,0.4,50000,96,2,0.8
2018,5,11,19:50,UTC,0,1024.9,45,,,12.3,0.7,50000,329,1.4,0.6
2018,5,11,20:00,UTC,0,1025,47,,,11.7,0.9,50000,329,1.5,0.9
2018,5,11,20:10,UTC,0,1025,46,,,12.1,0.8,50000,6,1.2,0.8
2018,5,11,20:20,UTC,0,1025.1,46,,,12.2,0.8,50000,50,1.7,0.9
2018,5,11,20:30,UTC,0,1025.2,52,,,10.8,1.2,49839,44,1.7,0.7
2018,5,11,20:40,UTC,0,1025.3,52,,,10.8,1.2,50000,0,0,0
2018,5,11,20:50,UTC,0,1025.2,54,,,10.5,1.7,50000,41,1.3,0.6
2018,5,11,21:00,UTC,0,1025.1,55,,,10.3,1.6,50000,61,1.2,0.6
2018,5,11,21:10,UTC,0,1025.2,59,,,9.3,1.7,50000,0,0,0
2018,5,11,21:20,UTC,0,1025.2,57,,,9.7,1.5,47030,0,0,0
2018,5,11,21:30,UTC,0,1025.3,59,,,9.1,1.5,46598,329,1.3,0.6
2018,5,11,21:40,UTC,0,1025.3,61,,,9.2,2,50000,3,1.3,0.9
2018,5,11,21:50,UTC,0,1025.3,61,,,9.1,2,50000,45,1.5,0.9
2018,5,11,22:00,UTC,0,1025.3,64,,,8.1,1.7,45071,29,1.1,0.6
2018,5,11,22:10,UTC,0,1025.3,68,,,7.9,2.4,46129,0,0,0
2018,5,11,22:20,UTC,0,1025.2,70,,,7.6,2.4,44085,24,0.9,0.5
2018,5,11,22:30,UTC,0,1025.3,72,,,7,2.4,44409,357,1.9,0.8
2018,5,11,22:40,UTC,0,1025.3,73,,,6.8,2.3,50000,321,2,1.2
2018,5,11,22:50,UTC,0,1025.4,71,,,7.1,2.2,50000,0,0,0
2018,5,11,23:00,UTC,0,1025.4,75,,,7.2,3,47630,61,0.8,0.6
2018,5,11,23:10,UTC,0,1025.5,76,,,5.9,1.9,48079,357,1.1,0.7
2018,5,11,23:20,UTC,0,1025.5,78,,,6.2,2.8,50000,360,1.6,1.1
2018,5,11,23:30,UTC,0,1025.5,77,,,5.7,2,44123,67,0.8,0.5
2018,5,11,23:40,UTC,0,1025.5,80,,,5.4,2.3,50000,86,1,0.6
2018,5,11,23:50,UTC,0,1025.5,80,,,5.4,2.2,40267,0,0,0
2018,5,12,00:00,UTC,0,1025.6,82,,,5,2.2,44829,322,1.4,0.7
2018,5,12,00:10,UTC,0,1025.6,83,,,5.2,2.5,43140,0,0,0
2018,5,12,00:20,UTC,0,1025.5,79,,,5.7,2.3,41762,67,1,0.7
2018,5,12,00:30,UTC,0,1025.6,80,,,4.9,1.8,39432,0,0,0
2018,5,12,00:40,UTC,0,1025.6,84,,,4.9,2.4,42042,300,1,0.6
2018,5,12,00:50,UTC,0,1025.6,84,,,4.8,2.3,43102,51,0.8,0.6
2018,5,12,01:00,UTC,0,1025.6,84,,,4.8,2.2,42100,102,0.7,0.5
2018,5,12,01:10,UTC,0,1025.6,84,,,4.5,2,41665,0,0,0
2018,5,12,01:20,UTC,0,1025.6,83,,,4.4,1.7,46427,0,0,0
2018,5,12,01:30,UTC,0,1025.6,88,,,3.9,2.1,40098,254,0.7,0.5
2018,5,12,01:40,UTC,0,1025.7,87,,,4.4,2.4,40733,328,0.8,0.6
2018,5,12,01:50,UTC,0,1025.7,87,,,4.2,2.3,39758,44,0.8,0.6
2018,5,12,02:00,UTC,0,1025.7,87,,,4.3,2.3,36411,0,0,0
2018,5,12,02:10,UTC,0,1025.8,88,,,3.5,1.7,40820,0,0,0
2018,5,12,02:20,UTC,0,1025.8,92,,,3.7,2.4,43027,0,0,0
2018,5,12,02:30,UTC,0,1025.8,87,,,3.7,1.9,37093,0,0,0
2018,5,12,02:40,UTC,0,1025.7,89,,,3.9,2.3,41163,330,1.5,1.2
2018,5,12,02:50,UTC,0,1025.8,87,,,4.6,2.6,37117,299,1,0.6
2018,5,12,03:00,UTC,0,1025.8,85,,,4.8,2.4,41132,0,0,0
2018,5,12,03:10,UTC,0,1025.8,81,,,5.5,2.6,32965,0,0,0
2018,5,12,03:20,UTC,0,1025.8,80,,,6.1,2.8,36125,34,1.9,0.5
2018,5,12,03:30,UTC,0,1025.8,76,,,6.4,2.5,36093,339,1.4,0.8
2018,5,12,03:40,UTC,0,1025.8,74,,,7.2,3,37732,346,1.5,1
2018,5,12,03:50,UTC,0,1025.7,74,,,8.6,4.3,36821,0,0,0
2018,5,12,04:00,UTC,0,1025.7,75,,,9.4,5.3,40195,0,0,0
2018,5,12,04:10,UTC,0,1025.7,71,,,10.6,5.6,43364,0,0,0
2018,5,12,04:20,UTC,0,1025.7,62,,,12.4,5.3,44671,0,0,0
2018,5,12,04:30,UTC,0,1025.8,52,,,13.9,4.1,42345,98,1.2,0.6
2018,5,12,04:40,UTC,0,1025.8,53,,,13.9,4.4,43614,101,2.6,1.5
2018,5,12,04:50,UTC,0,1025.8,52,,,14.5,4.8,39142,93,2.5,1.7
2018,5,12,05:00,UTC,0,1025.9,49,,,14.6,3.9,38210,105,2.5,1.9
2018,5,12,05:10,UTC,0,1025.9,49,,,14.9,4.1,37119,90,2,1.5
2018,5,12,05:20,UTC,0,1025.9,46,,,15.2,3.8,36019,119,2.3,1.7
2018,5,12,05:30,UTC,0,1025.8,46,,,15.7,4.2,44392,123,2.3,1.7
2018,5,12,05:40,UTC,0,1025.9,44,,,16.1,4,37742,131,2.6,1.4
2018,5,12,05:50,UTC,0,1025.9,46,,,16.6,4.8,36583,117,2.6,1.8
2018,5,12,06:00,UTC,0,1025.9,40,,,16.8,3,42496,140,3.2,1.9
2018,5,12,06:10,UTC,0,1025.9,39,,,16.9,2.9,41945,143,3.4,2.3
2018,5,12,06:20,UTC,0,1026,41,,,17.3,3.9,35464,154,2.8,1.8
2018,5,12,06:30,UTC,0,1026,42,,,17.8,4.6,42176,127,2.4,1.2
2018,5,12,06:40,UTC,0,1026,40,,,17.8,4,37328,128,2.7,1.6
2018,5,12,06:50,UTC,0,1026,38,,,18.1,3.6,47457,142,3.1,2
2018,5,12,07:00,UTC,0,1025.9,37,,,18.5,3.5,30580,157,2.9,2.1
2018,5,12,07:10,UTC,0,1026,37,,,18.8,3.9,31405,156,3.4,2.1
2018,5,12,07:20,UTC,0,1025.9,35,,,19.4,3.4,34181,138,2.8,1.9
2018,5,12,07:30,UTC,0,1025.9,32,,,19.7,2.3,39025,151,2.5,1.5
2018,5,12,07:40,UTC,0,1026,33,,,20,3,36636,182,2.7,1.6
2018,5,12,07:50,UTC,0,1026,31,,,20.6,2.7,39688,144,2.9,1.6
2018,5,12,08:00,UTC,0,1026,29,,,20.5,1.9,32519,126,3.4,2.1
2018,5,12,08:10,UTC,0,1025.9,29,,,21.1,2.2,28419,132,4.1,2.4
2018,5,12,08:20,UTC,0,1025.9,27,,,21.1,1.2,29049,154,4.4,2.7
2018,5,12,08:30,UTC,0,1025.9,26,,,21.2,1,32206,156,3.8,2.6
2018,5,12,08:40,UTC,0,1025.9,24,,,21.1,-0.2,35556,162,4.4,2.9
2018,5,12,08:50,UTC,0,1025.9,28,,,21.5,2.1,33798,163,4.7,2.9
2018,5,12,09:00,UTC,0,1025.9,28,,,21.4,1.9,36118,146,4.7,3
2018,5,12,09:10,UTC,0,1025.9,26,,,21.4,1.2,29269,150,5.1,3.3
2018,5,12,09:20,UTC,0,1025.9,28,,,21.7,2.1,40396,139,5.3,3.3
2018,5,12,09:30,UTC,0,1025.9,27,,,21.8,1.8,42293,128,5.3,3.9
2018,5,12,09:40,UTC,0,1025.9,26,,,21.5,1.2,38087,146,5.2,3.8
2018,5,12,09:50,UTC,0,1025.8,25,,,22,1.1,31982,157,5.6,4
2018,5,12,10:00,UTC,0,1025.6,24,,,21.6,0.3,35536,127,5.6,3.8
2018,5,12,10:10,UTC,0,1025.6,23,,,21.5,-0.5,42100,135,5.8,4.2
2018,5,12,10:20,UTC,0,1025.6,23,,,21.6,-0.2,36817,131,5.4,4
2018,5,12,10:30,UTC,0,1025.6,21,,,21.9,-1.1,40488,144,5.8,4.2
2018,5,12,10:40,UTC,0,1025.6,23,,,22.3,0.1,33857,152,6.2,4.7
2018,5,12,10:50,UTC,0,1025.5,22,,,22.2,-0.5,35929,152,5.7,4.2
2018,5,12,11:00,UTC,0,1025.6,22,,,21.8,-0.9,38552,139,5.7,4
2018,5,12,11:10,UTC,0,1025.5,22,,,22.2,-0.4,41761,138,5.7,4.2
2018,5,12,11:20,UTC,0,1025.4,22,,,22.1,-0.7,35158,152,5.4,4.1
2018,5,12,11:30,UTC,0,1025.4,22,,,22.2,-0.4,39279,145,6.1,4.5
2018,5,12,11:40,UTC,0,1025.5,23,,,21.9,-0.4,36263,150,6.5,4.4
2018,5,12,11:50,UTC,0,1025.5,23,,,21.7,-0.3,36782,138,6.9,4.3
2018,5,12,12:00,UTC,0,1025.4,24,,,22.5,0.7,41812,146,7.1,4.3
2018,5,12,12:10,UTC,0,1025.4,24,,,21.8,0.2,32202,141,6.1,4.4
2018,5,12,12:20,UTC,0,1025.3,25,,,21.9,1,33560,134,5.7,4.3
2018,5,12,12:30,UTC,0,1025.3,25,,,21.8,0.8,43010,140,5.6,4.4
2018,5,12,12:40,UTC,0,1025.3,25,,,21.4,0.4,40712,143,6,4.5
2018,5,12,12:50,UTC,0,1025.3,27,,,22.1,2,41555,136,5.4,3.8
2018,5,12,13:00,UTC,0,1025.3,25,,,21.6,0.5,43141,110,5.8,3.6
2018,5,12,13:10,UTC,0,1025.1,25,,,21.6,0.9,37583,101,5.2,3.9
2018,5,12,13:20,UTC,0,1025.1,24,,,21.8,0.4,34752,104,5,3.7
2018,5,12,13:30,UTC,0,1025,25,,,22,1.2,36366,118,5.7,3.8
2018,5,12,13:40,UTC,0,1025,25,,,22,0.8,43797,107,5.6,3.7
2018,5,12,13:50,UTC,0,1024.9,24,,,21.6,0.4,42424,125,5.7,3.9
2018,5,12,14:00,UTC,0,1024.9,24,,,21.7,0.4,41166,124,5.6,3.9
2018,5,12,14:10,UTC,0,1024.8,25,,,21.6,0.9,35924,119,5.1,3.8
2018,5,12,14:20,UTC,0,1024.8,26,,,21.8,1.5,37632,119,5.1,3.3
2018,5,12,14:30,UTC,0,1024.8,25,,,21.5,0.5,47307,98,5.5,3.7
2018,5,12,14:40,UTC,0,1024.7,25,,,21.3,0.4,47548,110,6.3,3.8
2018,5,12,14:50,UTC,0,1024.7,25,,,21.3,0.3,39567,103,5.1,3.7
2018,5,12,15:00,UTC,0,1024.5,24,,,21,-0.6,40831,121,4.9,3.8
2018,5,12,15:10,UTC,0,1024.5,22,,,21,-1.3,40052,134,5,3.9
2018,5,12,15:20,UTC,0,1024.5,22,,,21.2,-1.2,36462,127,4.3,3.1
2018,5,12,15:30,UTC,0,1024.4,23,,,21.3,-0.8,35975,134,4.1,2.9
2018,5,12,15:40,UTC,0,1024.4,24,,,21.1,-0.5,33469,114,4,2.6
2018,5,12,15:50,UTC,0,1024.4,25,,,20.9,0,36890,104,4.6,3.4
2018,5,12,16:00,UTC,0,1024.3,25,,,20.7,-0.3,39620,100,5.6,3.8
2018,5,12,16:10,UTC,0,1024.2,25,,,20.6,-0.2,47763,102,4.8,3.6
2018,5,12,16:20,UTC,0,1024.2,26,,,20.6,0.1,49323,104,4.2,3
2018,5,12,16:30,UTC,0,1024.2,24,,,20.4,-0.8,39927,126,4.1,3
2018,5,12,16:40,UTC,0,1024.1,24,,,20.3,-0.8,42638,120,4.4,3.2
2018,5,12,16:50,UTC,0,1024.2,24,,,20.3,-0.9,48022,120,3.5,2.3
2018,5,12,17:00,UTC,0,1024.1,25,,,20.1,-0.5,48625,134,3.8,2.8
2018,5,12,17:10,UTC,0,1024,27,,,19.9,0.1,47859,104,2.9,1.9
2018,5,12,17:20,UTC,0,1024,26,,,19.6,-0.7,45213,94,2.9,2
2018,5,12,17:30,UTC,0,1024,25,,,19.5,-1.2,43823,87,2.7,2.1
2018,5,12,17:40,UTC,0,1024,26,,,19,-0.9,49556,95,3.1,2.5
2018,5,12,17:50,UTC,0,1024,28,,,18.6,-0.3,50000,115,2.9,2.1
2018,5,12,18:00,UTC,0,1024.1,28,,,18.6,-0.5,48229,121,1.9,1.3
2018,5,12,18:10,UTC,0,1024.1,28,,,18.3,-0.4,50000,97,1.1,0.9
2018,5,12,18:20,UTC,0,1024.1,34,,,16.7,0.9,49726,75,1.2,0.8
2018,5,12,18:30,UTC,0,1024.1,38,,,15.7,1.3,50000,85,1.4,0.9
2018,5,12,18:40,UTC,0,1024.2,42,,,14.7,2,46896,0,0,0
2018,5,12,18:50,UTC,0,1024.2,45,,,13.9,2.3,50000,116,0.9,0.6
2018,5,12,19:00,UTC,0,1024.1,42,,,14.1,1.4,46699,102,1,0.9
2018,5,12,19:10,UTC,0,1024.1,47,,,13.2,2.1,40327,99,1.4,1.1
2018,5,12,19:20,UTC,0,1024.1,49,,,12.8,2.4,41697,108,1.4,1
2018,5,12,19:30,UTC,0,1024.1,54,,,12,3.1,43134,117,1.2,0.9
2018,5,12,19:40,UTC,0,1024.3,53,,,11.2,2,49486,75,0.9,0.5
2018,5,12,19:50,UTC,0,1024.3,53,,,11.2,2,46860,76,1,0.6
2018,5,12,20:00,UTC,0,1024.3,60,,,10.6,3.1,48980,75,1,0.6
2018,5,12,20:10,UTC,0,1024.3,60,,,10.1,2.5,43252,0,0,0
2018,5,12,20:20,UTC,0,1024.3,60,,,10.2,2.7,42838,0,0,0
2018,5,12,20:30,UTC,0,1024.4,61,,,9.5,2.4,41763,0,0,0
2018,5,12,20:40,UTC,0,1024.4,65,,,9.4,3.1,39756,0,0,0
2018,5,12,20:50,UTC,0,1024.4,66,,,8.9,2.8,36361,0,0,0
2018,5,12,21:00,UTC,0,1024.5,67,,,8.9,3.2,32252,315,1,0.7
2018,5,12,21:10,UTC,0,1024.5,67,,,9,3.2,37850,54,0.8,0.5
2018,5,12,21:20,UTC,0,1024.6,70,,,8.6,3.4,39218,0,0,0
2018,5,12,21:30,UTC,0,1024.6,71,,,8.5,3.5,35448,84,0.7,0.5
2018,5,12,21:40,UTC,0,1024.6,72,,,7.9,3.2,35652,0,0,0
2018,5,12,21:50,UTC,0,1024.6,73,,,7.7,3.1,32906,0,0,0
2018,5,12,22:00,UTC,0,1024.6,73,,,7.9,3.4,36234,0,0,0
2018,5,12,22:10,UTC,0,1024.6,76,,,7.2,3.3,34673,0,0,0
2018,5,12,22:20,UTC,0,1024.6,78,,,6.9,3.3,31095,0,0,0
2018,5,12,22:30,UTC,0,1024.7,79,,,7.1,3.7,31541,0,0,0
2018,5,12,22:40,UTC,0,1024.8,77,,,7.1,3.5,36929,0,0,0
2018,5,12,22:50,UTC,0,1024.9,77,,,7.1,3.3,32039,0,0,0
2018,5,12,23:00,UTC,0,1024.9,79,,,6.8,3.5,28020,0,0,0
2018,5,12,23:10,UTC,0,1024.9,80,,,6,2.9,31433,0,0,0
2018,5,12,23:20,UTC,0,1025,81,,,6.3,3.3,33241,354,0.7,0.5
2018,5,12,23:30,UTC,0,1025,84,,,6.2,3.6,34313,0,0,0
2018,5,12,23:40,UTC,0,1025,84,,,5.9,3.4,33296,68,0.6,0.6
2018,5,12,23:50,UTC,0,1025,86,,,5.7,3.6,32757,0,0,0
2018,5,13,00:00,UTC,0,1025.1,85,,,5.6,3.3,34048,0,0,0
2018,5,13,00:10,UTC,0,1025.1,84,,,6,3.5,33092,337,0.7,0.6
2018,5,13,00:20,UTC,0,1025.2,85,,,5.8,3.5,38756,0,0,0
2018,5,13,00:30,UTC,0,1025.2,87,,,5.3,3.3,30455,0,0,0
2018,5,13,00:40,UTC,0,1025.3,87,,,5.1,3.1,38974,0,0,0
2018,5,13,00:50,UTC,0,1025.2,88,,,4.7,2.8,34177,0,0,0
2018,5,13,01:00,UTC,0,1025.2,88,,,5,3.2,28331,0,0,0
2018,5,13,01:10,UTC,0,1025.1,90,,,4.9,3.3,31684,0,0,0
2018,5,13,01:20,UTC,0,1025.1,87,,,5,3.1,34463,0,0,0
2018,5,13,01:30,UTC,0,1025.1,88,,,4.7,2.9,31905,0,0,0
2018,5,13,01:40,UTC,0,1025.2,88,,,4.6,2.8,35641,0,0,0
2018,5,13,01:50,UTC,0,1025.2,89,,,4.5,2.9,35510,0,0,0
2018,5,13,02:00,UTC,0,1025.3,89,,,4.8,3.2,30585,0,0,0
2018,5,13,02:10,UTC,0,1025.3,87,,,4.8,2.8,31504,113,0.7,0.6
2018,5,13,02:20,UTC,0,1025.4,89,,,4.5,2.8,31909,0,0,0
2018,5,13,02:30,UTC,0,1025.4,91,,,4.5,3.2,34827,8,0.8,0.5
2018,5,13,02:40,UTC,0,1025.4,90,,,5,3.5,31985,0,0,0
2018,5,13,02:50,UTC,0,1025.4,90,,,4.8,3.2,34011,0,0,0
2018,5,13,03:00,UTC,0,1025.4,82,,,6.3,3.4,32290,0,0,0
2018,5,13,03:10,UTC,0,1025.4,79,,,6.5,3.2,36033,0,0,0
2018,5,13,03:20,UTC,0,1025.4,76,,,6.8,2.9,29291,0,0,0
2018,5,13,03:30,UTC,0,1025.4,76,,,7,3,30083,0,0,0
2018,5,13,03:40,UTC,0,1025.4,80,,,7.9,4.6,26490,339,0.9,0.7
2018,5,13,03:50,UTC,0,1025.3,78,,,8.6,4.9,27404,344,1.2,1
2018,5,13,04:00,UTC,0,1025.3,70,,,10.4,5.2,25675,359,1.3,0.7
2018,5,13,04:10,UTC,0,1025.3,67,,,11.5,5.6,34396,0,0,0
2018,5,13,04:20,UTC,0,1025.3,66,,,11.5,5.5,30161,0,0,0
2018,5,13,04:30,UTC,0,1025.3,62,,,12.6,5.5,26071,0,0,0
2018,5,13,04:40,UTC,0,1025.3,59,,,13.6,5.8,37240,0,0,0
2018,5,13,04:50,UTC,0,1025.2,56,,,14.1,5.5,28470,2,1.1,0.6
2018,5,13,05:00,UTC,0,1025.3,54,,,14.9,5.8,32310,347,1.3,0.6
2018,5,13,05:10,UTC,0,1025.2,51,,,15.6,5.4,35672,344,1.7,1.1
2018,5,13,05:20,UTC,0,1025.2,47,,,16.4,5.1,34271,347,1.9,1.4
2018,5,13,05:30,UTC,0,1025.2,44,,,17.1,4.9,38718,348,1.9,1.1
2018,5,13,05:40,UTC,0,1025.2,43,,,18,5.1,41024,335,1.6,1
2018,5,13,05:50,UTC,0,1025.1,39,,,18.6,4.4,41439,345,1.6,1
2018,5,13,06:00,UTC,0,1025.1,33,,,19.6,2.8,38009,9,1.5,0.6
2018,5,13,06:10,UTC,0,1025.1,27,,,20,0.6,34048,30,1.8,0.9
2018,5,13,06:20,UTC,0,1025,27,,,20.3,0.7,36696,60,2.4,1.3
2018,5,13,06:30,UTC,0,1025,27,,,20.4,1,50000,46,2.3,1.3
2018,5,13,06:40,UTC,0,1025,29,,,20.8,1.9,31457,51,1.8,1
2018,5,13,06:50,UTC,0,1024.9,30,,,21.4,3,46296,39,1.8,0.7
2018,5,13,07:00,UTC,0,1024.9,28,,,21.8,2.3,17163,101,1.6,0.7
2018,5,13,07:10,UTC,0,1024.9,26,,,21.4,1,39933,333,2.8,1.5
2018,5,13,07:20,UTC,0,1024.9,25,,,21.6,0.6,41418,323,2.4,1.4
2018,5,13,07:30,UTC,0,1024.8,26,,,21.9,1.5,37480,316,3,1.6
2018,5,13,07:40,UTC,0,1024.8,23,,,22.6,0.3,38306,341,2.2,1.1
2018,5,13,07:50,UTC,0,1024.8,23,,,22.5,0.3,18782,56,2.4,1.3
2018,5,13,08:00,UTC,0,1024.8,23,,,23.2,0.8,29535,144,2.1,1
2018,5,13,08:10,UTC,0,1024.8,23,,,23.3,0.7,30305,134,3.1,1.9
2018,5,13,08:20,UTC,0,1024.8,23,,,23.4,1.1,31021,158,2.2,1.4
2018,5,13,08:30,UTC,0,1024.7,23,,,23.2,1.1,40439,64,2.8,1.1
2018,5,13,08:40,UTC,0,1024.6,23,,,23.3,1.2,43236,149,2.4,1.1
2018,5,13,08:50,UTC,0,1024.6,24,,,23.4,1.5,35172,237,2.2,1.3
2018,5,13,09:00,UTC,0,1024.5,23,,,23.9,1.2,35446,177,2.7,1.5
2018,5,13,09:10,UTC,0,1024.5,23,,,24.1,1.9,36636,181,3.7,2.1
2018,5,13,09:20,UTC,0,1024.4,22,,,24.1,1.3,33918,204,3,1.8
2018,5,13,09:30,UTC,0,1024.3,23,,,24,1.8,31018,187,4.6,2.7
2018,5,13,09:40,UTC,0,1024.3,24,,,24.4,2.7,32196,160,4,1.7
2018,5,13,09:50,UTC,0,1024.3,25,,,24.2,2.7,35318,110,4.6,2.1
2018,5,13,10:00,UTC,0,1024.2,25,,,24.6,3.2,35360,147,4.7,2.8
2018,5,13,10:10,UTC,0,1024.2,24,,,24.6,2.7,34770,150,4.6,2.9
2018,5,13,10:20,UTC,0,1024.1,23,,,24.6,1.8,30043,142,4.2,2.9
2018,5,13,10:30,UTC,0,1024.1,23,,,24.6,2.1,46326,135,5.8,3.2
2018,5,13,10:40,UTC,0,1024.1,22,,,24.6,1.1,33887,144,5.6,3.6
2018,5,13,10:50,UTC,0,1024,22,,,24.9,1.6,32756,148,5.5,4
2018,5,13,11:00,UTC,0,1024,23,,,24.5,1.9,33487,143,6.3,4.3
2018,5,13,11:10,UTC,0,1024,22,,,24.9,1.5,36277,121,5.3,3.3
2018,5,13,11:20,UTC,0,1024,23,,,24.7,1.9,36694,136,5.5,3.9
2018,5,13,11:30,UTC,0,1023.9,22,,,24.6,1.7,36973,129,4.9,3.4
2018,5,13,11:40,UTC,0,1023.8,22,,,25.4,2.1,29401,159,4.5,2.9
2018,5,13,11:50,UTC,0,1023.8,21,,,25.3,1.7,30948,160,6.6,3.9
2018,5,13,12:00,UTC,0,1023.8,21,,,25.4,1.5,34058,147,5.1,3.5
2018,5,13,12:10,UTC,0,1023.7,19,,,25,-0.2,37982,111,6,3.8
2018,5,13,12:20,UTC,0,1023.7,21,,,24.9,0.8,31382,133,6.6,4.2
2018,5,13,12:30,UTC,0,1023.7,22,,,25.4,1.8,38272,135,6.3,3.9
2018,5,13,12:40,UTC,0,1023.6,20,,,25.1,0.7,37255,155,6.3,4.7
2018,5,13,12:50,UTC,0,1023.6,21,,,25,1.5,43399,138,6.4,4.6
2018,5,13,13:00,UTC,0,1023.5,21,,,25,1.2,34196,150,5.3,3.8
2018,5,13,13:10,UTC,0,1023.5,21,,,24.9,0.9,37195,168,5.3,3.7
2018,5,13,13:20,UTC,0,1023.4,21,,,24.7,0.8,36423,159,5.6,3.7
2018,5,13,13:30,UTC,0,1023.3,23,,,24.8,2,41573,162,5.4,3.6
2018,5,13,13:40,UTC,0,1023.3,23,,,25,2.5,29093,167,5.1,3.4
2018,5,13,13:50,UTC,0,1023.2,24,,,25,3,37934,197,4.2,2.9
2018,5,13,14:00,UTC,0,1023.1,20,,,24.8,0.5,34993,157,4.6,3.3
2018,5,13,14:10,UTC,0,1023.1,21,,,25,0.9,48244,177,5.2,3.2
2018,5,13,14:20,UTC,0,1023,22,,,24.9,1.8,33627,130,4.1,3.2
2018,5,13,14:30,UTC,0,1023,22,,,24.9,1.6,37569,123,4.9,3.2
2018,5,13,14:40,UTC,0,1023,21,,,24.8,1.1,33646,145,5.4,3.6
2018,5,13,14:50,UTC,0,1023,22,,,24.8,1.4,33340,155,4.9,3.5
2018,5,13,15:00,UTC,0,1023.1,23,,,24.8,2,42092,151,5.1,3
2018,5,13,15:10,UTC,0,1023,22,,,24.6,1.6,39563,138,5.6,3.3
2018,5,13,15:20,UTC,0,1023,24,,,24.5,2.4,41886,141,5.2,3.6
2018,5,13,15:30,UTC,0,1023,22,,,24.4,1.4,37697,145,4.8,3.4
2018,5,13,15:40,UTC,0,1023,23,,,24.1,1.8,42407,137,4.1,3
2018,5,13,15:50,UTC,0,1023,22,,,24,1,37541,142,4.1,2.9
2018,5,13,16:00,UTC,0,1023,23,,,23.6,1.4,30356,134,5,2.8
2018,5,13,16:10,UTC,0,1023,25,,,23.1,1.8,37454,128,3.7,2.9
2018,5,13,16:20,UTC,0,1023.1,25,,,22.6,1.7,50000,120,3.4,2.1
2018,5,13,16:30,UTC,0,1023.1,23,,,22.7,0.3,44685,111,3.8,2.6
2018,5,13,16:40,UTC,0,1023.1,20,,,22.8,-1.5,40704,96,2.8,2.2
2018,5,13,16:50,UTC,0,1023,18,,,22.8,-2.4,47273,92,2.9,2.3
2018,5,13,17:00,UTC,0,1023,22,,,22.6,-0.5,48197,105,2.5,1.9
2018,5,13,17:10,UTC,0,1022.9,22,,,22.1,-0.5,46883,112,2.6,2
2018,5,13,17:20,UTC,0,1022.9,20,,,22.1,-1.9,43807,92,2.6,1.9
2018,5,13,17:30,UTC,0,1022.9,21,,,21.9,-1.6,49323,92,2.2,1.3
2018,5,13,17:40,UTC,0,1022.9,30,,,20.5,2.4,50000,93,1.1,0.8
2018,5,13,17:50,UTC,0,1022.8,30,,,19.5,1.4,47641,1,0.9,0.6
2018,5,13,18:00,UTC,0,1022.8,30,,,18.9,1.1,50000,341,1.1,0.8
2018,5,13,18:10,UTC,0,1022.8,33,,,18.3,1.9,50000,70,0.9,0.6
2018,5,13,18:20,UTC,0,1022.7,34,,,17.6,1.7,43677,0,0,0
2018,5,13,18:30,UTC,0,1022.7,37,,,16.6,2,50000,351,0.9,0.7
2018,5,13,18:40,UTC,0,1022.7,43,,,15.8,3.1,43909,0,0,0
2018,5,13,18:50,UTC,0,1022.7,43,,,15.6,3,44280,0,0,0
2018,5,13,19:00,UTC,0,1022.8,45,,,15.1,3.3,43419,0,0,0
2018,5,13,19:10,UTC,0,1022.7,44,,,14.7,2.7,41265,79,0.9,0.5
2018,5,13,19:20,UTC,0,1022.8,48,,,14.1,3.3,36783,42,0.7,0.6
2018,5,13,19:30,UTC,0,1022.8,51,,,13.4,3.6,36446,0,0,0
2018,5,13,19:40,UTC,0,1022.9,55,,,13.3,4.3,31595,0,0,0
2018,5,13,19:50,UTC,0,1022.9,55,,,13,4.3,32151,0,0,0
2018,5,13,20:00,UTC,0,1023,56,,,13,4.4,31624,0,0,0
2018,5,13,20:10,UTC,0,1023,57,,,12.4,4,35101,0,0,0
2018,5,13,20:20,UTC,0,1023.1,57,,,12.5,4.2,34066,0,0,0
2018,5,13,20:30,UTC,0,1023.2,60,,,12.1,4.6,35098,0,0,0
2018,5,13,20:40,UTC,0,1023.2,64,,,11.3,4.6,34739,0,0,0
2018,5,13,20:50,UTC,0,1023.2,66,,,11.2,4.9,32281,0,0,0
2018,5,13,21:00,UTC,0,1023.3,63,,,11.4,4.6,28006,0,0,0
2018,5,13,21:10,UTC,0,1023.3,65,,,10.9,4.5,28510,0,0,0
2018,5,13,21:20,UTC,0,1023.2,69,,,10.4,4.9,25708,0,0,0
2018,5,13,21:30,UTC,0,1023.2,68,,,10.6,5.1,22888,0,0,0
2018,5,13,21:40,UTC,0,1023.2,69,,,10.5,5,25404,0,0,0
2018,5,13,21:50,UTC,0,1023.2,70,,,10.1,4.9,27500,0,0,0
2018,5,13,22:00,UTC,0,1023.2,72,,,9.8,5.1,31124,0,0,0
2018,5,13,22:10,UTC,0,1023.3,73,,,9.6,5,28821,0,0,0
2018,5,13,22:20,UTC,0,1023.3,71,,,9.7,4.7,31206,0,0,0
2018,5,13,22:30,UTC,0,1023.3,73,,,9.4,4.8,31712,0,0,0
2018,5,13,22:40,UTC,0,1023.3,76,,,9,5.1,34910,0,0,0
2018,5,13,22:50,UTC,0,1023.3,74,,,9.4,5,31135,0,0,0
2018,5,13,23:00,UTC,0,1023.3,75,,,9.3,5.2,27595,0,0,0
2018,5,13,23:10,UTC,0,1023.3,75,,,9.1,5,28095,0,0,0
2018,5,13,23:20,UTC,0,1023.4,77,,,8.7,5,30284,0,0,0
2018,5,13,23:30,UTC,0,1023.4,78,,,8.8,5.1,32790,356,1,0.6
2018,5,13,23:40,UTC,0,1023.3,79,,,8.5,5.2,31050,0,0,0
2018,5,13,23:50,UTC,0,1023.3,82,,,7.9,5,30292,0,0,0
2018,5,14,00:00,UTC,0,1023.4,83,,,7.7,5,31124,0,0,0
2018,5,14,00:10,UTC,0,1023.4,83,,,8,5.3,31806,51,0.9,0.5
2018,5,14,00:20,UTC,0,1023.5,85,,,8.1,5.7,30682,96,0.8,0.5
2018,5,14,00:30,UTC,0,1023.6,84,,,7.7,5.2,33173,0,0,0
2018,5,14,00:40,UTC,0,1023.6,81,,,7.8,4.8,30341,0,0,0
2018,5,14,00:50,UTC,0,1023.5,86,,,7.6,5.5,31058,0,0,0
2018,5,14,01:00,UTC,0,1023.5,86,,,7.6,5.4,31463,4,0.8,0.5
2018,5,14,01:10,UTC,0,1023.4,88,,,7.5,5.6,27953,0,0,0
2018,5,14,01:20,UTC,0,1023.4,89,,,7.2,5.5,28644,0,0,0
2018,5,14,01:30,UTC,0,1023.4,89,,,7.3,5.7,29175,0,0,0
2018,5,14,01:40,UTC,0,1023.4,87,,,7.3,5.4,29749,60,0.7,0.5
2018,5,14,01:50,UTC,0,1023.5,88,,,7.1,5.2,32602,0,0,0
2018,5,14,02:00,UTC,0,1023.5,91,,,7,5.6,30356,0,0,0
2018,5,14,02:10,UTC,0,1023.6,91,,,6.9,5.6,28846,0,0,0
2018,5,14,02:20,UTC,0,1023.6,91,,,6.9,5.6,28337,0,0,0
2018,5,14,02:30,UTC,0,1023.6,91,,,7,5.6,32682,0,0,0
2018,5,14,02:40,UTC,0,1023.7,91,,,7.1,5.7,29533,0,0,0
2018,5,14,02:50,UTC,0,1023.7,89,,,7.5,5.7,30785,0,0,0
2018,5,14,03:00,UTC,0,1023.7,84,,,8.6,6,32915,0,0,0
2018,5,14,03:10,UTC,0,1023.7,85,,,8.3,5.9,27835,0,0,0
2018,5,14,03:20,UTC,0,1023.7,82,,,8.9,6,24957,0,0,0
2018,5,14,03:30,UTC,0,1023.7,82,,,9.6,6.7,28299,0,0,0
2018,5,14,03:40,UTC,0,1023.7,75,,,11,6.7,28428,0,0,0
2018,5,14,03:50,UTC,0,1023.8,73,,,12.6,7.9,28112,0,0,0
2018,5,14,04:00,UTC,0,1023.8,73,,,12.3,7.7,33335,331,0.9,0.7
2018,5,14,04:10,UTC,0,1023.8,72,,,13.6,8.6,26936,339,1,0.6
2018,5,14,04:20,UTC,0,1023.8,67,,,14.2,8.1,31221,340,1.3,0.8
2018,5,14,04:30,UTC,0,1023.8,67,,,14.8,8.8,27381,342,1.5,1
2018,5,14,04:40,UTC,0,1023.8,66,,,15.7,9.5,29913,302,1.3,0.7
2018,5,14,04:50,UTC,0,1023.7,61,,,17.1,9.6,29592,303,1.2,0.8
2018,5,14,05:00,UTC,0,1023.7,52,,,18.4,8.3,25830,338,1.9,1
2018,5,14,05:10,UTC,0,1023.6,44,,,19.7,7.1,29386,333,1.8,0.8
2018,5,14,05:20,UTC,0,1023.7,38,,,20.4,5.6,28642,271,1,0.5
2018,5,14,05:30,UTC,0,1023.6,33,,,21.5,4.4,32737,200,2.4,0.7
2018,5,14,05:40,UTC,0,1023.6,32,,,21.8,4.2,37244,101,3.1,2.1
2018,5,14,05:50,UTC,0,1023.6,33,,,22.2,5.2,31720,102,2.9,1.9
2018,5,14,06:00,UTC,0,1023.6,29,,,22.4,3.6,31444,116,2.9,2.1
2018,5,14,06:10,UTC,0,1023.7,31,,,22.7,4.7,36385,123,3.5,2.6
2018,5,14,06:20,UTC,0,1023.6,30,,,22.8,4.4,38337,121,4.3,2.9
2018,5,14,06:30,UTC,0,1023.6,30,,,23.2,4.4,32114,119,4.2,3.3
2018,5,14,06:40,UTC,0,1023.6,29,,,23.3,4.3,37637,97,3.8,2.4
2018,5,14,06:50,UTC,0,1023.6,27,,,23.5,3.3,32675,97,4.1,2.9
2018,5,14,07:00,UTC,0,1023.6,27,,,23.7,3.3,36757,77,4.1,2.6
2018,5,14,07:10,UTC,0,1023.6,27,,,24.2,4.1,30104,81,3.6,2.4
2018,5,14,07:20,UTC,0,1023.6,27,,,24.6,4.6,34112,81,4,2.4
2018,5,14,07:30,UTC,0,1023.4,27,,,25,4.6,40949,105,4.5,3
2018,5,14,07:40,UTC,0,1023.5,27,,,25.2,4.9,37725,105,4.1,2.5
2018,5,14,07:50,UTC,0,1023.5,24,,,25.2,3.1,39573,100,5.2,2.8
2018,5,14,08:00,UTC,0,1023.4,22,,,25.5,2.5,36555,100,4.3,2.5
2018,5,14,08:10,UTC,0,1023.4,24,,,25.8,3.5,33819,106,5.7,3.6
2018,5,14,08:20,UTC,0,1023.4,22,,,25.7,2.6,32734,122,5.3,3.6
2018,5,14,08:30,UTC,0,1023.5,23,,,25.8,3.3,36013,119,6.5,4
2018,5,14,08:40,UTC,0,1023.4,24,,,26.2,3.8,35990,120,6.4,4.2
2018,5,14,08:50,UTC,0,1023.4,23,,,25.8,2.9,41945,108,6.4,4.7
2018,5,14,09:00,UTC,0,1023.3,21,,,26,1.7,39952,96,5.8,4
2018,5,14,09:10,UTC,0,1023.3,22,,,26.3,2.7,31519,79,5.2,2.9
2018,5,14,09:20,UTC,0,1023.2,20,,,26.7,2.1,37028,97,5.8,3.1
2018,5,14,09:30,UTC,0,1023.2,22,,,26.7,3.2,36170,82,6.2,2.9
2018,5,14,09:40,UTC,0,1023.1,21,,,26.6,2.5,37574,116,5.8,3.5
2018,5,14,09:50,UTC,0,1023.1,20,,,26.8,2.1,38711,131,6.1,4.3
2018,5,14,10:00,UTC,0,1023.1,22,,,26.7,3.3,40445,104,5.3,3.4
2018,5,14,10:10,UTC,0,1023,24,,,26.7,4.5,37659,108,5.7,3.4
2018,5,14,10:20,UTC,0,1023,26,,,26,5.2,35296,144,6.5,4.4
2018,5,14,10:30,UTC,0,1023.1,28,,,25.2,5.4,36044,149,6.1,4.7
2018,5,14,10:40,UTC,0,1023.1,26,,,25.4,4.4,34001,130,5.4,4.3
2018,5,14,10:50,UTC,0,1023.1,25,,,25.3,4,28785,142,6.7,4.4
2018,5,14,11:00,UTC,0,1023.1,26,,,25.4,4.4,40467,133,5.8,4.3
2018,5,14,11:10,UTC,0,1023,26,,,25.3,4.6,31500,138,6.2,4.6
2018,5,14,11:20,UTC,0,1023,26,,,25,4.4,35543,134,6.7,5.1
2018,5,14,11:30,UTC,0,1023,25,,,24.6,3.5,29245,125,6.7,5
2018,5,14,11:40,UTC,0,1023,25,,,24.8,3.5,41170,129,6.5,5.1
2018,5,14,11:50,UTC,0,1022.9,26,,,25.1,4.1,47061,119,6.9,5.1
2018,5,14,12:00,UTC,0,1022.8,25,,,25.3,3.7,30615,117,6.5,4.8
2018,5,14,12:10,UTC,0,1022.8,24,,,25.1,3,41552,117,7.1,5.1
2018,5,14,12:20,UTC,0,1022.8,25,,,25.5,3.8,34308,126,6.6,4.7
2018,5,14,12:30,UTC,0,1022.7,25,,,26.1,4.8,29679,142,5.4,3.9
2018,5,14,12:40,UTC,0,1022.8,24,,,25.9,3.8,36138,142,6.1,4
2018,5,14,12:50,UTC,0,1022.8,25,,,25.5,4.1,31666,146,5.8,4.2
2018,5,14,13:00,UTC,0,1022.7,24,,,25.7,3.4,30898,149,5.3,3.8
2018,5,14,13:10,UTC,0,1022.7,23,,,25.5,3.1,37654,144,6.5,4.3
2018,5,14,13:20,UTC,0,1022.6,22,,,25.5,2.4,34404,136,6.3,4.6
2018,5,14,13:30,UTC,0,1022.6,22,,,24.9,1.8,35926,144,6.7,5
2018,5,14,13:40,UTC,0,1022.6,22,,,25.3,2.3,37814,143,6.5,4.3
2018,5,14,13:50,UTC,0,1022.6,23,,,24.9,2.1,34068,152,6.2,4.5
2018,5,14,14:00,UTC,0,1022.5,22,,,24.6,1.7,39800,147,6.3,4.5
2018,5,14,14:10,UTC,0,1022.3,21,,,25.1,1.4,33458,140,6,4.3
2018,5,14,14:20,UTC,0,1022.4,22,,,24.6,1.7,46735,140,6,4.4
2018,5,14,14:30,UTC,0,1022.2,21,,,25,1.1,34097,152,5.8,4.2
2018,5,14,14:40,UTC,0,1022.2,21,,,25,1.4,41221,151,5.5,4.4
2018,5,14,14:50,UTC,0,1022,21,,,24.9,0.7,40362,155,6.4,4.7
2018,5,14,15:00,UTC,0,1022,21,,,24.6,0.8,42146,149,6.3,4.8
2018,5,14,15:10,UTC,0,1022,23,,,24.8,2.3,34255,137,5.7,3.8
2018,5,14,15:20,UTC,0,1021.9,23,,,24.9,2.6,37964,150,5.5,3.7
2018,5,14,15:30,UTC,0,1021.9,23,,,24.9,2.1,41549,150,4.4,2.8
2018,5,14,15:40,UTC,0,1021.8,22,,,25,2,38685,156,4.2,2.5
2018,5,14,15:50,UTC,0,1021.7,22,,,24.7,1.5,38092,174,4.6,3.1
2018,5,14,16:00,UTC,0,1021.7,22,,,24.6,1.3,37950,158,4.3,3.3
2018,5,14,16:10,UTC,0,1021.7,23,,,24.4,1.6,44540,145,4.1,3.3
2018,5,14,16:20,UTC,0,1021.6,22,,,24.2,1.2,42391,141,3.4,2.7
2018,5,14,16:30,UTC,0,1021.5,22,,,24.3,1.1,40009,154,4,3.3
2018,5,14,16:40,UTC,0,1021.5,22,,,24.2,0.9,41365,154,3.8,3.1
2018,5,14,16:50,UTC,0,1021.4,23,,,24.1,1.7,46986,156,3.3,2.4
2018,5,14,17:00,UTC,0,1021.3,23,,,24,1.5,43056,151,3.2,2.2
2018,5,14,17:10,UTC,0,1021.2,23,,,24,1.6,38558,150,2.9,2.1
2018,5,14,17:20,UTC,0,1021.2,27,,,23.5,3.4,43885,167,2.1,1.6
2018,5,14,17:30,UTC,0,1021.1,29,,,22.9,3.7,39816,155,1.5,0.6
2018,5,14,17:40,UTC,0,1021.1,29,,,23.3,4.3,43844,0,0,0
2018,5,14,17:50,UTC,0,1021.1,29,,,22.3,3.3,44434,127,1.3,0.6
2018,5,14,18:00,UTC,0,1021.1,30,,,22.3,3.9,43963,0,0,0
2018,5,14,18:10,UTC,0,1021.2,35,,,20.9,4.8,44730,0,0,0
2018,5,14,18:20,UTC,0,1021.2,39,,,19.8,5.3,42129,0,0,0
2018,5,14,18:30,UTC,0,1021.2,40,,,19.1,5.2,43986,0,0,0
2018,5,14,18:40,UTC,0,1021.3,43,,,17.6,5,41312,123,1.1,0.6
2018,5,14,18:50,UTC,0,1021.3,49,,,17.1,6.2,39860,91,1.1,0.8
2018,5,14,19:00,UTC,0,1021.2,49,,,16.4,5.8,34887,109,1.7,1.2
2018,5,14,19:10,UTC,0,1021.3,52,,,15.4,5.7,35726,83,1.2,0.7
2018,5,14,19:20,UTC,0,1021.2,49,,,16.3,5.6,41763,0,0,0
2018,5,14,19:30,UTC,0,1021.3,53,,,15.2,5.8,35763,95,1,0.6
2018,5,14,19:40,UTC,0,1021.3,57,,,15,6.7,29817,110,0.7,0.6
2018,5,14,19:50,UTC,0,1021.4,59,,,14.3,6.3,38840,44,1.1,0.8
2018,5,14,20:00,UTC,0,1021.3,60,,,14.5,6.7,32647,0,0,0
2018,5,14,20:10,UTC,0,1021.3,57,,,14.3,5.9,28705,115,0.8,0.7
2018,5,14,20:20,UTC,0,1021.3,62,,,13.8,6.7,29085,105,1,0.8
2018,5,14,20:30,UTC,0,1021.3,65,,,13.3,6.8,35133,103,0.8,0.7
2018,5,14,20:40,UTC,0,1021.3,66,,,12.8,6.7,29815,98,0.9,0.8
2018,5,14,20:50,UTC,0,1021.3,67,,,12.5,6.6,29481,0,0,0
2018,5,14,21:00,UTC,0,1021.3,67,,,12.6,6.7,26806,0,0,0
2018,5,14,21:10,UTC,0,1021.4,71,,,12.2,7.2,23551,0,0,0
2018,5,14,21:20,UTC,0,1021.5,69,,,12.3,6.9,24248,349,2.7,1.3
2018,5,14,21:30,UTC,0,1021.4,67,,,12.6,6.6,23021,101,1.4,1
2018,5,14,21:40,UTC,0,1021.4,66,,,12.6,6.5,23355,132,1.5,1.1
2018,5,14,21:50,UTC,0,1021.4,67,,,12.9,6.9,23763,0,0,0
2018,5,14,22:00,UTC,0,1021.4,72,,,12.1,7.1,26555,0,0,0
2018,5,14,22:10,UTC,0,1021.4,74,,,11,6.4,29226,0,0,0
2018,5,14,22:20,UTC,0,1021.4,76,,,11,6.9,26306,0,0,0
2018,5,14,22:30,UTC,0,1021.4,75,,,11,6.8,25356,0,0,0
2018,5,14,22:40,UTC,0,1021.3,78,,,10.8,7.1,26555,0,0,0
2018,5,14,22:50,UTC,0,1021.3,79,,,10.7,7.2,25297,0,0,0
2018,5,14,23:00,UTC,0,1021.2,80,,,10.4,7,26263,0,0,0
2018,5,14,23:10,UTC,0,1021.2,81,,,10.1,7,25126,0,0,0
2018,5,14,23:20,UTC,0,1021.2,81,,,10.1,7,24613,0,0,0
2018,5,14,23:30,UTC,0,1021.2,83,,,9.8,7.1,24885,0,0,0
2018,5,14,23:40,UTC,0,1021.1,83,,,10,7.2,27509,0,0,0
2018,5,14,23:50,UTC,0,1021.1,84,,,9.8,7.2,22466,0,0,0
2018,5,15,00:00,UTC,0,1021,85,,,9.6,7.2,25354,82,0.6,0.5
2018,5,15,00:10,UTC,0,1021,84,,,9.3,6.7,23899,0,0,0
2018,5,15,00:20,UTC,0,1021,86,,,9.3,7.1,23453,0,0,0
2018,5,15,00:30,UTC,0,1020.9,86,,,9.1,6.8,26552,0,0,0
2018,5,15,00:40,UTC,0,1020.8,88,,,9.1,7.1,24818,0,0,0
2018,5,15,00:50,UTC,0,1020.8,88,,,9.1,7.1,24671,0,0,0
2018,5,15,01:00,UTC,0,1020.8,89,,,9,7.3,23554,0,0,0
2018,5,15,01:10,UTC,0,1020.8,90,,,8.9,7.4,21230,0,0,0
2018,5,15,01:20,UTC,0,1020.8,91,,,8.7,7.2,23014,0,0,0
2018,5,15,01:30,UTC,0,1020.8,90,,,8.5,6.9,27300,0,0,0
2018,5,15,01:40,UTC,0,1020.8,92,,,8.8,7.6,25964,341,1.4,0.8
2018,5,15,01:50,UTC,0,1020.7,90,,,9.1,7.6,25066,13,0.9,0.5
2018,5,15,02:00,UTC,0,1020.6,90,,,8.5,7,25950,0,0,0
2018,5,15,02:10,UTC,0,1020.5,92,,,8.3,7.1,23455,0,0,0
2018,5,15,02:20,UTC,0,1020.4,89,,,8.4,6.6,27623,0,0,0
2018,5,15,02:30,UTC,0,1020.4,92,,,8.8,7.5,26608,11,0.9,0.6
2018,5,15,02:40,UTC,0,1020.4,91,,,8.9,7.4,24316,0,0,0
2018,5,15,02:50,UTC,0,1020.3,90,,,8.8,7.2,23792,0,0,0
2018,5,15,03:00,UTC,0,1020.2,85,,,9.8,7.4,23818,0,0,0
2018,5,15,03:10,UTC,0,1020.1,79,,,10.8,7.2,26588,0,0,0
2018,5,15,03:20,UTC,0,1020.2,80,,,10.8,7.4,23439,0,0,0
2018,5,15,03:30,UTC,0,1020.1,81,,,11.1,7.9,24409,0,0,0
2018,5,15,03:40,UTC,0,1020,81,,,11.9,8.6,25697,315,1,0.7
2018,5,15,03:50,UTC,0,1020,78,,,12.3,8.7,26041,323,1.1,1
2018,5,15,04:00,UTC,0,1019.9,77,,,12.8,8.8,21515,319,1.2,1
2018,5,15,04:10,UTC,0,1019.9,75,,,13.4,9,25143,337,1.4,1.2
2018,5,15,04:20,UTC,0,1019.8,73,,,14.1,9.4,26948,336,1.7,1.3
2018,5,15,04:30,UTC,0,1019.8,68,,,15,9.1,24639,339,1.6,1
2018,5,15,04:40,UTC,0,1019.8,64,,,15.7,9,25323,335,1.5,0.9
2018,5,15,04:50,UTC,0,1019.8,61,,,16.2,8.8,22583,329,1.8,1.1
2018,5,15,05:00,UTC,0,1019.7,60,,,16.9,9.1,26254,341,1.7,1.2
2018,5,15,05:10,UTC,0,1019.7,59,,,17.6,9.6,29968,346,2,1.4
2018,5,15,05:20,UTC,0,1019.6,56,,,18.3,9.3,28729,346,2,1.4
2018,5,15,05:30,UTC,0,1019.6,53,,,18.8,9,28785,346,2.6,1.9
2018,5,15,05:40,UTC,0,1019.5,51,,,19.2,8.8,27982,344,2.6,1.8
2018,5,15,05:50,UTC,0,1019.4,50,,,19.9,9.1,25749,346,2.5,1.6
2018,5,15,06:00,UTC,0,1019.4,49,,,20.4,9.2,27621,350,2.1,1.3
2018,5,15,06:10,UTC,0,1019.3,48,,,21.1,9.6,26699,339,2.2,1.3
2018,5,15,06:20,UTC,0,1019.3,47,,,21.6,9.9,28547,332,1.8,1
2018,5,15,06:30,UTC,0,1019.2,44,,,22.3,9.6,23472,300,1.7,0.8
2018,5,15,06:40,UTC,0,1019.1,44,,,23,10.1,25797,332,1.6,0.8
2018,5,15,06:50,UTC,0,1019.1,42,,,23.5,9.7,30547,287,1.4,0.7
2018,5,15,07:00,UTC,0,1019.1,38,,,23.8,8.7,24699,291,1.8,0.9
2018,5,15,07:10,UTC,0,1019,37,,,24.2,8.7,31934,309,3.1,1.3
2018,5,15,07:20,UTC,0,1019,35,,,24.5,8,32911,288,1.9,1.1
2018,5,15,07:30,UTC,0,1019,36,,,24.8,8.7,32041,309,2.8,1.3
2018,5,15,07:40,UTC,0,1018.9,35,,,25,8.3,33070,326,2.5,1.5
2018,5,15,07:50,UTC,0,1018.9,31,,,25.4,7.2,30934,302,2.6,1.1
2018,5,15,08:00,UTC,0,1018.8,33,,,25.9,8.3,31817,360,2.4,1.2
2018,5,15,08:10,UTC,0,1018.8,30,,,26.2,7.1,31405,14,4.1,1.7
2018,5,15,08:20,UTC,0,1018.8,32,,,26.3,8.2,33613,336,3.7,1.6
2018,5,15,08:30,UTC,0,1018.7,30,,,26.8,7.8,32514,339,2.6,1.3
2018,5,15,08:40,UTC,0,1018.6,27,,,26.9,6.4,30871,351,3.8,2.3
2018,5,15,08:50,UTC,0,1018.6,27,,,27.1,6.7,33439,321,3.9,1.8
2018,5,15,09:00,UTC,0,1018.6,23,,,27.2,4.5,37855,32,5.2,2.7
2018,5,15,09:10,UTC,0,1018.5,22,,,27.3,3.8,34705,78,5.3,2.7
2018,5,15,09:20,UTC,0,1018.5,25,,,27.4,5.4,27298,24,4.3,2.5
2018,5,15,09:30,UTC,0,1018.4,23,,,27.9,5,34551,29,5.4,2.6
2018,5,15,09:40,UTC,0,1018.3,24,,,27.9,5.7,32366,89,7.2,3.3
2018,5,15,09:50,UTC,4,1018.3,23,,,27.5,4.2,34897,139,6.4,4.1
2018,5,15,10:00,UTC,5,1018.2,21,,,27.7,3.4,34518,121,6.8,3.9
2018,5,15,10:10,UTC,5,1018,22,,,28.1,4.1,28701,142,7.8,3.5
2018,5,15,10:20,UTC,2,1018.1,24,,,27.4,4.9,34527,113,7.8,4.9
2018,5,15,10:30,UTC,1,1018.1,24,,,27.9,5.4,30135,119,7.5,4.2
2018,5,15,10:40,UTC,0,1018.1,24,,,27.4,5.1,34889,134,7.9,5
2018,5,15,10:50,UTC,0,1017.9,22,,,27.1,3.9,36538,133,7.2,5.3
2018,5,15,11:00,UTC,0,1017.8,21,,,27.5,3.3,39810,130,7.1,4.8
2018,5,15,11:10,UTC,0,1017.8,22,,,27.6,4.1,37528,125,7.7,5.4
2018,5,15,11:20,UTC,0,1017.8,19,,,27.8,2.3,34763,128,7.4,4.8
2018,5,15,11:30,UTC,0,1017.6,20,,,27.5,2.6,35442,126,7.7,5.5
2018,5,15,11:40,UTC,0,1017.7,20,,,27.1,2.4,35186,136,8.2,6.1
2018,5,15,11:50,UTC,0,1017.6,22,,,27.4,3.5,36017,125,6.9,5.2
2018,5,15,12:00,UTC,0,1017.6,22,,,27.1,3.5,38014,129,6.2,4.5
2018,5,15,12:10,UTC,0,1017.5,24,,,27,4.7,36740,132,6.7,4.5
2018,5,15,12:20,UTC,0,1017.4,21,,,27.2,2.8,31520,136,7.3,5.2
2018,5,15,12:30,UTC,0,1017.3,23,,,27.3,4.1,46494,130,6.4,4.5
2018,5,15,12:40,UTC,0,1017.2,22,,,27.3,3.5,42500,155,7.2,5
2018,5,15,12:50,UTC,0,1017.2,23,,,26.9,3.9,31846,151,7.6,5.4
2018,5,15,13:00,UTC,0,1017.2,22,,,27,3.3,33536,146,6.4,4.6
2018,5,15,13:10,UTC,0,1017.2,22,,,27.1,3.3,30142,155,6.7,5.1
2018,5,15,13:20,UTC,0,1017.1,21,,,27,3,34092,157,5.7,4.1
2018,5,15,13:30,UTC,0,1017.1,23,,,27,4,37241,140,5.4,3.7
2018,5,15,13:40,UTC,0,1017.1,22,,,27,3.7,34132,155,4.7,3.2
2018,5,15,13:50,UTC,0,1016.9,20,,,26.9,2.2,36218,154,5.8,3.8
2018,5,15,14:00,UTC,0,1016.8,21,,,27,2.4,33038,142,5.9,4
2018,5,15,14:10,UTC,0,1016.8,20,,,26.9,2.3,39914,144,6.1,4.4
2018,5,15,14:20,UTC,0,1016.7,20,,,27.1,2.4,40928,156,5.7,4.2
2018,5,15,14:30,UTC,0,1016.6,20,,,26.6,2.1,43916,150,5.4,3.2
2018,5,15,14:40,UTC,0,1016.5,20,,,26.9,2.1,34543,148,5.5,3.9
2018,5,15,14:50,UTC,0,1016.5,21,,,26.7,2.4,37279,150,4.7,3.2
2018,5,15,15:00,UTC,0,1016.5,19,,,26.6,1.2,36595,141,5.1,3.6
2018,5,15,15:10,UTC,0,1016.4,21,,,26.5,2.1,36822,139,4.6,3.5
2018,5,15,15:20,UTC,0,1016.3,20,,,26.5,1.8,40267,129,4.4,3
2018,5,15,15:30,UTC,0,1016.3,21,,,26.6,2.5,41028,137,4,2.7
2018,5,15,15:40,UTC,0,1016.3,20,,,26.6,2.1,38177,193,3.4,2.3
2018,5,15,15:50,UTC,0,1016.2,21,,,26.6,2.6,35145,214,2.6,1.5
2018,5,15,16:00,UTC,0,1016.2,24,,,26.3,4.4,35660,240,3.1,2
2018,5,15,16:10,UTC,0,1016.2,23,,,26.2,3.5,36316,241,3,2.1
2018,5,15,16:20,UTC,0,1016.2,22,,,26,2.8,34945,201,3.2,2.4
2018,5,15,16:30,UTC,0,1016.1,22,,,26,2.7,40292,201,3,2
2018,5,15,16:40,UTC,0,1016,22,,,25.9,2.8,45140,200,2.5,1.9
2018,5,15,16:50,UTC,0,1016,24,,,25.7,3.7,43293,227,1.9,1.3
2018,5,15,17:00,UTC,0,1015.9,21,,,25.7,2,40069,242,1.6,1.1
2018,5,15,17:10,UTC,0,1015.9,25,,,25.6,4.4,42458,234,1.3,1
2018,5,15,17:20,UTC,0,1015.9,26,,,24.7,3.7,44185,0,0,0
2018,5,15,17:30,UTC,0,1015.9,33,,,23.7,6.6,43800,0,0,0
2018,5,15,17:40,UTC,0,1015.8,40,,,22.7,8.3,31780,81,0.8,0.6
2018,5,15,17:50,UTC,0,1015.7,34,,,22.4,5.7,32812,0,0,0
2018,5,15,18:00,UTC,0,1015.8,39,,,21.5,7.1,38953,320,1,0.5
2018,5,15,18:10,UTC,0,1015.7,39,,,20.8,6.2,31547,349,1.6,1.2
2018,5,15,18:20,UTC,0,1015.7,40,,,20,6,33159,0,0,0
2018,5,15,18:30,UTC,0,1015.7,47,,,19.1,7.6,36091,0,0,0
2018,5,15,18:40,UTC,0,1015.8,44,,,18.8,6.2,36492,118,1.1,0.7
2018,5,15,18:50,UTC,0,1015.7,50,,,18.3,7.6,39848,0,0,0
2018,5,15,19:00,UTC,0,1015.7,53,,,17.4,7.7,35356,0,0,0
2018,5,15,19:10,UTC,0,1015.7,54,,,17.2,7.9,32663,0,0,0
2018,5,15,19:20,UTC,0,1015.8,55,,,16.9,7.7,31490,0,0,0
2018,5,15,19:30,UTC,0,1015.8,56,,,16.3,7.5,33561,0,0,0
2018,5,15,19:40,UTC,0,1015.8,62,,,15.5,8.2,27498,0,0,0
2018,5,15,19:50,UTC,0,1015.8,62,,,15.2,7.9,30597,0,0,0
2018,5,15,20:00,UTC,0,1015.8,63,,,14.8,7.9,28521,0,0,0
2018,5,15,20:10,UTC,0,1015.7,63,,,14.9,7.8,25257,0,0,0
2018,5,15,20:20,UTC,0,1015.7,64,,,14.3,7.6,25179,0,0,0
2018,5,15,20:30,UTC,0,1015.6,68,,,13.9,8.2,24102,0,0,0
2018,5,15,20:40,UTC,0,1015.6,69,,,13.9,8.2,26221,0,0,0
2018,5,15,20:50,UTC,0,1015.7,70,,,13.4,8,26358,0,0,0
2018,5,15,21:00,UTC,0,1015.7,72,,,13.2,8.1,26415,0,0,0
2018,5,15,21:10,UTC,0,1015.7,72,,,13.3,8.4,25456,0,0,0
2018,5,15,21:20,UTC,0,1015.6,72,,,13.1,8.1,26315,0,0,0
2018,5,15,21:30,UTC,0,1015.6,76,,,12.5,8.3,26843,0,0,0
2018,5,15,21:40,UTC,0,1015.6,75,,,12.2,8,22491,0,0,0
2018,5,15,21:50,UTC,0,1015.6,78,,,11.9,8.2,24316,0,0,0
2018,5,15,22:00,UTC,0,1015.5,78,,,12,8.3,23772,2,1.1,0.6
2018,5,15,22:10,UTC,0,1015.4,78,,,11.9,8.2,22109,0,0,0
2018,5,15,22:20,UTC,0,1015.4,79,,,11.9,8.4,24381,0,0,0
2018,5,15,22:30,UTC,0,1015.4,79,,,12,8.5,23451,0,0,0
2018,5,15,22:40,UTC,0,1015.3,80,,,11.7,8.3,25299,184,1,0.8
2018,5,15,22:50,UTC,0,1015.2,79,,,12,8.5,27287,0,0,0
2018,5,15,23:00,UTC,0,1015.2,76,,,12.2,8.1,25226,339,1.3,1
2018,5,15,23:10,UTC,0,1015.2,79,,,11.4,7.9,30208,347,1.6,1.1
2018,5,15,23:20,UTC,0,1015.2,79,,,11.4,7.9,31221,0,0,0
2018,5,15,23:30,UTC,0,1015.2,81,,,11,7.8,29765,4,1.2,0.5
2018,5,15,23:40,UTC,0,1015.1,82,,,10.9,8,28508,356,1.3,0.8
2018,5,15,23:50,UTC,0,1015,84,,,10.6,8,32269,54,0.8,0.5
2018,5,16,00:00,UTC,0,1015,84,,,10.2,7.7,27879,0,0,0
2018,5,16,00:10,UTC,0,1015,84,,,10.2,7.6,30595,0,0,0
2018,5,16,00:20,UTC,0,1014.9,87,,,10.3,8.1,30309,0,0,0
2018,5,16,00:30,UTC,0,1014.9,85,,,10,7.6,28132,0,0,0
2018,5,16,00:40,UTC,0,1014.8,87,,,9.7,7.7,28526,354,1.7,1.2
2018,5,16,00:50,UTC,0,1014.8,89,,,9.7,7.9,28625,9,1.5,0.8
2018,5,16,01:00,UTC,0,1014.7,86,,,9.8,7.6,32169,353,1.1,0.8
2018,5,16,01:10,UTC,0,1014.7,85,,,10.3,7.8,33584,0,0,0
2018,5,16,01:20,UTC,0,1014.7,85,,,10.1,7.7,28978,0,0,0
2018,5,16,01:30,UTC,0,1014.7,85,,,10,7.6,33246,0,0,0
2018,5,16,01:40,UTC,0,1014.6,85,,,9.7,7.3,29782,0,0,0
2018,5,16,01:50,UTC,1,1014.6,85,,,9.5,7.2,33052,0,0,0
2018,5,16,02:00,UTC,1,1014.6,82,,,10,7,37048,0,0,0
2018,5,16,02:10,UTC,2,1014.6,82,,,9.6,6.7,32494,0,0,0
2018,5,16,02:20,UTC,5,1014.6,83,,,9.6,6.9,31330,0,0,0
2018,5,16,02:30,UTC,7,1014.5,84,,,10.1,7.5,29094,0,0,0
2018,5,16,02:40,UTC,7,1014.5,81,,,10.4,7.3,33697,0,0,0
2018,5,16,02:50,UTC,8,1014.3,80,,,11,7.6,36300,352,1.7,1.1
2018,5,16,03:00,UTC,8,1014.2,75,,,12,7.8,37462,347,2.5,1.8
2018,5,16,03:10,UTC,6,1014.2,71,,,12.9,7.8,32061,350,3.4,2.3
2018,5,16,03:20,UTC,7,1014.2,68,,,13.4,7.6,37211,353,2.2,1.2
2018,5,16,03:30,UTC,7,1014.2,69,,,14,8.3,35453,334,1.8,0.9
2018,5,16,03:40,UTC,8,1014.1,67,,,14.6,8.7,36900,320,2.1,1.5
2018,5,16,03:50,UTC,8,1014.2,64,,,15.7,9,32094,322,2.1,1
2018,5,16,04:00,UTC,7,1014.2,57,,,16.4,7.8,33010,218,2.4,1
2018,5,16,04:10,UTC,7,1013.9,60,,,16.5,8.8,35744,292,2.2,1.4
2018,5,16,04:20,UTC,7,1013.9,59,,,17.2,9.1,34922,340,2.9,2.3
2018,5,16,04:30,UTC,6,1013.9,57,,,17.7,9.1,31044,343,2.7,1.9
2018,5,16,04:40,UTC,3,1013.9,54,,,18.5,9,36744,332,2.6,1.9
2018,5,16,04:50,UTC,1,1013.8,52,,,19.1,8.9,32504,331,2.5,1.8
2018,5,16,05:00,UTC,0,1013.7,52,,,19.4,9.2,29893,336,2.2,1.6
2018,5,16,05:10,UTC,0,1013.6,52,,,19.6,9.5,34776,339,2.6,1.6
2018,5,16,05:20,UTC,0,1013.6,53,,,20,10,30114,346,2.9,1.9
2018,5,16,05:30,UTC,0,1013.6,48,,,20.4,9.1,31634,342,1.9,1.4
2018,5,16,05:40,UTC,0,1013.6,50,,,20.8,10.1,32890,338,2.4,1.5
2018,5,16,05:50,UTC,0,1013.5,49,,,21.3,10.2,30966,329,1.9,1.4
2018,5,16,06:00,UTC,0,1013.4,47,,,21.6,9.9,27927,335,2.4,1.6
2018,5,16,06:10,UTC,0,1013.3,47,,,21.9,10.1,25820,294,2.3,1.3
2018,5,16,06:20,UTC,0,1013.2,44,,,22.2,9.3,31586,312,2.5,1.7
2018,5,16,06:30,UTC,0,1013.2,45,,,22.6,10,30949,318,3,1.6
2018,5,16,06:40,UTC,0,1013.1,46,,,23.1,10.8,32279,328,3.1,2.2
2018,5,16,06:50,UTC,0,1013,42,,,23.2,9.6,27863,353,3.8,2.8
2018,5,16,07:00,UTC,0,1013,42,,,23.5,9.9,35053,343,4.4,2.9
2018,5,16,07:10,UTC,0,1012.9,42,,,23.7,9.9,31446,347,4.7,3
2018,5,16,07:20,UTC,0,1013,41,,,24,10,35853,352,4.8,2.9
2018,5,16,07:30,UTC,4,1012.9,38,,,24.2,8.9,31603,354,6.2,3.4
2018,5,16,07:40,UTC,4,1012.9,38,,,24.2,8.9,30116,14,5.9,3.2
2018,5,16,07:50,UTC,7,1012.9,39,,,24,9.2,37065,15,6,3
2018,5,16,08:00,UTC,7,1012.9,38,,,24.5,9,32668,14,4.5,2.7
2018,5,16,08:10,UTC,5,1013,39,,,24.7,9.8,29560,14,3.7,2
2018,5,16,08:20,UTC,2,1013,42,,,24.4,10.6,23175,137,3.4,2.1
2018,5,16,08:30,UTC,1,1012.9,42,,,24.1,10.3,32292,168,4.7,3.2
2018,5,16,08:40,UTC,0,1013,41,,,24.1,9.9,32725,176,5,3
2018,5,16,08:50,UTC,0,1012.9,41,,,24,9.9,27832,141,4.9,2.2
2018,5,16,09:00,UTC,0,1012.9,41,,,24.5,10.4,28719,157,4.8,3.3
2018,5,16,09:10,UTC,0,1012.9,42,,,24.1,10.5,20210,161,5.7,4.2
2018,5,16,09:20,UTC,0,1013,46,,,22.9,10.5,31011,151,7,4.9
2018,5,16,09:30,UTC,0,1013,48,,,22.4,10.9,23804,151,6.5,4.8
2018,5,16,09:40,UTC,0,1013.1,49,,,22,10.8,28179,142,5.6,4.3
2018,5,16,09:50,UTC,0,1013.1,48,,,22.9,11.3,26656,137,5.2,3.4
2018,5,16,10:00,UTC,0,1013.1,51,,,22.6,11.9,25491,118,5.7,4
2018,5,16,10:10,UTC,0,1013.2,50,,,22.3,11.2,26092,126,5.9,4.5
2018,5,16,10:20,UTC,0,1013.2,49,,,22.7,11.3,30576,128,5.4,3.9
2018,5,16,10:30,UTC,0,1013.2,49,,,22.2,10.9,28704,127,6.9,5.1
2018,5,16,10:40,UTC,0,1013.2,51,,,22.1,11.6,28695,109,6.3,4.6
2018,5,16,10:50,UTC,0,1013.1,51,,,22.8,12.3,23835,123,5.9,3.9
2018,5,16,11:00,UTC,0,1013,47,,,23.6,11.6,25336,110,5.1,3.5
2018,5,16,11:10,UTC,0,1012.9,44,,,24.5,11.4,30485,104,6.1,3.6
2018,5,16,11:20,UTC,0,1012.9,34,,,25.1,8.3,30278,86,6.2,4
2018,5,16,11:30,UTC,0,1012.9,29,,,25.4,6.1,35044,115,5.8,3.4
2018,5,16,11:40,UTC,0,1012.8,42,,,24.6,10.7,34334,130,6.5,4.1
2018,5,16,11:50,UTC,0,1012.9,47,,,23.9,11.8,28464,142,8.1,5.4
2018,5,16,12:00,UTC,0,1013,47,,,22.7,10.7,28756,127,8.6,5.6
2018,5,16,12:10,UTC,0,1013,50,,,22.6,11.5,28017,123,8,5.8
2018,5,16,12:20,UTC,0,1012.9,47,,,21.6,9.7,23632,112,9.9,7.6
2018,5,16,12:30,UTC,0,1013.1,50,,,21.8,10.9,30176,110,8.8,6.5
2018,5,16,12:40,UTC,0,1013.2,52,,,21.2,10.9,27226,115,8.4,5.9
2018,5,16,12:50,UTC,2,1013.2,53,,,20.9,10.9,23265,104,8.2,6.1
2018,5,16,13:00,UTC,5,1013.4,53,,,20.9,10.8,28961,118,7.9,6.2
2018,5,16,13:10,UTC,7,1013.5,54,,,20.5,10.8,32155,115,7.1,4.8
2018,5,16,13:20,UTC,8,1013.6,59,,,19.2,10.9,34254,109,8,5.6
2018,5,16,13:30,UTC,8,1013.7,62,,,18.9,11.4,28514,112,5.7,3.9
2018,5,16,13:40,UTC,8,1013.8,65,,,19.1,12.4,28877,105,5.1,3.3
2018,5,16,13:50,UTC,7,1014.2,62,,,19.1,11.7,30687,89,5.6,3.3
2018,5,16,14:00,UTC,7,1014.2,63,,,19.1,11.9,32574,100,5.3,3.3
2018,5,16,14:10,UTC,7,1014,64,,,19.1,12.1,28665,109,6.5,4.4
2018,5,16,14:20,UTC,8,1013.9,66,,,19.2,12.6,32119,115,5.6,4.3
2018,5,16,14:30,UTC,8,1013.8,66,,,18.8,12.3,29529,113,8.1,5.6
2018,5,16,14:40,UTC,7,1013.8,63,,,18.6,11.4,33369,99,7.5,4.5
2018,5,16,14:50,UTC,7,1013.8,63,,,18.1,10.9,39942,112,6.1,3.9
2018,5,16,15:00,UTC,4,1013.8,63,,,17.9,10.8,39589,96,6.2,4.3
2018,5,16,15:10,UTC,2,1013.8,63,,,18.3,11.1,44657,109,6.8,4.5
2018,5,16,15:20,UTC,1,1013.7,60,,,18.7,10.7,31402,98,6.1,4
2018,5,16,15:30,UTC,0,1013.7,57,,,19,10.2,34140,98,7.7,5.4
2018,5,16,15:40,UTC,0,1013.7,57,,,19.1,10.3,41484,101,6.7,5.1
2018,5,16,15:50,UTC,0,1013.7,56,,,19.1,10.1,39525,108,7.6,4.9
2018,5,16,16:00,UTC,0,1013.8,55,,,18.9,9.7,38784,91,6.9,3.7
2018,5,16,16:10,UTC,0,1014.3,55,,,19,9.7,40749,80,6.1,3.5
2018,5,16,16:20,UTC,0,1014.1,54,,,19.1,9.5,37313,79,6.7,3.6
2018,5,16,16:30,UTC,0,1014,54,,,19.3,9.8,45217,90,5.1,2.4
2018,5,16,16:40,UTC,3,1013.9,54,,,19.3,9.9,43277,105,5,3.5
2018,5,16,16:50,UTC,6,1013.8,54,,,19.3,9.7,46107,108,5.8,3.5
2018,5,16,17:00,UTC,7,1013.7,53,,,18.8,9.1,46525,113,5.1,3.1
2018,5,16,17:10,UTC,8,1013.6,51,,,18.6,8.2,50000,112,6.3,4
2018,5,16,17:20,UTC,8,1013.6,52,,,18.5,8.3,44239,104,5.3,3.7
2018,5,16,17:30,UTC,8,1013.6,52,,,18.4,8.3,40710,106,5.8,3.6
2018,5,16,17:40,UTC,8,1013.6,53,,,18.3,8.5,45368,103,4.7,2.7
2018,5,16,17:50,UTC,5,1013.8,53,,,17.9,8.3,47732,94,4.7,3
2018,5,16,18:00,UTC,3,1014,56,,,17.4,8.5,49356,93,3.9,2.5
2018,5,16,18:10,UTC,1,1014.1,58,,,17,8.7,50000,97,3.2,1.9
2018,5,16,18:20,UTC,0,1014.2,62,,,16.4,9.2,50000,102,3.8,2.6
2018,5,16,18:30,UTC,0,1014.3,64,,,16.2,9.3,50000,99,3.1,2
2018,5,16,18:40,UTC,0,1014.4,64,,,16.2,9.4,50000,75,2.1,1.3
2018,5,16,18:50,UTC,0,1014.5,70,,,15,9.6,50000,38,1.1,0.6
2018,5,16,19:00,UTC,0,1014.6,70,,,14.8,9.3,48791,345,1.8,1.3
2018,5,16,19:10,UTC,0,1014.6,71,,,14.5,9.4,45262,332,1.9,1.4
2018,5,16,19:20,UTC,0,1014.5,76,,,13.9,9.8,49485,76,1.8,0.8
2018,5,16,19:30,UTC,0,1014.5,76,,,13.8,9.6,39932,120,1.8,1.5
2018,5,16,19:40,UTC,0,1014.4,75,,,14.1,9.7,43689,97,1.7,1.2
2018,5,16,19:50,UTC,0,1014.6,80,,,12.7,9.3,48098,348,1.3,0.9
2018,5,16,20:00,UTC,0,1014.7,82,,,12.6,9.6,47255,0,0,0
2018,5,16,20:10,UTC,0,1014.7,81,,,12.5,9.3,44124,0,0,0
2018,5,16,20:20,UTC,0,1014.6,83,,,12.5,9.6,42012,0,0,0
2018,5,16,20:30,UTC,0,1014.6,84,,,12.1,9.5,49246,86,1.2,0.6
2018,5,16,20:40,UTC,0,1014.6,85,,,11.4,9,43726,0,0,0
2018,5,16,20:50,UTC,0,1014.6,88,,,11.4,9.5,42354,0,0,0
2018,5,16,21:00,UTC,0,1014.6,87,,,11.1,9.1,37089,331,0.9,0.5
2018,5,16,21:10,UTC,0,1014.7,88,,,11.3,9.4,44368,0,0,0
2018,5,16,21:20,UTC,0,1014.6,90,,,10.9,9.3,35664,0,0,0
2018,5,16,21:30,UTC,0,1014.7,91,,,10.7,9.3,35204,0,0,0
2018,5,16,21:40,UTC,0,1014.8,93,,,10.2,9.1,37646,0,0,0
2018,5,16,21:50,UTC,0,1014.8,90,,,10.2,8.6,40043,0,0,0
2018,5,16,22:00,UTC,0,1014.8,93,,,10.7,9.6,38604,92,1.3,0.8
2018,5,16,22:10,UTC,0,1014.9,91,,,9.6,8.2,35727,29,1,0.5
2018,5,16,22:20,UTC,0,1014.8,93,,,9.2,8.1,33887,0,0,0
2018,5,16,22:30,UTC,0,1014.9,96,,,9.5,8.9,28243,0,0,0
2018,5,16,22:40,UTC,0,1014.9,96,,,9.5,8.9,30488,0,0,0
2018,5,16,22:50,UTC,1,1014.7,96,,,9.8,9.2,28124,0,0,0
2018,5,16,23:00,UTC,1,1014.8,96,,,9.3,8.6,29826,0,0,0
2018,5,16,23:10,UTC,1,1014.7,97,,,9.4,8.9,26778,0,0,0
2018,5,16,23:20,UTC,0,1014.7,97,,,9.1,8.7,22438,0,0,0
2018,5,16,23:30,UTC,0,1014.7,98,,,9,8.6,18191,0,0,0
2018,5,16,23:40,UTC,0,1014.7,98,,,9.1,8.8,24473,0,0,0
2018,5,16,23:50,UTC,0,1014.6,98,,,8.9,8.6,27040,0,0,0
2018,5,17,00:00,UTC,0,1014.5,97,,,8.7,8.2,27539,0,0,0
2018,5,17,00:10,UTC,0,1014.5,98,,,8.8,8.5,14930,0,0,0
2018,5,17,00:20,UTC,0,1014.5,98,,,8.7,8.4,25213,41,1.1,0.6
2018,5,17,00:30,UTC,0,1014.5,98,,,8.5,8.2,26410,0,0,0
2018,5,17,00:40,UTC,0,1014.3,98,,,8.1,7.8,24066,270,1,0.6
2018,5,17,00:50,UTC,0,1014.3,99,,,8.5,8.3,18515,312,1.6,1
2018,5,17,01:00,UTC,0,1014.2,99,,,8.7,8.6,21452,0,0,0
2018,5,17,01:10,UTC,0,1014.1,98,,,8.1,7.8,11471,339,0.8,0.5
2018,5,17,01:20,UTC,0,1014,99,,,8.5,8.3,18470,45,1.3,0.6
2018,5,17,01:30,UTC,0,1013.9,98,,,8.5,8.3,17839,0,0,0
2018,5,17,01:40,UTC,0,1013.7,97,,,7.4,7,25882,0,0,0
2018,5,17,01:50,UTC,0,1013.8,98,,,7.8,7.5,9242,0,0,0
2018,5,17,02:00,UTC,0,1013.9,99,,,8.1,7.9,15956,0,0,0
2018,5,17,02:10,UTC,0,1013.8,98,,,8.1,7.8,23395,0,0,0
2018,5,17,02:20,UTC,0,1013.7,98,,,8.1,7.9,16890,0,0,0
2018,5,17,02:30,UTC,0,1013.8,99,,,8.4,8.3,3655,313,0.9,0.7
2018,5,17,02:40,UTC,0,1013.8,99,,,8.7,8.5,15692,310,1,0.7
2018,5,17,02:50,UTC,0,1013.7,98,,,8.5,8.2,20772,0,0,0
2018,5,17,03:00,UTC,0,1013.7,98,,,9.2,8.9,25456,0,0,0
2018,5,17,03:10,UTC,0,1013.8,95,,,9.7,8.8,27351,114,1.2,0.6
2018,5,17,03:20,UTC,0,1013.6,90,,,10.6,9.1,27264,0,0,0
2018,5,17,03:30,UTC,0,1013.6,89,,,10.4,8.7,27435,0,0,0
2018,5,17,03:40,UTC,0,1013.6,91,,,10.8,9.3,27422,333,1,0.9
2018,5,17,03:50,UTC,0,1013.6,87,,,11.3,9.3,30880,321,1.2,0.9
2018,5,17,04:00,UTC,0,1013.7,88,,,12.1,10.2,32016,301,1.2,0.8
2018,5,17,04:10,UTC,0,1013.7,81,,,13.4,10.1,31253,0,0,0
2018,5,17,04:20,UTC,0,1013.7,75,,,14.5,10.2,33968,0,0,0
2018,5,17,04:30,UTC,0,1013.7,73,,,15.4,10.6,32833,0,0,0
2018,5,17,04:40,UTC,0,1013.7,69,,,15.6,10,35282,0,0,0
2018,5,17,04:50,UTC,0,1013.8,70,,,15.8,10.3,32946,0,0,0
2018,5,17,05:00,UTC,0,1013.8,60,,,16.7,8.9,33728,117,1.8,1
2018,5,17,05:10,UTC,0,1013.7,61,,,17,9.3,41691,109,1.6,0.8
2018,5,17,05:20,UTC,0,1013.8,60,,,17.7,9.7,35722,103,1.8,0.9
2018,5,17,05:30,UTC,0,1013.8,58,,,17.8,9.4,36714,98,2.1,1.3
2018,5,17,05:40,UTC,0,1013.7,58,,,17.8,9.4,38510,113,3,2.2
2018,5,17,05:50,UTC,0,1013.7,55,,,17.8,8.7,38457,131,4.1,2.6
2018,5,17,06:00,UTC,0,1013.7,56,,,18.2,9.2,36247,116,4.2,2.5
2018,5,17,06:10,UTC,0,1013.6,51,,,18.1,7.9,40323,109,4.9,2.9
2018,5,17,06:20,UTC,0,1013.7,55,,,18.1,8.8,39223,111,4.6,3.2
2018,5,17,06:30,UTC,0,1013.7,57,,,17.8,9.1,44761,114,5.3,3.4
2018,5,17,06:40,UTC,0,1013.7,54,,,17.8,8.2,44683,114,4.5,3.2
2018,5,17,06:50,UTC,0,1013.8,55,,,18.1,8.9,40421,125,3.6,2.6
2018,5,17,07:00,UTC,0,1013.7,54,,,18.5,9.1,37966,102,3.7,2.2
2018,5,17,07:10,UTC,0,1013.6,57,,,18.8,10.1,45282,83,3.8,2.1
2018,5,17,07:20,UTC,0,1013.6,51,,,19.2,8.9,34103,164,2.9,1.8
2018,5,17,07:30,UTC,0,1013.6,49,,,19.2,8.3,37110,149,3.5,1.4
2018,5,17,07:40,UTC,0,1013.6,51,,,19.7,9.2,45084,191,2.7,1.1
2018,5,17,07:50,UTC,0,1013.5,52,,,19.5,9.5,44569,161,4.2,2.3
2018,5,17,08:00,UTC,0,1013.5,52,,,19.7,9.4,33766,155,4.4,2.6
2018,5,17,08:10,UTC,0,1013.4,51,,,19.4,9,35543,153,4,2.7
2018,5,17,08:20,UTC,0,1013.4,51,,,19.7,9.4,36493,151,4.6,2.5
2018,5,17,08:30,UTC,0,1013.5,50,,,19.9,9,39026,145,4.9,2.8
2018,5,17,08:40,UTC,0,1013.4,52,,,20.3,10.1,37811,161,5.1,2.7
2018,5,17,08:50,UTC,0,1013.3,51,,,19.9,9.5,50000,134,4.6,2.8
2018,5,17,09:00,UTC,0,1013.4,50,,,19.9,9.2,38100,156,5,2.9
2018,5,17,09:10,UTC,0,1013.3,49,,,20.2,9.2,35799,179,4,2.4
2018,5,17,09:20,UTC,0,1013.2,48,,,20.8,9.3,31105,177,4.6,1.9
2018,5,17,09:30,UTC,0,1013.2,48,,,20.6,9.1,44131,205,3.9,2.5
2018,5,17,09:40,UTC,0,1013.1,46,,,20.9,8.7,33015,201,5.7,2.4
2018,5,17,09:50,UTC,0,1013.1,46,,,20.9,9,36495,233,4.5,2
2018,5,17,10:00,UTC,0,1013.1,49,,,21.2,10.1,35432,206,4.8,2.8
2018,5,17,10:10,UTC,0,1013,50,,,21.5,10.6,32851,159,5.1,2.5
2018,5,17,10:20,UTC,0,1012.9,52,,,21.1,10.8,29516,185,5.6,3.7
2018,5,17,10:30,UTC,0,1012.8,53,,,21.4,11.5,28433,175,6.3,4
2018,5,17,10:40,UTC,0,1012.8,52,,,21.4,11.2,33276,171,5.4,4
2018,5,17,10:50,UTC,0,1012.6,50,,,21.1,10.1,30910,186,5.1,3.5
2018,5,17,11:00,UTC,0,1012.5,50,,,21.4,10.6,41013,198,5.8,4
2018,5,17,11:10,UTC,0,1012.3,49,,,21.5,10.3,34234,200,5.3,4.2
2018,5,17,11:20,UTC,0,1012.2,48,,,21.6,10.1,40570,206,6.3,4.1
2018,5,17,11:30,UTC,0,1012.1,47,,,21.4,9.6,36805,196,6,4.8
2018,5,17,11:40,UTC,0,1012,46,,,21.4,9.2,36195,201,5.7,4.6
2018,5,17,11:50,UTC,0,1011.8,46,,,21.6,9.3,31262,198,5.5,4.3
2018,5,17,12:00,UTC,0,1011.7,45,,,21.8,9.4,38237,180,5.8,4.3
2018,5,17,12:10,UTC,0,1011.7,44,,,21.3,8.7,28892,200,5.9,4.7
2018,5,17,12:20,UTC,0,1011.6,45,,,21.4,8.9,32407,191,6.7,4.9
2018,5,17,12:30,UTC,0,1011.5,44,,,21.6,9,33879,202,6.5,4.8
2018,5,17,12:40,UTC,0,1011.4,44,,,21.5,8.7,31957,198,5.5,4.1
2018,5,17,12:50,UTC,0,1011.3,45,,,21.5,8.9,35108,194,6.1,4.2
2018,5,17,13:00,UTC,0,1011.3,46,,,21.6,9.4,34723,194,5.9,4.2
2018,5,17,13:10,UTC,0,1011.2,44,,,21.8,9.1,34345,192,6,4.1
2018,5,17,13:20,UTC,0,1011.2,45,,,21.5,8.9,34482,202,5.7,4.5
2018,5,17,13:30,UTC,0,1011.2,45,,,21.3,8.9,40659,202,6.1,4.6
2018,5,17,13:40,UTC,0,1011.2,45,,,21.2,8.7,37395,203,6.5,4.9
2018,5,17,13:50,UTC,0,1011.3,43,,,21.3,8.4,42136,201,6.4,4.8
2018,5,17,14:00,UTC,3,1011.3,42,,,21.3,8,39720,195,5.7,4.2
2018,5,17,14:10,UTC,6,1011.6,45,,,20.6,8.2,43221,174,5,3.1
2018,5,17,14:20,UTC,7,1011.5,46,,,20.9,8.8,44292,151,3.2,2
2018,5,17,14:30,UTC,7,1011.5,46,,,20.7,8.6,41155,182,3.7,2.3
2018,5,17,14:40,UTC,7,1011.4,46,,,20.7,8.6,39623,195,2.6,2
2018,5,17,14:50,UTC,4,1011.4,46,,,21.1,8.9,34034,225,2.4,1.5
2018,5,17,15:00,UTC,6,1011.3,47,,,21.2,9.6,36285,265,4.6,1.7
2018,5,17,15:10,UTC,3,1011.2,49,,,21.2,9.9,40794,336,7,5.1
2018,5,17,15:20,UTC,6,1011.2,50,,,20.9,10,40695,327,6.7,5.1
2018,5,17,15:30,UTC,5,1011,56,,,19.6,10.6,42678,320,6.7,4.9
2018,5,17,15:40,UTC,3,1011.1,54,,,19.3,9.8,43123,325,6.5,4.5
2018,5,17,15:50,UTC,2,1011.1,58,,,18.8,10.4,48573,332,6.3,4.7
2018,5,17,16:00,UTC,0,1011,64,,,18.2,11.3,46471,323,5.8,3.9
2018,5,17,16:10,UTC,1,1011,66,,,18.1,11.7,43605,331,4.4,2.8
2018,5,17,16:20,UTC,4,1010.9,66,,,18.4,11.9,44248,337,3.7,2.6
2018,5,17,16:30,UTC,6,1010.8,68,,,18.2,12.2,40568,343,2.6,1.8
2018,5,17,16:40,UTC,8,1010.7,67,,,18.4,12.1,41009,325,1.5,1
2018,5,17,16:50,UTC,7,1010.8,65,,,18.4,11.8,43140,16,1.3,0.8
2018,5,17,17:00,UTC,7,1010.8,64,,,18.6,11.7,39573,22,2.3,1.3
2018,5,17,17:10,UTC,7,1010.7,69,,,18.3,12.5,29041,61,1.9,0.9
2018,5,17,17:20,UTC,7,1010.7,64,,,18.5,11.5,35640,359,2.7,1.4
2018,5,17,17:30,UTC,7,1010.6,65,,,18.4,11.6,17407,356,2.6,1.9
2018,5,17,17:40,UTC,7,1010.6,65,,,18.3,11.6,26144,356,2,1.5
2018,5,17,17:50,UTC,8,1010.7,67,,,18,11.8,31255,352,1.8,1.3
2018,5,17,18:00,UTC,8,1010.7,66,,,18.1,11.6,36145,0,0,0
2018,5,17,18:10,UTC,8,1010.7,68,,,18,11.9,26679,96,1.6,1
2018,5,17,18:20,UTC,8,1010.7,67,,,18,11.8,28482,69,2.4,1.5
2018,5,17,18:30,UTC,8,1011.2,69,,,17.8,12,34778,49,2.6,1.5
2018,5,17,18:40,UTC,8,1011.2,68,,,17.8,11.9,33743,6,3.9,1.9
2018,5,17,18:50,UTC,8,1011.2,68,,,17.8,11.7,37435,10,4.2,1.8
2018,5,17,19:00,UTC,8,1011.2,68,,,17.6,11.6,43295,8,5.5,2.7
2018,5,17,19:10,UTC,7,1011.2,67,,,17.8,11.5,42528,8,5.3,2.4
2018,5,17,19:20,UTC,7,1011.1,66,,,17.8,11.4,48615,1,4.9,2.8
2018,5,17,19:30,UTC,7,1011.1,66,,,17.8,11.3,36417,2,4.4,2.6
2018,5,17,19:40,UTC,8,1011.1,66,,,17.9,11.4,43258,6,4.5,2.4
2018,5,17,19:50,UTC,8,1010.9,66,,,17.9,11.4,41069,25,4.8,2.3
2018,5,17,20:00,UTC,8,1010.7,66,,,17.8,11.3,43074,53,4.4,2.1
2018,5,17,20:10,UTC,8,1010.6,65,,,17.8,11.1,46640,49,4.5,1.7
2018,5,17,20:20,UTC,8,1010.4,63,,,17.9,10.7,48682,66,5.3,2.3
2018,5,17,20:30,UTC,8,1010.3,60,,,18.1,10.3,45727,63,5.4,2.7
2018,5,17,20:40,UTC,8,1010.2,59,,,18.2,10.1,50000,76,5.2,2.6
2018,5,17,20:50,UTC,8,1010.3,60,,,18.1,10.2,50000,83,4.1,2.4
2018,5,17,21:00,UTC,8,1010.4,60,,,18,10.2,46370,77,3.9,1.8
2018,5,17,21:10,UTC,8,1010.6,65,,,17.2,10.5,46391,348,4.6,2
2018,5,17,21:20,UTC,8,1010.6,66,,,17,10.5,50000,348,3.9,2.7
2018,5,17,21:30,UTC,8,1010.5,67,,,16.8,10.7,50000,348,3.2,2.1
2018,5,17,21:40,UTC,8,1010.6,72,,,16.5,11.4,45199,323,3.5,2.8
2018,5,17,21:50,UTC,8,1010.6,74,,,16.1,11.4,50000,336,3.1,1.7
2018,5,17,22:00,UTC,8,1010.5,74,,,16.2,11.6,45729,317,2.6,1.9
2018,5,17,22:10,UTC,8,1010.6,77,,,15.8,11.7,45498,339,2.1,1.5
2018,5,17,22:20,UTC,8,1010.7,77,,,15.7,11.7,42805,345,2.4,1.6
2018,5,17,22:30,UTC,7,1010.6,77,,,15.7,11.7,40041,358,1.7,1.2
2018,5,17,22:40,UTC,7,1010.8,79,,,15.3,11.7,50000,354,3.8,2
2018,5,17,22:50,UTC,7,1010.8,81,,,15.1,11.9,43827,350,5.1,3.7
2018,5,17,23:00,UTC,8,1010.7,79,,,15.4,11.7,46931,353,5,3.4
2018,5,17,23:10,UTC,8,1010.6,80,,,15.2,11.7,45782,352,5.3,3.2
2018,5,17,23:20,UTC,8,1010.5,79,,,15.3,11.7,47467,356,3.6,2.6
2018,5,17,23:30,UTC,8,1010.5,79,,,15.1,11.5,42844,355,3.7,2.5
2018,5,17,23:40,UTC,8,1010.4,80,,,14.8,11.4,48896,351,3.9,2.6
2018,5,17,23:50,UTC,8,1010.3,82,,,14.5,11.4,45881,350,3,2.2
2018,5,18,00:00,UTC,7,1010.3,82,,,14.6,11.5,45414,359,2.9,1.9
2018,5,18,00:10,UTC,7,1010.2,82,,,14.6,11.4,41479,358,2.5,1.6
2018,5,18,00:20,UTC,7,1010.3,83,,,14.1,11.2,39333,349,2.8,2.2
2018,5,18,00:30,UTC,8,1010.3,84,,,14.2,11.5,45873,354,3.1,2.2
2018,5,18,00:40,UTC,8,1010.2,84,,,14.2,11.6,37537,356,3.5,2.4
2018,5,18,00:50,UTC,8,1010.2,84,,,14.2,11.6,42718,357,3.2,2.2
2018,5,18,01:00,UTC,8,1010.3,85,,,14.1,11.7,41446,358,3.3,1.8
2018,5,18,01:10,UTC,7,1010.3,86,,,13.6,11.3,40225,352,3.6,2.2
2018,5,18,01:20,UTC,7,1010.4,87,,,13.7,11.6,35444,337,5.7,3.7
2018,5,18,01:30,UTC,7,1010.4,87,,,13.7,11.5,35744,338,6,3.9
2018,5,18,01:40,UTC,7,1010.4,86,,,13.5,11.2,37668,340,5.4,4
2018,5,18,01:50,UTC,7,1010.5,86,,,13.3,11,34815,342,6.4,4.6
2018,5,18,02:00,UTC,7,1010.6,85,,,13.4,10.9,41449,331,6.4,4.2
2018,5,18,02:10,UTC,7,1010.7,84,,,13.3,10.7,38014,339,6.4,4.3
2018,5,18,02:20,UTC,7,1010.7,82,,,13.3,10.2,40515,342,7.9,5.5
2018,5,18,02:30,UTC,8,1010.8,80,,,13.2,9.9,41797,343,7.5,5.3
2018,5,18,02:40,UTC,8,1010.8,79,,,13,9.5,43312,347,7.6,5.2
2018,5,18,02:50,UTC,8,1010.8,79,,,12.9,9.3,44771,348,6.8,4.6
2018,5,18,03:00,UTC,8,1011,78,,,12.8,9.1,50000,347,6.9,4.8
2018,5,18,03:10,UTC,8,1011.1,76,,,12.8,8.7,48694,339,7.8,5.4
2018,5,18,03:20,UTC,8,1011,77,,,12.5,8.6,30874,339,9.5,6.6
2018,5,18,03:30,UTC,8,1011,76,,,12.6,8.4,48038,343,7.7,5.6
2018,5,18,03:40,UTC,8,1010.9,75,,,12.6,8.2,50000,340,9.2,6.5
2018,5,18,03:50,UTC,8,1011,74,,,12.6,8.1,42252,349,8.4,5.5
2018,5,18,04:00,UTC,8,1011,74,,,12.6,8,48009,350,8,5.1
2018,5,18,04:10,UTC,8,1011,74,,,12.6,8,42938,350,8.2,5.4
2018,5,18,04:20,UTC,8,1011.1,71,,,12.6,7.5,46183,349,8.2,5.9
2018,5,18,04:30,UTC,8,1011.1,73,,,12.6,7.8,42711,353,7.9,4.9
2018,5,18,04:40,UTC,8,1011.2,73,,,12.6,7.9,40455,349,7.2,4.7
2018,5,18,04:50,UTC,8,1011.1,72,,,12.5,7.6,41635,353,9.3,6.4
2018,5,18,05:00,UTC,8,1011.2,71,,,12.5,7.4,40278,359,8.5,4.8
2018,5,18,05:10,UTC,8,1011.2,73,,,12.4,7.6,47220,352,8.6,6.3
2018,5,18,05:20,UTC,8,1011.3,72,,,12.4,7.5,45715,352,8.9,6
2018,5,18,05:30,UTC,8,1011.4,73,,,12.6,7.9,36862,351,9,5.3
2018,5,18,05:40,UTC,8,1011.4,72,,,12.6,7.7,41503,352,8,4.5
2018,5,18,05:50,UTC,8,1011.5,73,,,12.4,7.7,45597,352,9.4,6
2018,5,18,06:00,UTC,7,1011.4,72,,,12.5,7.6,41197,354,8,5.5
2018,5,18,06:10,UTC,7,1011.4,72,,,12.5,7.6,40289,354,9.5,6
2018,5,18,06:20,UTC,7,1011.5,72,,,12.7,7.7,38437,352,8.9,6
2018,5,18,06:30,UTC,8,1011.6,73,,,12.8,8,38126,352,8.2,5.5
2018,5,18,06:40,UTC,8,1011.5,72,,,12.8,8,40000,343,9.1,6.5
2018,5,18,06:50,UTC,8,1011.5,72,,,12.9,8,47572,351,8.3,5.7
2018,5,18,07:00,UTC,7,1011.5,73,,,13,8.2,38142,352,7.9,5.3
2018,5,18,07:10,UTC,7,1011.5,71,,,12.9,7.6,39615,340,8.9,7
2018,5,18,07:20,UTC,7,1011.7,70,,,12.9,7.5,45924,338,9.2,7.1
2018,5,18,07:30,UTC,7,1011.8,68,,,13,7.1,38427,347,7.4,5.2
2018,5,18,07:40,UTC,7,1011.9,63,,,12.6,5.8,44714,347,10.8,7.1
2018,5,18,07:50,UTC,7,1011.9,61,,,12.8,5.5,39754,350,9.6,6.9
2018,5,18,08:00,UTC,6,1012,61,,,13.2,5.7,34457,350,8.9,5.6
2018,5,18,08:10,UTC,6,1012,60,,,13.8,6,35962,348,9.7,6.5
2018,5,18,08:20,UTC,7,1012,56,,,14.4,5.6,33005,345,10.4,5.9
2018,5,18,08:30,UTC,7,1011.9,55,,,14,5.1,36103,347,11.1,7.3
2018,5,18,08:40,UTC,7,1012,54,,,14.5,5.3,31054,348,10.1,7.3
2018,5,18,08:50,UTC,7,1012,50,,,14.8,4.4,34795,348,10.9,7.5
2018,5,18,09:00,UTC,7,1012.1,51,,,14.3,4.4,36439,350,10.8,7.4
2018,5,18,09:10,UTC,7,1012.2,52,,,14,4.3,34010,333,11.4,7.7
2018,5,18,09:20,UTC,7,1012.3,44,,,13.6,1.7,32273,350,12.8,8.2
2018,5,18,09:30,UTC,7,1012.5,43,,,13.5,1.1,26394,348,12.6,8.6
2018,5,18,09:40,UTC,7,1012.5,43,,,13.4,1.2,35478,354,11.5,6.8
2018,5,18,09:50,UTC,7,1012.5,45,,,13.8,1.9,34847,351,9.7,6.6
2018,5,18,10:00,UTC,7,1012.5,43,,,13.7,1.4,43360,342,12.6,7.9
2018,5,18,10:10,UTC,7,1012.5,41,,,13.5,0.4,37771,351,10.9,6.8
2018,5,18,10:20,UTC,7,1012.5,42,,,13.6,1.1,44042,350,11.8,8.2
2018,5,18,10:30,UTC,8,1012.4,42,,,13.7,1,37619,342,12.5,8.7
2018,5,18,10:40,UTC,8,1012.4,43,,,13.7,1.3,41603,347,12,8.2
2018,5,18,10:50,UTC,8,1012.5,45,,,13.6,1.7,33733,346,12.4,9.2
2018,5,18,11:00,UTC,8,1012.5,44,,,13.5,1.6,45672,351,11.4,8.6
2018,5,18,11:10,UTC,8,1012.5,47,,,13.4,2.4,40414,347,10.8,7.5
2018,5,18,11:20,UTC,7,1012.7,47,,,13.3,2,37923,340,12.4,9.1
2018,5,18,11:30,UTC,7,1012.6,46,,,13.7,2.2,38081,342,11.4,8
2018,5,18,11:40,UTC,7,1012.7,42,,,13.2,0.5,37734,347,12.6,8.9
2018,5,18,11:50,UTC,7,1012.8,40,,,13.9,0.3,37773,353,11.4,6.8
2018,5,18,12:00,UTC,8,1012.8,34,,,13.6,-2,34072,1,11.4,6.6
2018,5,18,12:10,UTC,8,1012.6,33,,,13.9,-2,32994,358,11.9,7.3
2018,5,18,12:20,UTC,7,1012.6,33,,,14,-2.2,46922,354,12,7.7
2018,5,18,12:30,UTC,7,1012.5,35,,,14.3,-0.8,41941,350,10.5,6.8
2018,5,18,12:40,UTC,7,1012.5,35,,,14.4,-1,39317,354,11.1,6.9
2018,5,18,12:50,UTC,7,1012.5,36,,,14.6,-0.4,38721,353,11.2,7.3
2018,5,18,13:00,UTC,8,1012.5,35,,,15.2,-0.2,37065,354,11.2,6.6
2018,5,18,13:10,UTC,7,1012.5,34,,,15.4,-0.3,42372,356,11.8,7.2
2018,5,18,13:20,UTC,7,1012.6,32,,,15.4,-1.3,41222,355,12.5,6.9
2018,5,18,13:30,UTC,7,1012.6,32,,,15.4,-1.3,41646,355,10.9,7.2
2018,5,18,13:40,UTC,7,1012.6,26,,,15.7,-3.7,41306,5,8.5,5.2
2018,5,18,13:50,UTC,7,1012.6,28,,,15.8,-2.6,38599,2,10,5.6
2018,5,18,14:00,UTC,7,1012.5,33,,,16.3,0.1,36200,357,9.8,5
2018,5,18,14:10,UTC,7,1012.4,33,,,16.8,0.4,34323,353,7.9,5.2
2018,5,18,14:20,UTC,4,1012.5,31,,,16.8,-0.2,39634,5,9.4,5.1
2018,5,18,14:30,UTC,2,1012.5,31,,,17.1,-0.1,45760,356,9,5.4
2018,5,18,14:40,UTC,0,1012.5,30,,,17.1,-0.4,36984,1,12,5.5
2018,5,18,14:50,UTC,0,1012.4,31,,,17.2,-0.1,41760,350,10.2,6.7
2018,5,18,15:00,UTC,0,1012.6,28,,,17.4,-1.1,39209,351,11,7
2018,5,18,15:10,UTC,0,1012.6,28,,,17.3,-1.5,31126,6,9.6,5.7
2018,5,18,15:20,UTC,0,1012.5,28,,,17.2,-1.6,36240,4,8.4,5.3
2018,5,18,15:30,UTC,0,1012.5,30,,,17.2,-0.3,33611,360,9.2,5.5
2018,5,18,15:40,UTC,0,1012.6,32,,,17.3,0.5,41033,7,8,4.6
2018,5,18,15:50,UTC,0,1012.6,32,,,17.4,0.5,47424,7,7.7,3.6
2018,5,18,16:00,UTC,0,1012.7,33,,,17.5,1,37823,360,6.4,4
2018,5,18,16:10,UTC,0,1012.6,31,,,17.4,0.2,41282,6,8.3,4.2
2018,5,18,16:20,UTC,0,1012.6,32,,,17.5,0.7,37295,350,8.9,4.5
2018,5,18,16:30,UTC,0,1012.6,32,,,17.4,0.6,38283,350,8.1,4.9
2018,5,18,16:40,UTC,0,1012.7,32,,,17.4,0.4,36197,351,7.2,5
2018,5,18,16:50,UTC,0,1012.8,31,,,17.5,0,42257,353,8.4,4.8
2018,5,18,17:00,UTC,0,1012.8,35,,,17.2,1.7,39495,6,6.2,3
2018,5,18,17:10,UTC,0,1012.9,33,,,17.2,0.8,44230,6,6.5,3.2
2018,5,18,17:20,UTC,0,1013.1,35,,,17,1.3,28481,9,6,2.7
2018,5,18,17:30,UTC,0,1013.2,36,,,16.7,1.4,44291,15,4.3,2.1
2018,5,18,17:40,UTC,0,1013.3,36,,,16.7,1.6,42842,9,3.4,1.9
2018,5,18,17:50,UTC,0,1013.4,36,,,16.4,1.4,46022,14,3.4,2
2018,5,18,18:00,UTC,0,1013.5,37,,,16.2,1.5,44416,15,3.9,1.8
2018,5,18,18:10,UTC,0,1013.5,36,,,16.1,0.9,48269,9,3.9,2.2
2018,5,18,18:20,UTC,0,1013.7,37,,,15.7,0.9,46805,4,3.8,2.2
2018,5,18,18:30,UTC,0,1013.8,38,,,15.3,0.9,50000,1,4.3,2.3
2018,5,18,18:40,UTC,0,1013.9,38,,,15,0.9,50000,3,3.6,2
2018,5,18,18:50,UTC,0,1014.1,44,,,13.4,1.4,46864,357,3.8,2.1
2018,5,18,19:00,UTC,0,1014.2,40,,,14.2,0.8,50000,357,4.2,2.6
2018,5,18,19:10,UTC,0,1014.4,39,,,14.5,0.6,50000,3,4.7,2.5
2018,5,18,19:20,UTC,0,1014.5,42,,,13.4,0.9,49311,357,3.3,2
2018,5,18,19:30,UTC,0,1014.6,43,,,13.4,1,46548,353,2.2,1.6
2018,5,18,19:40,UTC,0,1014.6,48,,,12,1.3,50000,327,2.2,1.8
2018,5,18,19:50,UTC,0,1014.8,50,,,12,1.8,50000,336,2.5,1.8
2018,5,18,20:00,UTC,0,1014.9,51,,,11.7,1.8,46683,347,2.7,1.8
2018,5,18,20:10,UTC,0,1015,46,,,12.5,1.2,50000,356,4.3,2.5
2018,5,18,20:20,UTC,0,1015,46,,,12.5,1.1,50000,356,4.6,2.9
2018,5,18,20:30,UTC,0,1015.1,49,,,11.4,1,50000,355,3.5,2.4
2018,5,18,20:40,UTC,0,1015.2,49,,,11.5,1,50000,353,3.5,2.1
2018,5,18,20:50,UTC,0,1015.4,48,,,11.7,0.9,50000,355,4.2,2.9
2018,5,18,21:00,UTC,0,1015.5,50,,,11,0.9,50000,356,3.4,2.4
2018,5,18,21:10,UTC,0,1015.6,50,,,11.2,1.1,50000,353,4.7,2.8
2018,5,18,21:20,UTC,0,1015.7,50,,,11.2,1,50000,356,4.9,2.9
2018,5,18,21:30,UTC,0,1015.8,50,,,11.2,1,50000,356,3.7,2.8
2018,5,18,21:40,UTC,0,1015.8,50,,,11.1,1,50000,356,4.6,2.9
2018,5,18,21:50,UTC,0,1015.9,52,,,10.3,1,50000,353,3.7,2.8
2018,5,18,22:00,UTC,0,1016,55,,,9.6,1,50000,349,4.7,3.2
2018,5,18,22:10,UTC,0,1016.2,55,,,9.6,0.9,49949,351,3.7,2.8
2018,5,18,22:20,UTC,0,1016.2,56,,,9.3,0.9,49698,349,3.9,3
2018,5,18,22:30,UTC,0,1016.3,55,,,9.2,0.7,50000,351,4.7,3.2
2018,5,18,22:40,UTC,0,1016.3,53,,,9.6,0.4,50000,354,4.6,3
2018,5,18,22:50,UTC,0,1016.3,54,,,9.4,0.4,50000,347,2.9,2
2018,5,18,23:00,UTC,0,1016.3,54,,,9.3,0.4,50000,341,2,1.5
2018,5,18,23:10,UTC,0,1016.4,56,,,8.9,0.5,50000,342,2.1,1.5
2018,5,18,23:20,UTC,0,1016.4,56,,,8.7,0.5,50000,346,2.4,1.4
2018,5,18,23:30,UTC,0,1016.4,60,,,7.6,0.4,50000,342,3.8,2.7
2018,5,18,23:40,UTC,0,1016.5,59,,,7.9,0.3,50000,342,3.3,2.5
2018,5,18,23:50,UTC,0,1016.5,59,,,7.7,0.3,50000,341,3.6,2.7
2018,5,19,00:00,UTC,0,1016.6,56,,,8.6,0.3,50000,350,5.1,3.4
2018,5,19,00:10,UTC,0,1016.7,58,,,8,0.2,50000,351,5.4,3.4
2018,5,19,00:20,UTC,0,1016.7,59,,,7.6,0.1,50000,344,3.6,2.7
2018,5,19,00:30,UTC,0,1016.8,59,,,7.6,0.1,50000,348,4.2,2.7
2018,5,19,00:40,UTC,0,1016.9,58,,,7.7,0,50000,350,4.1,2.9
2018,5,19,00:50,UTC,0,1016.9,60,,,7.2,0.1,50000,343,3.6,2.8
2018,5,19,01:00,UTC,0,1017,61,,,7.2,0.1,50000,344,4.5,2.8
2018,5,19,01:10,UTC,0,1017.1,60,,,7.1,-0.2,50000,346,3.6,2.6
2018,5,19,01:20,UTC,0,1017.1,58,,,7.5,-0.1,50000,345,4.7,2.5
2018,5,19,01:30,UTC,0,1017.3,60,,,7,-0.1,49873,344,3.8,2.3
2018,5,19,01:40,UTC,0,1017.4,60,,,7.1,-0.2,50000,340,2.6,1.8
2018,5,19,01:50,UTC,0,1017.4,61,,,6.8,-0.2,50000,343,3.8,2.2
2018,5,19,02:00,UTC,0,1017.5,62,,,6.6,-0.2,50000,345,3.8,2.5
2018,5,19,02:10,UTC,0,1017.6,62,,,6.8,-0.1,50000,347,4.7,2.7
2018,5,19,02:20,UTC,0,1017.7,62,,,6.8,0,50000,347,3.6,2.8
2018,5,19,02:30,UTC,0,1017.8,63,,,6.8,0.2,50000,345,4.1,2.9
2018,5,19,02:40,UTC,0,1017.9,61,,,7.3,0.3,49569,345,4.5,2.8
2018,5,19,02:50,UTC,0,1017.9,62,,,7.4,0.5,50000,345,4.8,3
2018,5,19,03:00,UTC,0,1018,62,,,7.6,0.7,47976,345,4.8,3.1
2018,5,19,03:10,UTC,0,1018.1,60,,,8,0.7,50000,346,4.9,2.9
2018,5,19,03:20,UTC,0,1018.2,59,,,8.3,0.8,46493,350,4.6,3
2018,5,19,03:30,UTC,0,1018.3,59,,,8.6,1,50000,349,5,3.2
2018,5,19,03:40,UTC,0,1018.3,58,,,9.1,1.2,50000,348,5.5,3.3
2018,5,19,03:50,UTC,3,1018.3,57,,,9.5,1.3,44348,346,5.9,3.9
2018,5,19,04:00,UTC,5,1018.4,56,,,9.8,1.6,44907,348,6.1,3.8
2018,5,19,04:10,UTC,7,1018.3,55,,,10.1,1.4,38674,353,5.7,3.7
2018,5,19,04:20,UTC,7,1018.5,54,,,10.5,1.5,41962,355,7,3.8
2018,5,19,04:30,UTC,7,1018.6,54,,,10.6,1.6,44443,352,6.6,4
2018,5,19,04:40,UTC,7,1018.7,55,,,10.9,2.2,50000,357,6.4,4
2018,5,19,04:50,UTC,7,1018.7,52,,,11,1.6,49280,359,6.2,3.6
2018,5,19,05:00,UTC,7,1018.8,54,,,11.4,2.3,43049,358,6,3.6
2018,5,19,05:10,UTC,7,1019,52,,,11.7,2.1,36329,354,6.7,4.3
2018,5,19,05:20,UTC,6,1019,50,,,11.9,1.8,39978,358,6.6,3.6
2018,5,19,05:30,UTC,3,1019.1,49,,,12.1,1.9,37923,357,6.7,4
2018,5,19,05:40,UTC,1,1019.1,50,,,12.6,2.4,39467,359,6,3.2
2018,5,19,05:50,UTC,0,1019.1,50,,,12.7,2.5,38564,336,6.2,4.1
2018,5,19,06:00,UTC,0,1019.2,48,,,12.8,2.1,43754,337,6.2,4.2
2018,5,19,06:10,UTC,0,1019.2,47,,,13.3,2.4,33902,341,6.2,4.4
2018,5,19,06:20,UTC,0,1019.3,48,,,13.5,2.7,41528,342,6.4,4.3
2018,5,19,06:30,UTC,0,1019.3,47,,,13.5,2.4,37442,331,6.8,4.7
2018,5,19,06:40,UTC,0,1019.3,46,,,13.5,2.2,42570,339,6.5,4.5
2018,5,19,06:50,UTC,0,1019.4,45,,,13.8,1.9,46773,345,7.8,4.6
2018,5,19,07:00,UTC,0,1019.5,43,,,13.9,1.5,43523,336,7.4,4.9
2018,5,19,07:10,UTC,0,1019.5,46,,,14.1,2.8,37461,349,6.8,4.3
2018,5,19,07:20,UTC,0,1019.6,41,,,14.4,1.3,42194,347,7.4,4.4
2018,5,19,07:30,UTC,0,1019.6,42,,,14.1,1.3,38340,333,9.2,6.9
2018,5,19,07:40,UTC,0,1019.6,44,,,14.7,2.4,34293,349,9.1,5
2018,5,19,07:50,UTC,0,1019.8,41,,,14.5,1.3,44502,338,10.4,6.8
2018,5,19,08:00,UTC,0,1019.8,43,,,15,2.6,38234,355,9,4.5
2018,5,19,08:10,UTC,0,1019.7,40,,,14.9,1.2,44639,347,8.5,5.8
2018,5,19,08:20,UTC,0,1019.8,41,,,14.8,1.8,37104,341,9.5,5.7
2018,5,19,08:30,UTC,0,1019.7,39,,,15.3,1.4,29392,332,9.8,6.8
2018,5,19,08:40,UTC,0,1019.8,38,,,15.2,1,36539,345,9.1,5.9
2018,5,19,08:50,UTC,0,1019.8,37,,,15.7,0.9,37495,347,9.7,6
2018,5,19,09:00,UTC,0,1019.6,36,,,15.5,0.3,43962,20,7.4,3.9
2018,5,19,09:10,UTC,0,1019.7,36,,,15.8,0.6,34827,20,8.4,4.1
2018,5,19,09:20,UTC,2,1019.7,35,,,16.2,0.7,36037,345,8.8,4.9
2018,5,19,09:30,UTC,3,1019.7,38,,,15.8,1.5,36566,349,7.4,4
2018,5,19,09:40,UTC,5,1019.7,36,,,15.7,0.6,40178,336,8.4,5.5
2018,5,19,09:50,UTC,4,1019.8,35,,,15.8,0.6,38772,337,8.6,6.2
2018,5,19,10:00,UTC,3,1019.8,35,,,16.1,0.6,36756,347,8.1,5.2
2018,5,19,10:10,UTC,1,1019.7,34,,,16.2,0.3,35465,360,7.6,4.7
2018,5,19,10:20,UTC,1,1019.7,33,,,16.1,-0.4,38984,22,7.8,3.7
2018,5,19,10:30,UTC,0,1019.7,32,,,16.8,0.1,38788,337,8.9,5.4
2018,5,19,10:40,UTC,1,1019.6,33,,,16.4,0,37874,321,7.1,4.1
2018,5,19,10:50,UTC,2,1019.6,32,,,16.4,-0.5,39441,358,8.3,4.5
2018,5,19,11:00,UTC,1,1019.6,35,,,17,1.3,33853,330,7.7,3.4
2018,5,19,11:10,UTC,1,1019.5,32,,,16.9,0.2,42400,328,6.6,3.4
2018,5,19,11:20,UTC,0,1019.5,33,,,17.1,0.7,35229,347,6.1,3.7
2018,5,19,11:30,UTC,0,1019.5,32,,,17,0,36947,336,6.3,2.8
2018,5,19,11:40,UTC,0,1019.5,31,,,16.9,-0.4,30936,318,7.1,4.4
2018,5,19,11:50,UTC,0,1019.5,31,,,17.2,-0.1,40915,317,6.6,2.9
2018,5,19,12:00,UTC,0,1019.5,29,,,17.1,-1.1,36520,2,7.4,4.1
2018,5,19,12:10,UTC,0,1019.4,31,,,17.6,0.1,37915,342,7.6,2.8
2018,5,19,12:20,UTC,0,1019.4,29,,,17.3,-1,30103,325,8,5
2018,5,19,12:30,UTC,0,1019.4,27,,,17.6,-1.5,31216,330,7.8,4.2
2018,5,19,12:40,UTC,0,1019.3,27,,,17.9,-1.7,43145,322,7.9,4.1
2018,5,19,12:50,UTC,0,1019.2,29,,,17.7,-0.5,38360,341,8.3,4.8
2018,5,19,13:00,UTC,0,1019.2,25,,,17.9,-2.2,32091,334,6.1,3.4
2018,5,19,13:10,UTC,0,1019.2,28,,,17.8,-1,36756,327,7.1,4.5
2018,5,19,13:20,UTC,0,1019.2,26,,,17.7,-2.1,37022,334,7.5,4.7
2018,5,19,13:30,UTC,0,1019.2,24,,,18.1,-2.9,41280,325,8.1,4.1
2018,5,19,13:40,UTC,0,1019.2,24,,,17.7,-3.3,39986,334,7,4.8
2018,5,19,13:50,UTC,0,1019.3,26,,,17.7,-2.1,47099,328,7.1,4.7
2018,5,19,14:00,UTC,0,1019.2,26,,,17.8,-1.8,36505,345,7.8,4.1
2018,5,19,14:10,UTC,0,1019.3,24,,,18.1,-2.5,42706,300,8,3.9
2018,5,19,14:20,UTC,0,1019.3,24,,,18,-2.7,35896,331,7.5,5.3
2018,5,19,14:30,UTC,0,1019.3,26,,,18.1,-1.7,42716,341,8.1,5.6
2018,5,19,14:40,UTC,0,1019.2,24,,,18.3,-2.6,42864,298,6.7,3.7
2018,5,19,14:50,UTC,0,1019.2,26,,,18.3,-1.6,42106,319,7.1,3.2
2018,5,19,15:00,UTC,0,1019.1,27,,,18.1,-1.4,34200,322,9.5,5.7
2018,5,19,15:10,UTC,0,1019.1,25,,,18,-2.3,38828,348,5.7,3.7
2018,5,19,15:20,UTC,0,1019.1,26,,,18.2,-1.6,44259,350,3.8,2
2018,5,19,15:30,UTC,0,1019.1,28,,,18.2,-0.7,43457,324,5.5,3.1
2018,5,19,15:40,UTC,0,1019.1,28,,,18.4,-0.4,45217,332,6,3.8
2018,5,19,15:50,UTC,0,1019.1,27,,,18.1,-1.3,42472,329,6.6,4.2
2018,5,19,16:00,UTC,0,1019.2,29,,,18.1,-0.3,39305,326,5.9,2.9
2018,5,19,16:10,UTC,0,1019.2,28,,,18.3,-0.5,48884,328,5.5,2.8
2018,5,19,16:20,UTC,0,1019.2,29,,,18.2,-0.1,42938,354,4.4,2.6
2018,5,19,16:30,UTC,0,1019.1,28,,,18.1,-0.9,39493,350,4.5,2.8
2018,5,19,16:40,UTC,0,1019.1,29,,,18.2,-0.2,44987,334,3.1,2.1
2018,5,19,16:50,UTC,0,1019.1,26,,,17.9,-1.9,48542,331,5.5,3.3
2018,5,19,17:00,UTC,0,1019.2,30,,,17.7,0.1,43604,352,3.7,2.3
2018,5,19,17:10,UTC,0,1019.2,28,,,17.9,-0.9,47077,360,3.3,1.8
2018,5,19,17:20,UTC,0,1019.3,28,,,17.6,-1.1,46800,12,4.4,2.1
2018,5,19,17:30,UTC,0,1019.3,29,,,17.6,-0.8,44731,7,3.6,1.8
2018,5,19,17:40,UTC,0,1019.3,30,,,17.2,-0.6,50000,3,3.7,2.2
2018,5,19,17:50,UTC,0,1019.3,30,,,17.3,-0.5,46568,8,2.6,1.5
2018,5,19,18:00,UTC,0,1019.4,30,,,17,-0.6,50000,13,2.4,1.2
2018,5,19,18:10,UTC,0,1019.5,35,,,16.4,0.7,36778,19,2,0.9
2018,5,19,18:20,UTC,0,1019.6,46,,,15.3,3.6,39101,155,2.1,1.1
2018,5,19,18:30,UTC,0,1019.7,52,,,14.8,5.1,47141,145,2.1,1.3
2018,5,19,18:40,UTC,0,1019.8,54,,,14.3,5.2,42196,189,1.7,1.2
2018,5,19,18:50,UTC,0,1019.9,58,,,13.4,5.2,47539,187,1.2,0.9
2018,5,19,19:00,UTC,0,1020.1,61,,,12.7,5.4,38702,0,0,0
2018,5,19,19:10,UTC,0,1020.2,65,,,11.9,5.6,42645,0,0,0
2018,5,19,19:20,UTC,0,1020.3,67,,,11,5.2,34734,0,0,0
2018,5,19,19:30,UTC,0,1020.4,68,,,11.3,5.6,36881,0,0,0
2018,5,19,19:40,UTC,0,1020.5,69,,,10.9,5.5,43895,0,0,0
2018,5,19,19:50,UTC,0,1020.6,74,,,9.6,5.3,44121,0,0,0
2018,5,19,20:00,UTC,0,1020.7,74,,,9.2,4.9,38380,0,0,0
2018,5,19,20:10,UTC,0,1020.8,75,,,9.2,5,41104,0,0,0
2018,5,19,20:20,UTC,0,1020.9,79,,,9,5.5,38600,0,0,0
2018,5,19,20:30,UTC,0,1021,76,,,8.7,4.7,39924,0,0,0
2018,5,19,20:40,UTC,0,1021,82,,,8.5,5.7,31472,212,1.2,0.8
2018,5,19,20:50,UTC,0,1021.2,81,,,8.6,5.5,31790,57,1,0.6
2018,5,19,21:00,UTC,0,1021.2,81,,,7.5,4.5,36052,77,0.7,0.5
2018,5,19,21:10,UTC,0,1021.3,86,,,7.6,5.5,31934,128,0.8,0.6
2018,5,19,21:20,UTC,0,1021.4,87,,,7.2,5.2,34504,0,0,0
2018,5,19,21:30,UTC,0,1021.5,88,,,7,5.2,32747,0,0,0
2018,5,19,21:40,UTC,0,1021.6,89,,,6.9,5.3,35629,97,0.8,0.5
2018,5,19,21:50,UTC,0,1021.7,89,,,6.7,4.9,35420,0,0,0
2018,5,19,22:00,UTC,0,1021.8,91,,,6.5,5.2,31880,0,0,0
2018,5,19,22:10,UTC,0,1021.9,92,,,6.3,5.1,30479,0,0,0
2018,5,19,22:20,UTC,0,1021.9,92,,,6.2,5,33793,0,0,0
2018,5,19,22:30,UTC,0,1021.9,91,,,6.3,5,35463,0,0,0
2018,5,19,22:40,UTC,0,1022.1,91,,,6,4.6,33001,0,0,0
2018,5,19,22:50,UTC,0,1022.2,89,,,6.2,4.5,34601,0,0,0
2018,5,19,23:00,UTC,0,1022.2,85,,,6.2,4,36516,0,0,0
2018,5,19,23:10,UTC,0,1022.3,85,,,6.3,4,36508,0,0,0
2018,5,19,23:20,UTC,0,1022.4,88,,,5.4,3.6,37883,0,0,0
2018,5,19,23:30,UTC,0,1022.5,87,,,5.5,3.5,42083,0,0,0
2018,5,19,23:40,UTC,0,1022.5,91,,,5.5,4.2,39302,0,0,0
2018,5,19,23:50,UTC,0,1022.6,90,,,5.4,3.9,40705,0,0,0
2018,5,20,00:00,UTC,0,1022.7,91,,,5.3,3.9,39870,0,0,0
2018,5,20,00:10,UTC,0,1022.7,88,,,5.6,3.7,41102,0,0,0
2018,5,20,00:20,UTC,0,1022.6,82,,,6.1,3.2,43996,0,0,0
2018,5,20,00:30,UTC,0,1022.7,76,,,6.5,2.5,49328,0,0,0
2018,5,20,00:40,UTC,0,1022.7,77,,,6.2,2.5,50000,0,0,0
2018,5,20,00:50,UTC,0,1022.8,80,,,5.2,2.1,50000,0,0,0
2018,5,20,01:00,UTC,0,1023,85,,,5,2.7,50000,0,0,0
2018,5,20,01:10,UTC,0,1022.9,83,,,5,2.5,50000,0,0,0
2018,5,20,01:20,UTC,0,1023,81,,,5.2,2.2,50000,0,0,0
2018,5,20,01:30,UTC,0,1023.1,85,,,4.3,1.9,50000,0,0,0
2018,5,20,01:40,UTC,0,1023.3,84,,,5.2,2.7,47984,0,0,0
2018,5,20,01:50,UTC,0,1023.4,84,,,4.8,2.3,50000,0,0,0
2018,5,20,02:00,UTC,0,1023.5,84,,,4.5,2.1,47714,0,0,0
2018,5,20,02:10,UTC,0,1023.6,84,,,4.7,2.2,50000,8,1.1,0.5
2018,5,20,02:20,UTC,0,1023.5,84,,,5,2.5,50000,349,1.1,0.7
2018,5,20,02:30,UTC,0,1023.7,83,,,5.4,2.7,50000,337,1.5,1
2018,5,20,02:40,UTC,0,1023.8,81,,,5.8,2.7,47350,342,1.5,1
2018,5,20,02:50,UTC,0,1023.9,82,,,5.5,2.6,49302,324,1.5,1
2018,5,20,03:00,UTC,0,1023.9,71,,,7,2.2,47023,339,1.9,1
2018,5,20,03:10,UTC,0,1024,67,,,7.8,2.1,45565,332,1.2,0.9
2018,5,20,03:20,UTC,0,1024.1,65,,,8.3,2.1,42746,328,2,1.1
2018,5,20,03:30,UTC,0,1024.3,65,,,8.6,2.3,48960,331,2.2,1.4
2018,5,20,03:40,UTC,0,1024.3,64,,,9.1,2.7,48905,339,2.1,1.3
2018,5,20,03:50,UTC,0,1024.4,64,,,9.7,3.3,47338,348,2,1.1
2018,5,20,04:00,UTC,0,1024.5,61,,,10.6,3.4,43990,347,1.2,0.6
2018,5,20,04:10,UTC,0,1024.6,58,,,11.6,3.6,40569,0,0,0
2018,5,20,04:20,UTC,0,1024.6,58,,,12.1,4.2,39694,0,0,0
2018,5,20,04:30,UTC,0,1024.7,58,,,11.9,4,45916,342,1.7,0.9
2018,5,20,04:40,UTC,0,1024.7,57,,,12.2,3.9,45682,330,1.9,1.3
2018,5,20,04:50,UTC,0,1024.8,54,,,12.7,3.6,44225,328,2,1.3
2018,5,20,05:00,UTC,3,1024.9,53,,,13,3.7,46165,326,1.8,1.2
2018,5,20,05:10,UTC,2,1025,53,,,13.1,3.9,46204,321,2.6,1.2
2018,5,20,05:20,UTC,5,1025,53,,,13.1,3.8,39112,323,2.7,2.2
2018,5,20,05:30,UTC,2,1025.1,51,,,13.2,3.3,47265,323,2.5,1.9
2018,5,20,05:40,UTC,2,1025.2,52,,,13.6,3.9,41550,323,2.6,1.8
2018,5,20,05:50,UTC,0,1025.2,50,,,13.9,3.7,50000,328,2.8,1.7
2018,5,20,06:00,UTC,1,1025.3,49,,,14.4,3.9,41643,317,2.3,1.4
2018,5,20,06:10,UTC,2,1025.4,46,,,14.9,3.5,37699,342,2.9,1
2018,5,20,06:20,UTC,1,1025.5,44,,,15.3,3.1,44231,320,2.7,1.6
2018,5,20,06:30,UTC,1,1025.6,42,,,15.7,2.8,41257,341,3.6,2.4
2018,5,20,06:40,UTC,0,1025.6,43,,,16,3.3,40169,318,3.6,2.1
2018,5,20,06:50,UTC,0,1025.6,42,,,16.3,3.3,38606,326,3.6,2.4
2018,5,20,07:00,UTC,1,1025.6,38,,,16.5,2,46563,331,3.7,2.4
2018,5,20,07:10,UTC,1,1025.7,37,,,16.5,1.6,35456,322,5.3,2.9
2018,5,20,07:20,UTC,3,1025.8,41,,,16.8,3.3,36158,328,4.5,2.6
2018,5,20,07:30,UTC,4,1025.9,36,,,16.6,1.3,43577,326,4.7,3.3
2018,5,20,07:40,UTC,3,1025.9,36,,,17,1.7,39711,319,5,3.3
2018,5,20,07:50,UTC,2,1026.1,35,,,16.9,1.4,42995,318,5.6,3.4
2018,5,20,08:00,UTC,1,1026.1,35,,,17.1,1.4,45364,328,4.3,2.8
2018,5,20,08:10,UTC,0,1026.2,38,,,17.4,2.8,39230,353,5.4,3.3
2018,5,20,08:20,UTC,0,1026.3,36,,,17.6,2.2,42459,351,6.5,3
2018,5,20,08:30,UTC,0,1026.3,37,,,18.3,3.4,32695,316,5.6,2.8
2018,5,20,08:40,UTC,0,1026.4,35,,,17.9,2.2,40318,329,5.5,3.5
2018,5,20,08:50,UTC,0,1026.2,35,,,18,2.3,35579,352,5.3,2.3
2018,5,20,09:00,UTC,0,1026.2,34,,,18.1,1.9,40087,14,3.4,1.8
2018,5,20,09:10,UTC,0,1026.3,35,,,18.3,2.6,38508,348,4.5,2.6
2018,5,20,09:20,UTC,0,1026.3,32,,,19.1,2,32332,330,5.2,2.4
2018,5,20,09:30,UTC,0,1026.3,32,,,18.9,1.7,29480,287,4.6,2.6
2018,5,20,09:40,UTC,0,1026.3,31,,,18.9,1.3,36674,297,4.6,2.4
2018,5,20,09:50,UTC,0,1026.3,31,,,19.5,2.1,39399,318,4.3,1.6
2018,5,20,10:00,UTC,0,1026.3,31,,,19.9,2.2,32758,238,4.2,2.1
2018,5,20,10:10,UTC,0,1026.3,30,,,19.7,1.7,38467,275,4.9,3.1
2018,5,20,10:20,UTC,0,1026.2,30,,,19.9,1.8,45330,288,3.6,2.1
2018,5,20,10:30,UTC,0,1026.2,32,,,20,2.6,37852,356,3.5,1.5
2018,5,20,10:40,UTC,0,1026.2,30,,,20.5,2.3,40007,294,6,2.8
2018,5,20,10:50,UTC,0,1026.1,28,,,20.1,0.8,39360,301,4.5,2.5
2018,5,20,11:00,UTC,0,1026,33,,,20.2,3.3,37204,294,5.1,1.8
2018,5,20,11:10,UTC,0,1025.8,32,,,20.1,2.8,34123,185,7.4,5.1
2018,5,20,11:20,UTC,0,1025.8,32,,,19.9,2.5,35157,184,7.3,5.8
2018,5,20,11:30,UTC,0,1025.9,31,,,19.8,2.2,29935,179,7.7,5.2
2018,5,20,11:40,UTC,0,1025.9,32,,,19.6,2.6,41162,190,7.5,5.2
2018,5,20,11:50,UTC,0,1025.9,32,,,20.1,3.1,38099,191,6.8,4.4
2018,5,20,12:00,UTC,0,1025.8,32,,,19.8,2.5,32457,186,7,4.9
2018,5,20,12:10,UTC,0,1025.7,32,,,19.8,2.4,30113,176,6.8,5.2
2018,5,20,12:20,UTC,0,1025.6,31,,,20.1,2.4,35451,186,7.3,5
2018,5,20,12:30,UTC,0,1025.6,32,,,19.7,2.3,37260,198,6.9,5.3
2018,5,20,12:40,UTC,0,1025.5,32,,,19.7,2.6,37539,192,7.1,5.4
2018,5,20,12:50,UTC,0,1025.5,33,,,19.8,3,35190,187,7.7,5.5
2018,5,20,13:00,UTC,0,1025.6,33,,,19.7,2.9,42003,182,6.8,4.7
2018,5,20,13:10,UTC,0,1025.5,32,,,19.9,2.8,38736,197,6.7,5
2018,5,20,13:20,UTC,0,1025.5,33,,,19.8,2.9,34092,185,7.2,5.5
2018,5,20,13:30,UTC,0,1025.6,33,,,19.6,3,36719,192,7.4,5.8
2018,5,20,13:40,UTC,0,1025.6,33,,,19.5,2.7,40122,189,7.1,5.3
2018,5,20,13:50,UTC,0,1025.8,31,,,19.9,2.4,35226,198,6.4,4.8
2018,5,20,14:00,UTC,0,1025.9,32,,,19.3,2.2,29047,208,8,5.4
2018,5,20,14:10,UTC,0,1025.9,32,,,19.5,2.2,40363,197,7.1,5.5
2018,5,20,14:20,UTC,0,1025.9,33,,,19.4,2.5,40119,203,7.7,5.6
2018,5,20,14:30,UTC,1,1025.9,32,,,19.3,2.2,48471,209,8.4,5.7
2018,5,20,14:40,UTC,2,1025.9,33,,,19.4,2.6,40245,203,8,5.3
2018,5,20,14:50,UTC,1,1025.9,34,,,19.3,3,40303,212,7.2,5
2018,5,20,15:00,UTC,1,1025.9,34,,,19,2.8,45453,203,7.2,5.5
2018,5,20,15:10,UTC,3,1025.8,36,,,19.2,3.6,42365,193,6.9,5.1
2018,5,20,15:20,UTC,6,1025.8,36,,,19.2,3.6,42462,199,5.8,4.1
2018,5,20,15:30,UTC,7,1025.8,36,,,19.1,3.7,42649,199,6.6,4.4
2018,5,20,15:40,UTC,7,1025.8,36,,,19,3.7,43643,202,6.2,3.2
2018,5,20,15:50,UTC,7,1025.9,37,,,18.9,3.9,43821,209,5,3.1
2018,5,20,16:00,UTC,7,1025.8,36,,,18.6,3.3,44917,223,5.2,3.5
2018,5,20,16:10,UTC,7,1026,37,,,18.4,3.3,46068,223,5.6,3.5
2018,5,20,16:20,UTC,7,1025.9,37,,,18.5,3.3,49660,234,5.1,3.2
2018,5,20,16:30,UTC,7,1025.9,35,,,18.5,2.8,42433,230,5.4,3.7
2018,5,20,16:40,UTC,7,1025.9,35,,,18.4,2.6,43485,218,5.1,3.6
2018,5,20,16:50,UTC,7,1025.8,35,,,18.3,2.6,46402,221,4.7,3.3
2018,5,20,17:00,UTC,7,1025.8,35,,,18.2,2.3,46636,226,4.8,3
2018,5,20,17:10,UTC,7,1025.8,33,,,18.1,1.6,49219,230,5.5,3.5
2018,5,20,17:20,UTC,5,1025.9,34,,,18,1.8,50000,233,4.8,3.2
2018,5,20,17:30,UTC,5,1025.9,34,,,17.9,1.9,40701,223,3.9,2.7
2018,5,20,17:40,UTC,5,1025.9,33,,,17.8,1.4,47240,223,5.2,3.2
2018,5,20,17:50,UTC,7,1026,34,,,17.5,1.5,50000,229,3.9,2.5
2018,5,20,18:00,UTC,7,1026,34,,,17.4,1.5,50000,228,3.9,2.2
2018,5,20,18:10,UTC,6,1026,34,,,17.4,1.4,49490,224,3.9,2.4
2018,5,20,18:20,UTC,7,1026.1,34,,,17.2,1.3,50000,221,3.3,2.2
2018,5,20,18:30,UTC,6,1026.2,35,,,17,1.4,50000,220,3.2,2.2
2018,5,20,18:40,UTC,7,1026.2,36,,,16.8,1.6,50000,218,3.2,2.1
2018,5,20,18:50,UTC,5,1026.3,36,,,16.8,1.5,50000,218,2.9,2
2018,5,20,19:00,UTC,7,1026.4,36,,,16.6,1.5,50000,219,2.8,1.9
2018,5,20,19:10,UTC,6,1026.4,36,,,16.6,1.5,49816,215,2.9,2
2018,5,20,19:20,UTC,7,1026.5,36,,,16.4,1.5,50000,220,2.9,1.9
2018,5,20,19:30,UTC,7,1026.5,38,,,16.1,1.7,50000,226,2.3,1.7
2018,5,20,19:40,UTC,7,1026.5,38,,,16.1,1.7,50000,220,2.4,1.8
2018,5,20,19:50,UTC,7,1026.6,38,,,15.9,1.7,50000,216,2.6,1.6
2018,5,20,20:00,UTC,6,1026.6,42,,,15.3,2.4,49459,219,2.4,1.6
2018,5,20,20:10,UTC,5,1026.7,46,,,14.5,2.9,50000,217,1.8,1.3
2018,5,20,20:20,UTC,2,1026.7,46,,,14.3,2.9,50000,207,2.1,1.3
2018,5,20,20:30,UTC,1,1026.8,49,,,13.2,2.9,50000,212,1.3,0.8
2018,5,20,20:40,UTC,0,1026.9,55,,,12.4,3.6,50000,205,0.9,0.6
2018,5,20,20:50,UTC,0,1026.9,52,,,12.5,2.9,50000,128,0.9,0.7
2018,5,20,21:00,UTC,0,1027,58,,,11.8,3.6,50000,109,0.9,0.7
2018,5,20,21:10,UTC,0,1027.1,62,,,10.6,3.6,50000,0,0,0
2018,5,20,21:20,UTC,0,1027,63,,,10.5,3.8,50000,0,0,0
2018,5,20,21:30,UTC,0,1027,64,,,10.4,3.8,47772,96,0.8,0.5
2018,5,20,21:40,UTC,0,1027.1,66,,,9.8,3.8,50000,0,0,0
2018,5,20,21:50,UTC,0,1027.1,67,,,9.5,3.6,50000,0,0,0
2018,5,20,22:00,UTC,0,1027.2,69,,,9.1,3.7,46372,0,0,0
2018,5,20,22:10,UTC,0,1027.2,72,,,9.2,4.4,43214,0,0,0
2018,5,20,22:20,UTC,0,1027.2,68,,,9.4,3.9,50000,0,0,0
2018,5,20,22:30,UTC,0,1027.3,72,,,8.5,3.9,47514,0,0,0
2018,5,20,22:40,UTC,0,1027.4,71,,,8.8,3.9,45910,0,0,0
2018,5,20,22:50,UTC,0,1027.4,69,,,9.2,3.8,50000,102,0.9,0.6
2018,5,20,23:00,UTC,0,1027.5,66,,,9.1,3.1,49013,120,1.2,0.9
2018,5,20,23:10,UTC,0,1027.5,72,,,8.1,3.4,50000,115,1.1,0.6
2018,5,20,23:20,UTC,0,1027.6,76,,,7.9,3.9,49904,0,0,0
2018,5,20,23:30,UTC,0,1027.6,73,,,8.2,3.7,47949,95,0.9,0.6
2018,5,20,23:40,UTC,0,1027.6,72,,,8.2,3.5,47962,119,1.6,1.1
2018,5,20,23:50,UTC,0,1027.7,74,,,7.9,3.5,49313,143,1.8,0.5
2018,5,21,00:00,UTC,0,1027.7,76,,,7.9,4,50000,0,0,0
2018,5,21,00:10,UTC,0,1027.8,75,,,8,3.9,50000,0,0,0
2018,5,21,00:20,UTC,0,1027.7,77,,,7.4,3.6,50000,0,0,0
2018,5,21,00:30,UTC,0,1027.7,78,,,7.2,3.6,50000,112,1.4,0.9
2018,5,21,00:40,UTC,0,1027.7,78,,,7.2,3.6,50000,121,1.4,0.9
2018,5,21,00:50,UTC,0,1027.7,80,,,6.8,3.6,50000,89,0.9,0.6
2018,5,21,01:00,UTC,0,1027.7,79,,,7.1,3.7,48283,0,0,0
2018,5,21,01:10,UTC,0,1027.8,83,,,6.1,3.4,40924,0,0,0
2018,5,21,01:20,UTC,0,1027.8,84,,,6.1,3.6,47993,0,0,0
2018,5,21,01:30,UTC,0,1027.9,86,,,6,3.7,45186,153,1,0.6
2018,5,21,01:40,UTC,0,1027.9,82,,,6.1,3.3,50000,120,1.1,0.9
2018,5,21,01:50,UTC,0,1027.9,85,,,5.9,3.6,49071,108,0.8,0.6
2018,5,21,02:00,UTC,0,1027.8,83,,,6.2,3.6,46586,101,0.9,0.6
2018,5,21,02:10,UTC,0,1027.8,85,,,6,3.6,46981,0,0,0
2018,5,21,02:20,UTC,0,1027.9,86,,,5.9,3.8,47679,0,0,0
2018,5,21,02:30,UTC,0,1027.8,88,,,6.2,4.2,42432,0,0,0
2018,5,21,02:40,UTC,0,1027.7,84,,,6.6,4.2,45939,112,1.4,1
2018,5,21,02:50,UTC,0,1027.8,82,,,6.5,3.7,34619,91,1,0.6
2018,5,21,03:00,UTC,0,1027.9,82,,,7.2,4.4,39044,0,0,0
2018,5,21,03:10,UTC,0,1027.9,78,,,7.9,4.3,41269,0,0,0
2018,5,21,03:20,UTC,0,1028,80,,,8.3,5,40830,0,0,0
2018,5,21,03:30,UTC,0,1028,83,,,9.3,6.6,33604,0,0,0
2018,5,21,03:40,UTC,0,1028,76,,,11.6,7.4,42040,127,1.2,0.6
2018,5,21,03:50,UTC,0,1028.1,73,,,12.5,7.9,43349,170,1.7,0.7
2018,5,21,04:00,UTC,0,1028.1,67,,,13.5,7.5,39829,201,2.3,1.2
2018,5,21,04:10,UTC,0,1028.1,64,,,14.3,7.6,41240,201,3,1.6
2018,5,21,04:20,UTC,0,1028.2,63,,,14.7,7.8,40643,188,3.4,2
2018,5,21,04:30,UTC,0,1028.2,60,,,15.1,7.4,34480,181,3.5,1.9
2018,5,21,04:40,UTC,0,1028.3,65,,,15.1,8.5,36983,171,2.8,1.7
2018,5,21,04:50,UTC,0,1028.3,64,,,15.2,8.4,38688,172,3.3,2.2
2018,5,21,05:00,UTC,0,1028.4,63,,,15.3,8.2,38117,168,4.2,3
2018,5,21,05:10,UTC,0,1028.5,65,,,15.2,8.6,34314,174,4.3,3
2018,5,21,05:20,UTC,0,1028.4,64,,,15.2,8.4,31961,177,4.8,2.8
2018,5,21,05:30,UTC,0,1028.4,62,,,15.5,8.3,42930,190,5.4,3.6
2018,5,21,05:40,UTC,0,1028.5,62,,,15.7,8.5,32250,182,4.6,3.2
2018,5,21,05:50,UTC,0,1028.5,63,,,15.7,8.5,47357,178,5.1,3.4
2018,5,21,06:00,UTC,0,1028.5,58,,,16.7,8.4,30441,180,5,3.2
2018,5,21,06:10,UTC,0,1028.6,54,,,17,7.7,37176,188,4.7,3.4
2018,5,21,06:20,UTC,0,1028.6,52,,,17.5,7.7,30611,200,5.1,3.5
2018,5,21,06:30,UTC,0,1028.7,54,,,17.5,8.1,32156,202,6,4
2018,5,21,06:40,UTC,0,1028.7,51,,,17.6,7.2,27096,202,6.3,4.1
2018,5,21,06:50,UTC,0,1028.7,50,,,18,7.3,38703,206,6.1,4.2
2018,5,21,07:00,UTC,0,1028.6,49,,,18.3,7.4,35172,199,6.1,4.3
2018,5,21,07:10,UTC,0,1028.7,49,,,18.9,7.9,39815,194,6.4,4.1
2018,5,21,07:20,UTC,0,1028.8,46,,,18.5,6.8,34881,192,6.4,4.4
2018,5,21,07:30,UTC,0,1028.8,46,,,19.5,7.5,30026,194,7.6,4.4
2018,5,21,07:40,UTC,0,1028.7,45,,,19,6.9,39613,193,7,5.3
2018,5,21,07:50,UTC,0,1028.8,44,,,18.9,6.3,30068,196,7,4.2
2018,5,21,08:00,UTC,0,1028.8,43,,,19.7,6.9,28705,190,7.3,4.5
2018,5,21,08:10,UTC,0,1028.9,39,,,19.6,5.4,32552,193,7.3,4.8
2018,5,21,08:20,UTC,0,1028.9,39,,,19.9,5.4,28522,204,7.7,5
2018,5,21,08:30,UTC,0,1028.9,41,,,20.6,6.7,42959,210,7.7,5
2018,5,21,08:40,UTC,0,1028.8,41,,,19.8,6,39734,189,7.4,5.1
2018,5,21,08:50,UTC,0,1028.9,41,,,20.3,6.4,37637,191,6.5,4.8
2018,5,21,09:00,UTC,0,1028.8,37,,,20.6,5.4,31508,197,7.8,4.6
2018,5,21,09:10,UTC,0,1028.7,36,,,20.5,5,29579,202,8.5,6.1
2018,5,21,09:20,UTC,0,1028.7,35,,,20.5,4.7,28327,192,8.3,6.3
2018,5,21,09:30,UTC,0,1028.7,37,,,21.2,5.9,35199,209,7.4,5.3
2018,5,21,09:40,UTC,0,1028.5,36,,,21,5.2,35110,204,7.9,5.4
2018,5,21,09:50,UTC,0,1028.5,35,,,21.1,4.9,32035,190,8.1,6
2018,5,21,10:00,UTC,0,1028.5,34,,,20.9,4.6,35088,197,8.9,6.5
2018,5,21,10:10,UTC,0,1028.4,34,,,21.2,4.7,31789,197,9,6.6
2018,5,21,10:20,UTC,0,1028.3,33,,,21.5,4.6,40908,193,9.3,6.5
2018,5,21,10:30,UTC,0,1028.3,33,,,21.6,4.5,32692,197,9.1,6
2018,5,21,10:40,UTC,0,1028.2,32,,,21.8,4.2,29578,200,8.8,6.2
2018,5,21,10:50,UTC,0,1028,32,,,22,4.6,33744,191,9.9,6.4
2018,5,21,11:00,UTC,0,1028.1,31,,,21.9,4,35524,195,8.7,6.5
2018,5,21,11:10,UTC,0,1028,30,,,21.8,3.6,31168,195,8.6,6.6
2018,5,21,11:20,UTC,0,1027.9,30,,,22,3.9,36552,195,8.9,6.2
2018,5,21,11:30,UTC,0,1027.9,30,,,22.3,4,33937,202,7.7,5.6
2018,5,21,11:40,UTC,0,1027.9,29,,,22.5,3.3,29614,210,8.2,4.9
2018,5,21,11:50,UTC,0,1027.9,30,,,22.2,3.8,28185,197,7.8,5.7
2018,5,21,12:00,UTC,0,1027.9,29,,,22.3,3.3,35224,209,8.1,5.9
2018,5,21,12:10,UTC,0,1027.8,28,,,22.5,2.8,34718,223,7.8,5.5
2018,5,21,12:20,UTC,0,1027.7,28,,,22.8,3.4,37086,219,8.5,5.7
2018,5,21,12:30,UTC,0,1027.5,27,,,22.5,2.6,40357,207,8.2,6.1
2018,5,21,12:40,UTC,0,1027.5,28,,,22.9,3.5,39748,200,8.2,5.8
2018,5,21,12:50,UTC,0,1027.4,27,,,22.7,2.9,33010,209,7.6,5.1
2018,5,21,13:00,UTC,0,1027.4,26,,,22.6,2.3,39343,213,8,5.2
2018,5,21,13:10,UTC,0,1027.3,25,,,22.8,1.7,37706,207,9.1,5.8
2018,5,21,13:20,UTC,0,1027.2,25,,,22.6,1.5,33645,216,7.5,5.1
2018,5,21,13:30,UTC,0,1027.2,22,,,22.8,0.2,31213,217,7.3,5.3
2018,5,21,13:40,UTC,0,1027.2,22,,,23,-0.1,32948,216,8,5.6
2018,5,21,13:50,UTC,0,1027,21,,,23,-0.3,32504,216,8.1,5.3
2018,5,21,14:00,UTC,0,1027,22,,,23.2,0.4,34301,215,8.7,5.8
2018,5,21,14:10,UTC,0,1026.9,22,,,23.3,0.5,35294,212,7.8,5
2018,5,21,14:20,UTC,0,1026.8,24,,,23.3,1.4,37161,204,8.1,5
2018,5,21,14:30,UTC,0,1026.7,23,,,23,0.8,38486,195,9.2,5.7
2018,5,21,14:40,UTC,0,1026.7,24,,,23.1,1.5,35864,199,7.5,5.1
2018,5,21,14:50,UTC,0,1026.7,24,,,23.1,1.1,36689,204,6.9,5.2
2018,5,21,15:00,UTC,0,1026.6,23,,,23,0.7,32655,200,7.2,5.1
2018,5,21,15:10,UTC,0,1026.6,23,,,22.9,0.7,35617,202,7.2,5
2018,5,21,15:20,UTC,0,1026.5,22,,,22.8,0,35682,203,7,4.8
2018,5,21,15:30,UTC,0,1026.5,22,,,22.7,0.1,37030,198,7.1,5.6
2018,5,21,15:40,UTC,0,1026.4,22,,,22.7,0.1,36443,202,6.9,5.2
2018,5,21,15:50,UTC,0,1026.4,23,,,23,0.9,36157,207,7,4.7
2018,5,21,16:00,UTC,0,1026.3,22,,,22.6,0.1,36497,195,7,5
2018,5,21,16:10,UTC,0,1026.3,23,,,22.5,0.3,39501,197,6.7,5.1
2018,5,21,16:20,UTC,0,1026.3,23,,,22.5,0.2,42899,202,6.2,4.9
2018,5,21,16:30,UTC,0,1026.2,23,,,22.3,0.4,34483,199,5.8,4.4
2018,5,21,16:40,UTC,0,1026.3,23,,,22.2,0.4,40092,201,5.8,4.5
2018,5,21,16:50,UTC,0,1026.2,25,,,22.2,1.1,42679,207,5.6,3.6
2018,5,21,17:00,UTC,0,1026.2,25,,,22.2,1.5,43690,214,4.6,2.6
2018,5,21,17:10,UTC,0,1026.2,25,,,22,0.8,45432,225,3.7,2.4
2018,5,21,17:20,UTC,0,1026.2,25,,,21.9,1.2,41527,216,3.6,2.4
2018,5,21,17:30,UTC,0,1026.1,25,,,21.8,1,43119,215,3.4,2.2
2018,5,21,17:40,UTC,0,1026.1,25,,,21.6,0.9,46163,224,3.7,2.5
2018,5,21,17:50,UTC,0,1026.1,27,,,21.4,1.8,43968,213,3.3,2.1
2018,5,21,18:00,UTC,0,1026.1,29,,,20.9,2.3,45927,204,2.6,1.7
2018,5,21,18:10,UTC,0,1026.1,29,,,20.8,2.2,47509,195,2.4,1.8
2018,5,21,18:20,UTC,0,1026.2,33,,,19.9,3.1,41100,191,2,1.7
2018,5,21,18:30,UTC,0,1026.2,36,,,18.2,2.8,38017,133,1.9,0.9
2018,5,21,18:40,UTC,0,1026.2,41,,,17.5,4.1,44388,123,1,0.8
2018,5,21,18:50,UTC,0,1026.3,43,,,16.3,3.8,45933,115,1.2,0.9
2018,5,21,19:00,UTC,0,1026.3,51,,,15.2,5,45417,113,1.1,0.8
2018,5,21,19:10,UTC,0,1026.4,52,,,14.7,4.9,46443,0,0,0
2018,5,21,19:20,UTC,0,1026.5,52,,,14.2,4.5,43782,0,0,0
2018,5,21,19:30,UTC,0,1026.5,54,,,14,4.8,36031,105,0.7,0.6
2018,5,21,19:40,UTC,0,1026.5,59,,,13,5.2,40381,0,0,0
2018,5,21,19:50,UTC,0,1026.5,61,,,12.4,5.2,43860,0,0,0
2018,5,21,20:00,UTC,0,1026.6,61,,,12.6,5.2,40437,99,1,0.6
2018,5,21,20:10,UTC,0,1026.6,56,,,13.1,4.5,34620,124,2.1,1.5
2018,5,21,20:20,UTC,0,1026.7,60,,,12.3,4.6,34502,123,1.2,0.6
2018,5,21,20:30,UTC,0,1026.7,62,,,11.8,4.8,36901,0,0,0
2018,5,21,20:40,UTC,0,1026.8,66,,,11,4.9,38984,49,1.2,0.5
2018,5,21,20:50,UTC,0,1026.8,66,,,11.6,5.5,40157,0,0,0
2018,5,21,21:00,UTC,0,1026.8,68,,,10.7,5.1,46153,125,1.2,0.5
2018,5,21,21:10,UTC,0,1026.9,70,,,10.6,5.3,41733,112,1.3,0.7
2018,5,21,21:20,UTC,0,1026.9,73,,,10.3,5.7,42031,127,1.3,0.7
2018,5,21,21:30,UTC,0,1026.8,73,,,10.4,5.8,48822,111,1.3,0.8
2018,5,21,21:40,UTC,0,1026.8,78,,,9.6,6.1,43910,97,1.5,1
2018,5,21,21:50,UTC,0,1026.8,77,,,9.3,5.6,39631,107,1.2,0.9
2018,5,21,22:00,UTC,0,1026.8,82,,,9.2,6.3,43756,91,1.4,1
2018,5,21,22:10,UTC,0,1026.9,77,,,8.8,5,39438,0,0,0
2018,5,21,22:20,UTC,0,1026.9,80,,,9.2,5.9,39636,0,0,0
2018,5,21,22:30,UTC,0,1026.9,86,,,9.4,7.2,40727,0,0,0
2018,5,21,22:40,UTC,0,1026.9,87,,,9,6.8,30967,0,0,0
2018,5,21,22:50,UTC,0,1026.9,86,,,8.6,6.3,27793,0,0,0
2018,5,21,23:00,UTC,0,1026.8,90,,,8.3,6.8,36157,0,0,0
2018,5,21,23:10,UTC,0,1026.8,93,,,7.9,6.7,32622,0,0,0
2018,5,21,23:20,UTC,0,1026.7,93,,,8.2,7.2,38060,0,0,0
2018,5,21,23:30,UTC,0,1026.6,92,,,7.9,6.8,35577,0,0,0
2018,5,21,23:40,UTC,0,1026.6,94,,,7.8,7,41754,0,0,0
2018,5,21,23:50,UTC,0,1026.5,92,,,8.6,7.4,40862,103,0.9,0.7
2018,5,22,00:00,UTC,0,1026.4,92,,,8,6.8,40446,111,0.7,0.5
2018,5,22,00:10,UTC,0,1026.4,94,,,7.5,6.5,39015,0,0,0
2018,5,22,00:20,UTC,0,1026.3,94,,,7.5,6.6,39256,0,0,0
2018,5,22,00:30,UTC,0,1026.2,95,,,7.6,6.9,34040,0,0,0
2018,5,22,00:40,UTC,0,1026.1,95,,,7,6.2,26677,0,0,0
2018,5,22,00:50,UTC,0,1026,95,,,7.1,6.4,37358,338,0.8,0.5
2018,5,22,01:00,UTC,0,1026,97,,,7.2,6.9,19448,334,1.3,1.1
2018,5,22,01:10,UTC,0,1026,97,,,7,6.6,29197,87,0.8,0.5
2018,5,22,01:20,UTC,0,1026,96,,,7.2,6.6,41281,0,0,0
2018,5,22,01:30,UTC,0,1026,97,,,7.2,6.8,22910,0,0,0
2018,5,22,01:40,UTC,0,1026,97,,,6.9,6.5,15332,103,0.8,0.6
2018,5,22,01:50,UTC,0,1026,96,,,6.7,6.1,19430,48,0.7,0.5
2018,5,22,02:00,UTC,0,1026,96,,,6.6,6,3651,348,0.8,0.5
2018,5,22,02:10,UTC,0,1026.1,98,,,7.1,6.8,17952,0,0,0
2018,5,22,02:20,UTC,0,1026.1,97,,,7.1,6.7,28892,0,0,0
2018,5,22,02:30,UTC,0,1026,96,,,7.7,7.2,31439,0,0,0
2018,5,22,02:40,UTC,0,1026,95,,,6.6,5.8,24420,0,0,0
2018,5,22,02:50,UTC,0,1026,96,,,7,6.4,29444,0,0,0
2018,5,22,03:00,UTC,0,1026,96,,,8.1,7.5,20643,0,0,0
2018,5,22,03:10,UTC,0,1025.9,91,,,8.8,7.3,27369,0,0,0
2018,5,22,03:20,UTC,0,1025.9,86,,,9.7,7.4,27143,0,0,0
2018,5,22,03:30,UTC,0,1025.8,83,,,10.5,7.8,32422,0,0,0
2018,5,22,03:40,UTC,0,1025.8,82,,,11.1,8.2,27735,0,0,0
2018,5,22,03:50,UTC,0,1025.8,81,,,11.7,8.6,31606,338,1.1,0.8
2018,5,22,04:00,UTC,0,1025.8,82,,,12.1,9.1,29971,331,1,0.8
2018,5,22,04:10,UTC,0,1025.6,80,,,13.1,9.7,27431,0,0,0
2018,5,22,04:20,UTC,0,1025.5,75,,,14.4,10.2,32154,0,0,0
2018,5,22,04:30,UTC,0,1025.4,70,,,15.1,9.7,31991,0,0,0
2018,5,22,04:40,UTC,0,1025.3,64,,,15.7,8.9,29639,0,0,0
2018,5,22,04:50,UTC,0,1025.2,62,,,16.6,9.2,29802,0,0,0
2018,5,22,05:00,UTC,0,1025.2,57,,,17.5,8.8,27268,81,1.4,0.9
2018,5,22,05:10,UTC,0,1025.1,49,,,17.8,7,30763,118,3.1,2.2
2018,5,22,05:20,UTC,0,1025,49,,,18.2,7.3,31110,126,3.5,1.9
2018,5,22,05:30,UTC,0,1025,47,,,18.1,6.5,34398,128,3.3,1.9
2018,5,22,05:40,UTC,0,1024.9,46,,,18.8,7,35668,116,2.2,1.3
2018,5,22,05:50,UTC,0,1024.9,45,,,19.1,7,35777,121,2.5,1.5
2018,5,22,06:00,UTC,0,1024.8,42,,,19.4,6.3,32340,143,3,1.8
2018,5,22,06:10,UTC,0,1024.6,43,,,19.9,6.9,33705,131,3.6,2
2018,5,22,06:20,UTC,0,1024.5,42,,,20.4,7.1,33707,121,3.6,1.9
2018,5,22,06:30,UTC,0,1024.4,39,,,20.8,6.2,38343,138,2.9,1.7
2018,5,22,06:40,UTC,0,1024.3,40,,,21,6.8,32315,128,2.7,1.2
2018,5,22,06:50,UTC,0,1024.2,34,,,21.2,4.8,35907,148,3.4,2.1
2018,5,22,07:00,UTC,0,1024.2,34,,,21.4,4.7,36077,154,3.5,2.3
2018,5,22,07:10,UTC,0,1024.1,32,,,21.9,4.6,33603,144,4.2,2.4
2018,5,22,07:20,UTC,0,1024,32,,,22,4.3,35861,140,5.4,2.8
2018,5,22,07:30,UTC,0,1023.9,32,,,22.4,4.8,30456,133,4.1,2.6
2018,5,22,07:40,UTC,0,1023.8,33,,,22.7,5.5,33435,110,5.7,2.3
2018,5,22,07:50,UTC,0,1023.7,36,,,22.5,6.7,32117,120,6.1,4.3
2018,5,22,08:00,UTC,0,1023.8,36,,,21.5,5.7,28854,109,5.9,4.6
2018,5,22,08:10,UTC,0,1023.7,37,,,21.4,6.2,27534,122,6.5,4.5
2018,5,22,08:20,UTC,0,1023.7,39,,,21.7,7.3,33233,104,5.4,3.7
2018,5,22,08:30,UTC,0,1023.5,38,,,21.6,6.7,28847,102,5.3,3.7
2018,5,22,08:40,UTC,0,1023.4,38,,,21.7,6.9,28611,107,6.6,4.4
2018,5,22,08:50,UTC,0,1023.3,38,,,21.8,6.9,30133,110,6.5,4.2
2018,5,22,09:00,UTC,0,1023.3,39,,,21.9,7.2,31664,112,5.6,3.9
2018,5,22,09:10,UTC,0,1023.2,37,,,21.8,6.3,41205,136,5.6,3.5
2018,5,22,09:20,UTC,0,1023,37,,,22.1,6.6,38225,142,5.2,3.3
2018,5,22,09:30,UTC,0,1023,37,,,21.9,6.4,33030,140,5.4,3.3
2018,5,22,09:40,UTC,0,1022.9,36,,,22.1,6.2,34635,144,5.8,3
2018,5,22,09:50,UTC,0,1022.7,36,,,22.7,6.8,30326,144,5.5,3
2018,5,22,10:00,UTC,0,1022.6,35,,,22.6,6.2,34864,154,5.3,3.1
2018,5,22,10:10,UTC,0,1022.5,37,,,22.6,7.2,36375,144,5,3.4
2018,5,22,10:20,UTC,1,1022.4,37,,,22.9,7.2,37098,132,5.3,3.5
2018,5,22,10:30,UTC,1,1022.3,37,,,22.4,6.8,42814,119,6.1,3.1
2018,5,22,10:40,UTC,1,1022.2,35,,,22.2,5.8,39426,106,5.8,3.8
2018,5,22,10:50,UTC,0,1022,37,,,22.5,6.9,32683,103,5.6,3.7
2018,5,22,11:00,UTC,0,1021.9,36,,,22.9,7.2,30524,108,7.1,3.9
2018,5,22,11:10,UTC,0,1021.8,36,,,22.8,6.9,37209,123,5.1,3.8
2018,5,22,11:20,UTC,0,1021.6,37,,,23.3,7.9,35503,120,5.5,3.7
2018,5,22,11:30,UTC,4,1021.5,37,,,22.4,7,36688,108,6,4.1
2018,5,22,11:40,UTC,2,1021.5,36,,,22.4,6.7,33794,118,5.9,4.1
2018,5,22,11:50,UTC,6,1021.4,38,,,22.8,7.7,37987,104,5.9,4
2018,5,22,12:00,UTC,2,1021.3,35,,,22.2,6,33531,117,5.5,3.8
2018,5,22,12:10,UTC,2,1021.2,36,,,22.5,6.6,39383,130,5.3,3.9
2018,5,22,12:20,UTC,0,1021,37,,,21.7,6.3,34232,114,5.1,3.6
2018,5,22,12:30,UTC,0,1020.9,37,,,22.1,6.9,36423,108,4.9,3.4
2018,5,22,12:40,UTC,0,1020.7,36,,,22.2,6.3,37523,119,6.4,4
2018,5,22,12:50,UTC,0,1020.6,37,,,22.3,6.7,40072,109,5.7,4.1
2018,5,22,13:00,UTC,0,1020.6,36,,,22.1,6.4,39512,102,5.7,4.3
2018,5,22,13:10,UTC,1,1020.5,37,,,22.2,6.6,34601,113,5,3.7
2018,5,22,13:20,UTC,1,1020.4,35,,,22,6.1,32953,117,6.2,4.2
2018,5,22,13:30,UTC,2,1020.3,36,,,22.2,6.3,45499,117,6.7,4.7
2018,5,22,13:40,UTC,2,1020.2,34,,,22.1,5.5,42464,110,6.7,4.9
2018,5,22,13:50,UTC,1,1020.1,35,,,22,5.8,30461,114,6.6,4.7
2018,5,22,14:00,UTC,1,1020.1,35,,,21.5,5.5,37521,100,6.4,4.5
2018,5,22,14:10,UTC,0,1020,34,,,21.7,5.2,40133,106,5.9,4
2018,5,22,14:20,UTC,0,1020,36,,,21.4,5.5,37858,129,5.4,4.1
2018,5,22,14:30,UTC,0,1019.9,34,,,20.9,4.7,21347,115,7.6,5.1
2018,5,22,14:40,UTC,0,1019.9,37,,,20.6,5.4,35247,118,6.7,5
2018,5,22,14:50,UTC,4,1019.9,37,,,20.5,5.4,40511,121,6.2,4
2018,5,22,15:00,UTC,2,1019.8,36,,,20.6,4.8,38583,110,5,3.6
2018,5,22,15:10,UTC,2,1019.6,37,,,20.5,5.3,46537,121,5.6,3.8
2018,5,22,15:20,UTC,0,1019.5,38,,,20.9,6.1,32110,111,3.7,2.3
2018,5,22,15:30,UTC,0,1019.5,39,,,21.1,6.4,41308,104,4.4,3.1
2018,5,22,15:40,UTC,0,1019.4,37,,,21.4,6.1,32896,114,4.2,2.6
2018,5,22,15:50,UTC,1,1019.2,35,,,21,5,38817,116,6,4.3
2018,5,22,16:00,UTC,3,1019.2,35,,,20.7,4.7,41954,130,5.7,3.9
2018,5,22,16:10,UTC,2,1019.1,35,,,20.4,4.4,37336,125,6.3,4.7
2018,5,22,16:20,UTC,1,1019.1,37,,,20.1,4.9,44825,122,5.6,3.8
2018,5,22,16:30,UTC,0,1019,36,,,20.1,4.7,38759,120,4.9,3.7
2018,5,22,16:40,UTC,2,1019,36,,,20,4.6,41754,122,5.7,3.8
2018,5,22,16:50,UTC,1,1018.9,38,,,19.8,5.1,43383,121,4.4,3.4
2018,5,22,17:00,UTC,2,1018.9,41,,,19.5,6,40115,107,3.7,2.6
2018,5,22,17:10,UTC,1,1018.8,41,,,19.4,5.7,46786,108,3.3,1.9
2018,5,22,17:20,UTC,1,1018.7,40,,,19.1,5.4,41384,106,3.1,2.1
2018,5,22,17:30,UTC,3,1018.6,43,,,18.9,6,42039,102,3.8,2.6
2018,5,22,17:40,UTC,5,1018.5,43,,,18.6,5.9,39773,109,3.6,2.5
2018,5,22,17:50,UTC,6,1018.4,43,,,18.5,5.6,49971,112,3,2.1
2018,5,22,18:00,UTC,6,1018.3,43,,,18.3,5.6,50000,103,2.3,1.6
2018,5,22,18:10,UTC,6,1018.3,44,,,18.3,5.7,41383,83,1.7,1.3
2018,5,22,18:20,UTC,5,1018.3,45,,,18,5.8,50000,91,1.6,1.1
2018,5,22,18:30,UTC,3,1018.2,47,,,17.4,6.1,43204,94,2,1.4
2018,5,22,18:40,UTC,3,1018.2,49,,,17.2,6.3,46687,103,2,1.2
2018,5,22,18:50,UTC,5,1018.1,54,,,16,6.8,35456,0,0,0
2018,5,22,19:00,UTC,6,1018.2,57,,,16.1,7.5,47557,127,1.2,0.7
2018,5,22,19:10,UTC,7,1018.1,55,,,15.8,6.9,43364,0,0,0
2018,5,22,19:20,UTC,7,1018,57,,,15.7,7.2,50000,120,1.9,1.1
2018,5,22,19:30,UTC,7,1017.9,59,,,15.2,7.3,39611,130,2.2,1.6
2018,5,22,19:40,UTC,6,1017.9,61,,,14.7,7.3,39388,105,1.9,1.2
2018,5,22,19:50,UTC,7,1017.9,62,,,14.5,7.3,46960,55,1.3,0.7
2018,5,22,20:00,UTC,7,1017.9,60,,,14.9,7.1,42749,347,1.4,1
2018,5,22,20:10,UTC,8,1017.8,62,,,14.6,7.5,43489,44,1,0.7
2018,5,22,20:20,UTC,7,1017.9,66,,,13.7,7.5,43174,93,0.9,0.5
2018,5,22,20:30,UTC,7,1017.8,69,,,13.1,7.5,34534,0,0,0
2018,5,22,20:40,UTC,7,1017.7,69,,,13.3,7.8,49299,51,0.8,0.6
2018,5,22,20:50,UTC,6,1017.7,72,,,12.7,7.7,47194,0,0,0
2018,5,22,21:00,UTC,7,1017.8,72,,,12.7,7.8,40570,81,0.9,0.7
2018,5,22,21:10,UTC,7,1017.8,75,,,12,7.6,43645,0,0,0
2018,5,22,21:20,UTC,7,1017.8,75,,,11.9,7.7,41367,0,0,0
2018,5,22,21:30,UTC,7,1017.8,76,,,12,7.9,39689,0,0,0
2018,5,22,21:40,UTC,7,1017.8,76,,,11.9,7.9,35846,3,0.6,0.5
2018,5,22,21:50,UTC,7,1017.8,81,,,11,7.8,31369,2,1.3,0.9
2018,5,22,22:00,UTC,4,1017.8,80,,,11.3,8,32915,61,1,0.6
2018,5,22,22:10,UTC,4,1017.9,83,,,10.7,7.8,32972,332,2,1
2018,5,22,22:20,UTC,3,1017.9,81,,,11.5,8.3,37593,345,2,1.6
2018,5,22,22:30,UTC,5,1017.8,76,,,12.4,8.3,37546,38,1.9,0.9
2018,5,22,22:40,UTC,5,1017.8,78,,,11.8,8.1,36025,0,0,0
2018,5,22,22:50,UTC,4,1017.8,79,,,11.7,8.1,35317,0,0,0
2018,5,22,23:00,UTC,2,1017.7,79,,,11.6,8.1,37950,0,0,0
2018,5,22,23:10,UTC,1,1017.6,81,,,11.3,8.1,40605,107,0.8,0.5
2018,5,22,23:20,UTC,1,1017.6,83,,,10.7,7.9,39497,0,0,0
2018,5,22,23:30,UTC,3,1017.6,84,,,10.7,8.1,35014,339,0.7,0.6
2018,5,22,23:40,UTC,4,1017.6,84,,,10.6,8.1,35077,0,0,0
2018,5,22,23:50,UTC,3,1017.6,84,,,10.5,8,37947,131,1.1,0.8
2018,5,23,00:00,UTC,4,1017.6,84,,,10.4,7.9,40265,0,0,0
2018,5,23,00:10,UTC,6,1017.6,84,,,10.6,8,31472,0,0,0
2018,5,23,00:20,UTC,7,1017.5,85,,,10.4,8,36445,0,0,0
2018,5,23,00:30,UTC,7,1017.5,87,,,10,8.1,37815,69,0.7,0.5
2018,5,23,00:40,UTC,7,1017.4,85,,,9.6,7.2,37276,0,0,0
2018,5,23,00:50,UTC,7,1017.4,87,,,9.7,7.7,37564,0,0,0
2018,5,23,01:00,UTC,7,1017.4,87,,,9.8,7.9,31857,0,0,0
2018,5,23,01:10,UTC,7,1017.3,90,,,9.9,8.3,33346,0,0,0
2018,5,23,01:20,UTC,7,1017.4,88,,,9.9,8.1,34338,0,0,0
2018,5,23,01:30,UTC,6,1017.4,89,,,9.4,7.7,33825,0,0,0
2018,5,23,01:40,UTC,6,1017.4,91,,,9.5,8.1,31073,0,0,0
2018,5,23,01:50,UTC,6,1017.5,90,,,9.7,8.2,31424,0,0,0
2018,5,23,02:00,UTC,7,1017.4,89,,,9.8,8,32991,174,1.1,0.6
2018,5,23,02:10,UTC,7,1017.4,86,,,10.4,8.3,33207,0,0,0
2018,5,23,02:20,UTC,4,1017.4,87,,,10.2,8.1,35608,95,1.1,0.8
2018,5,23,02:30,UTC,2,1017.4,90,,,9.8,8.2,28607,346,0.9,0.6
2018,5,23,02:40,UTC,0,1017.5,89,,,10.1,8.4,33259,0,0,0
2018,5,23,02:50,UTC,0,1017.5,86,,,10.7,8.4,31175,0,0,0
2018,5,23,03:00,UTC,0,1017.6,84,,,11.1,8.4,28717,0,0,0
2018,5,23,03:10,UTC,0,1017.6,80,,,11.8,8.5,28827,0,0,0
2018,5,23,03:20,UTC,0,1017.7,81,,,11.6,8.5,28147,0,0,0
2018,5,23,03:30,UTC,0,1017.8,79,,,12.2,8.6,31949,0,0,0
2018,5,23,03:40,UTC,0,1018,80,,,12.1,8.7,34705,0,0,0
2018,5,23,03:50,UTC,0,1018.1,79,,,12.4,8.8,31039,0,0,0
2018,5,23,04:00,UTC,3,1018.2,78,,,12.9,9.3,35726,0,0,0
2018,5,23,04:10,UTC,2,1018.2,75,,,13.1,8.8,34004,0,0,0
2018,5,23,04:20,UTC,4,1018.2,75,,,13.9,9.6,34434,161,1.2,0.5
2018,5,23,04:30,UTC,2,1018.2,73,,,14.3,9.4,31495,139,1.3,0.9
2018,5,23,04:40,UTC,2,1018.3,65,,,15.5,8.8,33518,207,1.9,0.8
2018,5,23,04:50,UTC,4,1018.3,63,,,15.8,8.7,38964,280,2,1.5
2018,5,23,05:00,UTC,5,1018.4,62,,,16,8.8,33426,297,2.2,1.5
2018,5,23,05:10,UTC,5,1018.5,62,,,16.2,9,31863,309,2.7,1.9
2018,5,23,05:20,UTC,6,1018.5,61,,,16.6,9,30480,321,2.3,1.6
2018,5,23,05:30,UTC,4,1018.4,57,,,17.2,8.6,27482,300,2.4,1.5
2018,5,23,05:40,UTC,4,1018.5,55,,,17.5,8.3,32389,292,3.1,2.3
2018,5,23,05:50,UTC,4,1018.6,54,,,17.7,8.4,29356,301,3.5,2.2
2018,5,23,06:00,UTC,6,1018.8,57,,,18,9.3,30164,307,2.9,2
2018,5,23,06:10,UTC,7,1018.7,49,,,18.4,7.5,34005,306,5.3,2.9
2018,5,23,06:20,UTC,8,1018.8,48,,,18.3,7.2,28969,307,6.2,4
2018,5,23,06:30,UTC,8,1018.8,51,,,18.2,7.8,33389,308,6.1,4.1
2018,5,23,06:40,UTC,8,1019,57,,,17.2,8.5,21380,330,4.8,3.3
2018,5,23,06:50,UTC,8,1019.1,58,,,17.3,8.8,33931,314,4.6,3.4
2018,5,23,07:00,UTC,7,1019.2,59,,,17.6,9.5,37277,326,3.9,2.9
2018,5,23,07:10,UTC,6,1019.3,54,,,18,8.6,32090,325,5.5,3.6
2018,5,23,07:20,UTC,6,1019.3,55,,,18.7,9.5,43048,327,4.2,3.1
2018,5,23,07:30,UTC,6,1019.4,50,,,19.4,8.7,25875,311,6.4,4.4
2018,5,23,07:40,UTC,7,1019.5,51,,,19.6,9.1,26273,313,7.5,4.6
2018,5,23,07:50,UTC,7,1019.6,49,,,18.9,8,44549,315,6.5,4.6
2018,5,23,08:00,UTC,6,1019.7,51,,,18.9,8.4,34261,309,5.9,4.2
2018,5,23,08:10,UTC,6,1019.7,50,,,19.6,8.8,32720,303,6.3,4.1
2018,5,23,08:20,UTC,6,1019.6,46,,,20.2,8.2,30129,291,7,4.6
2018,5,23,08:30,UTC,7,1019.8,44,,,20.4,7.8,33105,304,7.5,4.9
2018,5,23,08:40,UTC,7,1019.8,44,,,20.8,8,32813,303,6.6,4.8
2018,5,23,08:50,UTC,7,1019.8,41,,,20.7,6.8,36195,309,6.7,4.6
2018,5,23,09:00,UTC,6,1019.8,37,,,21,5.8,32534,293,7.1,4.1
2018,5,23,09:10,UTC,5,1019.8,37,,,22.5,7,33250,304,6.3,4.3
2018,5,23,09:20,UTC,6,1019.9,32,,,22,4.5,33466,309,7.8,5.4
2018,5,23,09:30,UTC,6,1019.9,33,,,22.1,4.9,30020,296,7.6,4.7
2018,5,23,09:40,UTC,6,1019.9,34,,,22.3,5.8,39574,296,9,5.3
2018,5,23,09:50,UTC,7,1020,36,,,22,6.3,34950,304,8.3,5.8
2018,5,23,10:00,UTC,6,1020.1,36,,,21.8,5.9,30464,305,9.6,6.1
2018,5,23,10:10,UTC,7,1020.1,34,,,22.6,6,36482,321,9.6,6.1
2018,5,23,10:20,UTC,6,1020.2,34,,,22.3,5.5,32504,309,10,6.6
2018,5,23,10:30,UTC,6,1020.3,32,,,22.8,5.3,39666,303,12.2,7.6
2018,5,23,10:40,UTC,7,1020.3,34,,,22.1,5.4,35678,321,10.9,7.5
2018,5,23,10:50,UTC,7,1020.4,33,,,22,5.1,37771,308,10.3,6.8
2018,5,23,11:00,UTC,7,1020.5,32,,,22.5,5.1,36584,310,9.7,6.4
2018,5,23,11:10,UTC,6,1020.5,34,,,22.3,5.5,30658,323,9.9,7.7
2018,5,23,11:20,UTC,4,1020.6,34,,,21.8,5.2,39697,315,8.3,6
2018,5,23,11:30,UTC,5,1020.7,37,,,21.7,6.2,35948,307,7.4,4.9
2018,5,23,11:40,UTC,3,1020.7,36,,,21.5,6,45483,296,7.7,4.9
2018,5,23,11:50,UTC,6,1020.7,36,,,22,6.4,32175,295,7,4.8
2018,5,23,12:00,UTC,6,1020.7,38,,,22.6,7.6,31840,286,7.2,5.2
2018,5,23,12:10,UTC,7,1020.7,35,,,22.8,6.7,34452,286,7.5,5.2
2018,5,23,12:20,UTC,4,1020.7,37,,,23.4,7.7,37172,294,6.7,4.6
2018,5,23,12:30,UTC,2,1020.7,35,,,23,6.9,37962,283,6.6,4.3
2018,5,23,12:40,UTC,0,1020.7,36,,,23.2,7.2,34380,284,7.4,4.5
2018,5,23,12:50,UTC,0,1020.6,33,,,24.2,7.1,34871,280,7.5,4.4
2018,5,23,13:00,UTC,0,1020.5,34,,,24.2,7.4,31803,299,7.4,5
2018,5,23,13:10,UTC,0,1020.6,31,,,24.2,5.9,37606,289,8.7,5.1
2018,5,23,13:20,UTC,0,1020.6,32,,,24.2,6.5,36627,306,8.5,4.8
2018,5,23,13:30,UTC,1,1020.5,33,,,24.6,7.4,31233,323,7.8,4.6
2018,5,23,13:40,UTC,4,1020.6,33,,,24.8,7.2,33401,270,6.1,3.7
2018,5,23,13:50,UTC,4,1020.5,33,,,24.5,7.2,31906,265,6.8,4.4
2018,5,23,14:00,UTC,5,1020.5,32,,,24.5,6.7,34260,286,5.9,3.5
2018,5,23,14:10,UTC,6,1020.6,34,,,24,7.1,37460,281,8.2,4.5
2018,5,23,14:20,UTC,7,1020.7,35,,,24,7.5,36882,295,6.2,3.3
2018,5,23,14:30,UTC,7,1020.7,31,,,24.4,6.3,40226,306,5,2.9
2018,5,23,14:40,UTC,7,1020.7,28,,,24.5,4.8,33326,330,6.9,4.1
2018,5,23,14:50,UTC,6,1020.7,26,,,24.5,3.8,38257,326,10.6,5.7
2018,5,23,15:00,UTC,6,1020.7,25,,,24.8,3.3,36821,313,8.8,5
2018,5,23,15:10,UTC,3,1020.7,26,,,24.9,4,32164,300,7,4.1
2018,5,23,15:20,UTC,3,1020.8,26,,,24.9,4,37547,310,7.6,4.7
2018,5,23,15:30,UTC,1,1020.8,31,,,24.5,6.4,38401,338,7.8,5.3
2018,5,23,15:40,UTC,1,1020.8,32,,,23.9,6.2,38150,340,9.8,7.3
2018,5,23,15:50,UTC,0,1020.8,35,,,23.9,7.3,28207,335,8.5,6.2
2018,5,23,16:00,UTC,0,1021,37,,,23.8,8.2,41695,336,8.4,5.6
2018,5,23,16:10,UTC,0,1021,37,,,23.7,8.1,38043,339,7.2,4.8
2018,5,23,16:20,UTC,0,1021.1,38,,,23.5,8.5,33375,349,7.3,5.2
2018,5,23,16:30,UTC,0,1021.2,38,,,23.3,8.3,38271,336,7.8,5.9
2018,5,23,16:40,UTC,0,1021.2,41,,,23.2,9,39776,335,7.3,5.4
2018,5,23,16:50,UTC,0,1021.4,43,,,22.8,9.6,34433,337,8.3,5.9
2018,5,23,17:00,UTC,0,1021.5,42,,,22.7,9.2,42878,338,9.2,6.2
2018,5,23,17:10,UTC,0,1021.6,42,,,22.5,9.1,40455,338,7.8,5.7
2018,5,23,17:20,UTC,0,1021.8,42,,,22.3,8.6,39171,332,8.4,6.1
2018,5,23,17:30,UTC,0,1021.9,41,,,22.2,8.3,35971,339,8.1,5.6
2018,5,23,17:40,UTC,0,1022,41,,,21.9,8,44758,351,7.2,5.1
2018,5,23,17:50,UTC,0,1022.2,42,,,21.7,8.1,42136,353,7.4,4.6
2018,5,23,18:00,UTC,0,1022.3,44,,,21.1,8.5,35829,340,6.2,4.3
2018,5,23,18:10,UTC,0,1022.4,43,,,21,7.9,46864,331,7.2,5.1
2018,5,23,18:20,UTC,0,1022.5,44,,,20.5,7.9,40480,333,5.9,3.9
2018,5,23,18:30,UTC,0,1022.6,45,,,20,7.8,40956,330,4.8,3.5
2018,5,23,18:40,UTC,0,1022.8,47,,,19.3,7.7,44122,332,5,3.7
2018,5,23,18:50,UTC,0,1023,46,,,19.2,7.4,44738,332,5.6,3.5
2018,5,23,19:00,UTC,0,1023.1,46,,,18.8,7.1,49977,334,6.1,4.2
2018,5,23,19:10,UTC,0,1023.3,46,,,18.6,6.7,39695,335,6.3,3.9
2018,5,23,19:20,UTC,0,1023.4,47,,,17.9,6.5,49290,339,4.3,2.9
2018,5,23,19:30,UTC,0,1023.5,47,,,17.8,6.4,49263,336,2.7,2.2
2018,5,23,19:40,UTC,0,1023.6,48,,,17.4,6.3,44008,332,2.5,2
2018,5,23,19:50,UTC,0,1023.9,49,,,16.9,6.2,46015,333,3.8,2.4
2018,5,23,20:00,UTC,0,1024,50,,,16.5,6.2,42753,341,3.8,2.6
2018,5,23,20:10,UTC,0,1024.2,53,,,16.1,6.4,48206,327,4.4,2.8
2018,5,23,20:20,UTC,0,1024.4,53,,,15.9,6.3,46548,328,4.2,2.9
2018,5,23,20:30,UTC,0,1024.5,53,,,15.6,6.2,44987,339,5,3.2
2018,5,23,20:40,UTC,0,1024.6,52,,,15.7,5.9,46855,342,5,3.5
2018,5,23,20:50,UTC,0,1024.7,49,,,16,5.2,47555,348,6.1,3.8
2018,5,23,21:00,UTC,0,1024.8,48,,,15.9,4.9,50000,348,4.6,3.6
2018,5,23,21:10,UTC,0,1024.9,51,,,15,4.9,50000,342,3.7,2.7
2018,5,23,21:20,UTC,0,1024.9,52,,,14.8,4.9,49846,344,4.9,3.5
2018,5,23,21:30,UTC,0,1025,51,,,14.5,4.5,50000,345,5.1,3.7
2018,5,23,21:40,UTC,0,1025.1,51,,,14.2,4.2,50000,346,5,3.7
2018,5,23,21:50,UTC,0,1025.1,48,,,14.5,3.6,50000,346,5.6,4.2
2018,5,23,22:00,UTC,0,1025.2,45,,,14.6,2.9,50000,350,6,4.2
2018,5,23,22:10,UTC,0,1025.1,46,,,14.2,2.6,50000,347,6.1,4.3
2018,5,23,22:20,UTC,0,1025.3,47,,,13.7,2.5,50000,345,5.2,4
2018,5,23,22:30,UTC,0,1025.4,47,,,13.5,2.4,50000,347,6.8,4.3
2018,5,23,22:40,UTC,0,1025.5,44,,,14.1,2.1,47721,341,7.1,4.7
2018,5,23,22:50,UTC,0,1025.6,45,,,13.5,1.9,49734,343,6.3,4.5
2018,5,23,23:00,UTC,0,1025.7,46,,,13.2,1.7,50000,346,6.1,4.4
2018,5,23,23:10,UTC,0,1025.7,44,,,13.4,1.4,47630,352,5.9,3.9
2018,5,23,23:20,UTC,0,1025.9,45,,,13,1.2,50000,353,5,3.2
2018,5,23,23:30,UTC,0,1025.9,47,,,12.5,1.3,50000,350,4.7,3.4
2018,5,23,23:40,UTC,0,1026.1,48,,,12.1,1.3,50000,348,5,3.6
2018,5,23,23:50,UTC,0,1026.1,47,,,11.9,1,50000,349,4.5,3.2
2018,5,24,00:00,UTC,0,1026.2,49,,,11.5,1.1,49609,346,5.1,3.6
2018,5,24,00:10,UTC,0,1026.3,48,,,11.6,0.9,50000,349,5.9,3.5
2018,5,24,00:20,UTC,0,1026.5,47,,,11.7,0.8,50000,353,4.8,3.2
2018,5,24,00:30,UTC,0,1026.4,48,,,11.3,0.8,50000,351,4.8,2.8
2018,5,24,00:40,UTC,0,1026.5,50,,,10.7,0.6,50000,349,3.9,2.5
2018,5,24,00:50,UTC,0,1026.6,51,,,10.2,0.6,50000,343,4.3,2.9
2018,5,24,01:00,UTC,0,1026.7,53,,,9.8,0.7,50000,345,3.5,2.7
2018,5,24,01:10,UTC,0,1026.8,54,,,9.7,0.7,50000,345,3.8,2.8
2018,5,24,01:20,UTC,0,1026.9,55,,,9.2,0.7,50000,341,4.1,2.9
2018,5,24,01:30,UTC,0,1027,55,,,9.3,0.7,50000,344,3.7,2.8
2018,5,24,01:40,UTC,0,1027,55,,,9.3,0.7,49613,349,4,2.7
2018,5,24,01:50,UTC,0,1027,54,,,9.6,0.6,48899,353,3.4,2.7
2018,5,24,02:00,UTC,0,1027.1,57,,,8.9,0.7,50000,348,4.3,3.1
2018,5,24,02:10,UTC,0,1027.1,57,,,9,0.9,46560,347,4.9,3.3
2018,5,24,02:20,UTC,0,1027.3,58,,,8.9,1,49773,347,5,3.5
2018,5,24,02:30,UTC,0,1027.4,57,,,9.2,1,50000,348,5.4,3.7
2018,5,24,02:40,UTC,0,1027.4,55,,,9.5,0.9,50000,350,5.6,3.6
2018,5,24,02:50,UTC,0,1027.5,56,,,9.4,1,48663,351,4.7,3.3
2018,5,24,03:00,UTC,0,1027.7,56,,,9.6,1.2,37655,350,4.5,3
2018,5,24,03:10,UTC,0,1027.7,56,,,9.8,1.3,38725,350,4.5,3
2018,5,24,03:20,UTC,0,1027.9,54,,,10.3,1.3,49467,350,5.6,3.5
2018,5,24,03:30,UTC,0,1027.9,52,,,10.6,1.2,47064,352,5,3.2
2018,5,24,03:40,UTC,0,1027.9,55,,,10.8,1.9,40451,348,5,3.3
2018,5,24,03:50,UTC,0,1028,53,,,11,1.8,43307,352,4.7,3.1
2018,5,24,04:00,UTC,0,1028,53,,,11.3,2.1,36995,353,4.4,2.8
2018,5,24,04:10,UTC,0,1028,51,,,11.6,1.9,46073,354,5.4,3
2018,5,24,04:20,UTC,0,1028,50,,,11.8,1.7,43405,355,7.1,3.9
2018,5,24,04:30,UTC,0,1028.2,50,,,12,2,43261,357,7,3.8
2018,5,24,04:40,UTC,0,1028.1,50,,,12.2,2.1,33924,359,5.7,3.6
2018,5,24,04:50,UTC,0,1028.1,50,,,12.5,2.3,42925,1,5.5,2.9
2018,5,24,05:00,UTC,0,1028.1,51,,,12.9,3,37603,359,5.4,3.3
2018,5,24,05:10,UTC,0,1028.2,48,,,13.2,2.3,41551,343,5.5,3.7
2018,5,24,05:20,UTC,0,1028.2,48,,,13.5,2.7,42947,342,5.3,4.1
2018,5,24,05:30,UTC,0,1028.2,47,,,13.6,2.3,41441,351,5.9,4.1
2018,5,24,05:40,UTC,0,1028.2,48,,,13.8,2.8,39395,2,5.2,3.5
2018,5,24,05:50,UTC,0,1028.2,46,,,14.4,3,42751,344,5.3,3.5
2018,5,24,06:00,UTC,0,1028.2,45,,,14.6,2.9,43643,337,5.3,3.3
2018,5,24,06:10,UTC,0,1028.2,45,,,15,3.1,38647,322,5.4,3.6
2018,5,24,06:20,UTC,0,1028.2,43,,,15.2,2.9,35951,345,6.1,3.7
2018,5,24,06:30,UTC,0,1028.3,46,,,15.8,4.1,38087,345,4.6,3.4
2018,5,24,06:40,UTC,0,1028.4,41,,,15.6,2.6,37504,332,5.4,3.5
2018,5,24,06:50,UTC,0,1028.5,41,,,16.3,3.1,39279,343,4.8,3.2
2018,5,24,07:00,UTC,0,1028.5,43,,,16.6,4,38912,352,4.9,3.1
2018,5,24,07:10,UTC,0,1028.6,39,,,16.6,2.7,37474,341,7,5
2018,5,24,07:20,UTC,0,1028.6,37,,,16.8,2.2,40084,357,7.9,4.3
2018,5,24,07:30,UTC,0,1028.7,40,,,17.4,3.6,34470,358,7.7,3.9
2018,5,24,07:40,UTC,0,1028.7,38,,,17.2,2.9,42161,1,8,4
2018,5,24,07:50,UTC,0,1028.6,40,,,17.4,3.5,37770,1,6.3,3.7
2018,5,24,08:00,UTC,0,1028.8,38,,,17.5,3.2,43960,346,6.6,4.3
2018,5,24,08:10,UTC,0,1028.8,43,,,17.7,4.8,39734,346,7.3,4.9
2018,5,24,08:20,UTC,0,1028.9,41,,,17.8,4.4,36994,354,7,4.3
2018,5,24,08:30,UTC,0,1028.9,44,,,17.8,5.2,36210,347,6.1,4.3
2018,5,24,08:40,UTC,0,1029,45,,,18,5.9,31638,6,7.1,3.4
2018,5,24,08:50,UTC,0,1028.9,46,,,18,6.3,33408,9,6.1,2.9
2018,5,24,09:00,UTC,0,1028.9,45,,,18.1,6.1,35766,20,6.3,2.5
2018,5,24,09:10,UTC,0,1028.9,46,,,18.2,6.2,34254,357,8.7,4.4
2018,5,24,09:20,UTC,1,1029,45,,,18.8,6.6,31289,39,6.7,3.7
2018,5,24,09:30,UTC,1,1028.8,44,,,19.3,6.8,32319,63,5.7,2
2018,5,24,09:40,UTC,1,1029,41,,,19,5.6,35875,63,6.1,3.4
2018,5,24,09:50,UTC,1,1028.9,41,,,19,5.5,35835,53,7.7,2.6
2018,5,24,10:00,UTC,0,1029.1,42,,,19.3,6.2,36244,54,5.5,2.7
2018,5,24,10:10,UTC,1,1029.1,41,,,18.9,5.2,40712,22,5.1,2.5
2018,5,24,10:20,UTC,1,1029.1,39,,,18.7,4.6,42928,40,4.4,2.2
2018,5,24,10:30,UTC,3,1029.1,45,,,18.3,6.1,33535,82,7.3,4.4
2018,5,24,10:40,UTC,2,1029.1,46,,,18.2,6.4,27909,135,8.4,5.9
2018,5,24,10:50,UTC,2,1029.1,43,,,18.4,5.7,28763,152,9.2,6.7
2018,5,24,11:00,UTC,2,1029.2,45,,,18.1,6.1,34794,139,8.2,6.2
2018,5,24,11:10,UTC,2,1029.1,46,,,18.7,6.7,36186,139,7.8,5.4
2018,5,24,11:20,UTC,3,1029.1,45,,,18.7,6.4,33149,123,7.6,5.5
2018,5,24,11:30,UTC,1,1029.1,42,,,18.5,5.2,31060,127,8.3,5.5
2018,5,24,11:40,UTC,1,1029.2,36,,,18.7,3.2,29733,132,8.8,5.6
2018,5,24,11:50,UTC,0,1029.1,34,,,18.7,2.7,41937,140,7.8,5.8
2018,5,24,12:00,UTC,0,1029,37,,,18.9,4,37861,121,7.7,5.3
2018,5,24,12:10,UTC,4,1029.1,38,,,18.2,3.7,35469,118,7,5.3
2018,5,24,12:20,UTC,4,1029.1,40,,,18,4.3,33403,136,7.1,5.3
2018,5,24,12:30,UTC,3,1029.1,40,,,18.3,4.5,35680,138,6.4,4.6
2018,5,24,12:40,UTC,2,1029.1,42,,,18.2,5,31192,140,8.5,5.5
2018,5,24,12:50,UTC,1,1029.1,41,,,18.2,4.7,35227,154,7.5,5.5
2018,5,24,13:00,UTC,1,1029.2,43,,,17.8,5,36029,150,7.7,5.2
2018,5,24,13:10,UTC,1,1029.2,41,,,17.9,4.4,33110,149,7,5.3
2018,5,24,13:20,UTC,3,1029.2,43,,,17.3,4.5,37773,151,7.3,5.1
2018,5,24,13:30,UTC,2,1029.1,42,,,17.7,4.6,32595,151,6.4,5.2
2018,5,24,13:40,UTC,1,1029.1,43,,,17.6,4.7,32293,151,6.9,5.1
2018,5,24,13:50,UTC,1,1029,41,,,17.4,4.2,38410,156,7.7,5.8
2018,5,24,14:00,UTC,0,1029,41,,,17.6,4.2,37904,150,7.7,5.1
2018,5,24,14:10,UTC,0,1029,42,,,17.1,4.3,35249,148,6.8,5.3
2018,5,24,14:20,UTC,0,1029,44,,,17.4,4.9,34582,140,6.5,4.5
2018,5,24,14:30,UTC,0,1029,45,,,17.5,5.5,40573,128,5.9,4.5
2018,5,24,14:40,UTC,0,1028.9,39,,,17.2,3,34369,146,7.5,5.4
2018,5,24,14:50,UTC,0,1028.9,40,,,17,3.2,43875,126,6.5,4.9
2018,5,24,15:00,UTC,0,1028.9,40,,,17.5,3.8,40532,140,5.7,3.9
2018,5,24,15:10,UTC,0,1029,40,,,17.1,3.5,49868,161,6.3,4.4
2018,5,24,15:20,UTC,0,1028.9,42,,,16.8,3.9,38323,151,6,4.6
2018,5,24,15:30,UTC,0,1028.9,41,,,17.2,3.7,34125,152,5.1,3.4
2018,5,24,15:40,UTC,0,1029,41,,,17.1,3.7,38633,157,6,4
2018,5,24,15:50,UTC,0,1028.9,42,,,16.8,3.7,34022,163,5.3,3.5
2018,5,24,16:00,UTC,0,1029,41,,,16.7,3.3,50000,155,5.2,3.4
2018,5,24,16:10,UTC,0,1029,41,,,16.9,3.4,50000,147,4.4,3.1
2018,5,24,16:20,UTC,0,1029,40,,,16.5,2.9,35517,148,4.9,3.6
2018,5,24,16:30,UTC,0,1028.8,39,,,16.6,2.4,40247,161,5.1,4
2018,5,24,16:40,UTC,0,1028.8,39,,,16.2,2.1,42999,147,5.9,4.4
2018,5,24,16:50,UTC,0,1028.8,39,,,15.9,1.8,39546,142,6.3,4.2
2018,5,24,17:00,UTC,0,1028.8,41,,,15.6,2.5,39363,132,5.7,4.3
2018,5,24,17:10,UTC,0,1028.8,42,,,15.7,2.8,43941,136,4.9,3.8
2018,5,24,17:20,UTC,0,1028.8,41,,,15.6,2.4,43160,144,4.9,3.6
2018,5,24,17:30,UTC,0,1028.9,43,,,15.5,3,46728,134,4.7,3.6
2018,5,24,17:40,UTC,0,1028.9,43,,,15.4,3,42128,135,4.1,2.9
2018,5,24,17:50,UTC,0,1029,43,,,15.4,2.8,44645,155,3.5,2.5
2018,5,24,18:00,UTC,0,1029,41,,,15.2,2.2,50000,155,3.7,2.7
2018,5,24,18:10,UTC,0,1029,43,,,15.1,2.5,42448,147,3,1.8
2018,5,24,18:20,UTC,0,1029,43,,,15.1,2.4,45617,150,3,1.4
2018,5,24,18:30,UTC,0,1029,43,,,14.8,2.3,45075,146,3.2,2.2
2018,5,24,18:40,UTC,0,1029.1,47,,,14.1,3,48644,128,2.9,1.9
2018,5,24,18:50,UTC,0,1029.1,50,,,13.5,3.4,45911,109,1.7,1.3
2018,5,24,19:00,UTC,0,1029.2,52,,,13,3.4,47487,85,1.3,0.7
2018,5,24,19:10,UTC,0,1029.4,56,,,12.2,3.8,45337,0,0,0
2018,5,24,19:20,UTC,0,1029.5,56,,,12.1,3.7,46795,0,0,0
2018,5,24,19:30,UTC,0,1029.5,60,,,11.8,4.3,39179,98,1.3,1
2018,5,24,19:40,UTC,0,1029.6,63,,,10.5,3.8,43879,349,1,0.7
2018,5,24,19:50,UTC,1,1029.5,66,,,10.4,4.2,44705,0,0,0
2018,5,24,20:00,UTC,1,1029.7,67,,,10.1,4.3,43397,0,0,0
2018,5,24,20:10,UTC,1,1029.7,67,,,10,4.3,42682,0,0,0
2018,5,24,20:20,UTC,0,1029.8,70,,,9.6,4.5,44800,0,0,0
2018,5,24,20:30,UTC,0,1029.9,72,,,9.4,4.5,46967,51,1.1,0.6
2018,5,24,20:40,UTC,1,1030,73,,,9.1,4.5,48384,55,0.9,0.5
2018,5,24,20:50,UTC,1,1030,76,,,8.5,4.5,41772,0,0,0
2018,5,24,21:00,UTC,1,1030.1,76,,,8.4,4.5,49187,0,0,0
2018,5,24,21:10,UTC,0,1030.1,74,,,8.9,4.4,42836,0,0,0
2018,5,24,21:20,UTC,0,1030.2,78,,,8.8,5.1,43596,359,0.8,0.7
2018,5,24,21:30,UTC,0,1030.2,78,,,8.4,4.8,45279,0,0,0
2018,5,24,21:40,UTC,0,1030.3,79,,,8.3,4.9,44042,102,0.9,0.6
2018,5,24,21:50,UTC,0,1030.3,81,,,7.5,4.6,39769,0,0,0
2018,5,24,22:00,UTC,0,1030.3,82,,,7.4,4.6,38344,76,0.9,0.6
2018,5,24,22:10,UTC,0,1030.3,82,,,7.6,4.7,40928,126,1.6,1
2018,5,24,22:20,UTC,3,1030.3,83,,,7.6,4.8,38039,126,1.1,0.8
2018,5,24,22:30,UTC,1,1030.3,85,,,6.9,4.5,43206,35,1,0.7
2018,5,24,22:40,UTC,1,1030.4,84,,,7.1,4.6,38996,355,1,0.6
2018,5,24,22:50,UTC,0,1030.4,88,,,6.8,5,35561,0,0,0
2018,5,24,23:00,UTC,0,1030.4,89,,,6.7,5,33653,0,0,0
2018,5,24,23:10,UTC,0,1030.4,90,,,6.4,4.9,37803,0,0,0
2018,5,24,23:20,UTC,0,1030.4,89,,,6.1,4.4,33098,0,0,0
2018,5,24,23:30,UTC,0,1030.4,91,,,5.9,4.6,35299,0,0,0
2018,5,24,23:40,UTC,0,1030.5,93,,,5.9,4.8,33086,0,0,0
2018,5,24,23:50,UTC,0,1030.5,93,,,5.8,4.8,34782,77,0.9,0.5
2018,5,25,00:00,UTC,0,1030.6,91,,,5.7,4.4,34232,0,0,0
2018,5,25,00:10,UTC,0,1030.6,93,,,5.7,4.6,37307,0,0,0
2018,5,25,00:20,UTC,0,1030.6,94,,,5.5,4.7,31669,0,0,0
2018,5,25,00:30,UTC,0,1030.5,94,,,5.4,4.5,29409,0,0,0
2018,5,25,00:40,UTC,0,1030.6,92,,,5.2,4,36697,0,0,0
2018,5,25,00:50,UTC,0,1030.6,93,,,5.3,4.4,30729,0,0,0
2018,5,25,01:00,UTC,0,1030.7,94,,,5.1,4.2,34075,0,0,0
2018,5,25,01:10,UTC,0,1030.7,95,,,5.4,4.6,32762,0,0,0
2018,5,25,01:20,UTC,0,1030.8,94,,,4.9,4,28846,0,0,0
2018,5,25,01:30,UTC,0,1030.8,95,,,5.1,4.4,32879,0,0,0
2018,5,25,01:40,UTC,0,1030.8,96,,,5,4.4,22150,0,0,0
2018,5,25,01:50,UTC,0,1030.8,96,,,4.8,4.2,30155,0,0,0
2018,5,25,02:00,UTC,0,1030.8,96,,,4.8,4.2,26058,0,0,0
2018,5,25,02:10,UTC,0,1030.9,95,,,4.8,4.1,27760,0,0,0
2018,5,25,02:20,UTC,0,1030.9,96,,,5.2,4.7,27228,0,0,0
2018,5,25,02:30,UTC,0,1030.9,96,,,5.2,4.6,25206,0,0,0
2018,5,25,02:40,UTC,0,1031,95,,,5.5,4.7,25215,342,1,0.7
2018,5,25,02:50,UTC,0,1031.1,92,,,6.4,5.2,22133,0,0,0
2018,5,25,03:00,UTC,0,1031.1,85,,,7.1,4.8,26394,0,0,0
2018,5,25,03:10,UTC,0,1031.2,78,,,8.2,4.7,25353,0,0,0
2018,5,25,03:20,UTC,0,1031.2,84,,,8,5.4,26373,0,0,0
2018,5,25,03:30,UTC,0,1031.2,80,,,8.9,5.7,25937,0,0,0
2018,5,25,03:40,UTC,0,1031.3,83,,,8.9,6.2,25410,309,1.1,0.8
2018,5,25,03:50,UTC,0,1031.3,76,,,10.1,6,24481,0,0,0
2018,5,25,04:00,UTC,0,1031.4,77,,,11,7.2,27584,0,0,0
2018,5,25,04:10,UTC,0,1031.4,74,,,11.8,7.2,28228,0,0,0
2018,5,25,04:20,UTC,0,1031.3,71,,,12.8,7.6,31331,341,0.9,0.6
2018,5,25,04:30,UTC,0,1031.3,66,,,14.2,7.8,30932,0,0,0
2018,5,25,04:40,UTC,0,1031.2,59,,,14.6,6.7,30316,0,0,0
2018,5,25,04:50,UTC,0,1031.3,53,,,15,5.5,38263,0,0,0
2018,5,25,05:00,UTC,0,1031.4,52,,,15.9,6.1,35574,0,0,0
2018,5,25,05:10,UTC,0,1031.3,48,,,15.9,5,32415,0,0,0
2018,5,25,05:20,UTC,0,1031.3,43,,,15.9,3.3,36987,336,1.3,0.7
2018,5,25,05:30,UTC,0,1031.3,35,,,16.5,1.1,36017,194,1.8,0.9
2018,5,25,05:40,UTC,0,1031.3,35,,,16.6,1.1,45828,181,2.4,1.6
2018,5,25,05:50,UTC,0,1031.4,37,,,16.8,1.9,35657,205,2.6,1.3
2018,5,25,06:00,UTC,0,1031.5,35,,,17.2,1.7,36264,163,4.2,2.4
2018,5,25,06:10,UTC,0,1031.5,33,,,17,0.4,36225,172,4.2,2.8
2018,5,25,06:20,UTC,0,1031.5,34,,,16.9,0.9,37965,177,4,2.8
2018,5,25,06:30,UTC,0,1031.5,32,,,17.2,0.5,36209,165,4,2.6
2018,5,25,06:40,UTC,0,1031.5,33,,,17.1,0.8,36824,185,3.8,2.6
2018,5,25,06:50,UTC,0,1031.5,33,,,17.1,0.5,38924,147,4.3,2.8
2018,5,25,07:00,UTC,0,1031.5,35,,,17.1,1.6,37458,158,4.6,3.1
2018,5,25,07:10,UTC,0,1031.4,37,,,17.2,2.5,37823,147,4.2,3
2018,5,25,07:20,UTC,0,1031.4,36,,,17.6,2.5,35637,139,4.8,3.2
2018,5,25,07:30,UTC,0,1031.4,41,,,17.4,4,40544,144,4.7,3.3
2018,5,25,07:40,UTC,0,1031.4,41,,,17.1,3.9,35574,143,5.3,3.7
2018,5,25,07:50,UTC,0,1031.5,38,,,17.2,2.6,36490,158,4.9,3.5
2018,5,25,08:00,UTC,0,1031.5,35,,,17.3,1.7,39559,149,5.3,3.4
2018,5,25,08:10,UTC,0,1031.6,36,,,17.2,2.1,30785,141,4.9,3.5
2018,5,25,08:20,UTC,0,1031.6,38,,,17.8,3.1,36106,153,5.9,3.3
2018,5,25,08:30,UTC,0,1031.5,35,,,17.9,2.2,34983,162,4.8,3.1
2018,5,25,08:40,UTC,0,1031.5,34,,,17.8,1.5,35530,154,4.7,3.4
2018,5,25,08:50,UTC,0,1031.5,33,,,17.7,1.1,39719,160,5.4,3.8
2018,5,25,09:00,UTC,0,1031.5,31,,,18.2,0.9,36229,159,5.3,3.6
2018,5,25,09:10,UTC,0,1031.5,34,,,18.4,2,41215,145,5.1,3.6
2018,5,25,09:20,UTC,0,1031.4,32,,,17.9,1.2,36520,154,5.6,3.4
2018,5,25,09:30,UTC,0,1031.4,33,,,18,1.5,31433,166,5.7,3.3
2018,5,25,09:40,UTC,0,1031.4,33,,,18.3,2,31933,152,5.4,3.6
2018,5,25,09:50,UTC,0,1031.3,31,,,18.5,1.2,34591,155,5.3,3.7
2018,5,25,10:00,UTC,0,1031.3,34,,,18.2,2.1,35539,152,5.2,3.7
2018,5,25,10:10,UTC,0,1031.3,32,,,18.5,1.4,35098,155,5.2,3.9
2018,5,25,10:20,UTC,0,1031.2,32,,,19.2,2.3,35683,163,5.3,3.6
2018,5,25,10:30,UTC,0,1031.2,33,,,18.3,1.9,33683,152,6.1,4.6
2018,5,25,10:40,UTC,0,1031.2,35,,,18.7,3.1,39809,138,5.5,4.2
2018,5,25,10:50,UTC,0,1031.1,32,,,18.6,1.4,35885,154,6.5,4.5
2018,5,25,11:00,UTC,0,1031.1,33,,,18.5,2,41417,149,6.2,4.7
2018,5,25,11:10,UTC,0,1031.1,33,,,18.6,2.1,40745,144,6.6,4.8
2018,5,25,11:20,UTC,0,1031,35,,,18.8,3,38815,134,6.1,4.6
2018,5,25,11:30,UTC,0,1031,33,,,18.7,2.2,34372,160,6.4,4.6
2018,5,25,11:40,UTC,0,1031,32,,,18.5,1.7,31786,155,6.5,4.8
2018,5,25,11:50,UTC,0,1030.9,33,,,18.8,2.1,41361,156,6.1,4.5
2018,5,25,12:00,UTC,0,1031,31,,,18.6,1.1,33734,153,6.5,5
2018,5,25,12:10,UTC,0,1031,31,,,18.6,1,40795,150,6.4,4.9
2018,5,25,12:20,UTC,0,1031,33,,,18.8,2.2,41272,146,6.7,4.4
2018,5,25,12:30,UTC,0,1030.8,32,,,18.6,1.6,32893,152,6.8,5
2018,5,25,12:40,UTC,0,1030.8,31,,,18.5,0.9,39961,153,6.1,4.3
2018,5,25,12:50,UTC,0,1030.7,31,,,18.6,1.3,40561,153,6.6,4.6
2018,5,25,13:00,UTC,0,1030.7,32,,,18.8,1.6,37857,157,5.9,4.2
2018,5,25,13:10,UTC,0,1030.6,30,,,18.7,1,38693,153,5.9,4.2
2018,5,25,13:20,UTC,0,1030.6,30,,,19.2,1.2,41382,153,6.2,4.4
2018,5,25,13:30,UTC,0,1030.5,31,,,18.7,1.3,33355,141,7,4.4
2018,5,25,13:40,UTC,0,1030.4,31,,,18.9,1.2,20244,138,7,4.7
2018,5,25,13:50,UTC,0,1030.3,30,,,19.2,1.1,37580,161,6.6,5.1
2018,5,25,14:00,UTC,0,1030.3,30,,,18.9,1,38990,157,6.4,4.9
2018,5,25,14:10,UTC,0,1030.3,31,,,18.6,1,34951,160,6.5,4.5
2018,5,25,14:20,UTC,0,1030.1,31,,,19,1.6,45782,161,6.3,4.2
2018,5,25,14:30,UTC,0,1030.1,31,,,18.8,1.2,36811,161,6.5,5.1
2018,5,25,14:40,UTC,0,1030.1,31,,,18.7,1,38000,163,5.8,4.4
2018,5,25,14:50,UTC,0,1030,31,,,18.8,1.3,47714,158,5.9,4.4
2018,5,25,15:00,UTC,0,1030,31,,,18.8,1.5,40816,162,5.7,4.3
2018,5,25,15:10,UTC,0,1029.9,31,,,18.8,1.3,38917,158,6.2,4.2
2018,5,25,15:20,UTC,0,1029.9,31,,,18.4,1.1,40532,161,5.9,4.2
2018,5,25,15:30,UTC,0,1029.9,32,,,18.8,1.6,38012,154,5.8,4.5
2018,5,25,15:40,UTC,0,1029.7,33,,,18.4,1.6,42823,150,5,3.7
2018,5,25,15:50,UTC,0,1029.8,33,,,18.7,2.2,44576,158,5.2,3.5
2018,5,25,16:00,UTC,0,1029.8,33,,,18.6,2,38098,151,4.5,2.9
2018,5,25,16:10,UTC,0,1029.7,32,,,18.2,1.3,42358,164,4.9,3.8
2018,5,25,16:20,UTC,0,1029.6,33,,,18.4,1.8,41767,159,4.8,3.5
2018,5,25,16:30,UTC,0,1029.7,32,,,18.2,1.2,41384,156,5.4,3.5
2018,5,25,16:40,UTC,0,1029.7,33,,,17.9,1.5,39238,152,5,3.5
2018,5,25,16:50,UTC,0,1029.6,35,,,17.7,2,44552,140,4.1,2.8
2018,5,25,17:00,UTC,0,1029.6,34,,,17.8,1.5,50000,157,4.2,3
2018,5,25,17:10,UTC,0,1029.6,35,,,17.5,2,42399,150,4,3
2018,5,25,17:20,UTC,0,1029.6,37,,,17.5,2.4,50000,147,3.9,2.7
2018,5,25,17:30,UTC,0,1029.6,36,,,17.4,2.1,48408,160,3.5,2.7
2018,5,25,17:40,UTC,0,1029.6,36,,,17.2,1.8,44549,172,3.5,2.4
2018,5,25,17:50,UTC,0,1029.5,36,,,17.1,1.8,47460,164,3.2,2.3
2018,5,25,18:00,UTC,0,1029.5,38,,,16.8,2.2,47496,134,2.7,1.8
2018,5,25,18:10,UTC,0,1029.5,39,,,16.6,2.4,49218,132,2.7,2.1
2018,5,25,18:20,UTC,0,1029.5,41,,,16,2.9,47339,129,2.3,1.6
2018,5,25,18:30,UTC,0,1029.5,43,,,15.8,3.3,46190,118,1.4,1.1
2018,5,25,18:40,UTC,0,1029.5,49,,,14.7,4,50000,103,1.7,1.4
2018,5,25,18:50,UTC,0,1029.6,50,,,13.8,3.7,47011,91,1.3,0.9
2018,5,25,19:00,UTC,0,1029.6,53,,,13.6,4.2,38779,81,1.2,0.6
2018,5,25,19:10,UTC,0,1029.7,57,,,12.8,4.4,50000,0,0,0
2018,5,25,19:20,UTC,0,1029.7,58,,,12.3,4.4,50000,0,0,0
2018,5,25,19:30,UTC,0,1029.7,60,,,12.2,4.8,47272,0,0,0
2018,5,25,19:40,UTC,0,1029.8,61,,,11.7,4.5,42245,0,0,0
2018,5,25,19:50,UTC,0,1029.8,63,,,11.3,4.6,45796,0,0,0
2018,5,25,20:00,UTC,0,1029.8,64,,,11.2,4.7,50000,0,0,0
2018,5,25,20:10,UTC,0,1029.9,66,,,10.7,4.5,47756,0,0,0
2018,5,25,20:20,UTC,0,1029.9,71,,,9.7,4.6,45384,0,0,0
2018,5,25,20:30,UTC,0,1029.9,70,,,9.9,4.8,41663,0,0,0
2018,5,25,20:40,UTC,0,1030,70,,,9.7,4.5,49039,110,0.6,0.5
2018,5,25,20:50,UTC,0,1030.2,74,,,9.2,4.8,46873,0,0,0
2018,5,25,21:00,UTC,0,1030.3,75,,,8.9,4.6,37724,0,0,0
2018,5,25,21:10,UTC,0,1030.3,75,,,9.1,4.9,25457,0,0,0
2018,5,25,21:20,UTC,0,1030.4,77,,,8.7,4.9,22968,0,0,0
2018,5,25,21:30,UTC,0,1030.4,78,,,8.3,4.7,36829,0,0,0
2018,5,25,21:40,UTC,0,1030.4,80,,,8.6,5.4,38367,0,0,0
2018,5,25,21:50,UTC,0,1030.4,77,,,8.6,4.9,39926,0,0,0
2018,5,25,22:00,UTC,0,1030.3,82,,,7.9,4.9,32464,0,0,0
2018,5,25,22:10,UTC,0,1030.4,83,,,7.6,4.9,35849,0,0,0
2018,5,25,22:20,UTC,0,1030.5,83,,,7.3,4.5,40205,0,0,0
2018,5,25,22:30,UTC,0,1030.5,85,,,7.1,4.7,35047,0,0,0
2018,5,25,22:40,UTC,0,1030.5,85,,,7.6,5.2,34137,0,0,0
2018,5,25,22:50,UTC,0,1030.5,83,,,7.5,4.8,34142,105,0.8,0.6
2018,5,25,23:00,UTC,0,1030.6,87,,,6.9,5,36289,0,0,0
2018,5,25,23:10,UTC,0,1030.6,89,,,6.9,5.2,34424,0,0,0
2018,5,25,23:20,UTC,0,1030.6,85,,,6.7,4.4,41567,0,0,0
2018,5,25,23:30,UTC,0,1030.6,90,,,6.8,5.2,39834,0,0,0
2018,5,25,23:40,UTC,0,1030.6,91,,,6.6,5.3,34776,0,0,0
2018,5,25,23:50,UTC,0,1030.5,91,,,6.4,5,36859,0,0,0
2018,5,26,00:00,UTC,0,1030.6,88,,,6.2,4.4,40637,0,0,0
2018,5,26,00:10,UTC,0,1030.6,89,,,6.1,4.3,44159,0,0,0
2018,5,26,00:20,UTC,0,1030.7,89,,,6.1,4.5,38661,0,0,0
2018,5,26,00:30,UTC,0,1030.7,90,,,5.9,4.5,45024,0,0,0
2018,5,26,00:40,UTC,0,1030.7,93,,,5.8,4.8,41838,0,0,0
2018,5,26,00:50,UTC,0,1030.7,93,,,5.8,4.8,36963,0,0,0
2018,5,26,01:00,UTC,0,1030.7,92,,,5.7,4.5,38567,0,0,0
2018,5,26,01:10,UTC,0,1030.7,92,,,5.9,4.8,40908,0,0,0
2018,5,26,01:20,UTC,0,1030.6,92,,,5.7,4.5,39309,0,0,0
2018,5,26,01:30,UTC,0,1030.6,93,,,6.1,5.1,35125,0,0,0
2018,5,26,01:40,UTC,0,1030.6,92,,,5.3,4.2,44893,0,0,0
2018,5,26,01:50,UTC,0,1030.6,95,,,5.4,4.7,41899,0,0,0
2018,5,26,02:00,UTC,0,1030.5,94,,,5.4,4.5,35662,0,0,0
2018,5,26,02:10,UTC,0,1030.6,94,,,5.6,4.7,37270,355,0.9,0.5
2018,5,26,02:20,UTC,0,1030.6,94,,,6.1,5.1,40783,32,0.9,0.6
2018,5,26,02:30,UTC,0,1030.6,93,,,5.8,4.8,34191,0,0,0
2018,5,26,02:40,UTC,0,1030.6,94,,,5.8,4.9,34897,0,0,0
2018,5,26,02:50,UTC,0,1030.6,91,,,6.4,5.1,40887,0,0,0
2018,5,26,03:00,UTC,0,1030.6,86,,,7.2,4.9,34516,0,0,0
2018,5,26,03:10,UTC,0,1030.6,75,,,8.8,4.7,37575,0,0,0
2018,5,26,03:20,UTC,0,1030.6,76,,,9.2,5.2,42147,0,0,0
2018,5,26,03:30,UTC,0,1030.7,79,,,9.5,6,38663,0,0,0
2018,5,26,03:40,UTC,0,1030.5,78,,,10.1,6.5,34515,0,0,0
2018,5,26,03:50,UTC,0,1030.5,78,,,10.1,6.3,39250,334,1.5,1
2018,5,26,04:00,UTC,0,1030.5,80,,,11.1,7.8,35054,346,1.6,1.1
2018,5,26,04:10,UTC,0,1030.5,75,,,12.1,7.9,38670,0,0,0
2018,5,26,04:20,UTC,0,1030.5,75,,,12.8,8.5,39627,0,0,0
2018,5,26,04:30,UTC,0,1030.4,70,,,14.3,8.9,37760,0,0,0
2018,5,26,04:40,UTC,0,1030.4,67,,,15.4,9.3,42925,105,1.3,0.6
2018,5,26,04:50,UTC,0,1030.3,66,,,15.5,9.1,37672,130,3.1,1.8
2018,5,26,05:00,UTC,0,1030.2,65,,,15.9,9.3,36860,126,2.6,1.7
2018,5,26,05:10,UTC,0,1030.2,63,,,16.1,9.1,41286,146,3.1,2.2
2018,5,26,05:20,UTC,0,1030.1,63,,,16.8,9.6,40636,139,3.4,1.9
2018,5,26,05:30,UTC,0,1030.1,65,,,16.9,10.2,38520,126,2.9,2
2018,5,26,05:40,UTC,0,1030,60,,,17.1,9.1,38901,157,3.2,2
2018,5,26,05:50,UTC,0,1030,60,,,17.4,9.5,33073,161,3.8,2.3
2018,5,26,06:00,UTC,0,1030,60,,,17.5,9.6,44075,149,3.6,2.2
2018,5,26,06:10,UTC,0,1030,55,,,17.9,8.8,30836,123,3.7,1.9
2018,5,26,06:20,UTC,0,1030.1,56,,,18.2,9.2,34790,131,2.8,1.8
2018,5,26,06:30,UTC,0,1030,56,,,18.5,9.7,42966,144,3.3,2
2018,5,26,06:40,UTC,0,1030.1,57,,,18.3,9.7,41956,161,3.5,2.2
2018,5,26,06:50,UTC,0,1030.2,49,,,18.6,7.7,37233,182,4,2.6
2018,5,26,07:00,UTC,0,1030.1,51,,,18.9,8.6,34883,171,3.6,2.1
2018,5,26,07:10,UTC,0,1030.1,48,,,19,7.8,42073,158,3.4,1.9
2018,5,26,07:20,UTC,0,1030.1,48,,,19.1,7.9,36450,172,2.4,1.6
2018,5,26,07:30,UTC,0,1030.1,48,,,19.9,8.5,34534,165,3.3,1.6
2018,5,26,07:40,UTC,0,1030,50,,,20.2,9.3,37527,135,2.8,1.4
2018,5,26,07:50,UTC,2,1030,47,,,20.4,8.6,34767,127,3.8,2.2
2018,5,26,08:00,UTC,1,1030,45,,,20.3,8.1,36111,192,3.7,1.9
2018,5,26,08:10,UTC,1,1029.9,43,,,20.6,7.5,37868,185,4.6,1.8
2018,5,26,08:20,UTC,0,1029.8,42,,,21.1,7.5,32897,134,4.1,1.9
2018,5,26,08:30,UTC,0,1029.8,38,,,21.4,6.4,43501,144,3,1.7
2018,5,26,08:40,UTC,0,1029.8,34,,,21.3,4.7,41727,150,4,2
2018,5,26,08:50,UTC,0,1029.8,36,,,21.2,5.6,42871,157,3.9,1.7
2018,5,26,09:00,UTC,0,1029.7,38,,,21.6,6.5,40621,174,4.6,2
2018,5,26,09:10,UTC,0,1029.7,39,,,21.4,7,39310,155,5.1,3.1
2018,5,26,09:20,UTC,0,1029.6,38,,,21.9,6.8,31202,162,4.9,2.8
2018,5,26,09:30,UTC,0,1029.6,33,,,21.7,4.9,36337,153,5.2,2.7
2018,5,26,09:40,UTC,0,1029.5,33,,,22.1,4.9,32788,160,4.4,2.9
2018,5,26,09:50,UTC,0,1029.5,35,,,21.9,5.6,33506,145,4.1,2.7
2018,5,26,10:00,UTC,0,1029.5,33,,,22.2,5.2,33987,167,5.3,3.4
2018,5,26,10:10,UTC,0,1029.4,34,,,21.8,5.2,32748,169,5.3,2.6
2018,5,26,10:20,UTC,0,1029.5,32,,,22,4.7,40695,157,5.2,3.3
2018,5,26,10:30,UTC,0,1029.4,31,,,22,4.2,39202,149,6,3.2
2018,5,26,10:40,UTC,0,1029.3,34,,,21.8,5,40986,156,5.7,3.5
2018,5,26,10:50,UTC,0,1029.4,33,,,22.2,5.3,42673,145,5.5,3.7
2018,5,26,11:00,UTC,0,1029.3,33,,,21.9,4.9,36563,155,5.5,3.2
2018,5,26,11:10,UTC,0,1029.3,34,,,21.6,4.8,34259,160,6.2,3.8
2018,5,26,11:20,UTC,0,1029.2,33,,,22.1,5.2,32463,156,5.7,3.6
2018,5,26,11:30,UTC,0,1029,35,,,21.8,5.5,37817,142,6.3,4.4
2018,5,26,11:40,UTC,0,1028.9,34,,,22,5.2,34727,145,6,4.1
2018,5,26,11:50,UTC,0,1028.9,33,,,21.9,5.1,36809,152,5.9,4.2
2018,5,26,12:00,UTC,0,1028.7,34,,,22.5,5.7,36379,165,5.8,3.9
2018,5,26,12:10,UTC,0,1028.6,33,,,21.9,4.8,41946,152,6.1,4.1
2018,5,26,12:20,UTC,0,1028.6,35,,,21.8,5.5,32412,155,5.9,3.6
2018,5,26,12:30,UTC,0,1028.6,35,,,22.2,5.8,35680,163,6.3,3.8
2018,5,26,12:40,UTC,0,1028.4,36,,,22.1,6.2,36472,132,5.1,3.5
2018,5,26,12:50,UTC,0,1028.3,35,,,21.8,5.5,43583,150,5.8,4
2018,5,26,13:00,UTC,0,1028.1,35,,,22.2,5.9,36512,169,5.2,3.5
2018,5,26,13:10,UTC,0,1027.9,35,,,22.4,6,32425,158,5.9,3.8
2018,5,26,13:20,UTC,0,1027.9,35,,,22.3,6.3,38371,142,5.1,3.3
2018,5,26,13:30,UTC,0,1027.8,36,,,22.4,6.4,35934,147,5.6,3.3
2018,5,26,13:40,UTC,0,1027.7,37,,,22.2,7,36918,138,5.1,3.3
2018,5,26,13:50,UTC,0,1027.7,30,,,22.5,4,38884,177,5,3.2
2018,5,26,14:00,UTC,0,1027.6,29,,,22.6,3.6,35932,192,5.3,3.7
2018,5,26,14:10,UTC,0,1027.5,30,,,22.8,4.3,36611,181,5.4,3.6
2018,5,26,14:20,UTC,0,1027.4,30,,,22.8,4.4,39419,183,5.6,3.8
2018,5,26,14:30,UTC,0,1027.3,36,,,22.2,6.6,37906,176,5.1,3
2018,5,26,14:40,UTC,0,1027.2,41,,,21.7,7.8,35520,138,6.1,4.2
2018,5,26,14:50,UTC,0,1027.2,40,,,21.6,7.5,35158,136,5.1,3.8
2018,5,26,15:00,UTC,0,1027.1,41,,,21.6,7.9,30711,135,4.9,3.5
2018,5,26,15:10,UTC,0,1027,40,,,22,7.6,33726,165,5,3.2
2018,5,26,15:20,UTC,0,1026.9,40,,,21.6,7.6,38926,155,4.6,3.3
2018,5,26,15:30,UTC,0,1026.8,44,,,21.3,8.5,40922,142,4.5,3.3
2018,5,26,15:40,UTC,0,1026.8,45,,,21.3,8.8,40378,151,4.7,2.8
2018,5,26,15:50,UTC,0,1026.7,45,,,21.3,8.8,39419,142,4.4,2.9
2018,5,26,16:00,UTC,0,1026.7,46,,,21.3,9.2,38455,142,4.4,2.8
2018,5,26,16:10,UTC,0,1026.6,46,,,21,8.9,38399,159,4.2,3
2018,5,26,16:20,UTC,0,1026.5,49,,,20.7,9.6,41872,166,4.8,3.4
2018,5,26,16:30,UTC,0,1026.6,50,,,20.4,9.6,35042,185,5,3
2018,5,26,16:40,UTC,0,1026.5,49,,,20.4,9.3,39097,203,4.4,3.1
2018,5,26,16:50,UTC,0,1026.5,46,,,20.4,8.4,39417,194,4.1,3.2
2018,5,26,17:00,UTC,0,1026.4,43,,,20.1,7,40048,209,5.1,3.5
2018,5,26,17:10,UTC,0,1026.4,45,,,19.7,7.6,33634,191,4.7,3.6
2018,5,26,17:20,UTC,0,1026.3,47,,,19.8,8.2,42453,180,4.4,3.3
2018,5,26,17:30,UTC,0,1026.3,47,,,19.7,7.9,36135,184,4.2,3.1
2018,5,26,17:40,UTC,0,1026.3,48,,,19.6,8.3,42005,190,4.3,2.8
2018,5,26,17:50,UTC,3,1026.4,50,,,19.3,8.7,44152,192,3.8,2.7
2018,5,26,18:00,UTC,1,1026.3,54,,,19,9.4,45837,191,3.9,2.6
2018,5,26,18:10,UTC,1,1026.3,57,,,18.5,9.7,46686,192,3.8,2.5
2018,5,26,18:20,UTC,0,1026.3,60,,,18.3,10.3,44184,194,3.1,2.4
2018,5,26,18:30,UTC,0,1026.3,61,,,18.1,10.5,44724,191,3.2,2.5
2018,5,26,18:40,UTC,0,1026.4,60,,,17.9,10.1,42237,199,2.7,1.9
2018,5,26,18:50,UTC,0,1026.4,56,,,17.9,9,46087,207,3,2.1
2018,5,26,19:00,UTC,0,1026.3,57,,,17.7,9.1,47826,199,3,2.1
2018,5,26,19:10,UTC,0,1026.3,58,,,17.3,9,47886,205,2.6,2
2018,5,26,19:20,UTC,0,1026.4,60,,,16.8,9,50000,198,2,1.3
2018,5,26,19:30,UTC,0,1026.4,59,,,17.1,9,50000,197,2.7,2
2018,5,26,19:40,UTC,0,1026.3,60,,,17,9.2,43932,202,2.8,2
2018,5,26,19:50,UTC,0,1026.2,61,,,16.8,9.2,45140,196,2.3,1.8
2018,5,26,20:00,UTC,0,1026.3,62,,,16.4,9.2,44452,201,2.1,1.6
2018,5,26,20:10,UTC,0,1026.3,64,,,15.9,9.1,41643,192,2.2,1.4
2018,5,26,20:20,UTC,0,1026.2,68,,,15.2,9.3,47473,177,2,1
2018,5,26,20:30,UTC,0,1026.2,67,,,15.6,9.5,42091,189,2.6,1.5
2018,5,26,20:40,UTC,0,1026.1,63,,,16.3,9.3,45791,191,2.8,2.2
2018,5,26,20:50,UTC,0,1026,67,,,15.3,9.2,47492,223,1.9,1
2018,5,26,21:00,UTC,0,1026,67,,,14.7,8.7,45894,233,1.9,1.2
2018,5,26,21:10,UTC,0,1025.9,66,,,15.5,9.2,46673,249,2.1,1.6
2018,5,26,21:20,UTC,0,1025.9,70,,,14.9,9.4,45598,219,1.8,0.7
2018,5,26,21:30,UTC,0,1026,71,,,14.6,9.3,48661,0,0,0
2018,5,26,21:40,UTC,0,1026,79,,,12.4,8.9,42065,342,0.9,0.5
2018,5,26,21:50,UTC,0,1026,79,,,12.1,8.6,44939,0,0,0
2018,5,26,22:00,UTC,0,1026,82,,,12.2,9.3,39434,0,0,0
2018,5,26,22:10,UTC,0,1025.9,83,,,12,9.3,40220,0,0,0
2018,5,26,22:20,UTC,0,1025.8,83,,,11.6,8.8,40633,0,0,0
2018,5,26,22:30,UTC,0,1025.7,84,,,11.4,8.8,38630,0,0,0
2018,5,26,22:40,UTC,0,1025.8,86,,,11,8.7,40247,359,0.8,0.5
2018,5,26,22:50,UTC,0,1025.8,87,,,10.8,8.6,34875,0,0,0
2018,5,26,23:00,UTC,0,1025.8,87,,,10.9,8.8,42446,0,0,0
2018,5,26,23:10,UTC,0,1025.8,89,,,10.5,8.8,23855,0,0,0
2018,5,26,23:20,UTC,0,1025.8,90,,,10.7,9,39132,0,0,0
2018,5,26,23:30,UTC,0,1025.8,90,,,10.6,9,30622,0,0,0
2018,5,26,23:40,UTC,0,1025.9,91,,,10.3,8.9,39020,0,0,0
2018,5,26,23:50,UTC,0,1025.9,92,,,9.4,8.2,34702,356,1.2,0.7
2018,5,27,00:00,UTC,0,1025.9,91,,,9.5,8.1,37973,360,1.3,0.9
2018,5,27,00:10,UTC,0,1025.9,93,,,9.9,8.8,35838,348,1.7,1.4
2018,5,27,00:20,UTC,0,1026,92,,,9.3,8,35755,348,1.9,1.5
2018,5,27,00:30,UTC,0,1026.1,86,,,10.4,8.2,31966,347,2.1,1.8
2018,5,27,00:40,UTC,0,1025.9,86,,,10.1,7.9,36581,346,2,1.5
2018,5,27,00:50,UTC,0,1025.9,86,,,10.6,8.3,46602,339,1.9,1.5
2018,5,27,01:00,UTC,0,1025.9,84,,,10.8,8.1,42349,343,2.6,1.7
2018,5,27,01:10,UTC,0,1025.8,78,,,12,8.3,45431,353,2.9,2
2018,5,27,01:20,UTC,0,1025.9,73,,,13,8.3,41324,352,2.8,1.9
2018,5,27,01:30,UTC,0,1025.9,73,,,13.1,8.4,47721,358,2.3,1.3
2018,5,27,01:40,UTC,0,1025.8,75,,,12.7,8.5,44058,349,1.3,0.8
2018,5,27,01:50,UTC,0,1025.9,73,,,13,8.4,43493,344,1.7,1.1
2018,5,27,02:00,UTC,0,1026,71,,,13.1,8.1,47161,352,2.6,1.6
2018,5,27,02:10,UTC,0,1026,67,,,13.7,7.6,45604,355,3.4,2.3
2018,5,27,02:20,UTC,0,1026.1,62,,,14,6.9,40900,355,3.8,2.7
2018,5,27,02:30,UTC,0,1026.2,62,,,13.8,6.6,49155,358,3.6,2.5
2018,5,27,02:40,UTC,0,1026.4,56,,,14.2,5.6,48647,359,4.8,2.9
2018,5,27,02:50,UTC,0,1026.4,54,,,14.3,5.1,49360,360,5.6,2.9
2018,5,27,03:00,UTC,0,1026.4,51,,,14.3,4.4,49337,358,4.6,3.1
2018,5,27,03:10,UTC,0,1026.4,49,,,14.3,3.8,45998,354,4.7,3.1
2018,5,27,03:20,UTC,0,1026.5,51,,,14,4,47233,351,4.6,2.9
2018,5,27,03:30,UTC,0,1026.6,49,,,14.2,3.5,41467,354,4.5,3
2018,5,27,03:40,UTC,0,1026.8,48,,,14.2,3.3,50000,356,4.4,3
2018,5,27,03:50,UTC,0,1026.9,46,,,14.3,2.9,47596,356,4.7,3.2
2018,5,27,04:00,UTC,0,1026.9,45,,,14.3,2.6,40323,356,5.2,3.6
2018,5,27,04:10,UTC,0,1027,43,,,14.4,2,42439,360,5.7,3.7
2018,5,27,04:20,UTC,0,1027.1,44,,,14.4,2.3,45611,359,5.9,3.5
2018,5,27,04:30,UTC,0,1027.2,42,,,14.5,1.7,49463,358,5.4,3.5
2018,5,27,04:40,UTC,0,1027.2,43,,,14.7,2.4,48240,354,6,3.6
2018,5,27,04:50,UTC,0,1027.3,43,,,14.9,2.4,33342,356,5.2,3.4
2018,5,27,05:00,UTC,0,1027.5,43,,,15.1,2.6,46483,356,5.3,3.6
2018,5,27,05:10,UTC,0,1027.6,40,,,15.1,1.7,39917,356,5.6,3.3
2018,5,27,05:20,UTC,0,1027.6,41,,,15.4,2.1,40643,357,6.5,3.9
2018,5,27,05:30,UTC,0,1027.7,41,,,15.7,2.5,37486,358,6.4,3.8
2018,5,27,05:40,UTC,0,1027.7,41,,,15.9,2.6,32253,357,6,3.9
2018,5,27,05:50,UTC,0,1027.8,37,,,15.9,1.4,36730,355,6.9,4.6
2018,5,27,06:00,UTC,0,1027.9,37,,,16.1,1.2,33912,359,7.1,4.1
2018,5,27,06:10,UTC,0,1028,36,,,16.4,1.3,35902,357,7.7,4.9
2018,5,27,06:20,UTC,0,1028.1,35,,,16.5,1.2,32324,1,7,4.5
2018,5,27,06:30,UTC,0,1028.1,36,,,17.1,1.9,38787,1,6.1,3.9
2018,5,27,06:40,UTC,0,1028.1,35,,,17.5,1.7,39928,351,6.4,3.6
2018,5,27,06:50,UTC,0,1028.3,33,,,17.2,0.8,36553,1,6.5,4.4
2018,5,27,07:00,UTC,0,1028.3,32,,,17.3,0.6,45521,2,6.4,4.1
2018,5,27,07:10,UTC,0,1028.4,30,,,17.5,0,34101,357,8.3,5.2
2018,5,27,07:20,UTC,0,1028.5,27,,,17.7,-1.5,47304,3,7.3,4.6
2018,5,27,07:30,UTC,0,1028.6,28,,,17.9,-0.9,39225,3,7.1,4.5
2018,5,27,07:40,UTC,0,1028.6,30,,,18.3,0.4,36542,10,5.2,3.1
2018,5,27,07:50,UTC,0,1028.7,30,,,18.2,0.3,31890,349,7.4,5.3
2018,5,27,08:00,UTC,0,1028.7,33,,,18.4,1.8,33956,354,6.5,4.3
2018,5,27,08:10,UTC,0,1028.7,31,,,18.3,1,38754,11,5,3.3
2018,5,27,08:20,UTC,0,1028.7,30,,,18.6,0.8,43781,355,6.6,4.3
2018,5,27,08:30,UTC,1,1028.8,32,,,18.7,1.5,33307,356,7.3,4.4
2018,5,27,08:40,UTC,1,1028.8,31,,,19.2,1.4,37924,349,6.4,4.5
2018,5,27,08:50,UTC,1,1028.8,33,,,19.5,2.7,41335,327,7.8,5.5
2018,5,27,09:00,UTC,0,1028.7,31,,,19.3,1.9,40427,358,6.6,4.2
2018,5,27,09:10,UTC,0,1028.8,30,,,19.5,1.5,32730,340,9,6
2018,5,27,09:20,UTC,0,1028.8,31,,,19.3,1.6,36025,352,8.4,5.5
2018,5,27,09:30,UTC,0,1029,30,,,19.1,1.2,44663,352,8.3,5.7
2018,5,27,09:40,UTC,0,1028.9,32,,,19.2,2,43420,352,7.3,5.1
2018,5,27,09:50,UTC,0,1028.9,30,,,19.2,1,32267,347,9.2,6
2018,5,27,10:00,UTC,0,1028.9,30,,,19.4,1.2,34693,351,8.7,5.8
2018,5,27,10:10,UTC,0,1028.9,30,,,19.2,1.1,39531,354,8.2,5.3
2018,5,27,10:20,UTC,0,1028.9,31,,,19.4,1.8,40006,5,7.9,4.4
2018,5,27,10:30,UTC,0,1028.8,28,,,19.6,0.4,39975,337,11,7.3
2018,5,27,10:40,UTC,0,1028.9,26,,,19.7,-0.6,34368,338,9.6,7
2018,5,27,10:50,UTC,0,1028.8,28,,,20,1,39132,343,7.9,4.8
2018,5,27,11:00,UTC,0,1028.8,28,,,19.7,0.7,46614,343,7.4,4.4
2018,5,27,11:10,UTC,0,1028.8,30,,,19.6,1.3,44239,350,7.3,4.4
2018,5,27,11:20,UTC,0,1028.9,30,,,19.5,1.3,38208,350,7.2,5.1
2018,5,27,11:30,UTC,0,1028.9,27,,,19.7,0.3,38585,350,8.3,5
2018,5,27,11:40,UTC,0,1028.8,29,,,19.9,1.1,41435,355,7.8,4.9
2018,5,27,11:50,UTC,0,1028.8,29,,,19.9,1.5,35470,335,8.4,5.5
2018,5,27,12:00,UTC,0,1028.7,30,,,19.4,1.3,37651,335,8,5
2018,5,27,12:10,UTC,0,1028.8,31,,,19.6,1.8,38565,348,8,5
2018,5,27,12:20,UTC,0,1028.8,32,,,19.7,2.4,37468,340,9.4,5.9
2018,5,27,12:30,UTC,1,1028.8,32,,,19.3,2,44911,323,8.6,6.1
2018,5,27,12:40,UTC,1,1028.7,30,,,19.6,1.5,29996,334,8.7,6.4
2018,5,27,12:50,UTC,1,1028.6,31,,,20.1,2.4,39056,324,8.1,4.8
2018,5,27,13:00,UTC,0,1028.7,31,,,19.8,2.3,33056,322,8.9,6.1
2018,5,27,13:10,UTC,0,1028.6,30,,,20.2,1.9,36271,328,7.8,5.6
2018,5,27,13:20,UTC,0,1028.6,29,,,20.1,1.7,38928,339,8.3,6
2018,5,27,13:30,UTC,0,1028.4,31,,,20.4,2.5,36654,319,8.1,5.3
2018,5,27,13:40,UTC,0,1028.5,27,,,19.8,0.5,37728,343,8.9,5.6
2018,5,27,13:50,UTC,0,1028.5,30,,,20.5,2.4,45599,356,6.8,3.9
2018,5,27,14:00,UTC,0,1028.4,29,,,20.2,1.4,38144,337,8.4,4.9
2018,5,27,14:10,UTC,0,1028.3,29,,,20.3,1.5,44647,352,6.7,4.3
2018,5,27,14:20,UTC,0,1028.3,29,,,20.3,1.9,39226,2,5.8,3.1
2018,5,27,14:30,UTC,0,1028.2,28,,,20.5,1.4,38023,324,7.3,4.6
2018,5,27,14:40,UTC,0,1028.2,27,,,20.5,1,37240,335,6.2,4.3
2018,5,27,14:50,UTC,0,1028.3,26,,,20.4,0.5,41065,2,5.8,3.4
2018,5,27,15:00,UTC,0,1028.4,26,,,20.5,0.5,37416,17,6.4,2.9
2018,5,27,15:10,UTC,0,1028.3,26,,,20.5,0.1,43673,6,6.7,3.2
2018,5,27,15:20,UTC,0,1028.3,26,,,20.6,0.2,39411,360,6,3.3
2018,5,27,15:30,UTC,0,1028.3,25,,,20.5,0,44874,333,5.6,3.7
2018,5,27,15:40,UTC,0,1028.3,26,,,20.5,0.4,43556,339,6.7,4.3
2018,5,27,15:50,UTC,0,1028.3,29,,,20.6,1.8,40102,355,6,3.2
2018,5,27,16:00,UTC,0,1028.3,28,,,20.6,1.3,44746,333,6.5,4
2018,5,27,16:10,UTC,0,1028.3,28,,,20.4,1.4,40836,1,5.9,3.5
2018,5,27,16:20,UTC,0,1028.3,27,,,20.3,0.7,37387,15,5.9,2.8
2018,5,27,16:30,UTC,0,1028.4,27,,,20.2,0.4,43523,29,4.9,2.4
2018,5,27,16:40,UTC,0,1028.5,26,,,20.1,-0.2,46110,47,5.4,2.2
2018,5,27,16:50,UTC,0,1028.5,27,,,19.9,0.1,46139,48,4.7,2.4
2018,5,27,17:00,UTC,0,1028.5,26,,,19.8,0,39504,24,4.4,2.4
2018,5,27,17:10,UTC,0,1028.5,28,,,19.8,0.5,43008,26,4.2,1.9
2018,5,27,17:20,UTC,0,1028.6,28,,,19.5,0.6,42641,29,4.9,2
2018,5,27,17:30,UTC,0,1028.6,28,,,19.3,0.2,46145,48,6,2.1
2018,5,27,17:40,UTC,0,1028.7,28,,,19,0.1,43679,51,4.9,2.3
2018,5,27,17:50,UTC,0,1028.7,28,,,18.9,-0.2,42505,32,4.4,1.9
2018,5,27,18:00,UTC,0,1028.8,26,,,18.9,-1,46113,14,5.2,2.3
2018,5,27,18:10,UTC,0,1028.8,27,,,18.6,-1,45292,19,3.9,2
2018,5,27,18:20,UTC,0,1029,27,,,18.4,-1,48253,12,3.5,2.2
2018,5,27,18:30,UTC,0,1029.1,27,,,18.3,-0.8,50000,14,4,1.8
2018,5,27,18:40,UTC,0,1029.2,29,,,17.8,-0.4,49691,12,2.8,1.4
2018,5,27,18:50,UTC,0,1029.3,29,,,17.7,-0.6,50000,8,2.4,1.5
2018,5,27,19:00,UTC,0,1029.5,31,,,17,-0.1,50000,8,2.6,1.6
2018,5,27,19:10,UTC,0,1029.6,35,,,16.1,0.5,50000,8,2.3,1.6
2018,5,27,19:20,UTC,0,1029.7,42,,,14.1,1.3,50000,8,2.7,1.7
2018,5,27,19:30,UTC,0,1029.7,45,,,13.2,1.5,50000,23,1.8,0.9
2018,5,27,19:40,UTC,0,1029.8,47,,,12.8,1.7,47581,42,1.2,0.6
2018,5,27,19:50,UTC,0,1029.8,49,,,12.5,1.9,50000,0,0,0
2018,5,27,20:00,UTC,0,1029.9,51,,,11.9,2,50000,39,0.9,0.6
2018,5,27,20:10,UTC,0,1030,53,,,11.4,2.1,34165,0,0,0
2018,5,27,20:20,UTC,0,1030,52,,,11.7,2.1,45713,0,0,0
2018,5,27,20:30,UTC,0,1030.2,54,,,10.9,2.1,48453,0,0,0
2018,5,27,20:40,UTC,0,1030.3,56,,,11.1,2.6,46631,0,0,0
2018,5,27,20:50,UTC,0,1030.4,59,,,10.3,2.6,42957,0,0,0
2018,5,27,21:00,UTC,0,1030.5,59,,,10.2,2.5,50000,0,0,0
2018,5,27,21:10,UTC,0,1030.4,64,,,9.4,2.8,49198,0,0,0
2018,5,27,21:20,UTC,0,1030.5,64,,,9.4,3,48454,0,0,0
2018,5,27,21:30,UTC,0,1030.6,65,,,9.2,2.9,49846,0,0,0
2018,5,27,21:40,UTC,0,1030.7,66,,,8.9,2.9,50000,0,0,0
2018,5,27,21:50,UTC,0,1030.8,67,,,8.8,3,47795,0,0,0
2018,5,27,22:00,UTC,0,1030.8,67,,,8.7,2.9,49606,0,0,0
2018,5,27,22:10,UTC,0,1030.8,68,,,8.5,2.9,47020,0,0,0
2018,5,27,22:20,UTC,0,1030.9,70,,,8.1,2.9,44575,0,0,0
2018,5,27,22:30,UTC,0,1031,70,,,7.9,2.9,48019,0,0,0
2018,5,27,22:40,UTC,0,1031.1,71,,,7.6,2.7,47623,0,0,0
2018,5,27,22:50,UTC,0,1031.2,72,,,7.6,2.9,46123,0,0,0
2018,5,27,23:00,UTC,0,1031.2,70,,,7.8,2.8,47488,23,0.9,0.5
2018,5,27,23:10,UTC,0,1031.3,75,,,6.9,2.7,50000,0,0,0
2018,5,27,23:20,UTC,0,1031.4,74,,,7.3,3.1,50000,329,0.9,0.5
2018,5,27,23:30,UTC,0,1031.4,71,,,7.6,2.7,50000,0,0,0
2018,5,27,23:40,UTC,0,1031.6,73,,,7.5,2.8,43871,0,0,0
2018,5,27,23:50,UTC,0,1031.7,74,,,7.1,2.9,46937,0,0,0
2018,5,28,00:00,UTC,0,1031.8,77,,,6.4,2.6,50000,0,0,0
2018,5,28,00:10,UTC,0,1031.9,78,,,6.5,3,49691,346,1,0.7
2018,5,28,00:20,UTC,0,1032.1,77,,,6.4,2.8,50000,339,0.9,0.7
2018,5,28,00:30,UTC,0,1032.2,78,,,6.5,2.9,47932,0,0,0
2018,5,28,00:40,UTC,0,1032.3,78,,,5.9,2.5,50000,0,0,0
2018,5,28,00:50,UTC,0,1032.5,80,,,6,2.8,48293,0,0,0
2018,5,28,01:00,UTC,0,1032.6,81,,,5.5,2.5,50000,0,0,0
2018,5,28,01:10,UTC,0,1032.6,83,,,5.4,2.8,45033,0,0,0
2018,5,28,01:20,UTC,0,1032.6,81,,,5.8,2.8,44255,0,0,0
2018,5,28,01:30,UTC,0,1032.6,83,,,5.5,2.9,50000,0,0,0
2018,5,28,01:40,UTC,0,1032.6,82,,,5.6,2.8,46519,0,0,0
2018,5,28,01:50,UTC,0,1032.7,82,,,5.6,2.8,50000,0,0,0
2018,5,28,02:00,UTC,0,1032.7,82,,,5.6,2.7,46491,0,0,0
2018,5,28,02:10,UTC,0,1032.7,83,,,5.6,3,45525,0,0,0
2018,5,28,02:20,UTC,0,1032.8,82,,,5.5,2.8,50000,0,0,0
2018,5,28,02:30,UTC,0,1032.8,81,,,6,3,48738,0,0,0
2018,5,28,02:40,UTC,0,1032.9,76,,,6.5,2.7,45448,0,0,0
2018,5,28,02:50,UTC,0,1033,74,,,7.1,2.8,47892,0,0,0
2018,5,28,03:00,UTC,0,1032.9,70,,,7.7,2.6,47620,349,0.9,0.5
2018,5,28,03:10,UTC,0,1032.9,71,,,9,4,39142,7,0.9,0.6
2018,5,28,03:20,UTC,0,1033,69,,,9,3.6,42921,339,1,0.9
2018,5,28,03:30,UTC,0,1032.9,69,,,9.4,3.9,44385,321,0.9,0.7
2018,5,28,03:40,UTC,0,1032.9,69,,,10.6,5,45688,331,1,0.8
2018,5,28,03:50,UTC,0,1032.9,66,,,11.4,5.3,37399,354,1.4,1
2018,5,28,04:00,UTC,0,1032.9,66,,,11.7,5.7,41064,342,1.4,1.1
2018,5,28,04:10,UTC,0,1032.8,65,,,12.4,5.9,41365,351,1.5,1.1
2018,5,28,04:20,UTC,0,1032.8,58,,,13.8,5.5,39249,360,1.2,0.5
2018,5,28,04:30,UTC,0,1032.8,44,,,15.6,3.3,27087,59,2.1,0.9
2018,5,28,04:40,UTC,0,1032.9,45,,,16,4,38094,93,2.8,1.5
2018,5,28,04:50,UTC,0,1032.9,41,,,16.2,2.9,46868,94,3.3,2
2018,5,28,05:00,UTC,0,1033,40,,,16.4,2.7,36705,94,3.8,2.6
2018,5,28,05:10,UTC,0,1033,40,,,16.6,3,37675,96,3.6,2.7
2018,5,28,05:20,UTC,0,1033.1,38,,,16.8,2.5,42323,97,3.8,2.8
2018,5,28,05:30,UTC,0,1033.1,39,,,17.2,3.1,37608,99,3.6,2.3
2018,5,28,05:40,UTC,0,1033.2,38,,,17.4,3.1,37857,94,3.4,2.4
2018,5,28,05:50,UTC,0,1033.2,37,,,17.6,2.6,32551,95,2.8,1.8
2018,5,28,06:00,UTC,0,1033.1,37,,,17.6,2.9,33731,136,4.2,2.7
2018,5,28,06:10,UTC,0,1033.1,35,,,17.7,2.2,33492,129,3.9,2.6
2018,5,28,06:20,UTC,0,1033.1,37,,,17.9,3.2,31942,106,3.6,2.4
2018,5,28,06:30,UTC,0,1033.1,35,,,18.1,2.5,46920,131,3.9,2.4
2018,5,28,06:40,UTC,0,1033.1,35,,,18.4,2.8,36733,102,3.5,1.9
2018,5,28,06:50,UTC,0,1033,36,,,18.7,3.2,38997,125,4.3,2.7
2018,5,28,07:00,UTC,0,1033.1,36,,,18.4,2.9,38308,121,4.3,2.9
2018,5,28,07:10,UTC,0,1033.2,34,,,18.7,2.6,42222,90,4.1,1.8
2018,5,28,07:20,UTC,0,1033.2,35,,,18.7,2.7,34694,115,4.5,2.7
2018,5,28,07:30,UTC,0,1033.2,31,,,18.8,1.1,47208,90,6,2.8
2018,5,28,07:40,UTC,0,1033.2,33,,,18.9,2.1,44995,106,4.8,3.2
2018,5,28,07:50,UTC,0,1033.2,33,,,19,2.4,44641,106,4.5,2.7
2018,5,28,08:00,UTC,0,1033.2,32,,,19.2,2,34154,118,4.5,2.7
2018,5,28,08:10,UTC,0,1033.2,29,,,19.3,0.6,38067,123,5.5,3.6
2018,5,28,08:20,UTC,0,1033.1,31,,,19,1.4,40628,124,6.1,3.9
2018,5,28,08:30,UTC,0,1033.2,33,,,19.6,3,39332,118,6.4,4.4
2018,5,28,08:40,UTC,0,1033.3,34,,,20,3.4,47102,121,5.8,3.5
2018,5,28,08:50,UTC,0,1033.2,36,,,19.2,3.7,31794,144,6.3,4.1
2018,5,28,09:00,UTC,0,1033.2,40,,,19.5,5.5,42473,145,6.5,4.3
2018,5,28,09:10,UTC,0,1033.2,38,,,19.5,4.9,34532,141,6.5,4.6
2018,5,28,09:20,UTC,0,1033.2,36,,,19.4,4,38942,135,6.4,4.8
2018,5,28,09:30,UTC,0,1033.2,31,,,19.3,1.6,29308,133,7,4.8
2018,5,28,09:40,UTC,0,1033.1,31,,,19.9,2.1,31284,130,6.4,4.4
2018,5,28,09:50,UTC,0,1033.1,29,,,19.7,1,35818,131,7,4.7
2018,5,28,10:00,UTC,0,1032.9,31,,,19.6,1.9,32017,131,6.7,4.8
2018,5,28,10:10,UTC,0,1032.9,34,,,19.7,3.3,37682,117,6.6,4.7
2018,5,28,10:20,UTC,0,1032.8,32,,,19.3,2,26689,149,6.6,5
2018,5,28,10:30,UTC,0,1032.9,32,,,19.7,2.8,38744,150,7.2,5.1
2018,5,28,10:40,UTC,0,1032.8,30,,,19.3,1.2,34342,150,7,4.8
2018,5,28,10:50,UTC,0,1032.9,35,,,19.7,3.8,45326,148,7,5
2018,5,28,11:00,UTC,0,1032.8,34,,,19,2.6,39376,142,7.3,5.2
2018,5,28,11:10,UTC,0,1032.8,30,,,19.1,1,28224,145,7.5,5.5
2018,5,28,11:20,UTC,0,1032.8,34,,,19.6,3.2,32092,141,7.1,5
2018,5,28,11:30,UTC,0,1032.7,28,,,19.7,0.7,28417,162,6.4,4.3
2018,5,28,11:40,UTC,0,1032.6,27,,,19.6,0.1,40863,160,6.9,4.9
2018,5,28,11:50,UTC,0,1032.6,27,,,19.4,0.1,33436,157,6.9,4.5
2018,5,28,12:00,UTC,0,1032.6,26,,,19.3,-0.5,32745,153,6.7,5
2018,5,28,12:10,UTC,0,1032.5,25,,,19.7,-0.8,35952,164,6.9,4.9
2018,5,28,12:20,UTC,0,1032.5,25,,,19.7,-1.1,38100,159,6,4.6
2018,5,28,12:30,UTC,0,1032.4,26,,,19.7,-0.3,33678,151,6.6,4.4
2018,5,28,12:40,UTC,0,1032.4,26,,,19.5,-0.7,36021,164,5.5,4.3
2018,5,28,12:50,UTC,0,1032.4,26,,,20.1,-0.2,40350,150,5.7,3.3
2018,5,28,13:00,UTC,0,1032.2,26,,,19.7,-0.2,38135,145,5.7,3.9
2018,5,28,13:10,UTC,0,1032.2,26,,,20,-0.2,42377,145,5,3.8
2018,5,28,13:20,UTC,0,1032.1,20,,,19.9,-3.5,38731,149,5.6,3.8
2018,5,28,13:30,UTC,0,1032,24,,,19.9,-1.5,46880,168,5.4,4
2018,5,28,13:40,UTC,0,1032,26,,,20.3,0,37578,136,5.6,3.8
2018,5,28,13:50,UTC,0,1031.8,25,,,20,-0.6,37935,130,5.9,3.8
2018,5,28,14:00,UTC,0,1031.7,27,,,20,0.2,33245,120,5.2,3.5
2018,5,28,14:10,UTC,0,1031.4,24,,,19.6,-1.2,44610,116,5.7,4.2
2018,5,28,14:20,UTC,0,1031.3,24,,,20,-1.1,37760,133,4.9,3.5
2018,5,28,14:30,UTC,0,1031.3,24,,,19.8,-1.5,33824,151,4.9,3.7
2018,5,28,14:40,UTC,0,1031.2,25,,,19.9,-1,46883,136,5.2,3.5
2018,5,28,14:50,UTC,0,1031,24,,,19.7,-1.6,44659,120,6.4,4
2018,5,28,15:00,UTC,0,1030.9,25,,,19.6,-0.9,37635,137,5.2,3.7
2018,5,28,15:10,UTC,0,1030.7,27,,,19.5,-0.2,35715,132,5.2,4
2018,5,28,15:20,UTC,0,1030.7,28,,,19.8,0.8,44985,128,4.7,3.1
2018,5,28,15:30,UTC,0,1030.6,29,,,19.6,1.2,33815,142,4.7,3.2
2018,5,28,15:40,UTC,0,1030.5,29,,,19.3,0.8,33931,111,4.2,2.8
2018,5,28,15:50,UTC,0,1030.4,29,,,19.3,0.6,41037,110,4.6,3.3
2018,5,28,16:00,UTC,0,1030.4,31,,,19.4,1.7,38389,125,3.7,2.7
2018,5,28,16:10,UTC,0,1030.3,31,,,19.2,1.6,46862,135,4.9,3
2018,5,28,16:20,UTC,0,1030.2,33,,,18.9,2.1,43281,129,4.8,2.8
2018,5,28,16:30,UTC,0,1030.1,32,,,18.5,1.5,38768,108,3.9,2.9
2018,5,28,16:40,UTC,0,1030,31,,,18.3,0.6,42688,89,3.8,3
2018,5,28,16:50,UTC,0,1029.9,31,,,18.4,1.1,38504,94,4,2.7
2018,5,28,17:00,UTC,0,1029.9,31,,,18.5,1.2,45037,117,3.2,2
2018,5,28,17:10,UTC,0,1029.8,31,,,18.5,1.2,49949,163,3.7,2.5
2018,5,28,17:20,UTC,0,1029.7,32,,,18.1,1.2,42494,144,3.7,2.7
2018,5,28,17:30,UTC,0,1029.6,32,,,18,1.1,50000,145,3.5,2.4
2018,5,28,17:40,UTC,0,1029.5,33,,,17.8,1.2,44041,149,3.2,2.4
2018,5,28,17:50,UTC,0,1029.5,33,,,17.6,1,50000,164,4.2,3.2
2018,5,28,18:00,UTC,0,1029.5,34,,,17.3,1.2,50000,149,4.1,2.8
2018,5,28,18:10,UTC,0,1029.5,34,,,17.2,1.3,48706,156,4.5,3
2018,5,28,18:20,UTC,0,1029.6,37,,,16.8,2.2,44337,143,4.1,2.6
2018,5,28,18:30,UTC,0,1029.6,38,,,16.8,2.4,50000,155,3.8,2.4
2018,5,28,18:40,UTC,0,1029.6,41,,,16.3,3.2,45698,148,3.3,2.3
2018,5,28,18:50,UTC,0,1029.7,44,,,16.2,3.8,50000,140,3.8,2.4
2018,5,28,19:00,UTC,0,1029.6,47,,,15.3,4,50000,132,2.7,1.9
2018,5,28,19:10,UTC,0,1029.7,51,,,14.5,4.4,42260,127,2,1.5
2018,5,28,19:20,UTC,0,1029.6,54,,,13.6,4.4,44373,79,1.5,0.6
2018,5,28,19:30,UTC,0,1029.5,58,,,13.1,4.9,50000,83,0.9,0.6
2018,5,28,19:40,UTC,0,1029.6,61,,,12.1,4.7,50000,0,0,0
2018,5,28,19:50,UTC,0,1029.6,64,,,11.8,5.2,43015,0,0,0
2018,5,28,20:00,UTC,0,1029.5,65,,,11.9,5.5,50000,88,0.8,0.6
2018,5,28,20:10,UTC,0,1029.5,64,,,11,4.5,29266,0,0,0
2018,5,28,20:20,UTC,0,1029.4,72,,,10.5,5.6,26964,97,0.7,0.5
2018,5,28,20:30,UTC,0,1029.3,73,,,10.2,5.7,32974,95,0.9,0.7
2018,5,28,20:40,UTC,0,1029.4,75,,,9.9,5.7,16503,101,0.9,0.7
2018,5,28,20:50,UTC,0,1029.4,73,,,9.7,5,47964,0,0,0
2018,5,28,21:00,UTC,0,1029.4,73,,,9.4,4.9,48681,329,0.8,0.5
2018,5,28,21:10,UTC,0,1029.4,78,,,9.7,6.1,49215,0,0,0
2018,5,28,21:20,UTC,0,1029.3,80,,,9.6,6.3,50000,102,0.9,0.6
2018,5,28,21:30,UTC,0,1029.3,82,,,9.1,6.1,49528,84,0.9,0.6
2018,5,28,21:40,UTC,0,1029.3,80,,,8.6,5.4,41031,0,0,0
2018,5,28,21:50,UTC,0,1029.3,81,,,8.4,5.4,40114,0,0,0
2018,5,28,22:00,UTC,0,1029.2,82,,,8.5,5.7,42025,0,0,0
2018,5,28,22:10,UTC,0,1029.2,85,,,8.4,6,48996,0,0,0
2018,5,28,22:20,UTC,0,1029.1,83,,,8,5.3,42263,0,0,0
2018,5,28,22:30,UTC,0,1029.1,86,,,8,5.7,39808,0,0,0
2018,5,28,22:40,UTC,0,1029,87,,,7.9,5.9,38575,0,0,0
2018,5,28,22:50,UTC,0,1029,86,,,7.6,5.5,43622,0,0,0
2018,5,28,23:00,UTC,0,1028.9,90,,,7.4,5.9,37907,0,0,0
2018,5,28,23:10,UTC,0,1028.8,89,,,7.4,5.6,29523,0,0,0
2018,5,28,23:20,UTC,0,1028.8,90,,,7.3,5.7,39516,0,0,0
2018,5,28,23:30,UTC,0,1028.8,90,,,7.2,5.7,40091,0,0,0
2018,5,28,23:40,UTC,0,1028.6,93,,,7.2,6.2,33025,0,0,0
2018,5,28,23:50,UTC,0,1028.7,92,,,6.7,5.4,34362,0,0,0
2018,5,29,00:00,UTC,0,1028.6,94,,,6.8,5.9,38653,0,0,0
2018,5,29,00:10,UTC,0,1028.5,94,,,6.7,5.9,33217,0,0,0
2018,5,29,00:20,UTC,0,1028.4,93,,,6.5,5.4,40858,0,0,0
2018,5,29,00:30,UTC,0,1028.4,92,,,6.3,5.2,43603,0,0,0
2018,5,29,00:40,UTC,0,1028.3,94,,,6.5,5.6,39736,0,0,0
2018,5,29,00:50,UTC,0,1028.3,95,,,6.4,5.7,37765,0,0,0
2018,5,29,01:00,UTC,0,1028.2,96,,,5.9,5.3,49385,352,0.9,0.5
2018,5,29,01:10,UTC,0,1028.2,97,,,6.4,5.9,29100,0,0,0
2018,5,29,01:20,UTC,0,1028.1,97,,,6.1,5.6,28627,0,0,0
2018,5,29,01:30,UTC,0,1028,98,,,6.3,5.9,28907,0,0,0
2018,5,29,01:40,UTC,0,1027.9,97,,,6.2,5.7,36681,0,0,0
2018,5,29,01:50,UTC,0,1027.9,97,,,6.2,5.8,41181,0,0,0
2018,5,29,02:00,UTC,0,1027.8,97,,,6.4,6,33202,4,0.9,0.7
2018,5,29,02:10,UTC,0,1027.8,97,,,6.4,6,31742,0,0,0
2018,5,29,02:20,UTC,0,1027.7,97,,,6.5,6.1,39094,0,0,0
2018,5,29,02:30,UTC,0,1027.6,97,,,7,6.6,36635,0,0,0
2018,5,29,02:40,UTC,0,1027.5,92,,,7.8,6.6,38116,0,0,0
2018,5,29,02:50,UTC,0,1027.4,89,,,7.8,6,35320,347,1.1,0.7
2018,5,29,03:00,UTC,0,1027.2,88,,,8,6,33147,348,1.1,0.9
2018,5,29,03:10,UTC,0,1027.2,81,,,9.7,6.6,34967,336,0.8,0.6
2018,5,29,03:20,UTC,0,1027.1,81,,,9.9,6.7,31977,328,0.7,0.6
2018,5,29,03:30,UTC,0,1027.1,80,,,10.7,7.3,40217,324,0.6,0.6
2018,5,29,03:40,UTC,0,1027,77,,,11.3,7.3,35172,329,0.8,0.7
2018,5,29,03:50,UTC,0,1026.9,71,,,12.6,7.6,32937,0,0,0
2018,5,29,04:00,UTC,0,1027,72,,,12.9,8,39572,0,0,0
2018,5,29,04:10,UTC,0,1026.9,71,,,13.9,8.7,37051,0,0,0
2018,5,29,04:20,UTC,0,1026.9,67,,,15.3,9.3,37270,0,0,0
2018,5,29,04:30,UTC,0,1026.8,66,,,15.8,9.5,32714,82,1.4,0.7
2018,5,29,04:40,UTC,0,1026.7,65,,,16.1,9.5,41161,85,1.7,1.1
2018,5,29,04:50,UTC,0,1026.6,59,,,16.4,8.5,35268,88,1.5,0.9
2018,5,29,05:00,UTC,0,1026.6,60,,,16.8,8.9,34679,70,1.3,0.9
2018,5,29,05:10,UTC,0,1026.4,59,,,17.1,9,37334,75,1.3,0.8
2018,5,29,05:20,UTC,0,1026.2,57,,,17.1,8.6,29901,154,2,1.2
2018,5,29,05:30,UTC,0,1026.2,56,,,17.9,9,32332,134,2.5,1.4
2018,5,29,05:40,UTC,0,1026,54,,,18.1,8.5,32740,139,2.4,1.2
2018,5,29,05:50,UTC,0,1025.9,53,,,18.2,8.5,30607,185,2.2,1.3
2018,5,29,06:00,UTC,0,1025.8,51,,,18.8,8.5,31370,184,2.2,1.2
2018,5,29,06:10,UTC,0,1025.8,52,,,19,9,30754,187,2,0.9
2018,5,29,06:20,UTC,0,1025.7,51,,,19.6,9.3,30139,200,2.1,1.1
2018,5,29,06:30,UTC,0,1025.5,52,,,19.7,9.5,28675,165,2.2,0.9
2018,5,29,06:40,UTC,0,1025.3,50,,,19.8,9,33384,193,2.1,1.3
2018,5,29,06:50,UTC,0,1025.3,51,,,20.4,9.8,28133,190,2.6,1.7
2018,5,29,07:00,UTC,0,1025.2,49,,,20.5,9.3,25334,229,2.1,0.9
2018,5,29,07:10,UTC,0,1025,48,,,20.8,9.3,28190,217,3.3,1.7
2018,5,29,07:20,UTC,0,1024.9,48,,,21.1,9.8,27692,216,2.9,1.6
2018,5,29,07:30,UTC,0,1024.8,47,,,21.4,9.7,27921,215,4.1,1.9
2018,5,29,07:40,UTC,0,1024.7,47,,,21.8,10,25742,198,4,2.3
2018,5,29,07:50,UTC,0,1024.6,45,,,22.2,9.8,31974,183,4.5,2.6
2018,5,29,08:00,UTC,0,1024.5,46,,,22.1,10.1,31567,187,5,2.6
2018,5,29,08:10,UTC,0,1024.3,44,,,22.3,9.6,32230,195,4.5,3.2
2018,5,29,08:20,UTC,0,1024.2,47,,,22.5,10.8,28248,186,4.9,3.2
2018,5,29,08:30,UTC,0,1024.2,42,,,22.7,9,28104,200,5.3,3.1
2018,5,29,08:40,UTC,0,1024,41,,,22.5,8.7,30975,203,4.9,3.3
2018,5,29,08:50,UTC,0,1023.9,44,,,22.9,10.1,30751,183,5.1,3.5
2018,5,29,09:00,UTC,0,1023.8,41,,,23.3,9.3,34573,190,5.2,3.6
2018,5,29,09:10,UTC,0,1023.6,42,,,22.8,9.4,25229,179,6.2,4.1
2018,5,29,09:20,UTC,0,1023.4,45,,,22.6,10,29600,187,5.8,4.6
2018,5,29,09:30,UTC,0,1023.4,44,,,22.7,10,29280,183,6.2,4.8
2018,5,29,09:40,UTC,0,1023.3,47,,,22.7,10.7,35767,189,6.3,4.9
2018,5,29,09:50,UTC,0,1023.2,48,,,22.1,10.7,25843,182,6.2,4.9
2018,5,29,10:00,UTC,0,1023.2,48,,,22.4,10.8,31405,178,6,4.6
2018,5,29,10:10,UTC,0,1023.1,48,,,22.2,10.6,32315,184,6.6,4.5
2018,5,29,10:20,UTC,0,1022.9,46,,,22.7,10.5,28979,191,6.9,4.6
2018,5,29,10:30,UTC,0,1022.8,44,,,22.9,10,26955,186,6.8,4.7
2018,5,29,10:40,UTC,0,1022.7,43,,,22.6,9.5,28278,184,6.4,4.9
2018,5,29,10:50,UTC,0,1022.6,45,,,22.1,9.5,39035,181,6.7,5.4
2018,5,29,11:00,UTC,0,1022.5,44,,,22.8,10.1,30534,195,6.7,5
2018,5,29,11:10,UTC,0,1022.4,48,,,22.4,10.7,27581,185,7,5.1
2018,5,29,11:20,UTC,0,1022.3,47,,,22.3,10.4,26330,188,7.4,4.8
2018,5,29,11:30,UTC,0,1022.1,45,,,22.9,10.2,28826,187,7.5,5.6
2018,5,29,11:40,UTC,0,1021.9,44,,,22.5,9.7,36934,195,7.8,5.5
2018,5,29,11:50,UTC,0,1021.8,43,,,22.6,9.4,28937,183,8,5.8
2018,5,29,12:00,UTC,0,1021.5,44,,,23.2,10.3,27238,171,7.8,5
2018,5,29,12:10,UTC,0,1021.3,39,,,24,9.2,29031,192,8.8,5.6
2018,5,29,12:20,UTC,0,1021.1,37,,,24.3,8.8,33692,205,8.9,5.6
2018,5,29,12:30,UTC,0,1021,37,,,24,8.4,27724,203,8.7,6.6
2018,5,29,12:40,UTC,0,1020.8,35,,,24.4,8.1,33268,194,9.9,6.6
2018,5,29,12:50,UTC,0,1020.8,35,,,24.5,8.1,29589,206,9.5,7
2018,5,29,13:00,UTC,0,1020.7,36,,,24.4,8.2,30049,212,8.6,5.8
2018,5,29,13:10,UTC,0,1020.5,36,,,24.4,8.5,31894,202,9.1,6.8
2018,5,29,13:20,UTC,0,1020.4,35,,,24.6,8.1,31331,208,9.5,6.8
2018,5,29,13:30,UTC,0,1020.3,34,,,24.4,7.7,36117,204,9,6.6
2018,5,29,13:40,UTC,0,1020.2,34,,,24.7,7.9,34232,206,8.9,6.2
2018,5,29,13:50,UTC,0,1020.1,35,,,25,8.3,34458,202,8.4,5.8
2018,5,29,14:00,UTC,0,1019.9,35,,,25.2,8.5,32774,199,7.4,4.9
2018,5,29,14:10,UTC,0,1019.7,34,,,25.3,8.2,38893,199,7.6,5.1
2018,5,29,14:20,UTC,0,1019.6,33,,,25.7,8.4,32257,211,6,4
2018,5,29,14:30,UTC,0,1019.4,27,,,26.4,5.8,28702,246,7.3,3.4
2018,5,29,14:40,UTC,0,1019.2,25,,,26.7,5,38228,279,9.8,5.8
2018,5,29,14:50,UTC,0,1019.1,25,,,26.7,5.1,38976,260,10.4,5.6
2018,5,29,15:00,UTC,0,1018.9,26,,,26.5,5.4,36526,285,8.8,5.8
2018,5,29,15:10,UTC,0,1018.8,26,,,26.7,5.4,36806,282,10.3,5.6
2018,5,29,15:20,UTC,0,1018.8,26,,,26.5,5.5,33905,269,9.8,5.4
2018,5,29,15:30,UTC,0,1018.6,26,,,26.3,5.3,33922,265,9.3,6
2018,5,29,15:40,UTC,0,1018.5,26,,,26.3,5.3,34436,268,9.7,6.1
2018,5,29,15:50,UTC,0,1018.4,26,,,26.3,5.5,47066,267,9.4,5.9
2018,5,29,16:00,UTC,0,1018.3,27,,,26.2,5.8,32437,277,8.6,5.8
2018,5,29,16:10,UTC,0,1018.1,26,,,26.1,5.3,32924,277,8.6,5.4
2018,5,29,16:20,UTC,0,1018.1,28,,,26.1,6,34245,295,8.4,5.3
2018,5,29,16:30,UTC,0,1017.9,27,,,26.1,5.4,37553,273,8.2,5.2
2018,5,29,16:40,UTC,0,1017.8,27,,,25.8,5.6,40214,288,8.4,5.5
2018,5,29,16:50,UTC,0,1017.7,27,,,25.9,5.5,47306,287,8,4.9
2018,5,29,17:00,UTC,0,1017.6,27,,,25.6,5.2,45543,280,8.4,5.5
2018,5,29,17:10,UTC,0,1017.5,28,,,25.6,5.8,34305,275,7.9,4.8
2018,5,29,17:20,UTC,0,1017.5,28,,,25.4,5.7,38573,273,8.1,5.1
2018,5,29,17:30,UTC,0,1017.6,30,,,25,6.4,41059,265,7.7,4.5
2018,5,29,17:40,UTC,0,1017.5,30,,,24.9,6.3,36197,271,8.1,4.4
2018,5,29,17:50,UTC,0,1017.5,32,,,24.4,6.7,42242,258,7.3,4.3
2018,5,29,18:00,UTC,0,1017.5,32,,,24.2,6.5,37474,258,8.4,4.6
2018,5,29,18:10,UTC,0,1017.5,32,,,24,6.5,48869,263,8.5,4.8
2018,5,29,18:20,UTC,0,1017.6,32,,,23.9,6.4,37329,271,7,4.7
2018,5,29,18:30,UTC,0,1017.6,33,,,23.6,6.5,45406,269,8.5,4.2
2018,5,29,18:40,UTC,0,1017.6,34,,,23.3,6.6,45545,275,6,4.1
2018,5,29,18:50,UTC,0,1017.7,35,,,23,6.7,41197,280,5.8,3.4
2018,5,29,19:00,UTC,0,1017.6,36,,,22.7,6.7,41854,276,5.2,3.4
2018,5,29,19:10,UTC,0,1017.7,37,,,22.2,6.8,46109,274,5.6,3.1
2018,5,29,19:20,UTC,0,1017.7,38,,,21.9,6.8,44675,277,4.6,3
2018,5,29,19:30,UTC,0,1017.8,38,,,21.9,6.9,45371,279,4.7,3.2
2018,5,29,19:40,UTC,0,1017.8,38,,,21.6,6.9,50000,283,4.8,3.2
2018,5,29,19:50,UTC,0,1017.8,40,,,21.1,6.9,50000,283,4.3,2.8
2018,5,29,20:00,UTC,0,1017.7,40,,,21,7,44381,279,4.8,2.8
2018,5,29,20:10,UTC,0,1017.7,40,,,20.9,6.9,48887,271,4.4,2.8
2018,5,29,20:20,UTC,0,1017.7,42,,,20.6,7.1,49079,269,5.4,2.9
2018,5,29,20:30,UTC,0,1017.7,42,,,20.4,7.1,46129,269,4.8,2.9
2018,5,29,20:40,UTC,0,1017.7,42,,,20.3,6.9,42721,273,5.1,3.1
2018,5,29,20:50,UTC,0,1017.8,43,,,19.9,6.9,46262,274,4.9,3
2018,5,29,21:00,UTC,0,1017.8,44,,,19.7,7,48014,278,4.4,2.9
2018,5,29,21:10,UTC,0,1017.8,45,,,19.6,7.2,44209,276,5.4,3.3
2018,5,29,21:20,UTC,0,1017.7,45,,,19.6,7.2,46914,279,5.1,3.4
2018,5,29,21:30,UTC,0,1017.7,45,,,19.4,7,42565,279,5.7,3.7
2018,5,29,21:40,UTC,0,1017.7,45,,,19.3,7,45687,275,6.5,3.7
2018,5,29,21:50,UTC,0,1017.6,45,,,19.3,6.9,46749,274,6.1,4.2
2018,5,29,22:00,UTC,0,1017.6,44,,,19.4,7,45627,275,6.7,4.2
2018,5,29,22:10,UTC,0,1017.6,45,,,19.1,7,50000,283,6.6,3.8
2018,5,29,22:20,UTC,0,1017.5,46,,,18.9,7,42746,281,5.7,3.9
2018,5,29,22:30,UTC,0,1017.6,46,,,18.8,7.1,49035,286,6.7,4.4
2018,5,29,22:40,UTC,0,1017.6,47,,,18.6,7.1,43789,288,6.3,4
2018,5,29,22:50,UTC,0,1017.7,48,,,18.2,7.1,50000,291,6.8,3.9
2018,5,29,23:00,UTC,0,1017.7,49,,,18.2,7.2,50000,295,6.2,4.1
2018,5,29,23:10,UTC,0,1017.8,49,,,18.2,7.2,46600,295,7.5,3.9
2018,5,29,23:20,UTC,0,1017.9,50,,,17.9,7.2,50000,296,6.3,3.9
2018,5,29,23:30,UTC,0,1018,51,,,17.3,7.1,49854,299,5.9,3.4
2018,5,29,23:40,UTC,0,1018.1,52,,,17.1,7.2,49939,304,4.7,3.2
2018,5,29,23:50,UTC,0,1018.2,52,,,16.9,7.1,46095,311,5.6,3.3
2018,5,30,00:00,UTC,0,1018.2,52,,,17,7.2,50000,305,5.4,3.7
2018,5,30,00:10,UTC,0,1018.4,53,,,16.7,7.2,45194,305,5.6,3.5
2018,5,30,00:20,UTC,0,1018.4,54,,,16.6,7.2,47088,305,5,3.3
2018,5,30,00:30,UTC,0,1018.5,56,,,16.1,7.2,50000,304,4.7,2.9
2018,5,30,00:40,UTC,0,1018.6,57,,,15.8,7.2,50000,308,3.6,2.5
2018,5,30,00:50,UTC,0,1018.7,57,,,15.7,7.2,47659,311,3.3,2.4
2018,5,30,01:00,UTC,0,1018.8,58,,,15.4,7.2,47003,305,4,2.6
2018,5,30,01:10,UTC,0,1018.8,59,,,15.2,7.2,45350,307,3.9,2.5
2018,5,30,01:20,UTC,0,1019,61,,,14.5,7.1,50000,319,4.1,2.5
2018,5,30,01:30,UTC,0,1019.1,62,,,14.2,7.1,46717,322,3.8,2.4
2018,5,30,01:40,UTC,0,1019.2,63,,,13.9,7.1,49617,326,3,2.2
2018,5,30,01:50,UTC,0,1019.2,63,,,13.9,7,45834,315,3.3,2.2
2018,5,30,02:00,UTC,0,1019.4,65,,,13.5,7,48853,316,4.3,2.8
2018,5,30,02:10,UTC,0,1019.5,66,,,13.5,7.2,47271,321,3.9,2.5
2018,5,30,02:20,UTC,0,1019.6,65,,,13.7,7.3,47080,322,2.8,1.9
2018,5,30,02:30,UTC,0,1019.7,65,,,13.5,7.1,44704,321,3.3,2.1
2018,5,30,02:40,UTC,0,1019.7,66,,,13.4,7.2,49819,323,3.3,2.4
2018,5,30,02:50,UTC,0,1019.9,66,,,13.7,7.4,41540,330,3.5,2.3
2018,5,30,03:00,UTC,0,1020,64,,,14,7.3,41224,341,2.6,1.9
2018,5,30,03:10,UTC,0,1020,62,,,14.6,7.3,42065,338,4.5,2.5
2018,5,30,03:20,UTC,0,1020.1,60,,,14.7,7,47202,341,5.3,3.3
2018,5,30,03:30,UTC,0,1020.1,57,,,15.4,6.9,46435,335,5.9,3.6
2018,5,30,03:40,UTC,0,1020.1,56,,,15.6,6.7,31278,333,5.8,4
2018,5,30,03:50,UTC,0,1020.1,57,,,15.7,7.1,38746,336,5.7,4.1
2018,5,30,04:00,UTC,0,1020.2,53,,,16,6.5,33579,334,7,4.7
2018,5,30,04:10,UTC,0,1020.2,55,,,16.1,7,34034,333,6.4,4.3
2018,5,30,04:20,UTC,0,1020.3,51,,,16.1,6.1,36154,333,6.6,4.3
2018,5,30,04:30,UTC,0,1020.3,49,,,16.4,5.8,34950,326,6.4,4.5
2018,5,30,04:40,UTC,0,1020.3,49,,,16.5,5.6,33119,335,7.3,4.6
2018,5,30,04:50,UTC,0,1020.4,47,,,16.4,5.2,35905,332,7.9,6
2018,5,30,05:00,UTC,0,1020.4,49,,,16.4,5.6,36069,333,8.1,5.5
2018,5,30,05:10,UTC,0,1020.5,49,,,16.6,5.8,40484,337,7.1,5.2
2018,5,30,05:20,UTC,0,1020.5,47,,,16.9,5.4,38981,336,6.9,4.9
2018,5,30,05:30,UTC,0,1020.4,47,,,17.1,5.6,39222,334,6.9,4.8
2018,5,30,05:40,UTC,0,1020.6,46,,,17.3,5.7,33570,331,7.5,5.2
2018,5,30,05:50,UTC,0,1020.7,45,,,17.5,5.5,36418,342,6.7,4.4
2018,5,30,06:00,UTC,0,1020.7,45,,,17.6,5.6,41158,332,7.6,5.3
2018,5,30,06:10,UTC,0,1020.7,45,,,18.1,5.8,44190,330,7,5.2
2018,5,30,06:20,UTC,0,1020.7,45,,,18.1,5.8,40596,330,7.1,4.9
2018,5,30,06:30,UTC,0,1020.6,42,,,18.4,5.4,35728,328,7,4.6
2018,5,30,06:40,UTC,0,1020.6,43,,,18.1,5.1,41161,351,6.8,4.5
2018,5,30,06:50,UTC,0,1020.7,41,,,18.8,5.2,40730,324,7.2,4.4
2018,5,30,07:00,UTC,0,1020.7,41,,,18.8,5.1,34958,325,7.7,5.3
2018,5,30,07:10,UTC,0,1020.7,39,,,19.1,5,40644,326,8.6,5.6
2018,5,30,07:20,UTC,0,1020.7,39,,,19.1,4.9,36562,339,7.8,5.7
2018,5,30,07:30,UTC,0,1020.7,38,,,19.1,4.6,38527,355,7.3,5
2018,5,30,07:40,UTC,0,1020.6,37,,,19.2,4.2,32560,355,7.2,5.3
2018,5,30,07:50,UTC,0,1020.6,38,,,20,5.1,30721,329,8.8,5.8
2018,5,30,08:00,UTC,0,1020.7,37,,,19.7,4.5,39544,339,9,6
2018,5,30,08:10,UTC,0,1020.8,36,,,20,4.4,34998,337,8.5,6.4
2018,5,30,08:20,UTC,0,1020.8,36,,,20.3,4.8,40259,343,9.8,5.5
2018,5,30,08:30,UTC,0,1020.8,36,,,20.1,4.5,33129,338,9.1,5.8
2018,5,30,08:40,UTC,0,1020.8,36,,,20.6,4.9,43350,341,8.9,6.2
2018,5,30,08:50,UTC,0,1020.9,36,,,20.5,5,31937,335,7.7,5.1
2018,5,30,09:00,UTC,0,1020.8,36,,,20.9,5.3,34645,316,9.7,5.6
2018,5,30,09:10,UTC,0,1020.8,35,,,20.8,4.7,32763,339,8.9,6
2018,5,30,09:20,UTC,0,1021,36,,,20.7,4.9,43519,344,9.3,5.7
2018,5,30,09:30,UTC,0,1020.9,34,,,21.1,4.6,36265,320,7.9,4.3
2018,5,30,09:40,UTC,0,1020.8,33,,,21.1,4.1,43992,325,9.3,6.1
2018,5,30,09:50,UTC,0,1020.8,33,,,20.9,4.2,40839,334,10.3,6.2
2018,5,30,10:00,UTC,0,1020.8,34,,,21.6,5,35506,335,10.1,6.3
2018,5,30,10:10,UTC,0,1020.6,34,,,22.2,5.7,39952,329,8.2,4.6
2018,5,30,10:20,UTC,0,1020.6,33,,,21.3,4.2,31757,350,10.5,6.1
2018,5,30,10:30,UTC,0,1020.6,34,,,21.7,5.2,44194,324,7.8,5
2018,5,30,10:40,UTC,0,1020.6,33,,,21.6,4.6,48108,338,9,5.5
2018,5,30,10:50,UTC,0,1020.4,33,,,21.4,4.5,42990,314,8.2,4.4
2018,5,30,11:00,UTC,0,1020.5,34,,,21.5,4.9,46821,337,9.9,6
2018,5,30,11:10,UTC,0,1020.5,34,,,21.9,5.4,37244,317,9.1,5.9
2018,5,30,11:20,UTC,0,1020.3,34,,,22.1,5.3,37236,310,10.1,5.7
2018,5,30,11:30,UTC,0,1020.3,35,,,21.9,5.5,37912,312,9.8,6.6
2018,5,30,11:40,UTC,0,1020.3,33,,,21.8,4.6,36398,334,10,6.8
2018,5,30,11:50,UTC,0,1020.3,33,,,21.9,4.8,32946,336,9.9,6.5
2018,5,30,12:00,UTC,0,1020.2,33,,,21.5,4.4,34251,334,11.2,6.5
2018,5,30,12:10,UTC,0,1020.2,33,,,21.9,4.7,39275,336,8.8,5.9
2018,5,30,12:20,UTC,0,1020.1,33,,,21.7,4.7,41840,328,9.1,5.7
2018,5,30,12:30,UTC,0,1020.1,32,,,21.8,4.4,42642,335,9.2,5.9
2018,5,30,12:40,UTC,0,1020.1,35,,,22.1,5.9,39041,334,9.2,6.5
2018,5,30,12:50,UTC,0,1020.1,34,,,21.5,5.1,40820,333,9.9,6.6
2018,5,30,13:00,UTC,0,1020,34,,,21.4,4.9,45256,323,9.4,6.1
2018,5,30,13:10,UTC,0,1020.1,35,,,21.4,5.2,47129,335,8.8,6.8
2018,5,30,13:20,UTC,1,1020,33,,,21.2,4.4,37360,332,10.1,5.9
2018,5,30,13:30,UTC,1,1020.1,34,,,21.2,4.9,40255,320,9.2,6.1
2018,5,30,13:40,UTC,1,1020,35,,,21.2,5.2,33885,340,9.5,5.6
2018,5,30,13:50,UTC,0,1020,34,,,21.1,4.8,42655,332,8.2,5.6
2018,5,30,14:00,UTC,0,1019.9,36,,,21.2,5.7,38299,341,8.5,5.6
2018,5,30,14:10,UTC,0,1019.9,34,,,21.2,4.6,49427,334,8.9,6.2
2018,5,30,14:20,UTC,0,1019.8,34,,,21.3,4.8,35910,333,9.9,6.8
2018,5,30,14:30,UTC,0,1019.8,33,,,22,4.8,44088,331,9.7,6.4
2018,5,30,14:40,UTC,0,1019.7,34,,,21.8,5.3,40682,334,8.9,6.4
2018,5,30,14:50,UTC,0,1019.6,34,,,21.6,4.9,39222,317,9.2,6.3
2018,5,30,15:00,UTC,0,1019.6,35,,,21.4,5.1,41085,346,8.4,6
2018,5,30,15:10,UTC,0,1019.5,35,,,21.5,5.2,37774,327,10.1,6.1
2018,5,30,15:20,UTC,0,1019.5,34,,,21.4,5.1,43256,349,9.5,6.2
2018,5,30,15:30,UTC,0,1019.5,35,,,21.3,5.1,44924,350,8,5.3
2018,5,30,15:40,UTC,0,1019.4,36,,,21.1,5.3,40117,345,8,5.3
2018,5,30,15:50,UTC,0,1019.4,37,,,21,5.6,47684,352,8.7,5.6
2018,5,30,16:00,UTC,0,1019.4,36,,,20.8,5.1,43666,352,9.4,5.9
2018,5,30,16:10,UTC,0,1019.4,36,,,20.7,5,41300,355,8.2,5
2018,5,30,16:20,UTC,0,1019.4,38,,,20.6,5.6,46066,347,8.8,5.4
2018,5,30,16:30,UTC,0,1019.4,35,,,20.7,4.8,43875,333,8.5,6
2018,5,30,16:40,UTC,0,1019.5,37,,,20.1,4.9,36435,346,10,6.5
2018,5,30,16:50,UTC,0,1019.5,37,,,20.1,5,45418,341,8.3,5.4
2018,5,30,17:00,UTC,0,1019.4,38,,,20,5.3,43473,335,7.9,5.9
2018,5,30,17:10,UTC,0,1019.4,39,,,19.9,5.6,46625,329,7.8,5.6
2018,5,30,17:20,UTC,0,1019.4,39,,,20.1,5.6,45588,324,7.7,5.1
2018,5,30,17:30,UTC,0,1019.4,39,,,20,5.7,49378,324,8,5.3
2018,5,30,17:40,UTC,0,1019.4,39,,,19.9,5.5,47616,323,8.1,5.8
2018,5,30,17:50,UTC,0,1019.4,40,,,19.8,5.6,45127,333,7.8,5.8
2018,5,30,18:00,UTC,0,1019.5,40,,,19.6,5.7,48721,334,6.6,5.3
2018,5,30,18:10,UTC,0,1019.5,39,,,19.5,5.1,48586,336,9.4,6.8
2018,5,30,18:20,UTC,0,1019.6,39,,,19.2,5.1,48500,343,9.4,5.6
2018,5,30,18:30,UTC,0,1019.7,40,,,19.1,5,49151,343,8.5,5.9
2018,5,30,18:40,UTC,0,1019.7,43,,,18.2,5.3,48071,339,6.3,4.3
2018,5,30,18:50,UTC,0,1019.8,43,,,18.1,5.3,50000,342,8.4,4.8
2018,5,30,19:00,UTC,0,1019.9,43,,,18,5.2,50000,344,6.9,4.7
2018,5,30,19:10,UTC,0,1019.9,44,,,17.6,5.3,50000,347,5.8,4
2018,5,30,19:20,UTC,0,1020.1,44,,,17.7,5.3,50000,354,6.1,4
2018,5,30,19:30,UTC,0,1020.2,43,,,17.8,5,50000,357,7.6,4.3
2018,5,30,19:40,UTC,0,1020.4,45,,,17.3,5.1,50000,354,6.9,4.2
2018,5,30,19:50,UTC,0,1020.5,44,,,17.4,5.1,50000,353,7.4,4
2018,5,30,20:00,UTC,0,1020.6,46,,,17,5.2,50000,353,6.4,3.9
2018,5,30,20:10,UTC,0,1020.7,47,,,16.7,5.2,50000,356,6,3.8
2018,5,30,20:20,UTC,0,1020.8,47,,,16.4,5.2,50000,354,4.9,3.5
2018,5,30,20:30,UTC,0,1021,48,,,16.3,5.2,50000,353,5.5,3.8
2018,5,30,20:40,UTC,0,1021.1,49,,,16,5.2,50000,354,6.2,4
2018,5,30,20:50,UTC,0,1021.2,50,,,15.8,5.3,50000,354,6,3.8
2018,5,30,21:00,UTC,0,1021.4,50,,,15.7,5.4,50000,355,5.3,3.6
2018,5,30,21:10,UTC,0,1021.5,50,,,15.5,5.3,50000,354,6.1,3.9
2018,5,30,21:20,UTC,0,1021.6,49,,,15.6,5,50000,357,7.1,4
2018,5,30,21:30,UTC,0,1021.7,49,,,15.5,4.7,50000,359,6.5,3.8
2018,5,30,21:40,UTC,0,1021.9,49,,,15.3,4.6,50000,359,5.4,3.4
2018,5,30,21:50,UTC,0,1022,50,,,15.1,4.6,50000,360,5.8,3.7
2018,5,30,22:00,UTC,0,1022.2,49,,,15.1,4.6,50000,359,6.9,3.8
2018,5,30,22:10,UTC,0,1022.3,50,,,15,4.5,50000,4,6.7,3.6
2018,5,30,22:20,UTC,0,1022.4,50,,,14.9,4.6,50000,4,7.3,3.6
2018,5,30,22:30,UTC,0,1022.6,52,,,14.4,4.6,50000,4,5.9,3.3
2018,5,30,22:40,UTC,0,1022.7,52,,,14.5,4.6,50000,3,5.5,3.1
2018,5,30,22:50,UTC,0,1022.7,51,,,14.4,4.3,50000,5,7.9,3.7
2018,5,30,23:00,UTC,0,1022.8,51,,,14.2,4.2,50000,3,5.7,3.1
2018,5,30,23:10,UTC,0,1022.9,53,,,13.8,4.3,50000,360,5.2,2.9
2018,5,30,23:20,UTC,0,1023.1,52,,,13.7,4.1,50000,3,4.2,2.7
2018,5,30,23:30,UTC,0,1023.2,53,,,13.4,4,50000,1,4.7,2.8
2018,5,30,23:40,UTC,0,1023.2,53,,,13.4,3.9,50000,3,4.4,2.8
2018,5,30,23:50,UTC,0,1023.3,53,,,13.2,3.8,50000,6,3.9,2.4
2018,5,31,00:00,UTC,0,1023.5,53,,,12.9,3.7,50000,3,4.3,2.4
2018,5,31,00:10,UTC,0,1023.7,54,,,12.8,3.6,50000,5,4,2.3
2018,5,31,00:20,UTC,0,1023.8,54,,,12.6,3.5,50000,5,3.9,2.2
2018,5,31,00:30,UTC,0,1023.9,54,,,12.3,3.4,50000,4,3.7,1.9
2018,5,31,00:40,UTC,0,1024,54,,,12.3,3.3,50000,4,3.5,1.9
2018,5,31,00:50,UTC,0,1024.1,56,,,11.8,3.4,50000,3,3.4,2.2
2018,5,31,01:00,UTC,0,1024.2,58,,,11.5,3.4,50000,4,3,1.9
2018,5,31,01:10,UTC,0,1024.3,59,,,11.2,3.4,50000,7,3.1,1.7
2018,5,31,01:20,UTC,0,1024.4,58,,,11.3,3.4,50000,6,3.4,1.9
2018,5,31,01:30,UTC,0,1024.6,61,,,10.7,3.5,50000,359,2.7,1.8
2018,5,31,01:40,UTC,0,1024.6,62,,,10.6,3.5,49987,358,3.3,2.2
2018,5,31,01:50,UTC,0,1024.7,63,,,10.3,3.6,50000,358,3,2
2018,5,31,02:00,UTC,0,1024.8,63,,,10.4,3.6,50000,1,3.3,2
2018,5,31,02:10,UTC,0,1024.9,64,,,10.4,3.8,50000,357,4.1,2.6
2018,5,31,02:20,UTC,0,1025,62,,,10.7,3.8,50000,360,3.7,2.4
2018,5,31,02:30,UTC,0,1025.1,61,,,10.9,3.8,50000,358,4.7,2.6
2018,5,31,02:40,UTC,0,1025.2,61,,,11,3.8,45957,1,3.9,2.3
2018,5,31,02:50,UTC,0,1025.3,61,,,11,3.8,50000,359,3.8,2.3
2018,5,31,03:00,UTC,0,1025.5,62,,,11,3.9,44772,358,3.4,1.9
2018,5,31,03:10,UTC,0,1025.5,59,,,11.4,3.7,47244,2,4.7,2.3
2018,5,31,03:20,UTC,0,1025.6,61,,,11.3,4,43777,355,3.5,2.2
2018,5,31,03:30,UTC,0,1025.6,59,,,11.8,4,46137,3,3.5,2.1
2018,5,31,03:40,UTC,0,1025.7,57,,,12,3.8,43039,5,3.8,2
2018,5,31,03:50,UTC,0,1025.8,57,,,12.2,4,50000,11,4.1,2.2
2018,5,31,04:00,UTC,0,1025.9,57,,,12.3,4,47363,19,4.5,2.4
2018,5,31,04:10,UTC,0,1026,55,,,12.5,3.8,41284,20,5.1,2.6
2018,5,31,04:20,UTC,0,1026,55,,,12.8,3.8,39671,21,8.2,2.9
2018,5,31,04:30,UTC,0,1026,53,,,12.9,3.7,43042,28,6.5,3.1
2018,5,31,04:40,UTC,0,1026.1,50,,,13.1,2.9,41144,28,6.5,2.6
2018,5,31,04:50,UTC,0,1026.1,50,,,13.3,2.9,38516,33,5.6,2.9
2018,5,31,05:00,UTC,0,1026.2,50,,,13.6,3.4,47332,19,4.8,2.4
2018,5,31,05:10,UTC,0,1026.3,49,,,13.6,3,37738,22,5.1,2.5
2018,5,31,05:20,UTC,,,,,,,,,,,
2018,5,31,05:30,UTC,,,,,,,,,,,
2018,5,31,05:40,UTC,,,,,,,,,,,
2018,5,31,05:50,UTC,,,,,,,,,,,
2018,5,31,06:00,UTC,0,1026.5,45,,,14.6,2.9,34588,59,4.8,2.2
2018,5,31,06:10,UTC,,,,,,,,,,,
2018,5,31,06:20,UTC,,,,,,,,,,,
2018,5,31,06:30,UTC,,,,,,,,,,,
2018,5,31,06:40,UTC,,,,,,,,,,,
2018,5,31,06:50,UTC,0,1026.7,39,,,15.3,1.6,46794,12,5.5,3.1
2018,5,31,07:00,UTC,0,1026.7,39,,,15.6,1.5,45474,43,4.2,2.4
2018,5,31,07:10,UTC,0,1026.8,39,,,15.3,1.2,44422,6,7.3,4.1
2018,5,31,07:20,UTC,0,1026.8,41,,,16.1,3,39014,6,7.1,3.2
2018,5,31,07:30,UTC,0,1027,39,,,15.5,1.6,40364,360,5.9,3.1
2018,5,31,07:40,UTC,0,1026.9,40,,,15.7,2.1,42433,348,6.2,3.8
2018,5,31,07:50,UTC,1,1026.9,41,,,16.5,3.3,44126,4,5.1,2.6
2018,5,31,08:00,UTC,2,1027,40,,,15.8,2.2,36184,12,5.9,3.3
2018,5,31,08:10,UTC,1,1027.1,42,,,15.9,3,40258,14,5.3,2.6
2018,5,31,08:20,UTC,1,1027.1,41,,,15.2,2,44299,32,7,3.4
2018,5,31,08:30,UTC,1,1027,40,,,16.3,2.8,46778,353,4.8,3
2018,5,31,08:40,UTC,2,1027,39,,,16.3,2.2,42843,36,6.8,3.6
2018,5,31,08:50,UTC,4,1026.9,39,,,17,3.1,45252,61,6,3.4
2018,5,31,09:00,UTC,5,1026.9,38,,,16.8,2.4,37612,6,7.8,3.8
2018,5,31,09:10,UTC,5,1026.9,40,,,16,2.3,43455,354,9.1,3.7
2018,5,31,09:20,UTC,3,1026.8,37,,,16.6,1.9,45023,4,4.3,1.9
2018,5,31,09:30,UTC,1,1026.8,38,,,17.1,2.5,40122,348,4.9,2.3
2018,5,31,09:40,UTC,1,1026.7,37,,,17.1,2.3,40359,18,7,3.5
2018,5,31,09:50,UTC,2,1026.6,38,,,16.9,2.4,43063,3,6.8,3.7
2018,5,31,10:00,UTC,1,1026.6,35,,,17.3,1.8,41485,14,6.9,3.9
2018,5,31,10:10,UTC,1,1026.5,35,,,17.4,1.7,41245,334,6.8,3.5
2018,5,31,10:20,UTC,0,1026.6,36,,,17.7,2.3,43842,14,6,2.9
2018,5,31,10:30,UTC,0,1026.5,36,,,17.9,2.5,43828,349,10.9,3.9
2018,5,31,10:40,UTC,0,1026.4,33,,,17.6,1.2,29305,9,7.6,3.3
2018,5,31,10:50,UTC,0,1026.4,47,,,17.7,6.4,39036,39,5.7,2.7
2018,5,31,11:00,UTC,0,1026.4,53,,,16,6.3,36566,143,6,3.5
2018,5,31,11:10,UTC,0,1026.3,53,,,16.3,6.8,34084,137,6.2,2.9
2018,5,31,11:20,UTC,0,1026.2,54,,,16.1,6.7,46737,144,6.1,4.5
2018,5,31,11:30,UTC,0,1026.1,53,,,16.2,6.6,44807,133,6.4,4.2
2018,5,31,11:40,UTC,0,1026.1,50,,,16.4,6,39924,156,6.7,4.5
2018,5,31,11:50,UTC,0,1026,51,,,16.7,6.3,43448,153,6.5,4.8
2018,5,31,12:00,UTC,0,1026,51,,,16,5.8,36925,151,6.7,4.6
2018,5,31,12:10,UTC,0,1025.9,52,,,15.9,6,38284,142,6.4,4.2
2018,5,31,12:20,UTC,0,1025.9,52,,,16.5,6.5,38719,132,6.1,4.1
2018,5,31,12:30,UTC,0,1025.8,52,,,16.4,6.6,40978,143,6.8,4
2018,5,31,12:40,UTC,0,1025.8,52,,,16.7,6.7,34795,160,7,4.3
2018,5,31,12:50,UTC,0,1025.8,52,,,15.9,6,33578,200,7.6,4.6
2018,5,31,13:00,UTC,0,1025.8,55,,,16.2,7,45187,218,7.6,5.5
2018,5,31,13:10,UTC,0,1025.7,57,,,15.4,6.9,33077,210,7.6,5.6
2018,5,31,13:20,UTC,0,1025.6,57,,,15.6,7.1,42070,209,7.6,5.5
2018,5,31,13:30,UTC,0,1025.7,58,,,15,6.7,40817,201,8.1,5.7
2018,5,31,13:40,UTC,0,1025.7,57,,,15.3,6.8,41027,204,7.9,5.6
2018,5,31,13:50,UTC,0,1025.7,58,,,14.9,6.7,44958,196,7,5.2
2018,5,31,14:00,UTC,0,1025.5,56,,,15.4,6.5,37096,179,6.6,4.5
2018,5,31,14:10,UTC,0,1025.4,56,,,15.3,6.6,34897,190,6.8,5
2018,5,31,14:20,UTC,0,1025.4,52,,,15.2,5.4,37125,195,6.9,5.2
2018,5,31,14:30,UTC,0,1025.4,50,,,15.2,4.8,40452,192,6.8,4.9
2018,5,31,14:40,UTC,0,1025.2,48,,,15.5,4.6,46493,192,7.8,5.2
2018,5,31,14:50,UTC,0,1025.2,48,,,15.4,4.4,49850,190,7.1,5.4
2018,5,31,15:00,UTC,0,1025.1,49,,,15.4,4.7,36264,189,7.1,5.1
2018,5,31,15:10,UTC,0,1024.9,48,,,15.3,4.3,40270,183,6.7,5.2
2018,5,31,15:20,UTC,0,1024.8,49,,,14.9,4.3,47793,176,7,5.3
2018,5,31,15:30,UTC,0,1024.8,50,,,15.4,5.1,41579,183,6.6,4.6
2018,5,31,15:40,UTC,0,1024.8,48,,,15.5,4.5,40435,175,6.2,4.6
2018,5,31,15:50,UTC,0,1024.7,48,,,15.1,4,38287,176,6.3,4.9
2018,5,31,16:00,UTC,0,1024.8,48,,,15.3,4.2,39105,165,6.2,4.1
2018,5,31,16:10,UTC,0,1024.8,44,,,15.5,3.3,46362,173,6,4.1
2018,5,31,16:20,UTC,0,1024.7,45,,,15.5,3.7,34634,176,5.8,4.3
2018,5,31,16:30,UTC,0,1024.7,46,,,15.5,3.9,43432,190,6,4.4
2018,5,31,16:40,UTC,0,1024.6,49,,,15.2,4.7,49519,190,5.9,3.8
2018,5,31,16:50,UTC,0,1024.6,50,,,15.4,5.1,44265,172,5.6,3.8
2018,5,31,17:00,UTC,0,1024.5,51,,,15.5,5.3,50000,174,6,4.3
2018,5,31,17:10,UTC,0,1024.5,49,,,15,4.2,50000,199,6,4.1
2018,5,31,17:20,UTC,0,1024.4,50,,,15.2,4.8,39672,192,5.1,3.6
2018,5,31,17:30,UTC,0,1024.5,49,,,15,4.5,49459,180,5.9,4.1
2018,5,31,17:40,UTC,0,1024.4,49,,,14.9,4.3,46714,190,5.2,3.8
2018,5,31,17:50,UTC,0,1024.4,47,,,15,3.9,39217,194,4.9,3.2
2018,5,31,18:00,UTC,0,1024.4,47,,,14.9,3.7,47737,197,4.6,3.1
2018,5,31,18:10,UTC,0,1024.5,47,,,14.8,3.5,45057,201,3.8,2.7
2018,5,31,18:20,UTC,0,1024.5,46,,,14.7,3.2,50000,207,5.2,3.3
2018,5,31,18:30,UTC,0,1024.4,47,,,14.6,3.3,50000,201,4,2.8
2018,5,31,18:40,UTC,0,1024.4,47,,,14.5,3.1,50000,189,3.7,2.7
2018,5,31,18:50,UTC,0,1024.3,47,,,14.3,3.2,50000,195,3.2,2.5
2018,5,31,19:00,UTC,0,1024.3,48,,,14.1,3.1,50000,204,2.9,2
2018,5,31,19:10,UTC,0,1024.3,48,,,14,3.2,50000,193,3,2.1
2018,5,31,19:20,UTC,0,1024.2,50,,,13.6,3.3,50000,196,3.2,2.3
2018,5,31,19:30,UTC,0,1024.2,50,,,13.5,3.3,50000,203,2.3,1.8
2018,5,31,19:40,UTC,0,1024.3,50,,,13.7,3.3,50000,187,1.9,1.5
2018,5,31,19:50,UTC,0,1024.2,51,,,13.5,3.4,50000,196,3,2.1
2018,5,31,20:00,UTC,0,1024.2,53,,,12.9,3.6,50000,191,2.7,2
2018,5,31,20:10,UTC,0,1024.1,55,,,12.5,3.8,50000,196,2.3,1.6
2018,5,31,20:20,UTC,0,1024.1,65,,,10.7,4.4,50000,136,1.5,0.6
2018,5,31,20:30,UTC,0,1024.2,69,,,9.9,4.4,50000,0,0,0
2018,5,31,20:40,UTC,0,1024.1,70,,,9.9,4.7,50000,105,0.8,0.6
2018,5,31,20:50,UTC,0,1024.1,71,,,9.2,4.3,50000,62,0.9,0.6
2018,5,31,21:00,UTC,0,1024.1,73,,,8.9,4.4,50000,0,0,0
2018,5,31,21:10,UTC,0,1024.1,77,,,8.6,4.7,50000,128,0.7,0.5
2018,5,31,21:20,UTC,0,1023.9,76,,,8.9,4.9,50000,89,0.9,0.6
2018,5,31,21:30,UTC,0,1023.9,75,,,8.5,4.4,50000,0,0,0
2018,5,31,21:40,UTC,0,1023.9,80,,,7.9,4.6,50000,0,0,0
2018,5,31,21:50,UTC,0,1023.9,80,,,8.1,4.9,50000,84,0.8,0.5
2018,5,31,22:00,UTC,0,1023.9,78,,,8,4.3,50000,0,0,0
2018,5,31,22:10,UTC,0,1023.9,81,,,7.4,4.3,50000,0,0,0
2018,5,31,22:20,UTC,0,1023.9,84,,,7.2,4.7,50000,84,0.8,0.5
2018,5,31,22:30,UTC,0,1024,82,,,7.3,4.5,50000,5,0.8,0.5
2018,5,31,22:40,UTC,0,1024,84,,,6.9,4.5,50000,0,0,0
2018,5,31,22:50,UTC,0,1024,83,,,7.2,4.6,50000,105,0.7,0.6
2018,5,31,23:00,UTC,0,1024,84,,,6.8,4.3,50000,0,0,0
2018,5,31,23:10,UTC,0,1024,86,,,6.8,4.7,50000,0,0,0
2018,5,31,23:20,UTC,0,1024,88,,,7,5.1,50000,96,1.4,0.7
2018,5,31,23:30,UTC,0,1023.9,88,,,6.6,4.8,50000,117,0.9,0.5
2018,5,31,23:40,UTC,0,1023.8,88,,,6.6,4.8,50000,141,1,0.6
2018,5,31,23:50,UTC,0,1023.7,87,,,6.7,4.6,50000,186,1.7,0.6
2018,6,1,00:00,UTC,0,1023.7,86,,,7.2,4.9,50000,0,0,0