Year,m,d,Time,Time zone,Cloud amount (1/8),Pressure (msl) (hPa),Relative humidity (%),Precipitation intensity (mm/h),Snow depth (cm),Air temperature (degC),Dew-point temperature (degC),Horizontal visibility (m),Wind direction (deg),Gust speed (m/s),Wind speed (m/s)
2018,6,1,00:00,UTC,0,1023.7,86,,,7.2,4.9,50000,0,0,0
2018,6,1,00:10,UTC,0,1023.7,85,,,7,4.7,50000,0,0,0
2018,6,1,00:20,UTC,0,1023.6,88,,,6.4,4.6,50000,0,0,0
2018,6,1,00:30,UTC,0,1023.6,90,,,6.4,4.9,50000,135,1,0.5
2018,6,1,00:40,UTC,0,1023.5,91,,,6.4,5,50000,176,1.6,0.7
2018,6,1,00:50,UTC,0,1023.4,89,,,6.7,5,50000,207,2.1,0.9
2018,6,1,01:00,UTC,0,1023.3,84,,,7.2,4.6,50000,172,1.2,0.6
2018,6,1,01:10,UTC,0,1023.3,84,,,7.3,4.8,50000,200,1.9,0.7
2018,6,1,01:20,UTC,0,1023.3,75,,,9.1,5,50000,228,2.1,1.3
2018,6,1,01:30,UTC,0,1023.3,73,,,9,4.5,50000,214,2.4,1.4
2018,6,1,01:40,UTC,0,1023.2,66,,,10.7,4.7,50000,219,3.1,1.9
2018,6,1,01:50,UTC,0,1023.2,68,,,10,4.3,50000,216,3.3,1.9
2018,6,1,02:00,UTC,0,1023.2,69,,,9.7,4.3,50000,221,2.9,1.7
2018,6,1,02:10,UTC,0,1023.2,64,,,11.1,4.5,50000,228,3.1,1.8
2018,6,1,02:20,UTC,0,1023.2,64,,,11.2,4.6,50000,223,2.5,1.8
2018,6,1,02:30,UTC,0,1023.2,63,,,11.4,4.7,50000,232,2.7,1.8
2018,6,1,02:40,UTC,0,1023.3,64,,,11.7,5.1,50000,229,3.5,2.1
2018,6,1,02:50,UTC,0,1023.3,64,,,11.8,5.3,49352,232,3.6,2.2
2018,6,1,03:00,UTC,0,1023.1,65,,,11.9,5.6,50000,228,3.6,2.2
2018,6,1,03:10,UTC,0,1023,64,,,12.2,5.7,41828,226,3.7,2.4
2018,6,1,03:20,UTC,0,1022.9,64,,,12.5,5.9,45549,234,3.4,2.1
2018,6,1,03:30,UTC,0,1022.9,63,,,12.7,5.8,50000,236,3.1,2
2018,6,1,03:40,UTC,0,1023,63,,,13.1,6.2,47409,250,3,1.9
2018,6,1,03:50,UTC,0,1023,60,,,13.5,5.9,45320,239,3.2,1.8
2018,6,1,04:00,UTC,0,1023.1,59,,,13.9,6.1,45949,235,2.9,1.8
2018,6,1,04:10,UTC,0,1023.1,59,,,14.1,6.1,34535,232,3.5,2.3
2018,6,1,04:20,UTC,0,1023,58,,,14.4,6.3,41754,217,3.3,2.3
2018,6,1,04:30,UTC,0,1022.9,58,,,14.7,6.6,41109,217,4,2.7
2018,6,1,04:40,UTC,0,1022.9,60,,,14.8,7.1,36710,222,5.6,3.7
2018,6,1,04:50,UTC,0,1022.9,60,,,15,7.3,42668,236,6.4,4
2018,6,1,05:00,UTC,0,1022.8,58,,,15.2,6.9,39493,245,5,3.5
2018,6,1,05:10,UTC,0,1022.7,57,,,15.8,7.2,35197,251,4.2,2.7
2018,6,1,05:20,UTC,0,1022.6,55,,,15.8,6.9,34749,226,4.7,3.1
2018,6,1,05:30,UTC,0,1022.5,55,,,16.1,7.1,44264,235,5.5,3.4
2018,6,1,05:40,UTC,0,1022.4,51,,,16.4,6.2,42295,228,5.5,3.9
2018,6,1,05:50,UTC,0,1022.2,48,,,17,6,47617,226,6.1,4.1
2018,6,1,06:00,UTC,0,1022,49,,,16.8,6.2,46013,233,6.8,4.5
2018,6,1,06:10,UTC,0,1021.9,52,,,17.1,7.2,50000,219,6.5,3.9
2018,6,1,06:20,UTC,0,1021.7,52,,,17.3,7.2,37941,200,6.5,4.1
2018,6,1,06:30,UTC,0,1021.6,50,,,17.5,7.1,42518,191,6.8,4.8
2018,6,1,06:40,UTC,0,1021.6,47,,,18.1,6.6,44274,189,6.2,4.6
2018,6,1,06:50,UTC,0,1021.5,47,,,17.7,6.1,32574,198,6.3,4.4
2018,6,1,07:00,UTC,0,1021.4,44,,,17.8,5.4,35989,204,8.7,5.9
2018,6,1,07:10,UTC,0,1021.4,44,,,17.6,5.2,38632,210,7.9,5.2
2018,6,1,07:20,UTC,0,1021.2,44,,,18.1,5.7,41632,208,8.1,5
2018,6,1,07:30,UTC,0,1021.1,45,,,18.2,6,37065,208,7.7,5.3
2018,6,1,07:40,UTC,0,1021,42,,,17.8,4.8,34332,192,8.3,6.6
2018,6,1,07:50,UTC,0,1020.9,41,,,18.1,4.8,46752,209,8.5,5.5
2018,6,1,08:00,UTC,0,1020.8,40,,,18.4,4.6,33686,210,8.9,5.3
2018,6,1,08:10,UTC,0,1020.7,40,,,18.2,4.5,42783,204,8.6,5.6
2018,6,1,08:20,UTC,0,1020.6,39,,,18.9,4.8,33165,198,8.7,6
2018,6,1,08:30,UTC,0,1020.5,40,,,18.4,4.4,42477,197,8.9,6.1
2018,6,1,08:40,UTC,0,1020.6,38,,,18.4,3.9,38504,202,9.7,7.2
2018,6,1,08:50,UTC,0,1020.6,39,,,18.2,3.9,40712,204,9.5,6.8
2018,6,1,09:00,UTC,0,1020.5,39,,,18.8,4.6,33938,214,9.2,6.1
2018,6,1,09:10,UTC,0,1020.4,38,,,18.7,3.9,34873,207,10.4,6.8
2018,6,1,09:20,UTC,1,1020.3,38,,,18.4,3.9,35798,225,8.4,5.7
2018,6,1,09:30,UTC,2,1020.2,37,,,18.9,3.9,38926,212,9.8,6.1
2018,6,1,09:40,UTC,1,1020.3,37,,,19.1,4,37562,220,9,5.4
2018,6,1,09:50,UTC,2,1020.3,36,,,19.3,3.9,40981,216,7.9,5.9
2018,6,1,10:00,UTC,5,1020.1,36,,,19,3.6,46882,205,8.1,6
2018,6,1,10:10,UTC,7,1020,38,,,19.1,4.5,36594,206,8.6,5.7
2018,6,1,10:20,UTC,7,1019.9,38,,,19.1,4.2,45825,210,7.8,5.4
2018,6,1,10:30,UTC,7,1019.8,40,,,19,5.2,38161,191,8.1,5
2018,6,1,10:40,UTC,7,1019.7,41,,,19.2,5.7,31194,191,7.6,5.6
2018,6,1,10:50,UTC,5,1019.7,40,,,19.6,5.7,42998,186,8.5,6.2
2018,6,1,11:00,UTC,5,1019.4,41,,,19.6,5.9,31869,197,9,5.8
2018,6,1,11:10,UTC,6,1019.3,43,,,20.3,7.4,38320,196,8.2,5.4
2018,6,1,11:20,UTC,7,1019.1,44,,,20.4,7.6,33547,204,7.7,5.1
2018,6,1,11:30,UTC,6,1018.9,41,,,20.1,6.5,34967,199,9,5.6
2018,6,1,11:40,UTC,3,1018.7,42,,,20.2,6.8,37637,195,9.1,6.7
2018,6,1,11:50,UTC,4,1018.6,42,,,20.5,7,29106,195,9.6,6.2
2018,6,1,12:00,UTC,3,1018.5,43,,,20.5,7.4,31110,201,9.1,6.6
2018,6,1,12:10,UTC,6,1018.4,43,,,20.4,7.5,32542,210,9,6.3
2018,6,1,12:20,UTC,5,1018.3,40,,,20.2,6.3,34940,209,8.9,6
2018,6,1,12:30,UTC,3,1018.2,40,,,20.7,6.6,37134,204,8.8,6.3
2018,6,1,12:40,UTC,3,1018,42,,,20.8,7.3,31708,212,9.6,5.8
2018,6,1,12:50,UTC,4,1017.9,42,,,20.5,7.2,32765,212,10.1,6.8
2018,6,1,13:00,UTC,4,1017.8,42,,,21.3,7.8,35077,212,9.4,6.6
2018,6,1,13:10,UTC,6,1017.6,46,,,19.6,7.8,46488,209,7.9,5.8
2018,6,1,13:20,UTC,3,1017.3,48,,,20.4,8.8,46249,197,8.4,6.1
2018,6,1,13:30,UTC,5,1017.2,49,,,20.1,9.1,38348,190,8.5,6
2018,6,1,13:40,UTC,6,1017.1,48,,,20.2,8.9,45409,192,7.8,5.6
2018,6,1,13:50,UTC,6,1017,48,,,20.4,9,33658,202,8.9,5.8
2018,6,1,14:00,UTC,5,1016.8,49,,,20.3,9.4,36848,193,7.6,5.5
2018,6,1,14:10,UTC,6,1016.7,47,,,20.9,9,40403,196,8.4,5.4
2018,6,1,14:20,UTC,4,1016.5,45,,,21.3,8.7,47609,208,9.2,5.5
2018,6,1,14:30,UTC,6,1016.4,43,,,20.6,7.6,44917,199,9.6,6
2018,6,1,14:40,UTC,5,1016.3,43,,,20.3,7.3,42671,207,8.6,5.8
2018,6,1,14:50,UTC,4,1016.1,43,,,20.7,7.6,38424,203,7.6,5.7
2018,6,1,15:00,UTC,4,1016,42,,,20.7,7.2,34029,212,8.6,5.8
2018,6,1,15:10,UTC,3,1015.9,42,,,20.5,7.2,36669,206,8.3,5.7
2018,6,1,15:20,UTC,6,1015.8,44,,,20.3,7.5,42455,208,8.4,5.3
2018,6,1,15:30,UTC,6,1015.8,44,,,20.2,7.5,43278,207,8.1,5.5
2018,6,1,15:40,UTC,7,1015.8,45,,,19.7,7.4,42790,204,7.9,5.5
2018,6,1,15:50,UTC,7,1015.7,45,,,19.8,7.6,42428,204,7.6,5.1
2018,6,1,16:00,UTC,7,1015.6,45,,,19.7,7.6,43412,204,7.6,5.6
2018,6,1,16:10,UTC,7,1015.4,46,,,19.8,7.7,45688,199,7.9,5.3
2018,6,1,16:20,UTC,7,1015.4,44,,,20,7.3,37332,207,7.6,5.5
2018,6,1,16:30,UTC,5,1015.4,44,,,20,7.4,33776,211,7.5,5
2018,6,1,16:40,UTC,6,1015.3,45,,,19.7,7.4,44821,205,7.1,5.1
2018,6,1,16:50,UTC,6,1015.2,45,,,19.7,7.5,47752,210,6.9,4.6
2018,6,1,17:00,UTC,7,1015.1,46,,,19.9,7.9,37468,196,7,5.1
2018,6,1,17:10,UTC,5,1015,47,,,19.5,7.7,45196,200,6.4,4.5
2018,6,1,17:20,UTC,5,1015,48,,,19,7.7,42944,199,6.8,4.8
2018,6,1,17:30,UTC,5,1015,49,,,18.9,8,49377,199,7.1,4.2
2018,6,1,17:40,UTC,7,1014.9,49,,,18.8,7.9,50000,199,4.6,3.3
2018,6,1,17:50,UTC,7,1014.8,48,,,18.9,7.7,45990,202,4.8,2.9
2018,6,1,18:00,UTC,8,1014.7,51,,,18.7,8.4,22798,214,5.4,3.5
2018,6,1,18:10,UTC,7,1014.7,49,,,18.8,7.9,43104,224,5.6,3.4
2018,6,1,18:20,UTC,5,1014.6,49,,,18.8,7.9,50000,218,4.6,3.2
2018,6,1,18:30,UTC,6,1014.6,49,,,18.6,7.8,48520,224,4.4,3.2
2018,6,1,18:40,UTC,3,1014.6,52,,,18.3,8.2,45345,230,4.2,2.8
2018,6,1,18:50,UTC,5,1014.7,52,,,18.2,8.2,49595,246,4.2,2.7
2018,6,1,19:00,UTC,6,1014.5,50,,,18.2,7.7,50000,256,5.1,2.6
2018,6,1,19:10,UTC,7,1014.5,46,,,18.5,6.6,50000,260,5.1,3.5
2018,6,1,19:20,UTC,7,1014.5,48,,,18.3,7,45314,256,6,3.5
2018,6,1,19:30,UTC,8,1014.5,50,,,18,7.3,47290,251,5.5,3.5
2018,6,1,19:40,UTC,7,1014.7,51,,,17.6,7.3,50000,248,4.7,3.1
2018,6,1,19:50,UTC,7,1014.5,48,,,17.7,6.7,50000,247,5.2,3.1
2018,6,1,20:00,UTC,7,1014.5,48,,,17.8,6.6,47240,238,3.8,2.3
2018,6,1,20:10,UTC,7,1014.4,52,,,17.3,7.3,28920,246,5.4,2.9
2018,6,1,20:20,UTC,7,1014.5,57,,,16.9,8.3,50000,238,4,2.5
2018,6,1,20:30,UTC,7,1014.5,52,,,17.1,7,49632,245,4.4,2.8
2018,6,1,20:40,UTC,7,1014.6,45,,,17.4,5.4,41386,261,5.1,3.2
2018,6,1,20:50,UTC,7,1014.6,44,,,17.4,5,50000,263,5.2,3.4
2018,6,1,21:00,UTC,7,1014.6,43,,,17.4,4.8,47889,261,4.8,3.2
2018,6,1,21:10,UTC,7,1014.4,43,,,17.5,4.6,50000,265,6.1,3.7
2018,6,1,21:20,UTC,7,1014.3,44,,,17.2,4.8,50000,261,5.7,3
2018,6,1,21:30,UTC,7,1014.3,44,,,17.1,4.9,50000,270,4.3,2.6
2018,6,1,21:40,UTC,7,1014.2,44,,,17.1,4.9,50000,273,4.3,2.8
2018,6,1,21:50,UTC,7,1014.2,45,,,17,5,50000,283,4.5,3.1
2018,6,1,22:00,UTC,7,1014.1,46,,,16.9,5.1,50000,281,4.8,2.5
2018,6,1,22:10,UTC,7,1014,46,,,16.8,5.1,50000,274,4.9,2.6
2018,6,1,22:20,UTC,7,1014.1,50,,,16.5,5.9,36728,275,4.5,2.9
2018,6,1,22:30,UTC,7,1013.9,52,,,15.9,6.2,42916,300,3.9,2.6
2018,6,1,22:40,UTC,7,1013.8,57,,,15.3,6.7,50000,317,3,2
2018,6,1,22:50,UTC,7,1013.8,54,,,15.7,6.5,27508,300,4.6,2.6
2018,6,1,23:00,UTC,7,1013.6,54,,,15.8,6.4,36242,294,4.3,3
2018,6,1,23:10,UTC,7,1013.6,55,,,15.5,6.6,50000,293,3.5,2.4
2018,6,1,23:20,UTC,6,1013.3,58,,,15.2,6.9,46667,291,3.9,2.5
2018,6,1,23:30,UTC,7,1013.6,59,,,15.1,7.1,50000,291,3.1,2.1
2018,6,1,23:40,UTC,6,1013.4,62,,,14.7,7.4,47023,300,2.8,1
2018,6,1,23:50,UTC,6,1013.3,64,,,14.2,7.4,50000,343,1.9,0.7
2018,6,2,00:00,UTC,6,1013.3,65,,,13.9,7.5,50000,288,2.7,1.4
2018,6,2,00:10,UTC,5,1013.4,65,,,13.8,7.5,50000,267,1.9,1.3
2018,6,2,00:20,UTC,2,1013.3,64,,,13.9,7.3,50000,271,2.1,1.5
2018,6,2,00:30,UTC,4,1013.2,64,,,13.8,7,50000,264,2.3,1.3
2018,6,2,00:40,UTC,4,1013.1,64,,,13.7,7.1,50000,243,1.8,1.2
2018,6,2,00:50,UTC,6,1013,64,,,13.7,7,50000,252,2,1.2
2018,6,2,01:00,UTC,7,1012.9,63,,,13.8,6.9,50000,258,2.7,1.1
2018,6,2,01:10,UTC,7,1012.8,64,,,13.5,6.9,50000,259,1.5,0.7
2018,6,2,01:20,UTC,7,1012.7,63,,,13.9,7,50000,257,2.5,1.4
2018,6,2,01:30,UTC,7,1012.6,63,,,13.9,7.1,50000,267,2.9,1.4
2018,6,2,01:40,UTC,4,1012.5,65,,,13.7,7.1,50000,234,1.7,1
2018,6,2,01:50,UTC,2,1012.5,66,,,13.3,7.1,50000,226,1.3,0.8
2018,6,2,02:00,UTC,0,1012.6,70,,,12.7,7.3,50000,0,0,0
2018,6,2,02:10,UTC,0,1012.6,73,,,11.8,7.2,50000,252,1.3,0.7
2018,6,2,02:20,UTC,0,1012.6,72,,,12.3,7.3,50000,285,1.4,0.9
2018,6,2,02:30,UTC,0,1012.6,74,,,11.9,7.4,50000,306,1.2,0.8
2018,6,2,02:40,UTC,0,1012.5,74,,,11.8,7.4,50000,299,1.3,0.9
2018,6,2,02:50,UTC,0,1012.4,70,,,12.8,7.5,43873,291,1.4,0.7
2018,6,2,03:00,UTC,0,1012.4,68,,,13.3,7.5,43865,291,1.6,1
2018,6,2,03:10,UTC,0,1012.4,69,,,13.6,7.9,47066,295,1.8,1.1
2018,6,2,03:20,UTC,0,1012.3,67,,,14.1,8,43190,289,2.3,1.3
2018,6,2,03:30,UTC,0,1012.2,66,,,14.4,8,48279,290,2.2,1.2
2018,6,2,03:40,UTC,0,1012.2,65,,,14.6,8.2,40574,294,3.2,1.8
2018,6,2,03:50,UTC,0,1012.2,64,,,15,8.4,47055,297,3.1,2
2018,6,2,04:00,UTC,0,1012.1,63,,,15.3,8.3,45857,287,3.3,2.2
2018,6,2,04:10,UTC,0,1012,63,,,15.6,8.5,50000,289,3.9,2.4
2018,6,2,04:20,UTC,0,1011.9,61,,,16,8.6,40322,280,3.8,2.1
2018,6,2,04:30,UTC,0,1011.9,62,,,16.4,9.1,36470,284,3.6,2.3
2018,6,2,04:40,UTC,0,1011.8,61,,,16.6,9,42416,290,4.8,2.8
2018,6,2,04:50,UTC,0,1011.8,60,,,17.2,9.3,43061,283,4.1,2.7
2018,6,2,05:00,UTC,0,1011.7,59,,,17.5,9.5,41661,285,3.6,2
2018,6,2,05:10,UTC,0,1011.6,60,,,17.8,9.8,36357,261,3.4,2
2018,6,2,05:20,UTC,0,1011.5,58,,,18.2,9.8,36196,247,3,2
2018,6,2,05:30,UTC,0,1011.4,57,,,18.5,9.7,43137,258,3.9,2.4
2018,6,2,05:40,UTC,0,1011.4,57,,,18.9,10.1,37725,268,4.2,2.8
2018,6,2,05:50,UTC,0,1011.3,56,,,19.1,10.2,32522,265,3.8,2.4
2018,6,2,06:00,UTC,0,1011.3,56,,,19.5,10.3,35940,267,5.2,3.1
2018,6,2,06:10,UTC,0,1011.2,55,,,20.1,10.9,34254,254,4.6,3
2018,6,2,06:20,UTC,1,1011.2,54,,,20,10.5,36300,262,5.1,3.6
2018,6,2,06:30,UTC,1,1011,52,,,20.3,10.3,36072,274,3.8,2
2018,6,2,06:40,UTC,1,1010.8,53,,,20.5,10.7,44035,269,4.7,2.6
2018,6,2,06:50,UTC,0,1010.7,52,,,20.9,10.6,40918,258,5.1,3.1
2018,6,2,07:00,UTC,0,1010.7,51,,,21.2,10.5,36433,273,5.3,3
2018,6,2,07:10,UTC,0,1010.5,50,,,22.4,11.5,37040,278,5.1,2.7
2018,6,2,07:20,UTC,0,1010.5,49,,,22,10.7,34958,277,5.9,3.8
2018,6,2,07:30,UTC,0,1010.4,49,,,22.2,11.1,35865,278,6.4,3.7
2018,6,2,07:40,UTC,0,1010.3,49,,,23,11.6,45901,271,5.2,3.1
2018,6,2,07:50,UTC,0,1010.3,46,,,22.9,10.6,32839,272,6.4,4
2018,6,2,08:00,UTC,0,1010.3,47,,,23.5,11.5,37411,307,6.4,3.5
2018,6,2,08:10,UTC,0,1010.2,46,,,23,10.6,31161,304,6.5,3.6
2018,6,2,08:20,UTC,0,1010.1,45,,,23.6,10.9,38087,292,6.1,3.6
2018,6,2,08:30,UTC,0,1010,47,,,23.9,11.9,32677,233,5.9,3.4
2018,6,2,08:40,UTC,2,1010.1,44,,,23.6,10.6,36077,267,7.9,3.2
2018,6,2,08:50,UTC,2,1010,43,,,23.7,10.4,40878,310,5.9,3.1
2018,6,2,09:00,UTC,3,1010.1,42,,,23.4,9.6,50000,301,9.7,4
2018,6,2,09:10,UTC,2,1009.9,55,,,21.9,12.5,12659,201,5.7,3.5
2018,6,2,09:20,UTC,3,1010,57,,,21.3,12.5,22890,183,5.8,4
2018,6,2,09:30,UTC,2,1009.8,55,,,22.8,13.3,49886,183,7,4.7
2018,6,2,09:40,UTC,2,1009.8,55,,,22.4,12.9,30503,187,8.2,6
2018,6,2,09:50,UTC,3,1009.7,58,,,21.8,13,31428,181,9,6.9
2018,6,2,10:00,UTC,5,1009.7,58,,,21.8,13.1,37115,185,8.9,5.7
2018,6,2,10:10,UTC,5,1009.6,58,,,21.7,13.2,32703,183,8.1,5.4
2018,6,2,10:20,UTC,6,1009.6,59,,,21.5,13.1,37048,181,6.2,4.7
2018,6,2,10:30,UTC,5,1009.7,59,,,21.6,13.2,40277,179,6.3,4.2
2018,6,2,10:40,UTC,3,1009.6,56,,,23,13.7,36736,175,6.3,4.3
2018,6,2,10:50,UTC,3,1009.5,55,,,22.7,13.1,36511,182,6.9,4.5
2018,6,2,11:00,UTC,4,1009.5,53,,,23.2,13.1,34857,187,7.7,5.4
2018,6,2,11:10,UTC,5,1009.3,51,,,23.1,12.4,31177,191,8.3,5.6
2018,6,2,11:20,UTC,7,1009.5,55,,,22.6,13.2,20199,181,7.1,5.2
2018,6,2,11:30,UTC,6,1009.3,54,,,22.7,12.8,23661,175,7.6,5.5
2018,6,2,11:40,UTC,7,1009.3,56,,,22.2,13,37044,162,6.8,4.8
2018,6,2,11:50,UTC,7,1009.2,52,,,23.4,13,42863,164,6,4.3
2018,6,2,12:00,UTC,7,1009.1,47,,,25.3,13,35765,205,8.1,5.1
2018,6,2,12:10,UTC,5,1008.9,49,,,23.8,12.4,33056,207,9.2,6.2
2018,6,2,12:20,UTC,6,1009,50,,,23.4,12.3,39602,206,8.7,6.1
2018,6,2,12:30,UTC,4,1008.9,48,,,24,12.2,31278,207,8.1,5.2
2018,6,2,12:40,UTC,6,1008.9,52,,,23.2,12.7,35781,216,8,5.2
2018,6,2,12:50,UTC,5,1008.7,51,,,23.2,12.6,38098,205,6.9,4.8
2018,6,2,13:00,UTC,6,1008.6,49,,,24.1,12.7,42397,204,7.7,4.7
2018,6,2,13:10,UTC,6,1008.5,50,,,23.7,12.6,37700,196,7.9,5.6
2018,6,2,13:20,UTC,7,1008.3,49,,,24.5,12.9,34719,192,8.1,5.2
2018,6,2,13:30,UTC,7,1008.3,49,,,23.8,12.5,34113,198,7.8,5.4
2018,6,2,13:40,UTC,7,1008.2,49,,,24.2,12.8,33662,211,8.6,5
2018,6,2,13:50,UTC,4,1008.1,48,,,24.4,12.7,31141,221,7.8,5.1
2018,6,2,14:00,UTC,3,1008,50,,,23.8,12.8,42268,215,6.6,4.4
2018,6,2,14:10,UTC,5,1008,50,,,23.7,12.8,46054,215,7,4.1
2018,6,2,14:20,UTC,6,1007.9,49,,,24.3,12.9,41279,221,4.9,3.3
2018,6,2,14:30,UTC,5,1007.8,47,,,24.6,12.7,45830,216,4.8,2.6
2018,6,2,14:40,UTC,5,1007.7,49,,,24.4,12.8,38103,212,6.4,4.1
2018,6,2,14:50,UTC,6,1007.6,49,,,24.9,13.4,42416,215,5.6,3.7
2018,6,2,15:00,UTC,6,1007.6,47,,,24.6,12.6,38531,215,5.3,3.4
2018,6,2,15:10,UTC,6,1007.6,44,,,24.9,11.7,40878,269,6.9,4.1
2018,6,2,15:20,UTC,3,1007.5,42,,,25.4,11.4,37777,271,8.6,5.3
2018,6,2,15:30,UTC,2,1007.5,42,,,25.2,11.3,32270,276,8.3,5.2
2018,6,2,15:40,UTC,1,1007.5,41,,,25.2,11.1,40098,266,8.9,5.6
2018,6,2,15:50,UTC,1,1007.4,41,,,24.9,10.7,36096,256,9.1,5.5
2018,6,2,16:00,UTC,0,1007.4,41,,,25.4,11.3,35436,265,6.9,4.5
2018,6,2,16:10,UTC,0,1007.4,40,,,24.7,10,36257,256,9.1,4.9
2018,6,2,16:20,UTC,0,1007.4,39,,,24.6,9.9,34493,254,8.5,6.1
2018,6,2,16:30,UTC,0,1007.3,38,,,24.6,9.5,35155,260,8.8,5
2018,6,2,16:40,UTC,0,1007.3,37,,,24.2,8.8,36506,246,8.1,6
2018,6,2,16:50,UTC,0,1007.3,38,,,24.2,8.8,40411,245,8.4,5.6
2018,6,2,17:00,UTC,0,1007.2,36,,,23.9,8.1,47214,252,7.6,5.2
2018,6,2,17:10,UTC,0,1007.2,37,,,23.8,8.1,38040,250,7,4.1
2018,6,2,17:20,UTC,0,1007.2,37,,,23.5,7.8,39713,250,7.4,5
2018,6,2,17:30,UTC,0,1007.2,37,,,23.4,7.8,44211,255,7,4.4
2018,6,2,17:40,UTC,0,1007.2,37,,,23.2,7.7,42010,256,6.3,4.4
2018,6,2,17:50,UTC,0,1007.1,38,,,23,7.8,39542,273,5.9,3.7
2018,6,2,18:00,UTC,0,1007.2,37,,,22.6,7,41606,291,5.6,3.9
2018,6,2,18:10,UTC,0,1007.2,32,,,22,4.6,39749,293,8,5
2018,6,2,18:20,UTC,0,1007.3,33,,,21.5,4.5,43099,300,8.4,5.1
2018,6,2,18:30,UTC,0,1007.4,35,,,21.1,5,48902,296,7.9,4.8
2018,6,2,18:40,UTC,0,1007.4,36,,,20.6,5.1,48415,298,7.1,5
2018,6,2,18:50,UTC,0,1007.6,38,,,20.1,5.1,45782,299,7.7,5
2018,6,2,19:00,UTC,0,1007.7,39,,,19.5,5.1,46366,311,7.2,4.9
2018,6,2,19:10,UTC,0,1007.7,40,,,18.9,5.1,50000,309,7.4,4.2
2018,6,2,19:20,UTC,0,1007.7,41,,,18.8,5.1,50000,305,6.3,3.7
2018,6,2,19:30,UTC,0,1007.8,42,,,18.4,5.2,50000,304,6,3.9
2018,6,2,19:40,UTC,0,1007.8,44,,,17.8,5.4,50000,302,4.8,3.3
2018,6,2,19:50,UTC,0,1007.8,45,,,17.7,5.7,50000,297,4.3,2.9
2018,6,2,20:00,UTC,0,1007.9,46,,,17.7,5.9,47850,297,5.6,3.7
2018,6,2,20:10,UTC,0,1007.9,48,,,17.4,6.3,50000,298,4.6,3.1
2018,6,2,20:20,UTC,0,1007.9,50,,,16.9,6.6,47647,299,4.7,2.9
2018,6,2,20:30,UTC,0,1007.9,52,,,16.8,6.7,49226,300,4.9,2.9
2018,6,2,20:40,UTC,0,1008,53,,,16.4,6.7,50000,296,4.6,2.6
2018,6,2,20:50,UTC,0,1007.9,54,,,16,6.8,50000,300,3.8,2.4
2018,6,2,21:00,UTC,0,1007.9,56,,,15.9,7,47950,297,3.4,2.3
2018,6,2,21:10,UTC,0,1008,57,,,15.7,7.1,50000,293,3.4,2.1
2018,6,2,21:20,UTC,0,1008,58,,,15.3,7.2,44451,295,2.9,2
2018,6,2,21:30,UTC,0,1008,59,,,15.3,7.3,50000,288,2.1,1.6
2018,6,2,21:40,UTC,0,1008,60,,,15,7.2,50000,290,2.6,1.9
2018,6,2,21:50,UTC,0,1008,61,,,14.8,7.3,50000,301,3.2,1.9
2018,6,2,22:00,UTC,0,1008,62,,,14.6,7.4,46348,304,3.8,2.1
2018,6,2,22:10,UTC,0,1008.1,64,,,14.3,7.5,47971,302,3.4,2.3
2018,6,2,22:20,UTC,0,1008.1,65,,,14,7.4,50000,310,4,2.4
2018,6,2,22:30,UTC,0,1008.1,65,,,14,7.5,48652,315,4.1,2.8
2018,6,2,22:40,UTC,0,1008.2,65,,,14.3,7.7,50000,312,4.4,2.9
2018,6,2,22:50,UTC,0,1008.3,65,,,14.2,7.7,50000,314,5.7,3.2
2018,6,2,23:00,UTC,0,1008.3,66,,,14,7.8,48595,315,5.6,3.3
2018,6,2,23:10,UTC,0,1008.4,67,,,13.8,7.8,50000,314,5.2,3.3
2018,6,2,23:20,UTC,0,1008.4,67,,,13.8,7.8,50000,309,5.1,2.9
2018,6,2,23:30,UTC,0,1008.4,67,,,13.8,7.7,50000,308,4.8,3.1
2018,6,2,23:40,UTC,0,1008.4,68,,,13.6,7.7,46707,306,4.1,3
2018,6,2,23:50,UTC,0,1008.5,67,,,13.8,7.7,47345,309,4.8,3.2
2018,6,3,00:00,UTC,0,1008.5,67,,,13.6,7.6,50000,307,5.1,3.5
2018,6,3,00:10,UTC,0,1008.6,68,,,13.5,7.6,50000,313,4.7,3.4
2018,6,3,00:20,UTC,0,1008.7,67,,,13.5,7.6,47483,315,5,3.3
2018,6,3,00:30,UTC,0,1008.7,67,,,13.7,7.6,50000,318,5.4,3.3
2018,6,3,00:40,UTC,0,1008.8,68,,,13.5,7.6,50000,319,5.2,3.6
2018,6,3,00:50,UTC,0,1008.8,66,,,13.6,7.4,50000,314,5.4,3.6
2018,6,3,01:00,UTC,0,1008.9,67,,,13.3,7.3,50000,313,5.2,3.9
2018,6,3,01:10,UTC,0,1008.9,66,,,13.3,7.2,49381,317,5.2,3.9
2018,6,3,01:20,UTC,0,1009,67,,,13.2,7.1,50000,314,5.6,3.8
2018,6,3,01:30,UTC,0,1009.1,66,,,13.1,6.9,50000,315,6,4.2
2018,6,3,01:40,UTC,0,1009,66,,,12.9,6.7,50000,319,6.1,4.2
2018,6,3,01:50,UTC,0,1009,67,,,12.8,6.8,48559,319,5.3,3.6
2018,6,3,02:00,UTC,0,1009,66,,,12.7,6.6,48119,318,4.7,3.4
2018,6,3,02:10,UTC,0,1009.1,67,,,12.6,6.7,50000,318,4.3,2.9
2018,6,3,02:20,UTC,0,1009.2,67,,,12.5,6.5,50000,312,4.8,3
2018,6,3,02:30,UTC,0,1009.2,65,,,12.8,6.5,50000,315,6,3.5
2018,6,3,02:40,UTC,0,1009.1,65,,,12.7,6.4,50000,321,5.2,3.5
2018,6,3,02:50,UTC,0,1009.2,64,,,13,6.4,47687,321,5.1,3.5
2018,6,3,03:00,UTC,0,1009.2,64,,,13.2,6.5,43197,321,5.9,3.3
2018,6,3,03:10,UTC,0,1009.3,63,,,13.4,6.4,41911,319,5.6,3.5
2018,6,3,03:20,UTC,0,1009.3,62,,,13.6,6.5,46509,322,4.7,3
2018,6,3,03:30,UTC,0,1009.4,62,,,13.8,6.6,43772,315,4.7,2.8
2018,6,3,03:40,UTC,0,1009.4,61,,,13.9,6.6,46735,316,5.3,3.6
2018,6,3,03:50,UTC,0,1009.4,60,,,14.2,6.5,48258,318,5.3,3.7
2018,6,3,04:00,UTC,0,1009.4,61,,,14.5,7,36996,316,5.5,3.4
2018,6,3,04:10,UTC,0,1009.3,58,,,14.6,6.5,42417,309,4.9,3.4
2018,6,3,04:20,UTC,0,1009.4,58,,,14.7,6.6,46403,313,6.6,4.2
2018,6,3,04:30,UTC,0,1009.4,58,,,15,6.7,39446,323,6.3,4.3
2018,6,3,04:40,UTC,0,1009.4,57,,,15.2,6.8,41115,324,5.8,4.1
2018,6,3,04:50,UTC,0,1009.4,56,,,15.4,6.6,46434,320,5.5,3.6
2018,6,3,05:00,UTC,0,1009.3,56,,,15.8,7,45201,320,5.4,3.3
2018,6,3,05:10,UTC,0,1009.3,54,,,15.8,6.6,46911,313,5.8,3.5
2018,6,3,05:20,UTC,0,1009.3,52,,,16.1,6.3,44969,313,5.8,3.7
2018,6,3,05:30,UTC,0,1009.3,53,,,16.5,6.9,50000,321,6.1,4
2018,6,3,05:40,UTC,0,1009.3,52,,,16.6,6.8,35831,301,4.7,2.7
2018,6,3,05:50,UTC,0,1009.2,49,,,17,6.3,46102,294,5.4,3.6
2018,6,3,06:00,UTC,0,1009.2,49,,,17.4,6.6,36966,301,5.8,4.1
2018,6,3,06:10,UTC,0,1009.1,48,,,18,6.7,40775,310,5.1,3.5
2018,6,3,06:20,UTC,0,1009.1,47,,,17.8,6.4,43385,298,5.2,3.7
2018,6,3,06:30,UTC,0,1009,48,,,18.3,7.2,41286,294,4,2.5
2018,6,3,06:40,UTC,0,1008.9,46,,,18.3,6.4,40355,283,5.3,3.7
2018,6,3,06:50,UTC,0,1008.8,46,,,18.7,6.7,40144,285,5.3,3.8
2018,6,3,07:00,UTC,0,1008.8,43,,,19.5,6.6,38163,294,5.9,4
2018,6,3,07:10,UTC,0,1008.6,41,,,20,6.3,39763,292,5.6,3.8
2018,6,3,07:20,UTC,0,1008.4,42,,,20.7,7.2,31461,302,5.7,4
2018,6,3,07:30,UTC,0,1008.3,39,,,20.8,6.5,43578,298,7.1,4.5
2018,6,3,07:40,UTC,0,1008.3,38,,,21.3,6.3,36050,297,5.5,4.1
2018,6,3,07:50,UTC,0,1008.2,35,,,21.5,5.5,32363,289,7.1,4.2
2018,6,3,08:00,UTC,0,1008.1,36,,,22.2,6.3,42212,308,7.8,5.2
2018,6,3,08:10,UTC,0,1008,35,,,22,5.6,37779,292,7.3,4.7
2018,6,3,08:20,UTC,0,1007.9,35,,,22.4,6.1,40239,294,7.1,5
2018,6,3,08:30,UTC,0,1007.9,33,,,22.5,5.5,36297,298,10.7,6.5
2018,6,3,08:40,UTC,0,1007.9,34,,,22.3,5.6,40885,305,10.8,7.3
2018,6,3,08:50,UTC,0,1007.8,33,,,22.6,5.7,40298,313,10.3,6.2
2018,6,3,09:00,UTC,0,1007.6,33,,,22.8,5.7,42527,300,10,4.8
2018,6,3,09:10,UTC,0,1007.6,34,,,22.7,5.8,47394,303,9.6,5.7
2018,6,3,09:20,UTC,0,1007.5,31,,,23.3,5.2,31976,305,8.3,5
2018,6,3,09:30,UTC,0,1007.5,32,,,22.9,5.5,35533,302,8.6,5.3
2018,6,3,09:40,UTC,0,1007.4,31,,,23.4,5.3,39786,275,10.7,6.3
2018,6,3,09:50,UTC,0,1007.3,32,,,23.9,6.2,39424,305,9.1,5.7
2018,6,3,10:00,UTC,0,1007.3,32,,,23.9,6.1,37301,305,9.2,5.6
2018,6,3,10:10,UTC,0,1007.2,31,,,24,5.8,34988,325,10.6,6.2
2018,6,3,10:20,UTC,0,1007.2,31,,,24,6.1,37550,305,11.7,5.7
2018,6,3,10:30,UTC,0,1007.2,31,,,24.4,6,34312,294,10.1,5.9
2018,6,3,10:40,UTC,0,1007,29,,,24.3,5.1,39285,316,11.1,7
2018,6,3,10:50,UTC,0,1007,29,,,24.5,5.4,34883,300,11.3,6.9
2018,6,3,11:00,UTC,0,1006.9,30,,,24.8,5.9,34115,306,11.3,6.8
2018,6,3,11:10,UTC,0,1006.8,29,,,25.2,5.8,33677,315,9.2,6.3
2018,6,3,11:20,UTC,0,1006.8,29,,,24.6,5.3,42023,307,10.4,6.8
2018,6,3,11:30,UTC,0,1006.8,29,,,24.9,5.8,33238,306,9.8,6.5
2018,6,3,11:40,UTC,0,1006.7,30,,,25.3,6.3,32600,308,10.9,6
2018,6,3,11:50,UTC,0,1006.5,30,,,25.1,6.1,34605,302,9,6
2018,6,3,12:00,UTC,0,1006.5,30,,,25.1,6,37488,302,10.7,6.6
2018,6,3,12:10,UTC,0,1006.4,29,,,24.4,5.4,33141,295,8.9,6.3
2018,6,3,12:20,UTC,0,1006.2,29,,,25.5,6,39319,320,10.1,6.2
2018,6,3,12:30,UTC,0,1006.2,28,,,25,5.3,40018,303,9.8,6.3
2018,6,3,12:40,UTC,0,1006.2,29,,,25.2,5.9,40237,303,10.5,7
2018,6,3,12:50,UTC,0,1006.1,28,,,25.3,5.3,37737,290,11.8,7.1
2018,6,3,13:00,UTC,0,1006,28,,,24.8,5.2,43022,307,11.2,7.3
2018,6,3,13:10,UTC,0,1005.8,30,,,25.2,6.4,43560,298,9.6,6.2
2018,6,3,13:20,UTC,0,1005.8,31,,,25.2,6.8,36483,322,10.7,7
2018,6,3,13:30,UTC,0,1005.8,30,,,25.7,6.6,39448,286,8.7,5.5
2018,6,3,13:40,UTC,0,1005.8,29,,,25.6,6,40424,296,8.5,5.4
2018,6,3,13:50,UTC,1,1005.6,28,,,25,5.1,37215,270,10.3,7.1
2018,6,3,14:00,UTC,0,1005.4,27,,,25.1,4.6,40754,280,12.2,7.2
2018,6,3,14:10,UTC,0,1005.5,26,,,24.3,3.8,34337,285,12.1,7
2018,6,3,14:20,UTC,0,1005.4,25,,,24.8,3.6,39195,289,12,7.3
2018,6,3,14:30,UTC,0,1005.4,25,,,24.5,3.4,36709,290,11.6,7.4
2018,6,3,14:40,UTC,0,1005.4,25,,,24.3,3.2,44169,276,11.9,7.6
2018,6,3,14:50,UTC,0,1005.5,25,,,24.2,3.1,40670,290,10.7,6.9
2018,6,3,15:00,UTC,0,1005.4,24,,,24.1,2.4,35178,295,11.1,7.8
2018,6,3,15:10,UTC,0,1005.2,24,,,24.2,2.2,37232,286,13,7.6
2018,6,3,15:20,UTC,0,1005.3,23,,,24.4,2,38285,288,12.2,7.9
2018,6,3,15:30,UTC,0,1005.2,24,,,24.2,2.2,34563,300,10.4,6.8
2018,6,3,15:40,UTC,0,1005.2,25,,,24.1,3.1,37182,294,10.3,5.6
2018,6,3,15:50,UTC,4,1005.3,24,,,24.1,2.5,33626,297,12.9,7
2018,6,3,16:00,UTC,6,1005.1,24,,,23.7,2.1,37044,300,11.4,7.4
2018,6,3,16:10,UTC,7,1005.1,25,,,23.4,2.1,40490,303,12.9,7.8
2018,6,3,16:20,UTC,4,1005.1,25,,,23.1,1.8,38013,291,10.7,6.8
2018,6,3,16:30,UTC,6,1005,24,,,23,1.5,6135,302,9.8,6.4
2018,6,3,16:40,UTC,6,1005.1,22,,,23,0.1,42128,304,11.4,6.8
2018,6,3,16:50,UTC,5,1004.9,23,,,22.8,0.6,44795,302,10.3,6.9
2018,6,3,17:00,UTC,2,1004.8,23,,,22.9,0.7,37903,290,9.4,5.2
2018,6,3,17:10,UTC,1,1004.8,23,,,22.5,0.6,43031,282,11.1,6.4
2018,6,3,17:20,UTC,0,1004.7,24,,,22.4,0.6,43674,289,11.2,6.3
2018,6,3,17:30,UTC,0,1004.7,23,,,21.9,-0.3,43307,292,8.6,5.3
2018,6,3,17:40,UTC,0,1004.6,23,,,21.9,-0.2,48870,294,9.2,5.9
2018,6,3,17:50,UTC,0,1004.5,24,,,21.7,0.2,48724,289,8.1,5.5
2018,6,3,18:00,UTC,0,1004.5,24,,,21.5,0.3,49554,288,8.9,5.5
2018,6,3,18:10,UTC,0,1004.4,25,,,21.2,0.6,50000,289,8.8,5.4
2018,6,3,18:20,UTC,0,1004.4,26,,,20.9,0.7,50000,291,9.9,5.2
2018,6,3,18:30,UTC,0,1004.5,27,,,20.6,1.1,49606,290,7.5,4.8
2018,6,3,18:40,UTC,0,1004.4,28,,,20.5,1.3,49530,288,9.4,5.6
2018,6,3,18:50,UTC,0,1004.5,29,,,20,1.5,49180,292,7.9,5
2018,6,3,19:00,UTC,0,1004.5,30,,,19.7,1.7,50000,294,5.7,3.7
2018,6,3,19:10,UTC,0,1004.5,30,,,19.6,1.3,50000,297,7.9,5.1
2018,6,3,19:20,UTC,0,1004.4,30,,,19.3,1.4,50000,298,7.7,4.4
2018,6,3,19:30,UTC,0,1004.4,31,,,19.1,1.6,50000,297,7.6,4.9
2018,6,3,19:40,UTC,0,1004.4,32,,,18.9,1.7,50000,296,6.5,4.5
2018,6,3,19:50,UTC,0,1004.3,33,,,18.7,1.9,50000,283,5,3.2
2018,6,3,20:00,UTC,0,1004.2,34,,,18.2,2,50000,281,5.2,3.3
2018,6,3,20:10,UTC,0,1004.2,35,,,18.1,2.3,50000,289,5.6,3.7
2018,6,3,20:20,UTC,0,1004.1,36,,,17.7,2.4,50000,290,5.1,3.1
2018,6,3,20:30,UTC,0,1004.1,36,,,17.8,2.5,50000,291,4.5,3.2
2018,6,3,20:40,UTC,0,1004,37,,,17.4,2.6,50000,285,3.3,2.3
2018,6,3,20:50,UTC,4,1004.1,37,,,17.6,2.6,50000,276,4.6,2.9
2018,6,3,21:00,UTC,5,1004,37,,,17.4,2.6,50000,272,4.9,2.7
2018,6,3,21:10,UTC,3,1004,38,,,17.2,2.5,50000,268,4.3,2.6
2018,6,3,21:20,UTC,1,1003.9,38,,,17.1,2.6,50000,266,4.3,2.7
2018,6,3,21:30,UTC,0,1003.7,38,,,17,2.7,50000,267,4.8,2.6
2018,6,3,21:40,UTC,0,1003.5,39,,,16.8,2.7,50000,262,3,2.1
2018,6,3,21:50,UTC,0,1003.5,42,,,16,3,50000,248,3.1,2
2018,6,3,22:00,UTC,0,1003.4,42,,,16.1,3.1,50000,236,3,2
2018,6,3,22:10,UTC,0,1003.4,42,,,15.9,3.1,50000,233,3.4,2.1
2018,6,3,22:20,UTC,0,1003.1,42,,,16,3,50000,225,3.2,1.9
2018,6,3,22:30,UTC,4,1003,42,,,15.8,2.9,50000,226,2.6,1.9
2018,6,3,22:40,UTC,6,1002.9,42,,,16,3,50000,232,3.2,2
2018,6,3,22:50,UTC,7,1002.7,43,,,15.9,3.4,50000,235,3.6,2.2
2018,6,3,23:00,UTC,7,1002.5,44,,,15.8,3.5,50000,230,3,2.1
2018,6,3,23:10,UTC,7,1002.2,45,,,15.7,3.9,48590,241,2.9,2
2018,6,3,23:20,UTC,7,1002,47,,,15.6,4.3,50000,251,2.9,2
2018,6,3,23:30,UTC,7,1001.9,47,,,15.7,4.5,50000,257,4.1,2.1
2018,6,3,23:40,UTC,7,1001.8,47,,,15.8,4.6,50000,264,4,2.4
2018,6,3,23:50,UTC,6,1001.7,48,,,15.9,4.8,50000,271,3.8,2.1
2018,6,4,00:00,UTC,7,1001.6,49,,,15.7,5,50000,289,2.8,1.9
2018,6,4,00:10,UTC,7,1001.5,49,,,15.7,5.1,50000,278,3.1,1.8
2018,6,4,00:20,UTC,8,1001.3,50,,,15.6,5.3,50000,257,2.7,1.9
2018,6,4,00:30,UTC,7,1001.1,51,,,15.6,5.4,50000,252,3.5,2.1
2018,6,4,00:40,UTC,7,1001,50,,,15.9,5.5,50000,265,3.8,2.2
2018,6,4,00:50,UTC,7,1000.9,51,,,15.9,5.7,50000,261,4.1,2.3
2018,6,4,01:00,UTC,7,1000.7,51,,,16,5.7,50000,257,3.7,2.3
2018,6,4,01:10,UTC,7,1000.6,50,,,16.2,5.7,50000,259,3.6,2.2
2018,6,4,01:20,UTC,7,1000.5,49,,,16.4,5.7,50000,270,4.1,2.4
2018,6,4,01:30,UTC,7,1000.3,49,,,16.4,5.8,50000,271,3.5,2.2
2018,6,4,01:40,UTC,7,1000.2,50,,,16.3,5.8,50000,279,3.3,2
2018,6,4,01:50,UTC,7,1000.1,50,,,16.3,5.9,50000,267,3,1.8
2018,6,4,02:00,UTC,7,999.9,50,,,16.4,6,50000,260,2.9,1.9
2018,6,4,02:10,UTC,7,1000.1,51,,,16.4,6.2,50000,284,4.1,2.4
2018,6,4,02:20,UTC,7,999.9,51,,,16.4,6.1,50000,298,4.5,2.5
2018,6,4,02:30,UTC,7,999.9,50,,,16.8,6.4,36899,284,4.6,3
2018,6,4,02:40,UTC,8,999.7,55,,,16.2,7.1,32895,287,4.7,3.3
2018,6,4,02:50,UTC,8,999.6,55,,,16.3,7.2,46501,281,5.4,3
2018,6,4,03:00,UTC,8,999.5,53,,,16.5,6.8,50000,283,4.5,2.7
2018,6,4,03:10,UTC,8,999.4,50,,,16.6,6.1,50000,296,7.1,3.7
2018,6,4,03:20,UTC,7,999.5,52,,,16.3,6.4,32473,298,8.9,5.4
2018,6,4,03:30,UTC,7,999.5,54,,,16.1,6.7,34001,296,8.3,5.4
2018,6,4,03:40,UTC,7,999.3,54,,,16.2,6.9,42063,299,6.3,4
2018,6,4,03:50,UTC,7,999.3,53,,,16.4,6.6,45804,298,6.1,4.1
2018,6,4,04:00,UTC,7,999,53,,,16.2,6.5,49499,308,5.8,3.6
2018,6,4,04:10,UTC,7,999.2,52,,,16.4,6.4,49546,315,6.5,4.4
2018,6,4,04:20,UTC,7,999.1,51,,,16.5,6.2,46718,320,8.2,5.8
2018,6,4,04:30,UTC,7,998.9,49,,,16.6,5.9,43718,320,8.1,4.9
2018,6,4,04:40,UTC,7,999.1,50,,,16.9,6.4,48541,317,8.6,5.5
2018,6,4,04:50,UTC,7,998.8,48,,,16.7,5.7,43984,318,9.2,6.8
2018,6,4,05:00,UTC,7,998.8,48,,,16.5,5.4,45123,311,9.5,6.6
2018,6,4,05:10,UTC,7,998.9,48,,,16.7,5.6,40778,317,7.8,5.1
2018,6,4,05:20,UTC,7,998.9,49,,,16.5,5.6,39431,319,8.7,5.7
2018,6,4,05:30,UTC,7,998.7,50,,,16.3,6,43388,307,8.1,5.5
2018,6,4,05:40,UTC,6,998.7,52,,,16.2,6.1,44756,306,9.7,5.4
2018,6,4,05:50,UTC,5,998.7,51,,,16.2,6,45090,308,8.3,5.2
2018,6,4,06:00,UTC,5,998.7,51,,,16.1,5.8,39798,302,9.7,5.8
2018,6,4,06:10,UTC,3,998.7,50,,,15.8,5.4,38691,295,10.5,6.7
2018,6,4,06:20,UTC,6,998.7,50,,,15.7,5.3,47212,310,8.9,6.2
2018,6,4,06:30,UTC,5,998.6,49,,,15.6,4.9,49117,309,9.8,6.6
2018,6,4,06:40,UTC,4,998.5,47,,,16.1,4.9,40458,311,9.9,6.5
2018,6,4,06:50,UTC,6,998.6,49,,,15.7,5.1,44957,316,9.6,6.9
2018,6,4,07:00,UTC,4,998.6,52,,,16,6.2,35826,315,9.7,6.2
2018,6,4,07:10,UTC,6,998.5,51,,,15.4,5.3,41753,302,10.9,6.7
2018,6,4,07:20,UTC,3,998.3,51,,,16,5.9,43765,303,11.1,6.6
2018,6,4,07:30,UTC,2,998.4,48,,,16.1,4.9,48934,311,11.3,7.5
2018,6,4,07:40,UTC,1,998.3,48,,,16,5.1,41197,293,11.3,7.3
2018,6,4,07:50,UTC,0,998.3,50,,,16.8,6.5,38895,298,9.8,6.4
2018,6,4,08:00,UTC,1,998.2,48,,,16.5,5.5,37857,317,11.3,7.3
2018,6,4,08:10,UTC,2,998.1,47,,,16.8,5.3,40217,309,11.5,7.1
2018,6,4,08:20,UTC,2,998.1,46,,,16.7,5,36223,312,11.3,7.3
2018,6,4,08:30,UTC,1,998.1,45,,,16.5,4.5,45666,324,12.3,7.7
2018,6,4,08:40,UTC,1,998.2,43,,,16.8,4.3,38419,314,12.3,8
2018,6,4,08:50,UTC,0,998.1,42,,,16.8,3.9,40189,302,11,6.8
2018,6,4,09:00,UTC,0,998,40,,,17.6,3.8,35284,312,11.9,7.9
2018,6,4,09:10,UTC,0,998,42,,,17.2,4.2,41837,315,12.3,8.2
2018,6,4,09:20,UTC,0,997.8,39,,,17.7,3.7,36465,300,9.6,6.1
2018,6,4,09:30,UTC,1,997.8,40,,,17.8,4.1,38161,305,10.5,6.4
2018,6,4,09:40,UTC,1,997.7,37,,,18,3.1,42138,313,11.5,7.7
2018,6,4,09:50,UTC,0,997.7,39,,,17.7,3.5,34550,306,11.1,7.5
2018,6,4,10:00,UTC,1,997.6,36,,,18.4,3.2,40727,306,11,6.2
2018,6,4,10:10,UTC,1,997.6,37,,,18.4,3.2,36534,299,12.8,7.3
2018,6,4,10:20,UTC,2,997.6,35,,,18.8,2.9,30596,304,11.4,6.5
2018,6,4,10:30,UTC,1,997.6,35,,,18.8,3.1,36507,306,11.9,7.1
2018,6,4,10:40,UTC,1,997.6,34,,,18.7,2.6,31632,300,13.2,7.9
2018,6,4,10:50,UTC,1,997.6,34,,,18.8,2.4,37275,312,13.1,8.4
2018,6,4,11:00,UTC,0,997.5,35,,,18.5,2.7,32599,312,11.6,7.9
2018,6,4,11:10,UTC,0,997.3,34,,,18.9,2.7,32472,303,12.3,8.1
2018,6,4,11:20,UTC,1,997.4,33,,,19.3,2.5,36338,320,12,7.3
2018,6,4,11:30,UTC,1,997.3,32,,,19.4,2.4,34653,319,11.8,7
2018,6,4,11:40,UTC,1,997.4,32,,,18.7,1.9,39497,328,13.9,8.9
2018,6,4,11:50,UTC,1,997.5,33,,,18.9,2.4,35972,307,11.8,7.1
2018,6,4,12:00,UTC,2,997.4,28,,,19.3,0.4,32614,306,11.5,8.1
2018,6,4,12:10,UTC,1,997.5,29,,,18.3,0.1,35417,311,13.2,8.9
2018,6,4,12:20,UTC,1,997.4,30,,,18.8,1,37058,325,13.7,8.8
2018,6,4,12:30,UTC,0,997.5,31,,,18.2,0.8,39890,319,13,8.4
2018,6,4,12:40,UTC,1,997.4,31,,,18.4,1.1,36584,320,14.7,9.3
2018,6,4,12:50,UTC,3,997.7,33,,,17.9,1.3,45113,320,14,9.4
2018,6,4,13:00,UTC,2,997.7,31,,,17.9,0.5,36566,325,15,9
2018,6,4,13:10,UTC,1,997.8,31,,,16.9,-0.2,41968,316,13.1,8.1
2018,6,4,13:20,UTC,1,997.9,31,,,17.7,0.2,45506,326,12.5,8.1
2018,6,4,13:30,UTC,2,997.8,30,,,18.5,0.8,34346,327,11.9,7.5
2018,6,4,13:40,UTC,4,997.7,31,,,18,0.5,39081,326,13.8,8.3
2018,6,4,13:50,UTC,5,997.7,28,,,17.3,-1.2,39150,314,12.7,7.9
2018,6,4,14:00,UTC,6,997.9,31,,,16.3,-0.9,36902,314,11.2,7.7
2018,6,4,14:10,UTC,5,997.9,31,,,17.9,0.4,32767,329,12.3,8.1
2018,6,4,14:20,UTC,5,998,31,,,16.9,-0.3,36855,333,13.1,8.2
2018,6,4,14:30,UTC,6,998,29,,,17.4,-0.7,38323,314,13.7,8.2
2018,6,4,14:40,UTC,7,998,30,,,17.4,-0.6,34624,303,10.9,8.1
2018,6,4,14:50,UTC,7,998.1,31,,,15.7,-1.2,41588,312,15.2,10.2
2018,6,4,15:00,UTC,7,998.2,30,,,15.8,-1.8,44427,309,12.5,8.2
2018,6,4,15:10,UTC,6,998.2,30,,,15.9,-1.4,39758,304,13.7,9
2018,6,4,15:20,UTC,7,998.3,30,,,15.6,-1.7,43615,316,12.7,8.8
2018,6,4,15:30,UTC,5,998.4,31,,,15,-2,45952,321,12.7,8.6
2018,6,4,15:40,UTC,5,998.5,31,,,14.9,-2,40626,318,11.9,8.1
2018,6,4,15:50,UTC,6,998.5,31,,,14.7,-2.4,38098,319,14.1,8.8
2018,6,4,16:00,UTC,7,998.6,29,,,14.6,-3.3,38632,323,13.7,8.4
2018,6,4,16:10,UTC,7,998.8,30,,,14.5,-3.1,44326,325,12.9,8.3
2018,6,4,16:20,UTC,7,998.8,30,,,14.2,-3.1,44671,314,11.8,8
2018,6,4,16:30,UTC,7,998.9,29,,,14.2,-3.4,44916,320,11.1,6.6
2018,6,4,16:40,UTC,7,999,30,,,14.2,-3.1,49170,320,9.7,6.8
2018,6,4,16:50,UTC,7,999.1,33,,,13.7,-2.4,39523,332,11,7.4
2018,6,4,17:00,UTC,7,999,31,,,13.9,-2.9,42573,331,10,7.3
2018,6,4,17:10,UTC,5,999,30,,,13.9,-3.2,44405,334,10.4,7.2
2018,6,4,17:20,UTC,4,999.1,31,,,13.7,-3,46326,331,10.8,6.7
2018,6,4,17:30,UTC,2,999.2,33,,,12.8,-3.1,43459,331,10.5,7.3
2018,6,4,17:40,UTC,4,999.5,34,,,12.8,-2.8,48260,337,9.7,6.8
2018,6,4,17:50,UTC,6,999.4,35,,,12.8,-2.4,26200,323,14.9,6.9
2018,6,4,18:00,UTC,5,999.4,33,,,12.7,-3.1,48324,311,8.2,5.3
2018,6,4,18:10,UTC,3,999.5,34,,,12.5,-2.7,44610,328,7.8,5.1
2018,6,4,18:20,UTC,3,999.5,30,,,12.9,-4.1,39651,330,9.3,6.4
2018,6,4,18:30,UTC,5,999.6,30,,,12.8,-4.4,45966,335,11.6,7.3
2018,6,4,18:40,UTC,7,999.6,29,,,12.6,-4.8,50000,331,11.7,8.1
2018,6,4,18:50,UTC,6,999.7,31,,,12.1,-4.6,50000,333,9.3,6
2018,6,4,19:00,UTC,4,999.8,30,,,12,-5.1,48807,322,8.8,6.3
2018,6,4,19:10,UTC,2,999.8,30,,,11.8,-5.1,49777,321,10.5,6.5
2018,6,4,19:20,UTC,4,999.9,31,,,11.8,-4.9,50000,318,11,6.5
2018,6,4,19:30,UTC,2,999.9,32,,,11.6,-4.6,50000,321,10.4,6.7
2018,6,4,19:40,UTC,3,1000,34,,,11.1,-4.3,50000,324,10.2,5.8
2018,6,4,19:50,UTC,1,1000.1,36,,,10.6,-3.8,50000,326,7.3,4.6
2018,6,4,20:00,UTC,1,1000.1,36,,,10.6,-3.7,50000,315,5.7,3.8
2018,6,4,20:10,UTC,0,1000.2,37,,,10.4,-3.6,50000,310,5.6,3.5
2018,6,4,20:20,UTC,0,1000.2,37,,,10.4,-3.7,50000,306,6,3.6
2018,6,4,20:30,UTC,0,1000.2,37,,,10.3,-3.9,50000,302,6.3,4.2
2018,6,4,20:40,UTC,1,1000.1,36,,,10.3,-4.1,50000,308,7.1,4.6
2018,6,4,20:50,UTC,0,1000.1,35,,,10.3,-4.4,50000,314,7.1,4.9
2018,6,4,21:00,UTC,0,1000.1,37,,,9.8,-4.3,50000,315,6.2,4.1
2018,6,4,21:10,UTC,0,1000.1,37,,,9.7,-4.2,47592,305,5.7,3.8
2018,6,4,21:20,UTC,0,1000.1,37,,,9.8,-4.2,50000,303,5.6,3.7
2018,6,4,21:30,UTC,0,1000.1,37,,,9.8,-4.2,50000,305,7.9,4.6
2018,6,4,21:40,UTC,0,1000.2,37,,,9.9,-4.1,50000,308,7,4.9
2018,6,4,21:50,UTC,0,1000.2,38,,,9.6,-4.2,50000,310,7.9,4.6
2018,6,4,22:00,UTC,0,1000.2,38,,,9.7,-4.1,50000,307,6.1,4.2
2018,6,4,22:10,UTC,0,1000.3,39,,,9.2,-4.1,50000,302,5.9,3.7
2018,6,4,22:20,UTC,0,1000.4,39,,,9.1,-4,50000,294,5.6,3.7
2018,6,4,22:30,UTC,0,1000.4,39,,,9.1,-4,50000,296,7.6,4.8
2018,6,4,22:40,UTC,0,1000.5,40,,,8.9,-3.8,50000,302,7.1,4.3
2018,6,4,22:50,UTC,0,1000.5,42,,,8.5,-3.7,50000,304,6.6,3.8
2018,6,4,23:00,UTC,0,1000.6,42,,,8.5,-3.7,50000,299,6.9,3.8
2018,6,4,23:10,UTC,0,1000.6,42,,,8.6,-3.5,50000,297,6.2,4
2018,6,4,23:20,UTC,0,1000.5,42,,,8.6,-3.5,50000,297,8.3,4.5
2018,6,4,23:30,UTC,0,1000.6,43,,,8.4,-3.4,50000,298,7.8,4.8
2018,6,4,23:40,UTC,0,1000.5,44,,,8.2,-3.4,50000,302,8.5,5.2
2018,6,4,23:50,UTC,0,1000.5,44,,,8.3,-3.3,50000,303,7.7,5.4
2018,6,5,00:00,UTC,0,1000.5,45,,,8.1,-3.2,50000,303,7.9,5
2018,6,5,00:10,UTC,0,1000.5,44,,,8.2,-3.2,50000,301,8.5,5.3
2018,6,5,00:20,UTC,0,1000.5,45,,,8.2,-3.1,50000,302,9,5.6
2018,6,5,00:30,UTC,0,1000.4,45,,,8.2,-3,50000,301,9.1,5.5
2018,6,5,00:40,UTC,0,1000.5,46,,,7.9,-3,50000,299,8.3,5.3
2018,6,5,00:50,UTC,0,1000.5,46,,,8,-2.9,50000,305,7.9,5.2
2018,6,5,01:00,UTC,0,1000.5,48,,,7.8,-2.7,50000,302,9.3,5.2
2018,6,5,01:10,UTC,0,1000.6,48,,,7.8,-2.6,50000,304,8.7,5.6
2018,6,5,01:20,UTC,0,1000.5,49,,,7.8,-2.4,50000,300,10.1,5.8
2018,6,5,01:30,UTC,0,1000.6,49,,,7.7,-2.3,50000,304,9,5.7
2018,6,5,01:40,UTC,0,1000.7,51,,,7.4,-2.2,50000,307,8.8,5.5
2018,6,5,01:50,UTC,0,1000.8,50,,,7.5,-2.1,50000,308,9.5,5.6
2018,6,5,02:00,UTC,4,1000.8,51,,,7.6,-2,50000,306,9.8,6
2018,6,5,02:10,UTC,3,1000.8,52,,,7.4,-1.9,50000,302,7.7,5.1
2018,6,5,02:20,UTC,3,1000.8,52,,,7.5,-1.8,50000,304,8.6,5.5
2018,6,5,02:30,UTC,1,1000.8,52,,,7.6,-1.6,50000,303,10.7,5.6
2018,6,5,02:40,UTC,0,1000.8,52,,,7.7,-1.6,50000,304,9,5.8
2018,6,5,02:50,UTC,0,1000.8,52,,,7.8,-1.6,50000,304,9.3,6.1
2018,6,5,03:00,UTC,0,1000.9,52,,,7.9,-1.5,47027,306,9.9,6.5
2018,6,5,03:10,UTC,0,1000.9,51,,,8,-1.5,50000,310,11.1,6.3
2018,6,5,03:20,UTC,0,1001,51,,,8.1,-1.4,48581,306,10.1,6.5
2018,6,5,03:30,UTC,0,1001.1,51,,,8.3,-1.2,44184,309,11.9,6
2018,6,5,03:40,UTC,0,1001.1,51,,,8.3,-1.3,39678,307,11.3,7.5
2018,6,5,03:50,UTC,0,1001.1,51,,,8.1,-1.3,44562,316,11.3,7.8
2018,6,5,04:00,UTC,0,1001.2,51,,,8.6,-1.1,42139,313,12,6.2
2018,6,5,04:10,UTC,0,1001.1,50,,,8.6,-1.2,39950,310,13.4,7.8
2018,6,5,04:20,UTC,0,1001.1,50,,,8.8,-1,44011,315,11.4,7.1
2018,6,5,04:30,UTC,0,1001.1,49,,,8.7,-1.4,45081,313,12.3,8.5
2018,6,5,04:40,UTC,0,1001.3,49,,,9,-1,43982,315,13.7,8.5
2018,6,5,04:50,UTC,1,1001.2,49,,,9.1,-1.2,36161,315,11.4,8.1
2018,6,5,05:00,UTC,1,1001.3,48,,,9.2,-1.1,36750,315,12.7,7.4
2018,6,5,05:10,UTC,1,1001.4,49,,,9.4,-0.8,31921,320,13.3,8.4
2018,6,5,05:20,UTC,0,1001.3,48,,,9.2,-1.2,34060,307,12,7.7
2018,6,5,05:30,UTC,0,1001.3,48,,,9.3,-1.1,35946,312,11.7,8.2
2018,6,5,05:40,UTC,0,1001.3,48,,,9.4,-1.2,37725,308,12.8,8.4
2018,6,5,05:50,UTC,2,1001.4,49,,,9.9,-0.5,38877,317,13.4,8.7
2018,6,5,06:00,UTC,2,1001.5,48,,,9.6,-1,38686,319,14.5,9.8
2018,6,5,06:10,UTC,1,1001.4,47,,,9.7,-1,33289,321,13.1,9.5
2018,6,5,06:20,UTC,1,1001.4,47,,,10.2,-0.7,35332,317,12.2,8.1
2018,6,5,06:30,UTC,2,1001.5,46,,,10.1,-1,33697,312,16.2,8.6
2018,6,5,06:40,UTC,1,1001.4,47,,,10.4,-0.6,42453,317,14.7,9.2
2018,6,5,06:50,UTC,3,1001.4,44,,,11.1,-0.6,42741,315,13.6,7.9
2018,6,5,07:00,UTC,1,1001.4,43,,,11.1,-1.1,32098,320,12.1,8.2
2018,6,5,07:10,UTC,3,1001.5,43,,,11,-1.2,34494,325,17.5,9
2018,6,5,07:20,UTC,4,1001.5,43,,,10.8,-1.3,34456,316,14.3,8.7
2018,6,5,07:30,UTC,2,1001.4,41,,,11.8,-1.2,29037,331,15.5,9.6
2018,6,5,07:40,UTC,4,1001.6,41,,,11.8,-1,31729,319,12.9,9.1
2018,6,5,07:50,UTC,5,1001.8,43,,,10.9,-1.3,34867,312,13.3,8.1
2018,6,5,08:00,UTC,7,1001.8,40,,,10.7,-2.3,35540,326,13.4,10
2018,6,5,08:10,UTC,7,1001.9,42,,,10.9,-1.6,38544,320,14,8.7
2018,6,5,08:20,UTC,7,1001.9,41,,,11.7,-1.1,37255,311,13.7,8.5
2018,6,5,08:30,UTC,7,1001.9,39,,,11.5,-2,44833,329,12.1,8.2
2018,6,5,08:40,UTC,7,1001.9,39,,,11,-2.3,30777,326,15.8,9.2
2018,6,5,08:50,UTC,7,1002.2,41,,,11,-1.8,35282,330,15.1,10.5
2018,6,5,09:00,UTC,7,1002.2,38,,,12.1,-1.8,30679,323,14.5,9.4
2018,6,5,09:10,UTC,7,1002.1,37,,,11.7,-2.4,43095,329,15.4,11.1
2018,6,5,09:20,UTC,7,1002.3,37,,,12.2,-2.1,38003,324,14.3,9.9
2018,6,5,09:30,UTC,6,1002.4,39,,,12.6,-1.1,34433,323,16,10.3
2018,6,5,09:40,UTC,7,1002.5,41,,,11.6,-1.3,35623,320,13.5,8.4
2018,6,5,09:50,UTC,7,1002.7,39,,,12,-1.6,32963,325,14.8,10.8
2018,6,5,10:00,UTC,7,1002.7,38,,,11.7,-2.2,35838,333,13.8,9.3
2018,6,5,10:10,UTC,5,1002.7,39,,,11.9,-1.5,35598,318,14.1,9.4
2018,6,5,10:20,UTC,6,1002.9,39,,,11.7,-1.9,37792,328,12.6,9.1
2018,6,5,10:30,UTC,6,1003,40,,,11.4,-1.8,39907,332,15,10
2018,6,5,10:40,UTC,6,1003.1,39,,,11.7,-1.8,40138,331,14.2,9.9
2018,6,5,10:50,UTC,7,1003.2,40,,,11.7,-1.4,40323,321,13.3,9.5
2018,6,5,11:00,UTC,7,1003.4,39,,,12.1,-1.4,36009,322,15.6,9.6
2018,6,5,11:10,UTC,7,1003.5,39,,,12.3,-1.2,32228,324,17.1,10.3
2018,6,5,11:20,UTC,7,1003.6,40,,,11.7,-1.4,42836,325,16.1,10.9
2018,6,5,11:30,UTC,7,1003.8,42,,,11.1,-1.5,36540,332,15.3,10.1
2018,6,5,11:40,UTC,7,1004.1,44,,,11.3,-0.5,35555,331,12.3,8.9
2018,6,5,11:50,UTC,7,1004.2,43,,,10.6,-1.4,41606,339,16.3,10.4
2018,6,5,12:00,UTC,7,1004.3,42,,,11.8,-0.7,38920,337,14.5,10.5
2018,6,5,12:10,UTC,7,1004.7,48,,,11.1,0.5,34387,350,14.7,9.1
2018,6,5,12:20,UTC,7,1004.7,49,,,10.9,0.6,44401,353,12.5,7.7
2018,6,5,12:30,UTC,5,1005,47,,,11.4,0.5,36090,342,10.8,7.9
2018,6,5,12:40,UTC,6,1005.1,47,,,10.8,0,32687,336,12.4,8.8
2018,6,5,12:50,UTC,6,1005.3,53,,,9.6,0.4,20563,334,16.8,11.1
2018,6,5,13:00,UTC,7,1005.6,52,,,10,0.6,32527,333,14.5,10.4
2018,6,5,13:10,UTC,8,1005.6,51,,,10,0.2,33148,342,13.9,9.5
2018,6,5,13:20,UTC,8,1005.6,50,,,9.9,0,32851,351,14.2,8.5
2018,6,5,13:30,UTC,8,1005.8,50,,,9.8,0,39847,346,13.4,9.5
2018,6,5,13:40,UTC,8,1005.9,52,,,9.5,0.2,35290,341,12.5,9.2
2018,6,5,13:50,UTC,8,1006.1,57,,,8.8,0.8,33227,342,15.8,10.1
2018,6,5,14:00,UTC,8,1006.2,64,,,8.5,2.1,22831,341,12.8,7.9
2018,6,5,14:10,UTC,8,1006.3,58,,,9.3,1.4,29460,327,11.5,6.7
2018,6,5,14:20,UTC,8,1006.4,53,,,9.7,0.7,31076,328,12.2,7.3
2018,6,5,14:30,UTC,8,1006.3,51,,,9.8,0.2,43629,323,13.3,8.6
2018,6,5,14:40,UTC,8,1006.5,50,,,10,0,42313,343,12.7,9.5
2018,6,5,14:50,UTC,8,1006.5,49,,,10.7,0.3,39894,330,11.1,7.2
2018,6,5,15:00,UTC,7,1006.6,48,,,10.4,-0.2,42898,335,12.8,8.5
2018,6,5,15:10,UTC,7,1006.7,47,,,10.2,-0.6,48088,333,15.5,9.3
2018,6,5,15:20,UTC,7,1006.8,48,,,10.5,-0.2,34917,334,12.5,8.5
2018,6,5,15:30,UTC,7,1006.8,47,,,10.7,-0.2,50000,330,14.1,8.7
2018,6,5,15:40,UTC,7,1006.9,46,,,10.6,-0.6,45317,333,16.1,9.4
2018,6,5,15:50,UTC,7,1007,46,,,10.9,-0.2,46837,336,10.6,6.6
2018,6,5,16:00,UTC,7,1007.1,46,,,10.7,-0.5,46843,334,11.6,7.7
2018,6,5,16:10,UTC,7,1007.1,45,,,10.6,-0.7,45243,328,12,8
2018,6,5,16:20,UTC,7,1007.1,45,,,10.9,-0.5,44816,327,9.8,6.8
2018,6,5,16:30,UTC,7,1007.2,46,,,11,-0.3,47895,336,8.4,6.4
2018,6,5,16:40,UTC,7,1007.2,45,,,11.2,-0.3,47647,343,8.7,5.8
2018,6,5,16:50,UTC,7,1007.4,45,,,10.9,-0.7,44703,353,9.7,6.1
2018,6,5,17:00,UTC,8,1007.4,43,,,11,-1.1,48647,340,10.3,6.9
2018,6,5,17:10,UTC,7,1007.5,42,,,11.3,-1,43381,337,10.2,5.9
2018,6,5,17:20,UTC,7,1007.6,41,,,11.5,-1.2,50000,339,9.6,6
2018,6,5,17:30,UTC,5,1007.6,40,,,11,-2.2,45684,332,10.4,6.5
2018,6,5,17:40,UTC,3,1007.8,40,,,10.7,-2.2,50000,326,10.2,6.4
2018,6,5,17:50,UTC,1,1008,41,,,10.7,-2.2,50000,332,10.4,6.6
2018,6,5,18:00,UTC,1,1008,42,,,10.4,-2.1,50000,325,8,5.5
2018,6,5,18:10,UTC,0,1008.1,44,,,9.8,-1.8,50000,330,6.3,4
2018,6,5,18:20,UTC,0,1008.3,45,,,9.6,-1.8,50000,330,5.9,3.9
2018,6,5,18:30,UTC,0,1008.4,46,,,9.4,-1.6,50000,331,4.7,3.4
2018,6,5,18:40,UTC,1,1008.5,45,,,9.8,-1.6,49643,322,4.9,3.5
2018,6,5,18:50,UTC,4,1008.6,45,,,9.9,-1.6,50000,319,4.6,3.2
2018,6,5,19:00,UTC,6,1008.7,46,,,9.6,-1.6,50000,320,4.7,3.2
2018,6,5,19:10,UTC,7,1008.8,45,,,9.4,-1.8,50000,321,4.8,3.3
2018,6,5,19:20,UTC,6,1009,43,,,9.7,-2.2,50000,325,7.2,4.1
2018,6,5,19:30,UTC,5,1009.1,43,,,9.6,-2.3,50000,323,5.8,4
2018,6,5,19:40,UTC,4,1009.3,46,,,9,-2.1,50000,317,3.7,2.7
2018,6,5,19:50,UTC,4,1009.4,45,,,9.2,-2.3,50000,310,4,2.8
2018,6,5,20:00,UTC,2,1009.5,45,,,9.1,-2.3,50000,305,4.2,2.5
2018,6,5,20:10,UTC,1,1009.6,47,,,8.7,-2.1,50000,306,3.5,2.3
2018,6,5,20:20,UTC,0,1009.7,48,,,8.5,-2,46661,302,2.8,2
2018,6,5,20:30,UTC,0,1009.8,49,,,8.3,-1.9,50000,294,2.9,2
2018,6,5,20:40,UTC,0,1009.9,50,,,7.9,-1.8,50000,290,3.3,2.3
2018,6,5,20:50,UTC,0,1010.1,51,,,7.7,-1.7,50000,285,3.6,2.4
2018,6,5,21:00,UTC,0,1010.2,52,,,7.5,-1.7,50000,287,4.1,2.9
2018,6,5,21:10,UTC,0,1010.3,53,,,7.3,-1.8,50000,296,3.7,2.7
2018,6,5,21:20,UTC,0,1010.4,53,,,7.3,-1.8,50000,292,3.5,2.4
2018,6,5,21:30,UTC,0,1010.5,53,,,7.1,-1.8,50000,283,3.1,2.2
2018,6,5,21:40,UTC,0,1010.6,54,,,6.8,-1.9,50000,287,3.3,2.1
2018,6,5,21:50,UTC,0,1010.7,54,,,6.8,-1.8,50000,296,3.2,2
2018,6,5,22:00,UTC,0,1010.8,55,,,6.6,-1.8,50000,299,2.6,1.8
2018,6,5,22:10,UTC,0,1010.9,55,,,6.5,-1.8,50000,298,2.8,1.8
2018,6,5,22:20,UTC,0,1011,56,,,6.3,-1.9,50000,296,2.8,1.8
2018,6,5,22:30,UTC,0,1011.1,56,,,6.3,-1.9,50000,300,3,1.9
2018,6,5,22:40,UTC,0,1011.2,57,,,6.2,-1.8,50000,294,2.7,1.8
2018,6,5,22:50,UTC,0,1011.3,57,,,6.1,-1.9,50000,296,3,2
2018,6,5,23:00,UTC,0,1011.4,56,,,6.1,-2,50000,296,3.2,1.9
2018,6,5,23:10,UTC,0,1011.5,57,,,5.9,-2,50000,297,2.8,1.7
2018,6,5,23:20,UTC,0,1011.5,58,,,5.6,-2.1,50000,297,3.5,2.1
2018,6,5,23:30,UTC,0,1011.6,58,,,5.6,-2,50000,306,4.1,2.5
2018,6,5,23:40,UTC,0,1011.7,57,,,5.9,-2,50000,305,4.7,3
2018,6,5,23:50,UTC,0,1011.7,57,,,6,-2,50000,311,5.1,3.3
2018,6,6,00:00,UTC,0,1011.8,58,,,5.9,-1.8,50000,317,5.1,3.4
2018,6,6,00:10,UTC,0,1011.9,59,,,5.6,-1.9,50000,317,4.9,3.5
2018,6,6,00:20,UTC,0,1012,58,,,5.7,-1.8,50000,316,5.3,3.6
2018,6,6,00:30,UTC,0,1012.2,59,,,5.5,-1.8,50000,310,4.6,2.9
2018,6,6,00:40,UTC,0,1012.3,61,,,5.2,-1.8,50000,308,3.3,2.4
2018,6,6,00:50,UTC,0,1012.3,61,,,5.3,-1.7,50000,306,3.8,2.5
2018,6,6,01:00,UTC,0,1012.4,61,,,5.2,-1.7,50000,300,3.3,2.2
2018,6,6,01:10,UTC,0,1012.5,61,,,5.2,-1.7,50000,293,2.9,1.9
2018,6,6,01:20,UTC,0,1012.5,63,,,4.9,-1.6,50000,291,2.6,1.8
2018,6,6,01:30,UTC,0,1012.6,64,,,4.7,-1.5,50000,295,2.6,1.8
2018,6,6,01:40,UTC,0,1012.6,65,,,4.6,-1.4,50000,302,2.6,1.7
2018,6,6,01:50,UTC,0,1012.7,65,,,4.5,-1.5,50000,303,2.8,1.6
2018,6,6,02:00,UTC,0,1012.8,66,,,4.5,-1.3,50000,306,2,1.4
2018,6,6,02:10,UTC,0,1012.8,66,,,4.7,-1.2,50000,292,2.6,1.7
2018,6,6,02:20,UTC,0,1012.8,66,,,4.8,-1.1,50000,296,2.6,1.8
2018,6,6,02:30,UTC,0,1012.9,65,,,5.1,-1,50000,307,3.7,2.1
2018,6,6,02:40,UTC,0,1012.9,63,,,5.6,-0.9,50000,307,5.4,2.8
2018,6,6,02:50,UTC,0,1013,62,,,6,-0.8,50000,307,5.5,3.2
2018,6,6,03:00,UTC,0,1013,61,,,6.3,-0.6,47151,313,5,3
2018,6,6,03:10,UTC,0,1013.1,61,,,6.6,-0.4,47020,311,6.2,3.7
2018,6,6,03:20,UTC,0,1013.1,58,,,6.9,-0.7,47687,315,5.8,3.5
2018,6,6,03:30,UTC,0,1013.2,58,,,7.3,-0.5,42488,313,5.8,3.5
2018,6,6,03:40,UTC,0,1013.2,57,,,7.7,-0.4,37880,313,5.1,3.3
2018,6,6,03:50,UTC,0,1013.3,57,,,8,0,40624,315,5.2,3.4
2018,6,6,04:00,UTC,0,1013.3,56,,,8.5,0.2,42550,314,6.2,3.9
2018,6,6,04:10,UTC,1,1013.4,56,,,8.4,0,46014,316,5.9,4.2
2018,6,6,04:20,UTC,5,1013.5,57,,,8.3,0.2,50000,313,6.9,4.2
2018,6,6,04:30,UTC,7,1013.6,56,,,8.3,0,50000,310,5.6,3.7
2018,6,6,04:40,UTC,7,1013.7,57,,,8.5,0.4,50000,302,5.3,3
2018,6,6,04:50,UTC,7,1013.8,57,,,8.8,0.7,48770,308,4.7,3.2
2018,6,6,05:00,UTC,8,1013.9,56,,,8.9,0.5,41214,303,6.1,4.1
2018,6,6,05:10,UTC,8,1014,54,,,9.2,0.4,47853,309,5.8,3.9
2018,6,6,05:20,UTC,8,1014.1,56,,,9.3,0.9,42425,310,5.5,3.5
2018,6,6,05:30,UTC,8,1014.2,54,,,9.1,0.2,45991,311,6.8,4.4
2018,6,6,05:40,UTC,7,1014.3,54,,,9.3,0.4,50000,310,4.9,3.6
2018,6,6,05:50,UTC,7,1014.4,54,,,9.5,0.5,43276,312,6.8,4.6
2018,6,6,06:00,UTC,7,1014.4,55,,,9.4,0.8,43463,314,6.6,4.4
2018,6,6,06:10,UTC,7,1014.5,53,,,9.7,0.5,46938,315,6.4,3.2
2018,6,6,06:20,UTC,7,1014.5,53,,,9.8,0.6,49525,318,5.3,3.4
2018,6,6,06:30,UTC,7,1014.6,53,,,10,0.8,45011,306,5.1,3.5
2018,6,6,06:40,UTC,7,1014.7,53,,,10.1,1,46378,310,5.7,3.8
2018,6,6,06:50,UTC,7,1014.7,53,,,10.4,1.3,42627,308,5.4,3.5
2018,6,6,07:00,UTC,7,1014.7,52,,,10.4,0.8,49672,302,5.8,4.1
2018,6,6,07:10,UTC,7,1014.8,50,,,10.5,0.5,50000,317,6.4,4.2
2018,6,6,07:20,UTC,7,1014.8,52,,,10.5,1.1,38532,321,7.7,4.5
2018,6,6,07:30,UTC,7,1014.7,51,,,10.5,0.6,37891,305,7,4.6
2018,6,6,07:40,UTC,7,1014.8,50,,,11.3,1.2,44049,323,5.3,3.4
2018,6,6,07:50,UTC,7,1014.8,48,,,11.2,0.7,43293,314,6.4,3.9
2018,6,6,08:00,UTC,7,1014.8,44,,,11.7,0,47438,300,7.6,3.8
2018,6,6,08:10,UTC,7,1014.8,45,,,11.6,0.2,42856,315,8.7,5.9
2018,6,6,08:20,UTC,7,1014.8,45,,,11.5,-0.2,45043,308,7.3,5.3
2018,6,6,08:30,UTC,5,1014.7,43,,,12.7,0.6,39457,294,6.2,4.3
2018,6,6,08:40,UTC,3,1014.6,41,,,12.8,-0.3,41971,287,8.5,4.7
2018,6,6,08:50,UTC,2,1014.7,40,,,13.3,-0.2,35373,301,8,4.6
2018,6,6,09:00,UTC,3,1014.7,37,,,14.1,-0.2,40725,286,8.2,4.5
2018,6,6,09:10,UTC,5,1014.6,37,,,12.9,-1.3,39770,304,11.1,4.8
2018,6,6,09:20,UTC,3,1014.5,38,,,13.5,-0.4,45128,290,6.4,3.3
2018,6,6,09:30,UTC,6,1014.5,39,,,12.9,-0.6,45522,272,7.2,3.5
2018,6,6,09:40,UTC,6,1014.5,38,,,12.7,-1.2,49160,285,6.7,4.5
2018,6,6,09:50,UTC,7,1014.6,40,,,12.7,-0.6,47916,295,8.1,4.2
2018,6,6,10:00,UTC,7,1014.9,47,,,11.6,0.6,27980,307,12.2,7.1
2018,6,6,10:10,UTC,7,1015.2,60,,,9.9,2.5,13953,264,12.5,7.8
2018,6,6,10:20,UTC,7,1015,57,,,10.9,2.6,30582,238,8.3,3.8
2018,6,6,10:30,UTC,7,1015.2,50,,,11.6,1.6,42626,263,6.3,3.9
2018,6,6,10:40,UTC,7,1015.2,53,,,11.3,2.1,42841,273,10.8,5.9
2018,6,6,10:50,UTC,7,1015.1,43,,,11.2,-0.9,40518,259,8.7,5.3
2018,6,6,11:00,UTC,7,1015,38,,,12.3,-1.5,41243,271,6.8,4.6
2018,6,6,11:10,UTC,7,1015,38,,,13.1,-1,38929,271,9.2,5.2
2018,6,6,11:20,UTC,7,1015.1,42,,,12.5,-0.1,46078,252,8.8,5.8
2018,6,6,11:30,UTC,7,1015.1,46,,,12,0.7,48707,242,8.7,5.6
2018,6,6,11:40,UTC,7,1015.1,47,,,12.1,1.1,43364,232,8.7,5.7
2018,6,6,11:50,UTC,7,1015.2,47,,,12,1,42814,236,7.8,5.4
2018,6,6,12:00,UTC,8,1015.3,46,,,12.1,1,46205,267,7.3,4.4
2018,6,6,12:10,UTC,8,1015.5,50,,,11.3,1.2,45624,302,10.7,5.9
2018,6,6,12:20,UTC,8,1015.5,51,,,11,1.1,46866,312,7.7,5.3
2018,6,6,12:30,UTC,8,1015.6,55,,,10.4,1.7,49238,297,8.3,5.6
2018,6,6,12:40,UTC,8,1015.6,56,,,10.5,2.1,44800,303,5.6,3.5
2018,6,6,12:50,UTC,8,1015.5,53,,,10.7,1.5,44723,320,5.3,2.8
2018,6,6,13:00,UTC,8,1015.4,49,,,11.3,0.8,41205,284,4,1.6
2018,6,6,13:10,UTC,8,1015.4,46,,,11.8,0.6,48719,274,5,3.1
2018,6,6,13:20,UTC,8,1015.3,44,,,11.7,-0.2,43677,281,5.5,3.6
2018,6,6,13:30,UTC,8,1015.4,43,,,11.9,-0.2,50000,294,5,3.1
2018,6,6,13:40,UTC,7,1015.4,43,,,11.9,-0.3,47678,283,4.5,3.1
2018,6,6,13:50,UTC,7,1015.3,44,,,12.1,0.1,47772,272,4,2.4
2018,6,6,14:00,UTC,7,1015.3,45,,,12.2,0.6,47213,290,5.7,3.1
2018,6,6,14:10,UTC,7,1015.3,42,,,12.7,0.2,43266,282,5.4,3.1
2018,6,6,14:20,UTC,7,1015.3,44,,,12.7,0.8,50000,293,6.8,4.3
2018,6,6,14:30,UTC,8,1015.3,44,,,12.2,0.3,46947,317,6.2,4.2
2018,6,6,14:40,UTC,8,1015.4,43,,,12.1,-0.1,50000,297,5.5,4
2018,6,6,14:50,UTC,8,1015.3,44,,,12.3,0.4,50000,291,4.5,2.6
2018,6,6,15:00,UTC,8,1015.2,44,,,12.5,0.5,50000,281,4.2,2.4
2018,6,6,15:10,UTC,8,1015.2,43,,,12.3,0.1,45301,256,4,2.7
2018,6,6,15:20,UTC,7,1015.2,47,,,12.3,1.2,42528,222,3.5,2.1
2018,6,6,15:30,UTC,7,1015.2,46,,,12.2,1,42599,265,3.8,2.1
2018,6,6,15:40,UTC,7,1015.2,45,,,12.3,0.8,49076,255,3,1.7
2018,6,6,15:50,UTC,7,1015.2,45,,,12.2,0.8,47895,297,4,1.9
2018,6,6,16:00,UTC,7,1015.2,44,,,12.1,0.1,50000,310,4.4,2.1
2018,6,6,16:10,UTC,7,1015.2,44,,,12.1,0.2,50000,284,3.4,2.2
2018,6,6,16:20,UTC,8,1015.3,54,,,11.3,2.3,50000,187,3.9,2.3
2018,6,6,16:30,UTC,8,1015.4,50,,,11.3,1.2,50000,95,5,1.8
2018,6,6,16:40,UTC,7,1015.4,49,,,11.3,1,50000,357,3.9,2.1
2018,6,6,16:50,UTC,7,1015.4,51,,,11.2,1.4,50000,351,5,2.3
2018,6,6,17:00,UTC,7,1015.4,52,,,11.2,1.6,50000,6,2.8,1.4
2018,6,6,17:10,UTC,8,1015.4,50,,,11.2,1.3,50000,353,2.7,1.9
2018,6,6,17:20,UTC,7,1015.5,51,,,11.3,1.6,50000,347,3.2,1.9
2018,6,6,17:30,UTC,7,1015.5,47,,,11.7,0.8,50000,338,3.6,2.3
2018,6,6,17:40,UTC,7,1015.5,49,,,11.3,1.1,49897,353,3.8,2
2018,6,6,17:50,UTC,7,1015.5,50,,,11.5,1.4,43427,342,3.8,2.7
2018,6,6,18:00,UTC,7,1015.6,51,,,10.9,1.2,47669,325,4,2.9
2018,6,6,18:10,UTC,4,1015.6,52,,,10.5,1,50000,334,4.8,3.2
2018,6,6,18:20,UTC,2,1015.7,55,,,9.8,1.3,50000,336,3.7,2.2
2018,6,6,18:30,UTC,0,1015.8,57,,,9.8,1.6,50000,349,2.1,1.4
2018,6,6,18:40,UTC,0,1015.9,58,,,9.6,1.9,45267,346,1.6,0.9
2018,6,6,18:50,UTC,0,1015.9,60,,,9.2,1.9,41515,331,1,0.8
2018,6,6,19:00,UTC,0,1016,64,,,8.7,2.3,49854,0,0,0
2018,6,6,19:10,UTC,0,1016.1,67,,,8,2.3,50000,0,0,0
2018,6,6,19:20,UTC,0,1016.2,69,,,7.7,2.4,49720,0,0,0
2018,6,6,19:30,UTC,0,1016.3,74,,,6.6,2.3,50000,0,0,0
2018,6,6,19:40,UTC,0,1016.4,75,,,5.9,1.8,50000,0,0,0
2018,6,6,19:50,UTC,3,1016.6,79,,,5.7,2.4,50000,0,0,0
2018,6,6,20:00,UTC,5,1016.7,76,,,6.2,2.3,49120,0,0,0
2018,6,6,20:10,UTC,4,1016.8,79,,,5.6,2.3,49451,0,0,0
2018,6,6,20:20,UTC,4,1016.9,81,,,5,2.1,50000,3,1.1,0.5
2018,6,6,20:30,UTC,5,1017,82,,,5.1,2.3,50000,360,1.4,0.9
2018,6,6,20:40,UTC,5,1017.1,82,,,4.9,2.2,50000,356,1.9,1.3
2018,6,6,20:50,UTC,7,1017.2,76,,,5.8,1.9,50000,350,1.9,1.5
2018,6,6,21:00,UTC,7,1017.2,78,,,5.6,2,50000,314,1.7,1.3
2018,6,6,21:10,UTC,7,1017.2,76,,,5.9,2.1,50000,339,1.7,1.1
2018,6,6,21:20,UTC,4,1017.2,79,,,5.7,2.3,50000,0,0,0
2018,6,6,21:30,UTC,2,1017.2,81,,,5.5,2.4,46318,0,0,0
2018,6,6,21:40,UTC,0,1017.2,80,,,5.4,2.3,50000,130,1,0.6
2018,6,6,21:50,UTC,0,1017.4,80,,,5.1,2,47865,152,1.1,0.7
2018,6,6,22:00,UTC,0,1017.3,83,,,4.8,2.3,50000,0,0,0
2018,6,6,22:10,UTC,0,1017.3,83,,,4.7,2.2,50000,0,0,0
2018,6,6,22:20,UTC,0,1017.4,84,,,3.5,1.1,48877,324,1.8,0.8
2018,6,6,22:30,UTC,0,1017.5,77,,,5.5,1.8,50000,310,2.8,1.9
2018,6,6,22:40,UTC,0,1017.6,75,,,5.2,1.2,50000,314,2.3,1.6
2018,6,6,22:50,UTC,0,1017.7,74,,,5.8,1.5,50000,290,2.9,1.9
2018,6,6,23:00,UTC,0,1017.6,72,,,6.1,1.4,50000,290,2.8,1.9
2018,6,6,23:10,UTC,0,1017.4,78,,,4.7,1.3,50000,287,2.5,1.1
2018,6,6,23:20,UTC,0,1017.5,80,,,4.7,1.6,50000,0,0,0
2018,6,6,23:30,UTC,0,1017.6,81,,,4.3,1.4,50000,305,1.3,0.5
2018,6,6,23:40,UTC,0,1017.6,81,,,4.1,1.1,50000,306,2.2,1.2
2018,6,6,23:50,UTC,0,1017.7,85,,,3.7,1.3,50000,296,1.6,1
2018,6,7,00:00,UTC,0,1017.7,83,,,3.8,1.3,50000,289,1.6,1
2018,6,7,00:10,UTC,0,1017.8,83,,,3.6,1,50000,283,2.7,1.3
2018,6,7,00:20,UTC,0,1017.8,78,,,4.4,0.9,50000,283,2.4,1.3
2018,6,7,00:30,UTC,0,1017.9,82,,,3.7,1,50000,283,2,0.8
2018,6,7,00:40,UTC,0,1017.9,86,,,3.4,1.3,50000,297,1.3,0.8
2018,6,7,00:50,UTC,0,1017.9,88,,,2.9,1,50000,287,1.3,0.6
2018,6,7,01:00,UTC,0,1017.8,88,,,3.1,1.3,50000,0,0,0
2018,6,7,01:10,UTC,0,1017.8,89,,,2.8,1.1,50000,0,0,0
2018,6,7,01:20,UTC,0,1017.7,92,,,2.1,0.9,50000,0,0,0
2018,6,7,01:30,UTC,0,1017.5,91,,,1.6,0.3,50000,107,1,0.6
2018,6,7,01:40,UTC,0,1017.6,92,,,1.5,0.3,50000,0,0,0
2018,6,7,01:50,UTC,0,1017.6,93,,,1.3,0.3,50000,0,0,0
2018,6,7,02:00,UTC,0,1017.6,94,,,1.8,1,50000,0,0,0
2018,6,7,02:10,UTC,0,1017.6,89,,,1.6,0,50000,0,0,0
2018,6,7,02:20,UTC,0,1017.7,91,,,1.5,0.2,50000,0,0,0
2018,6,7,02:30,UTC,0,1017.7,92,,,2,0.8,50000,0,0,0
2018,6,7,02:40,UTC,0,1017.8,86,,,3.2,1.1,47014,0,0,0
2018,6,7,02:50,UTC,0,1017.8,83,,,4,1.4,50000,321,1.3,0.8
2018,6,7,03:00,UTC,0,1017.9,79,,,4.7,1.4,40362,303,1.7,0.9
2018,6,7,03:10,UTC,0,1017.8,79,,,5.1,1.7,45714,308,1.7,0.9
2018,6,7,03:20,UTC,0,1017.7,78,,,5.4,1.9,44905,318,1.7,0.8
2018,6,7,03:30,UTC,0,1017.8,76,,,6.2,2.2,45878,298,1.6,0.9
2018,6,7,03:40,UTC,0,1017.8,73,,,6.5,2,46994,281,2.8,1.4
2018,6,7,03:50,UTC,0,1017.8,71,,,6.9,2,50000,289,3.3,2.3
2018,6,7,04:00,UTC,0,1017.8,68,,,7.3,1.8,47365,283,3.7,2.6
2018,6,7,04:10,UTC,0,1017.8,66,,,7.7,1.9,49160,279,4.3,2.9
2018,6,7,04:20,UTC,0,1017.7,65,,,8,1.7,46686,261,3.8,2.5
2018,6,7,04:30,UTC,4,1017.7,62,,,8.3,1.5,48907,271,4.5,2.6
2018,6,7,04:40,UTC,6,1017.7,61,,,8.5,1.4,43841,265,4.4,2.9
2018,6,7,04:50,UTC,7,1017.8,60,,,8.5,1.2,47761,276,5.4,3.8
2018,6,7,05:00,UTC,4,1017.7,57,,,8.9,0.8,46560,274,5.4,3.7
2018,6,7,05:10,UTC,2,1017.7,56,,,9.3,0.8,37655,283,5,3.3
2018,6,7,05:20,UTC,0,1017.7,53,,,9.3,0.3,40350,271,5.7,3.8
2018,6,7,05:30,UTC,0,1017.5,51,,,9.9,0.3,37362,259,5.6,3.8
2018,6,7,05:40,UTC,0,1017.5,48,,,10.2,-0.5,43397,263,6.1,3.9
2018,6,7,05:50,UTC,0,1017.5,49,,,10.3,0.1,38053,273,6.4,4.3
2018,6,7,06:00,UTC,4,1017.5,49,,,10.4,0,41175,275,5.8,3.9
2018,6,7,06:10,UTC,6,1017.5,51,,,10.6,0.8,45109,279,6.3,4
2018,6,7,06:20,UTC,7,1017.5,46,,,10.5,-0.6,38814,255,8.4,5.4
2018,6,7,06:30,UTC,8,1017.5,48,,,10.8,0.3,41108,272,8.3,4.9
2018,6,7,06:40,UTC,8,1017.4,48,,,11.2,0.6,38346,253,6.1,4
2018,6,7,06:50,UTC,8,1017.3,45,,,11,-0.4,48399,269,7.5,4.5
2018,6,7,07:00,UTC,8,1017.2,43,,,11.2,-0.9,48062,274,7.6,5.1
2018,6,7,07:10,UTC,8,1017.3,44,,,11.2,-0.7,50000,263,7.6,4.3
2018,6,7,07:20,UTC,7,1017.2,45,,,11.2,-0.3,41545,247,7.5,5.1
2018,6,7,07:30,UTC,7,1016.9,44,,,11.7,-0.1,44830,233,6.1,3.9
2018,6,7,07:40,UTC,7,1016.8,41,,,12.1,-0.8,41751,225,9.1,5.6
2018,6,7,07:50,UTC,7,1016.6,42,,,12,-0.4,47029,247,8,5.1
2018,6,7,08:00,UTC,8,1016.4,42,,,12,-0.6,40962,232,9.3,6
2018,6,7,08:10,UTC,8,1016.3,39,,,12.6,-1.1,39957,234,8.4,4.9
2018,6,7,08:20,UTC,8,1016.1,48,,,12.5,1.9,37602,207,7.7,5
2018,6,7,08:30,UTC,8,1016,50,,,12,2,46360,206,8.9,6
2018,6,7,08:40,UTC,7,1016,50,,,12,2,42260,218,8.8,6.1
2018,6,7,08:50,UTC,7,1015.8,53,,,11.7,2.4,45523,204,9.9,6.6
2018,6,7,09:00,UTC,7,1015.6,51,,,11.8,2.1,40278,203,10.6,7.4
2018,6,7,09:10,UTC,7,1015.4,48,,,12.7,2.1,38302,208,10.6,6.6
2018,6,7,09:20,UTC,7,1015.2,49,,,12.7,2.2,40085,212,9.6,6.6
2018,6,7,09:30,UTC,7,1015.1,48,,,12.3,1.6,44124,205,10.8,6.8
2018,6,7,09:40,UTC,6,1014.9,43,,,13.3,0.8,34112,203,9.1,6.2
2018,6,7,09:50,UTC,5,1014.6,41,,,13.3,0.2,25473,202,11.2,7.6
2018,6,7,10:00,UTC,6,1014.6,43,,,13.3,0.8,36549,197,11.5,7.7
2018,6,7,10:10,UTC,7,1014.4,47,,,13,2,38180,202,12.9,9.2
2018,6,7,10:20,UTC,7,1014.3,46,,,13.3,1.8,32912,205,13.2,9
2018,6,7,10:30,UTC,4,1014.4,47,,,13.3,2.2,36808,211,14.3,8.9
2018,6,7,10:40,UTC,2,1014.1,48,,,13.4,2.7,36167,203,14.2,9.7
2018,6,7,10:50,UTC,1,1014.1,46,,,14,2.6,30920,210,14.4,8.4
2018,6,7,11:00,UTC,1,1014,47,,,14.4,3.2,36549,215,15,8.3
2018,6,7,11:10,UTC,1,1013.7,44,,,14.3,2.2,40547,209,13,8.6
2018,6,7,11:20,UTC,0,1013.8,45,,,14,2.3,37310,205,13.8,8.9
2018,6,7,11:30,UTC,0,1013.4,43,,,13.8,1.4,34167,208,13.2,8.4
2018,6,7,11:40,UTC,0,1013.4,42,,,14,1.3,30769,202,12.1,8
2018,6,7,11:50,UTC,0,1013.3,41,,,14.5,1.3,38337,215,11.9,8.4
2018,6,7,12:00,UTC,0,1013.2,42,,,14.1,1.4,32907,215,12.7,8.3
2018,6,7,12:10,UTC,0,1013.1,43,,,14.2,1.6,34112,232,14.7,8.9
2018,6,7,12:20,UTC,1,1012.9,42,,,14.3,1.5,35508,233,15.7,9.5
2018,6,7,12:30,UTC,1,1013,42,,,14.8,1.9,36682,237,12.6,7.9
2018,6,7,12:40,UTC,1,1012.8,42,,,14.4,1.7,43984,228,14.9,9.5
2018,6,7,12:50,UTC,0,1012.7,42,,,14.5,1.6,31761,226,13.5,7.6
2018,6,7,13:00,UTC,0,1012.5,41,,,14.6,1.3,41245,228,13.6,9.5
2018,6,7,13:10,UTC,0,1012.4,40,,,15.4,1.8,33492,225,12.5,7.5
2018,6,7,13:20,UTC,0,1012.3,39,,,15.2,1.4,36350,221,13.9,8.5
2018,6,7,13:30,UTC,0,1012.1,38,,,15.5,1.2,44088,227,12.5,7.6
2018,6,7,13:40,UTC,0,1012,38,,,15.9,1.5,32491,229,13,7.9
2018,6,7,13:50,UTC,2,1012,38,,,15.5,1.4,40196,225,13.7,9.3
2018,6,7,14:00,UTC,4,1011.9,39,,,15.7,1.7,35177,221,12.3,7.7
2018,6,7,14:10,UTC,6,1011.7,41,,,15.5,2.1,40261,235,12.2,7.1
2018,6,7,14:20,UTC,7,1011.8,41,,,15.8,2.5,39112,232,10.7,6.4
2018,6,7,14:30,UTC,7,1011.7,42,,,15.6,2.6,41124,238,10.5,6.5
2018,6,7,14:40,UTC,6,1011.8,42,,,15.8,3,43789,247,11.7,6.6
2018,6,7,14:50,UTC,7,1011.6,47,,,15.8,4.6,38271,251,12.5,7
2018,6,7,15:00,UTC,7,1011.6,48,,,16.5,5.3,36243,255,10.4,7.3
2018,6,7,15:10,UTC,7,1011.6,51,,,16.1,5.8,42887,249,11.9,7.4
2018,6,7,15:20,UTC,7,1011.5,52,,,15.6,5.7,44516,247,11.2,6.3
2018,6,7,15:30,UTC,7,1011.3,53,,,15.8,6.2,45423,237,9.4,6.1
2018,6,7,15:40,UTC,5,1011.1,54,,,15.5,6.2,40298,240,9.2,5.9
2018,6,7,15:50,UTC,6,1011,56,,,15.4,6.6,34632,249,9.5,5.8
2018,6,7,16:00,UTC,6,1010.9,57,,,15.3,6.9,38290,244,8.9,6
2018,6,7,16:10,UTC,7,1010.8,58,,,15.3,7,42702,244,8.1,5
2018,6,7,16:20,UTC,6,1010.8,59,,,15.4,7.4,36069,250,9,5.1
2018,6,7,16:30,UTC,3,1010.8,59,,,15.6,7.6,47606,256,10.1,5.6
2018,6,7,16:40,UTC,3,1010.7,60,,,15.3,7.6,40892,245,8,5
2018,6,7,16:50,UTC,5,1010.7,61,,,15.4,7.8,37260,254,8.1,5.3
2018,6,7,17:00,UTC,3,1010.8,61,,,15.6,8,35161,262,7.9,5.3
2018,6,7,17:10,UTC,5,1010.7,61,,,15.7,8.2,45675,257,6.2,4.2
2018,6,7,17:20,UTC,5,1010.8,61,,,15.7,8.3,41801,264,5.5,3.6
2018,6,7,17:30,UTC,7,1010.8,62,,,15.7,8.4,45736,267,7.7,4.3
2018,6,7,17:40,UTC,5,1010.9,61,,,15.8,8.3,42920,275,6.4,3.9
2018,6,7,17:50,UTC,5,1010.6,61,,,15.9,8.4,45032,272,5.9,4
2018,6,7,18:00,UTC,2,1010.6,61,,,15.8,8.4,46826,269,5.8,3.3
2018,6,7,18:10,UTC,2,1010.6,61,,,15.7,8.3,47725,270,5.8,3.7
2018,6,7,18:20,UTC,2,1010.6,62,,,15.7,8.3,50000,277,5.1,3.6
2018,6,7,18:30,UTC,4,1010.6,62,,,15.7,8.4,49949,277,5.6,3.6
2018,6,7,18:40,UTC,4,1010.7,62,,,15.6,8.4,48590,286,6.2,3.8
2018,6,7,18:50,UTC,2,1010.8,62,,,15.3,8,50000,296,6.7,3.7
2018,6,7,19:00,UTC,1,1010.9,53,,,15.3,5.7,50000,318,7.6,4.7
2018,6,7,19:10,UTC,1,1011,51,,,14.9,4.8,50000,326,7.3,4.8
2018,6,7,19:20,UTC,3,1011,53,,,14.4,4.8,50000,338,5.8,4
2018,6,7,19:30,UTC,6,1011.2,51,,,14.5,4.4,50000,332,8.3,5.5
2018,6,7,19:40,UTC,7,1011.4,51,,,14.3,4.3,50000,325,8.9,5.3
2018,6,7,19:50,UTC,7,1011.7,62,,,12.3,5.3,50000,3,10,5.4
2018,6,7,20:00,UTC,7,1012,64,,,11.7,5.1,50000,360,6.8,4.3
2018,6,7,20:10,UTC,7,1012.1,62,,,11.5,4.5,50000,354,8.4,4.8
2018,6,7,20:20,UTC,6,1012.4,63,,,11.2,4.4,50000,352,7.6,4.6
2018,6,7,20:30,UTC,7,1012.4,62,,,11.1,4,50000,345,8.6,5.2
2018,6,7,20:40,UTC,7,1012.4,61,,,11.1,3.9,50000,354,8.3,4.2
2018,6,7,20:50,UTC,7,1012.5,61,,,11,3.9,50000,350,7.1,4.1
2018,6,7,21:00,UTC,7,1012.6,62,,,10.9,3.9,50000,354,5.9,3.6
2018,6,7,21:10,UTC,7,1012.5,62,,,10.9,3.9,50000,353,5.7,3.8
2018,6,7,21:20,UTC,7,1012.6,62,,,10.8,3.9,50000,346,6.6,4.2
2018,6,7,21:30,UTC,7,1012.6,61,,,10.8,3.7,50000,348,6.5,4
2018,6,7,21:40,UTC,7,1012.6,62,,,10.7,3.7,50000,344,4.9,3.2
2018,6,7,21:50,UTC,7,1012.7,62,,,10.6,3.6,50000,344,4.6,3.1
2018,6,7,22:00,UTC,8,1012.7,63,,,10.4,3.7,50000,327,3.6,2.2
2018,6,7,22:10,UTC,8,1012.7,62,,,10.6,3.7,50000,320,4.2,2.6
2018,6,7,22:20,UTC,8,1012.8,63,,,10.5,3.7,50000,320,3.4,2.4
2018,6,7,22:30,UTC,8,1012.9,63,,,10.4,3.7,50000,328,4.3,3
2018,6,7,22:40,UTC,8,1012.9,62,,,10.5,3.6,50000,330,5.5,3.6
2018,6,7,22:50,UTC,7,1013,63,,,10.5,3.6,50000,329,5.7,3.8
2018,6,7,23:00,UTC,7,1013,63,,,10.4,3.7,50000,331,5.6,4.2
2018,6,7,23:10,UTC,7,1013,63,,,10.3,3.5,50000,329,5.6,3.6
2018,6,7,23:20,UTC,7,1013,62,,,10.2,3.3,50000,329,5.7,3.8
2018,6,7,23:30,UTC,7,1013,62,,,10.1,3.1,50000,332,5.1,3.7
2018,6,7,23:40,UTC,7,1013.2,62,,,10.1,3,50000,335,5.3,3.9
2018,6,7,23:50,UTC,7,1013.3,63,,,9.8,3,50000,337,5.4,3.8
2018,6,8,00:00,UTC,7,1013.5,64,,,9.6,3,50000,343,5.1,3.6
2018,6,8,00:10,UTC,7,1013.7,61,,,9.7,2.5,50000,343,8.2,5.3
2018,6,8,00:20,UTC,7,1013.7,64,,,9.3,2.8,50000,346,6.9,4.1
2018,6,8,00:30,UTC,7,1013.8,65,,,9.2,2.9,50000,342,7.9,5.3
2018,6,8,00:40,UTC,7,1013.9,66,,,9.1,3,50000,345,6.9,4.6
2018,6,8,00:50,UTC,8,1014,68,,,8.7,3.1,50000,346,7,4.3
2018,6,8,01:00,UTC,7,1014.2,68,,,8.4,2.9,50000,345,6.1,4.1
2018,6,8,01:10,UTC,4,1014.1,70,,,8.3,3,50000,350,5.4,3.6
2018,6,8,01:20,UTC,2,1014.3,71,,,8.1,3.1,50000,359,4.9,3.1
2018,6,8,01:30,UTC,1,1014.4,71,,,7.7,2.7,50000,2,3.5,2.6
2018,6,8,01:40,UTC,0,1014.4,70,,,7.6,2.5,50000,357,5.1,3.1
2018,6,8,01:50,UTC,0,1014.6,70,,,7.5,2.3,50000,1,3.1,2.3
2018,6,8,02:00,UTC,0,1014.7,73,,,6.7,2.2,50000,353,3.1,2.3
2018,6,8,02:10,UTC,0,1014.8,75,,,6.4,2.4,50000,345,4.3,3.1
2018,6,8,02:20,UTC,0,1014.9,72,,,7.1,2.3,50000,345,5.4,3.6
2018,6,8,02:30,UTC,0,1015,73,,,6.8,2.2,50000,347,4.4,3
2018,6,8,02:40,UTC,0,1015,73,,,6.8,2.4,50000,348,4.2,2.6
2018,6,8,02:50,UTC,0,1015.2,71,,,7.3,2.4,48695,344,5.5,3.7
2018,6,8,03:00,UTC,0,1015.2,69,,,7.4,2.1,44188,348,5.2,3.4
2018,6,8,03:10,UTC,0,1015.3,66,,,7.7,1.8,48242,346,5.5,3.7
2018,6,8,03:20,UTC,0,1015.4,64,,,7.9,1.6,43502,345,5.2,3.9
2018,6,8,03:30,UTC,0,1015.4,62,,,8.1,1.2,46497,348,4.9,3.6
2018,6,8,03:40,UTC,0,1015.6,61,,,8.3,1.2,50000,353,5.5,3
2018,6,8,03:50,UTC,0,1015.7,60,,,8.5,1.1,41732,351,5.7,3.5
2018,6,8,04:00,UTC,0,1015.8,57,,,8.7,0.8,45509,342,6.6,4
2018,6,8,04:10,UTC,0,1015.9,56,,,8.7,0.5,37355,352,5.5,3.6
2018,6,8,04:20,UTC,0,1015.9,55,,,9.3,0.8,34752,351,4.6,3
2018,6,8,04:30,UTC,0,1016,54,,,9.3,0.5,37336,350,4.9,3.3
2018,6,8,04:40,UTC,0,1016,52,,,9.2,-0.2,44960,347,6.1,4.1
2018,6,8,04:50,UTC,0,1016,51,,,9.4,-0.2,39050,351,6.2,4.1
2018,6,8,05:00,UTC,0,1015.9,50,,,9.7,-0.3,41892,354,5.7,3.9
2018,6,8,05:10,UTC,0,1015.9,49,,,9.8,-0.5,47067,359,6.1,3.7
2018,6,8,05:20,UTC,0,1015.9,50,,,10.2,0.2,44979,353,4.8,3.2
2018,6,8,05:30,UTC,0,1015.9,47,,,10.1,-0.7,32364,354,4.7,2.9
2018,6,8,05:40,UTC,0,1015.8,44,,,10.2,-1.5,39025,5,5.5,3.4
2018,6,8,05:50,UTC,0,1015.9,44,,,10.3,-1.3,41701,5,5.6,3.4
2018,6,8,06:00,UTC,0,1016,46,,,10.4,-0.8,44587,14,5.4,3.5
2018,6,8,06:10,UTC,0,1016.1,45,,,10.6,-1,48987,348,6.4,3.7
2018,6,8,06:20,UTC,0,1016.1,44,,,10.9,-0.8,44501,345,7.5,3.5
2018,6,8,06:30,UTC,0,1016.1,41,,,11,-1.8,41246,342,7,3.9
2018,6,8,06:40,UTC,0,1016.3,42,,,11.5,-1,41225,318,7.4,3.9
2018,6,8,06:50,UTC,0,1016.3,39,,,11.7,-1.8,48001,322,7.3,4.4
2018,6,8,07:00,UTC,0,1016.3,40,,,12,-1.2,40000,325,7,3.8
2018,6,8,07:10,UTC,0,1016.3,38,,,12.2,-1.7,34228,341,7.2,3.7
2018,6,8,07:20,UTC,0,1016.3,32,,,12.5,-3.8,43442,343,8.8,5.8
2018,6,8,07:30,UTC,0,1016.3,30,,,12.3,-4.8,44604,350,9.1,5.5
2018,6,8,07:40,UTC,0,1016.3,33,,,12.9,-3.1,34231,10,7.5,4.3
2018,6,8,07:50,UTC,0,1016.3,30,,,13,-4,34636,346,8.7,5.4
2018,6,8,08:00,UTC,1,1016.3,31,,,12.9,-4,35876,358,11.6,5.9
2018,6,8,08:10,UTC,0,1016.4,28,,,13,-5,47081,2,9.1,5.4
2018,6,8,08:20,UTC,0,1016.4,30,,,13.3,-3.9,50000,354,9.6,6.1
2018,6,8,08:30,UTC,0,1016.3,28,,,13.6,-4.5,50000,10,6.6,3.7
2018,6,8,08:40,UTC,0,1016.4,30,,,14.6,-2.9,40362,357,8.9,4.2
2018,6,8,08:50,UTC,0,1016.4,28,,,13.5,-4.8,40738,4,7.4,4.4
2018,6,8,09:00,UTC,1,1016.3,28,,,14,-4.3,41143,17,6.5,3.6
2018,6,8,09:10,UTC,1,1016.4,30,,,14,-3.5,37393,350,9.3,4.9
2018,6,8,09:20,UTC,1,1016.3,29,,,13.9,-3.7,38087,355,5.6,2.5
2018,6,8,09:30,UTC,0,1016.4,32,,,14.3,-2.3,42730,12,6.6,3.1
2018,6,8,09:40,UTC,0,1016.5,28,,,14.4,-3.8,39304,328,7.3,4.9
2018,6,8,09:50,UTC,0,1016.7,27,,,13.9,-4.7,44629,355,8.7,5.4
2018,6,8,10:00,UTC,0,1016.7,28,,,14.7,-3.5,45389,324,7.1,4.4
2018,6,8,10:10,UTC,3,1016.5,28,,,14.8,-3.4,39374,344,6.8,3.1
2018,6,8,10:20,UTC,3,1016.5,27,,,14.6,-4.1,36391,310,8.7,4
2018,6,8,10:30,UTC,4,1016.4,29,,,14.9,-3.2,40394,3,7,3.2
2018,6,8,10:40,UTC,2,1016.3,28,,,14.2,-3.9,41341,8,7.8,3.4
2018,6,8,10:50,UTC,2,1016.1,26,,,15.6,-3.9,41044,305,5.9,2.2
2018,6,8,11:00,UTC,2,1016.2,35,,,15.4,0.1,33222,264,8.1,3.1
2018,6,8,11:10,UTC,3,1016.2,38,,,14.4,0.1,36965,198,6.8,4.4
2018,6,8,11:20,UTC,5,1016.2,38,,,13.9,-0.2,40949,181,9.4,6.5
2018,6,8,11:30,UTC,6,1016.2,38,,,14.1,0,43232,175,8.4,6
2018,6,8,11:40,UTC,7,1016.2,39,,,13.8,0,29876,188,9.2,7
2018,6,8,11:50,UTC,6,1016.4,38,,,14.3,0.1,40899,180,8.1,6.1
2018,6,8,12:00,UTC,5,1016.5,35,,,14.4,-0.9,41661,184,8,6
2018,6,8,12:10,UTC,3,1016.3,35,,,14.5,-0.7,40135,176,9.1,6.6
2018,6,8,12:20,UTC,2,1016.4,37,,,14.3,-0.3,43351,180,8.7,6.2
2018,6,8,12:30,UTC,3,1016.4,39,,,13.8,0.1,32623,177,8.9,6.1
2018,6,8,12:40,UTC,3,1016.5,38,,,13.9,-0.2,46406,183,9,6.4
2018,6,8,12:50,UTC,6,1016.4,37,,,13.5,-1,43709,197,9.3,6.3
2018,6,8,13:00,UTC,7,1016.3,35,,,13.6,-1.5,40507,195,9.2,5.8
2018,6,8,13:10,UTC,8,1016.3,35,,,13.4,-2,36817,197,9.9,6.9
2018,6,8,13:20,UTC,7,1016.3,34,,,13.6,-2.1,45709,207,11.2,6.9
2018,6,8,13:30,UTC,7,1016.2,33,,,13.6,-2.4,44467,203,9.4,6.6
2018,6,8,13:40,UTC,7,1016.1,35,,,13.2,-2.1,50000,198,9.8,7.3
2018,6,8,13:50,UTC,8,1016.1,36,,,13.6,-1.4,44391,196,9.7,7
2018,6,8,14:00,UTC,8,1016.1,34,,,13.6,-1.9,40085,199,11,7.4
2018,6,8,14:10,UTC,7,1016.1,36,,,13.2,-1.5,48652,194,10.5,7.2
2018,6,8,14:20,UTC,7,1016.1,37,,,13.6,-0.7,41070,184,9.8,6.9
2018,6,8,14:30,UTC,7,1016,38,,,13.4,-0.6,41479,179,10.5,7.6
2018,6,8,14:40,UTC,5,1016.1,42,,,13,0.3,41125,179,10.6,8
2018,6,8,14:50,UTC,2,1016.1,43,,,12.4,0.3,43121,178,10.4,7.4
2018,6,8,15:00,UTC,2,1016.1,47,,,12.9,1.7,49495,180,10.2,6.9
2018,6,8,15:10,UTC,3,1016,47,,,12.3,1.4,39244,182,10.8,7.5
2018,6,8,15:20,UTC,5,1016,50,,,12.2,2,50000,184,8.8,6.2
2018,6,8,15:30,UTC,5,1015.9,44,,,12.5,0.5,49119,189,9,6.3
2018,6,8,15:40,UTC,6,1015.8,43,,,12.7,0.5,41186,192,9.5,6.9
2018,6,8,15:50,UTC,7,1015.7,42,,,13.1,0.5,43354,189,8.9,6.2
2018,6,8,16:00,UTC,7,1015.7,42,,,12.9,0.2,45474,195,8.1,5.5
2018,6,8,16:10,UTC,8,1015.6,43,,,13.3,0.8,42908,196,8.7,5.5
2018,6,8,16:20,UTC,8,1015.6,43,,,12.7,0.4,50000,195,9.4,5.7
2018,6,8,16:30,UTC,8,1015.7,45,,,12.6,1,43208,194,6,4.4
2018,6,8,16:40,UTC,8,1015.7,44,,,12.6,0.6,50000,191,6.4,4.4
2018,6,8,16:50,UTC,7,1015.6,43,,,12.4,0,50000,198,6.9,4.3
2018,6,8,17:00,UTC,7,1015.5,43,,,12.4,0.1,50000,191,5.8,4.1
2018,6,8,17:10,UTC,7,1015.5,43,,,12.3,0,50000,190,5.2,3.9
2018,6,8,17:20,UTC,6,1015.5,44,,,12.4,0.3,46810,188,4.9,3.5
2018,6,8,17:30,UTC,7,1015.5,45,,,12.5,0.8,50000,184,4.3,2.7
2018,6,8,17:40,UTC,7,1015.4,48,,,12.5,1.7,50000,181,3.3,2.4
2018,6,8,17:50,UTC,7,1015.4,49,,,12.6,2.1,50000,166,3.5,2.3
2018,6,8,18:00,UTC,7,1015.4,50,,,12.7,2.6,50000,164,3.4,2.3
2018,6,8,18:10,UTC,8,1015.4,52,,,12.9,3.2,50000,166,2.8,2
2018,6,8,18:20,UTC,7,1015.4,54,,,13,4,50000,184,2.9,1.9
2018,6,8,18:30,UTC,7,1015.5,57,,,13,4.7,50000,180,3.2,2
2018,6,8,18:40,UTC,7,1015.5,59,,,13,5.1,50000,194,2.3,1.4
2018,6,8,18:50,UTC,7,1015.6,60,,,13,5.6,50000,206,3.4,1.9
2018,6,8,19:00,UTC,7,1015.6,62,,,13.2,5.9,50000,222,3.6,2.3
2018,6,8,19:10,UTC,7,1015.7,62,,,13.2,6.1,50000,229,3.8,2.2
2018,6,8,19:20,UTC,7,1015.6,62,,,13.2,6.2,50000,234,3.6,1.9
2018,6,8,19:30,UTC,7,1015.8,63,,,13.1,6.2,50000,231,3,1.9
2018,6,8,19:40,UTC,7,1015.8,64,,,12.9,6.1,50000,232,2.9,1.8
2018,6,8,19:50,UTC,5,1015.9,65,,,12.7,6.3,50000,234,2.9,1.6
2018,6,8,20:00,UTC,3,1016,66,,,12.5,6.4,50000,218,2.7,2.1
2018,6,8,20:10,UTC,1,1016,67,,,12.4,6.4,50000,231,2.7,1.6
2018,6,8,20:20,UTC,4,1016,70,,,11.4,6.1,50000,247,2.3,1.7
2018,6,8,20:30,UTC,6,1016.1,73,,,10.9,6.2,50000,242,1.7,1
2018,6,8,20:40,UTC,6,1016.1,71,,,11.4,6.3,50000,211,1.8,1.3
2018,6,8,20:50,UTC,7,1016.2,75,,,10.3,6.1,30890,221,1.9,1.4
2018,6,8,21:00,UTC,7,1016.2,75,,,10.5,6.3,50000,228,2.3,1.8
2018,6,8,21:10,UTC,5,1016.2,78,,,10,6.2,50000,217,2.2,1.5
2018,6,8,21:20,UTC,5,1016.2,80,,,9.5,6.3,50000,246,2.1,1.4
2018,6,8,21:30,UTC,5,1016.2,75,,,10.2,5.9,50000,303,2.1,1.7
2018,6,8,21:40,UTC,3,1016.3,77,,,8.9,5,50000,331,1.9,1.4
2018,6,8,21:50,UTC,2,1016.3,83,,,7.4,4.7,50000,0,0,0
2018,6,8,22:00,UTC,0,1016.4,83,,,7.6,5,50000,0,0,0
2018,6,8,22:10,UTC,0,1016.4,87,,,8,6,50000,154,1.1,0.7
2018,6,8,22:20,UTC,0,1016.5,84,,,8.2,5.7,50000,0,0,0
2018,6,8,22:30,UTC,0,1016.5,89,,,7.3,5.6,50000,103,1.2,0.7
2018,6,8,22:40,UTC,0,1016.5,83,,,8,5.2,50000,136,1.4,0.8
2018,6,8,22:50,UTC,0,1016.6,84,,,6.5,4,50000,0,0,0
2018,6,8,23:00,UTC,0,1016.7,89,,,6,4.3,50000,0,0,0
2018,6,8,23:10,UTC,0,1016.7,90,,,6,4.5,48775,132,1.1,0.8
2018,6,8,23:20,UTC,0,1016.7,88,,,5.7,3.9,50000,0,0,0
2018,6,8,23:30,UTC,0,1016.6,91,,,5.4,4,50000,0,0,0
2018,6,8,23:40,UTC,0,1016.7,91,,,4.8,3.3,50000,0,0,0
2018,6,8,23:50,UTC,0,1016.8,91,,,4.3,3,50000,0,0,0
2018,6,9,00:00,UTC,0,1016.8,89,,,5.2,3.6,50000,0,0,0
2018,6,9,00:10,UTC,0,1016.9,90,,,4.5,3,50000,0,0,0
2018,6,9,00:20,UTC,0,1017,93,,,4.6,3.6,48842,0,0,0
2018,6,9,00:30,UTC,0,1017,94,,,4.4,3.5,50000,67,0.7,0.5
2018,6,9,00:40,UTC,0,1017,92,,,3.8,2.7,50000,99,0.8,0.6
2018,6,9,00:50,UTC,0,1017,95,,,3.6,2.9,35373,75,0.8,0.6
2018,6,9,01:00,UTC,0,1017,94,,,3.4,2.5,50000,0,0,0
2018,6,9,01:10,UTC,0,1017,96,,,4,3.4,50000,0,0,0
2018,6,9,01:20,UTC,0,1017,95,,,3.9,3.1,43841,0,0,0
2018,6,9,01:30,UTC,0,1017,95,,,4,3.3,50000,0,0,0
2018,6,9,01:40,UTC,0,1017.1,96,,,3.8,3.1,47654,0,0,0
2018,6,9,01:50,UTC,0,1017.1,97,,,3.7,3.2,26310,0,0,0
2018,6,9,02:00,UTC,0,1017,97,,,3.8,3.4,44892,0,0,0
2018,6,9,02:10,UTC,0,1017.1,92,,,4.6,3.4,50000,0,0,0
2018,6,9,02:20,UTC,0,1017.1,91,,,4.3,3.1,50000,0,0,0
2018,6,9,02:30,UTC,0,1017.1,84,,,5.5,3,50000,0,0,0
2018,6,9,02:40,UTC,0,1017.2,84,,,5.3,2.8,50000,320,1.2,0.6
2018,6,9,02:50,UTC,0,1017.2,74,,,7.2,2.9,50000,322,1.5,0.8
2018,6,9,03:00,UTC,0,1017.2,74,,,7.7,3.4,47013,328,0.9,0.5
2018,6,9,03:10,UTC,0,1017.3,69,,,8.1,2.8,42646,327,1.6,0.9
2018,6,9,03:20,UTC,0,1017.3,69,,,8.7,3.2,43593,336,3.4,1.7
2018,6,9,03:30,UTC,0,1017.3,62,,,9.1,2.3,50000,328,4.3,3
2018,6,9,03:40,UTC,0,1017.2,61,,,9.6,2.3,47109,329,3.8,2.6
2018,6,9,03:50,UTC,0,1017.3,59,,,9.6,2,40715,329,4.9,3.1
2018,6,9,04:00,UTC,0,1017.3,58,,,9.8,1.8,44558,333,5.5,3.8
2018,6,9,04:10,UTC,0,1017.6,57,,,10.2,1.9,47249,334,5.5,4.1
2018,6,9,04:20,UTC,0,1017.5,57,,,10.4,2.2,43812,334,6.1,4.5
2018,6,9,04:30,UTC,1,1017.5,56,,,10.6,2.2,48713,324,5.5,4
2018,6,9,04:40,UTC,5,1017.5,53,,,11.6,2.5,43474,321,4.6,3.1
2018,6,9,04:50,UTC,7,1017.7,52,,,11.3,1.8,50000,326,5.9,4.2
2018,6,9,05:00,UTC,7,1017.8,52,,,12,2.5,43620,336,6.1,4.4
2018,6,9,05:10,UTC,7,1017.7,50,,,12.3,2.2,45630,337,5,3.7
2018,6,9,05:20,UTC,4,1017.6,50,,,12.6,2.5,33164,341,6.3,3.9
2018,6,9,05:30,UTC,2,1017.5,48,,,12.8,2.1,42405,335,5.4,3.7
2018,6,9,05:40,UTC,0,1017.5,46,,,13.3,1.8,38246,339,6.3,4.1
2018,6,9,05:50,UTC,0,1017.5,42,,,13.4,0.8,43653,332,6.9,4.8
2018,6,9,06:00,UTC,0,1017.6,41,,,13.6,0.5,35763,322,7.7,5
2018,6,9,06:10,UTC,0,1017.5,40,,,13.7,0.4,38717,315,7.3,5.3
2018,6,9,06:20,UTC,0,1017.5,40,,,13.7,0.2,41318,320,7,4.5
2018,6,9,06:30,UTC,0,1017.5,38,,,14.2,0.1,40612,313,6.7,5
2018,6,9,06:40,UTC,0,1017.5,38,,,13.6,-0.4,44874,313,7.2,4.6
2018,6,9,06:50,UTC,0,1017.6,36,,,13.9,-1.1,40540,319,7.7,4.9
2018,6,9,07:00,UTC,0,1017.5,35,,,14.6,-0.9,38331,319,7.1,4.4
2018,6,9,07:10,UTC,0,1017.5,35,,,14.9,-0.6,43270,317,8.3,5.7
2018,6,9,07:20,UTC,0,1017.5,35,,,14.7,-0.7,41277,321,8,5.7
2018,6,9,07:30,UTC,0,1017.6,34,,,15.4,-0.6,34064,320,8.1,4.9
2018,6,9,07:40,UTC,0,1017.8,34,,,14.9,-0.6,42982,318,7.3,4.7
2018,6,9,07:50,UTC,0,1017.8,33,,,14.8,-1.5,37692,357,7,4
2018,6,9,08:00,UTC,0,1017.7,35,,,15.2,-0.1,38168,323,9,5.3
2018,6,9,08:10,UTC,0,1017.7,35,,,15.5,0.1,38341,350,6.6,4.4
2018,6,9,08:20,UTC,0,1017.6,31,,,15.6,-1.3,37018,320,7.3,5.2
2018,6,9,08:30,UTC,0,1017.6,36,,,15.4,0.5,34536,351,7,4.6
2018,6,9,08:40,UTC,0,1017.6,36,,,15.6,0.5,42142,325,11.2,5.2
2018,6,9,08:50,UTC,2,1017.7,37,,,15.8,1,34008,332,6.3,4.1
2018,6,9,09:00,UTC,5,1017.6,36,,,16,0.8,41488,336,7.5,4.1
2018,6,9,09:10,UTC,6,1017.5,37,,,16.5,1.5,42009,316,6.2,3.4
2018,6,9,09:20,UTC,7,1017.4,35,,,16.2,0.6,39744,346,7,3.4
2018,6,9,09:30,UTC,3,1017.2,35,,,17,1.3,35610,355,6.7,3.1
2018,6,9,09:40,UTC,2,1017.1,33,,,17.1,0.6,44105,7,7.7,3.8
2018,6,9,09:50,UTC,0,1017,32,,,17.3,0.5,39392,9,7,4.2
2018,6,9,10:00,UTC,0,1017.2,30,,,17.3,-0.3,40072,18,8,3.6
2018,6,9,10:10,UTC,1,1017.1,30,,,17.6,-0.1,39113,321,7,4.6
2018,6,9,10:20,UTC,1,1017.2,31,,,17.3,-0.1,35121,347,8.2,4.5
2018,6,9,10:30,UTC,3,1017.2,31,,,17.9,0.7,46685,346,7.2,3.8
2018,6,9,10:40,UTC,3,1017.1,32,,,17.6,0.6,36835,314,5.9,3.2
2018,6,9,10:50,UTC,3,1017,31,,,18.1,0.7,34083,310,6.1,3.6
2018,6,9,11:00,UTC,4,1016.9,32,,,18.3,1.1,32729,292,8.6,4
2018,6,9,11:10,UTC,4,1017,31,,,17.7,0.4,37056,348,8,5.1
2018,6,9,11:20,UTC,5,1016.8,33,,,17.1,0.8,48721,36,3.9,2.1
2018,6,9,11:30,UTC,6,1016.7,32,,,18,1.2,47410,324,6.6,3.9
2018,6,9,11:40,UTC,7,1016.7,31,,,18,0.7,41433,339,7.8,3.9
2018,6,9,11:50,UTC,8,1016.8,33,,,17.4,0.9,43216,333,6.7,4.1
2018,6,9,12:00,UTC,8,1016.7,32,,,17.3,0.5,47843,332,6.4,2.9
2018,6,9,12:10,UTC,8,1016.7,34,,,17.6,1.5,44811,336,5.6,2.6
2018,6,9,12:20,UTC,8,1016.7,32,,,17.3,0.3,41228,296,5,3
2018,6,9,12:30,UTC,8,1016.7,33,,,17.3,0.9,46353,332,5.4,3.8
2018,6,9,12:40,UTC,8,1016.6,33,,,17.3,1,49972,309,6.2,4
2018,6,9,12:50,UTC,8,1016.5,33,,,17.5,1.3,47208,299,5.8,3.6
2018,6,9,13:00,UTC,8,1016.5,33,,,17.6,0.9,42957,321,5.3,3.7
2018,6,9,13:10,UTC,8,1016.4,33,,,17.4,1.1,45098,323,5.2,3.5
2018,6,9,13:20,UTC,8,1016.4,33,,,17.6,1.3,48125,292,6.3,3.8
2018,6,9,13:30,UTC,8,1016.4,33,,,17.2,0.9,50000,313,6.2,4
2018,6,9,13:40,UTC,8,1016.3,33,,,17.6,1.3,47891,282,5.9,3
2018,6,9,13:50,UTC,8,1016.3,35,,,17.3,1.8,45440,288,7.7,4.7
2018,6,9,14:00,UTC,8,1016.2,36,,,17.2,1.8,46215,317,6,3.2
2018,6,9,14:10,UTC,8,1016.3,35,,,17.1,1.6,50000,315,4.9,2.9
2018,6,9,14:20,UTC,8,1016.2,36,,,17.2,2,50000,336,5.1,2.9
2018,6,9,14:30,UTC,8,1016.2,35,,,17.1,1.4,50000,347,5.6,3.5
2018,6,9,14:40,UTC,8,1016.1,34,,,17.1,1.2,50000,331,5.8,3.6
2018,6,9,14:50,UTC,8,1016.1,35,,,17.3,1.7,39850,316,4.7,2.8
2018,6,9,15:00,UTC,8,1016,36,,,17.1,1.8,47965,314,3.7,2.1
2018,6,9,15:10,UTC,8,1016,42,,,17,3.9,49947,99,2.6,0.8
2018,6,9,15:20,UTC,8,1015.9,42,,,17.4,4.2,39954,188,3.3,2.3
2018,6,9,15:30,UTC,8,1015.9,42,,,17.1,3.9,44179,195,3.6,2.6
2018,6,9,15:40,UTC,8,1015.8,41,,,17.2,3.8,45475,190,4.4,3.5
2018,6,9,15:50,UTC,8,1015.7,39,,,17.6,3.3,38515,183,4.6,3.2
2018,6,9,16:00,UTC,8,1015.8,37,,,17.7,2.6,49672,180,5.1,3.8
2018,6,9,16:10,UTC,8,1015.7,38,,,17.4,2.8,45054,190,5.3,4
2018,6,9,16:20,UTC,7,1015.7,41,,,16.9,3.4,44224,190,5.4,4.2
2018,6,9,16:30,UTC,4,1015.6,41,,,16.7,3.4,42418,187,5,3.6
2018,6,9,16:40,UTC,2,1015.6,42,,,16.8,3.8,44510,189,4.3,3.3
2018,6,9,16:50,UTC,0,1015.6,43,,,16.7,4.1,38345,189,3.6,2.6
2018,6,9,17:00,UTC,0,1015.6,43,,,16.5,3.9,44188,167,3.2,2.1
2018,6,9,17:10,UTC,0,1015.5,44,,,16.6,4.2,47166,163,2.7,1.9
2018,6,9,17:20,UTC,0,1015.4,43,,,16.6,4.1,41668,148,3.1,1.9
2018,6,9,17:30,UTC,0,1015.4,45,,,16.4,4.3,44531,156,2.5,1.8
2018,6,9,17:40,UTC,0,1015.3,45,,,16.1,4,44955,131,2.7,1.9
2018,6,9,17:50,UTC,0,1015.3,46,,,15.8,4.1,46588,132,3.2,2
2018,6,9,18:00,UTC,0,1015.3,45,,,15.9,4,49295,153,2.8,2.2
2018,6,9,18:10,UTC,0,1015.2,45,,,15.7,3.9,47887,152,2.6,1.9
2018,6,9,18:20,UTC,0,1015.1,46,,,15.5,4,44706,147,2.6,2
2018,6,9,18:30,UTC,0,1015.1,50,,,14.8,4.3,50000,139,2.9,2
2018,6,9,18:40,UTC,0,1015.1,53,,,14.2,4.8,43045,103,2.2,1.4
2018,6,9,18:50,UTC,0,1015.1,54,,,13.9,4.8,45954,112,1.7,1.4
2018,6,9,19:00,UTC,0,1015.1,56,,,13.5,4.9,50000,118,1.4,1.1
2018,6,9,19:10,UTC,1,1015.1,61,,,12.7,5.3,50000,108,1.5,1.3
2018,6,9,19:20,UTC,0,1015.1,63,,,12.1,5.1,50000,106,1.5,1.1
2018,6,9,19:30,UTC,0,1015.2,65,,,11.5,5.2,50000,84,1.5,0.9
2018,6,9,19:40,UTC,0,1015.2,67,,,11.1,5.2,28832,100,1.5,0.9
2018,6,9,19:50,UTC,0,1015.2,70,,,10.6,5.3,24883,93,1.5,1.1
2018,6,9,20:00,UTC,0,1015.2,70,,,10.2,5,39110,78,1.3,0.7
2018,6,9,20:10,UTC,0,1015.1,72,,,9.9,5.1,46574,0,0,0
2018,6,9,20:20,UTC,0,1015.1,74,,,9.9,5.4,41566,0,0,0
2018,6,9,20:30,UTC,0,1015.1,73,,,9.8,5.2,47621,128,1.4,0.9
2018,6,9,20:40,UTC,0,1015.1,73,,,8.8,4.2,50000,106,1.1,0.8
2018,6,9,20:50,UTC,0,1015.2,76,,,9.2,5.2,47016,115,1,0.5
2018,6,9,21:00,UTC,0,1015.2,74,,,9.8,5.2,50000,144,1.3,0.9
2018,6,9,21:10,UTC,0,1015.1,74,,,9.2,4.8,49895,0,0,0
2018,6,9,21:20,UTC,0,1015.1,78,,,8.7,5,48313,121,1.1,0.6
2018,6,9,21:30,UTC,0,1015.1,79,,,8.6,5.2,50000,99,0.9,0.7
2018,6,9,21:40,UTC,0,1015.1,81,,,7.9,4.7,49876,27,0.9,0.7
2018,6,9,21:50,UTC,0,1015.2,82,,,7.3,4.4,49174,136,1.1,0.7
2018,6,9,22:00,UTC,0,1015.3,85,,,7.9,5.5,50000,107,0.8,0.5
2018,6,9,22:10,UTC,0,1015.2,82,,,8,5.2,46749,147,1,0.5
2018,6,9,22:20,UTC,0,1015.2,85,,,7.4,5,50000,0,0,0
2018,6,9,22:30,UTC,1,1015.2,84,,,7,4.5,45816,0,0,0
2018,6,9,22:40,UTC,1,1015.2,87,,,7,4.9,42482,0,0,0
2018,6,9,22:50,UTC,1,1015.1,89,,,6.8,5.1,46843,117,1.1,0.6
2018,6,9,23:00,UTC,0,1015.1,86,,,6.7,4.6,48685,100,1,0.6
2018,6,9,23:10,UTC,0,1015.1,91,,,6.4,5,44419,0,0,0
2018,6,9,23:20,UTC,0,1015.2,89,,,6.2,4.5,47797,0,0,0
2018,6,9,23:30,UTC,0,1015.2,92,,,6.3,5,48182,0,0,0
2018,6,9,23:40,UTC,0,1015.2,92,,,6.5,5.2,47024,0,0,0
2018,6,9,23:50,UTC,0,1015.1,93,,,6.1,5.1,46892,0,0,0
2018,6,10,00:00,UTC,0,1015.1,90,,,5.4,4,45518,0,0,0
2018,6,10,00:10,UTC,0,1015.1,93,,,5.5,4.5,38721,88,0.8,0.5
2018,6,10,00:20,UTC,0,1015,93,,,5.9,4.9,44323,92,0.9,0.6
2018,6,10,00:30,UTC,0,1015,94,,,5.6,4.6,44935,110,1,0.7
2018,6,10,00:40,UTC,0,1014.9,93,,,5.2,4.3,45515,0,0,0
2018,6,10,00:50,UTC,0,1014.9,95,,,5.6,4.8,41912,111,0.9,0.7
2018,6,10,01:00,UTC,0,1014.8,95,,,5.3,4.6,39531,82,0.8,0.6
2018,6,10,01:10,UTC,0,1014.7,96,,,5.4,4.9,38460,38,0.9,0.7
2018,6,10,01:20,UTC,0,1014.6,95,,,4.8,4.1,36496,0,0,0
2018,6,10,01:30,UTC,0,1014.6,96,,,5.1,4.5,44505,0,0,0
2018,6,10,01:40,UTC,0,1014.5,95,,,5.1,4.5,43114,0,0,0
2018,6,10,01:50,UTC,0,1014.5,95,,,5.1,4.4,49632,141,0.8,0.5
2018,6,10,02:00,UTC,0,1014.6,93,,,5.2,4.1,50000,0,0,0
2018,6,10,02:10,UTC,0,1014.6,94,,,5.3,4.5,47884,0,0,0
2018,6,10,02:20,UTC,0,1014.6,95,,,5.4,4.6,41740,0,0,0
2018,6,10,02:30,UTC,0,1014.6,93,,,5.7,4.8,43964,0,0,0
2018,6,10,02:40,UTC,0,1014.5,90,,,6.7,5.2,47492,62,1.1,0.6
2018,6,10,02:50,UTC,0,1014.5,89,,,7.1,5.5,39856,130,1.1,0.6
2018,6,10,03:00,UTC,0,1014.4,87,,,7.6,5.5,41628,121,0.8,0.6
2018,6,10,03:10,UTC,0,1014.4,83,,,8.5,5.8,46606,145,1,0.6
2018,6,10,03:20,UTC,0,1014.4,80,,,9.1,5.8,43246,0,0,0
2018,6,10,03:30,UTC,0,1014.3,78,,,10,6.4,44554,0,0,0
2018,6,10,03:40,UTC,0,1014.4,69,,,11.3,5.8,47299,0,0,0
2018,6,10,03:50,UTC,0,1014.2,70,,,11.5,6.3,46991,0,0,0
2018,6,10,04:00,UTC,0,1014.1,67,,,12.1,6.2,40864,32,1.1,0.7
2018,6,10,04:10,UTC,0,1014.2,65,,,12.2,5.7,46254,327,1.6,1
2018,6,10,04:20,UTC,0,1014.1,65,,,12.7,6.2,50000,358,1.3,0.8
2018,6,10,04:30,UTC,0,1014.1,63,,,13.3,6.3,40273,71,1.1,0.6
2018,6,10,04:40,UTC,0,1014,60,,,13.7,6.2,43743,119,1.1,0.5
2018,6,10,04:50,UTC,0,1013.9,59,,,14.1,6.1,41330,103,1.2,0.5
2018,6,10,05:00,UTC,0,1013.9,58,,,14.8,6.5,47998,60,1.5,0.7
2018,6,10,05:10,UTC,0,1013.7,55,,,14.7,5.8,35923,55,1.8,0.9
2018,6,10,05:20,UTC,0,1013.7,50,,,15,4.7,44999,93,1.6,0.8
2018,6,10,05:30,UTC,0,1013.7,49,,,15.3,4.6,48087,90,1.8,0.9
2018,6,10,05:40,UTC,0,1013.7,45,,,15.4,3.7,42158,265,2.5,1.2
2018,6,10,05:50,UTC,0,1013.6,46,,,15.7,4.2,46808,243,3,1.8
2018,6,10,06:00,UTC,0,1013.7,47,,,15.8,4.7,40730,233,2.7,1.7
2018,6,10,06:10,UTC,0,1013.6,46,,,16,4.3,47546,236,2.8,1.6
2018,6,10,06:20,UTC,0,1013.5,44,,,17.2,5,44724,123,1.6,0.7
2018,6,10,06:30,UTC,0,1013.5,45,,,16.6,4.7,44601,198,2.8,1.3
2018,6,10,06:40,UTC,0,1013.4,46,,,16.7,5.1,42904,147,2.8,1.5
2018,6,10,06:50,UTC,0,1013.2,45,,,17.2,5.2,44988,151,3.3,1.6
2018,6,10,07:00,UTC,0,1013.1,46,,,17.2,5.4,43298,154,3.8,1.9
2018,6,10,07:10,UTC,0,1013,44,,,17.6,5,35103,202,4,1.7
2018,6,10,07:20,UTC,0,1012.9,43,,,17.3,4.6,42462,158,4.4,2.9
2018,6,10,07:30,UTC,0,1012.9,42,,,17.6,4.5,38527,169,3.5,1.7
2018,6,10,07:40,UTC,0,1012.8,41,,,17.7,4.1,35117,183,4.7,2.8
2018,6,10,07:50,UTC,0,1012.8,41,,,17.4,3.9,45235,186,5,3.2
2018,6,10,08:00,UTC,0,1012.7,41,,,17.6,4.1,40132,197,5.5,3.4
2018,6,10,08:10,UTC,0,1012.6,40,,,18.3,4.6,36308,201,5.6,3.5
2018,6,10,08:20,UTC,0,1012.6,39,,,18.1,3.8,40942,205,5.8,3.5
2018,6,10,08:30,UTC,0,1012.6,39,,,17.7,3.5,41730,203,5.9,3.7
2018,6,10,08:40,UTC,0,1012.6,39,,,17.9,3.7,37020,191,5.6,3.9
2018,6,10,08:50,UTC,0,1012.6,38,,,18.1,3.5,43888,190,6.1,4.4
2018,6,10,09:00,UTC,0,1012.6,38,,,18.3,3.8,37511,198,6.3,4.5
2018,6,10,09:10,UTC,0,1012.5,38,,,17.6,3.2,34049,203,6.2,4.8
2018,6,10,09:20,UTC,0,1012.4,38,,,18,3.5,40768,186,6.2,4.9
2018,6,10,09:30,UTC,0,1012.3,40,,,17.8,3.9,37572,184,5.8,4.7
2018,6,10,09:40,UTC,0,1012.4,42,,,17.7,4.4,44856,181,5.8,4.5
2018,6,10,09:50,UTC,0,1012.3,43,,,17.7,5.1,37768,181,5.5,4.2
2018,6,10,10:00,UTC,0,1012.2,43,,,18.3,5.5,34869,191,6.1,4.4
2018,6,10,10:10,UTC,0,1012.2,41,,,18.5,5.2,40142,198,6.2,4.9
2018,6,10,10:20,UTC,0,1012.1,41,,,18.3,4.9,38037,192,6.8,4.7
2018,6,10,10:30,UTC,0,1012,41,,,18.6,5.1,35942,195,6.4,4.6
2018,6,10,10:40,UTC,0,1012.1,41,,,18.2,4.9,41840,193,6.9,4.6
2018,6,10,10:50,UTC,0,1012.1,42,,,18.4,5.3,25718,206,6.8,5.3
2018,6,10,11:00,UTC,0,1012.2,41,,,17.7,4.3,35940,204,7.2,5.4
2018,6,10,11:10,UTC,0,1012.3,41,,,17.7,4.4,41321,192,7.8,5.8
2018,6,10,11:20,UTC,0,1012.2,40,,,18.7,4.9,33550,184,6.2,4.7
2018,6,10,11:30,UTC,0,1012.3,42,,,18.2,5,42143,188,6.7,4.9
2018,6,10,11:40,UTC,0,1012.2,41,,,18,4.5,37292,176,6.6,5.2
2018,6,10,11:50,UTC,0,1012.2,42,,,18.5,5.2,31532,175,6.5,5.1
2018,6,10,12:00,UTC,0,1012.2,41,,,18.7,5.1,33124,182,6.7,4.8
2018,6,10,12:10,UTC,0,1012.2,41,,,18,4.5,41270,194,6.5,5.2
2018,6,10,12:20,UTC,0,1012.1,40,,,18.8,4.9,30480,185,7.3,5.1
2018,6,10,12:30,UTC,1,1012,41,,,18.3,4.9,38453,180,7.2,4.8
2018,6,10,12:40,UTC,5,1012,42,,,18.5,5.4,42819,177,7.3,5
2018,6,10,12:50,UTC,7,1011.9,43,,,18.2,5.4,37146,200,6.4,4.6
2018,6,10,13:00,UTC,8,1011.7,45,,,17.8,5.6,44592,178,5.4,4
2018,6,10,13:10,UTC,8,1011.6,43,,,18.6,5.7,41662,181,5.5,4.1
2018,6,10,13:20,UTC,8,1011.4,42,,,18.9,5.7,43252,199,6.4,4.7
2018,6,10,13:30,UTC,7,1011.5,44,,,18.8,6.1,40242,204,6,4.4
2018,6,10,13:40,UTC,7,1011.3,42,,,19.2,6,39958,195,5.9,4
2018,6,10,13:50,UTC,7,1011.3,39,,,19.7,5.4,42824,181,5.8,4.2
2018,6,10,14:00,UTC,7,1011.3,42,,,18.8,5.5,41953,176,6,4.3
2018,6,10,14:10,UTC,6,1011.3,40,,,19.5,5.3,34854,181,5.1,3.2
2018,6,10,14:20,UTC,7,1011.2,42,,,19.1,5.8,36694,184,5.2,3.7
2018,6,10,14:30,UTC,7,1011.1,46,,,18.7,6.8,36355,188,5,3.7
2018,6,10,14:40,UTC,7,1010.9,42,,,19.7,6.5,37751,179,4.9,3.1
2018,6,10,14:50,UTC,7,1010.9,43,,,19.1,6.3,32989,187,5.1,3.6
2018,6,10,15:00,UTC,7,1010.8,46,,,18.1,6.3,42401,186,6.2,4.8
2018,6,10,15:10,UTC,7,1010.7,46,,,17.9,6.2,44401,195,5.2,3.3
2018,6,10,15:20,UTC,7,1010.6,45,,,18,5.9,42542,187,3.9,2.8
2018,6,10,15:30,UTC,8,1010.5,45,,,17.9,5.8,47348,174,4.3,3.1
2018,6,10,15:40,UTC,7,1010.5,49,,,17.4,6.4,50000,177,6,4.1
2018,6,10,15:50,UTC,7,1010.5,47,,,16.9,5.5,50000,176,5.6,3.9
2018,6,10,16:00,UTC,7,1010.5,47,,,16.8,5.4,50000,185,4.9,3.5
2018,6,10,16:10,UTC,8,1010.3,46,,,16.5,4.8,50000,182,4.5,3.2
2018,6,10,16:20,UTC,8,1010.2,46,,,16.7,5.1,50000,182,4.5,2.9
2018,6,10,16:30,UTC,7,1010.1,47,,,16.4,5.1,46048,167,4.5,3.1
2018,6,10,16:40,UTC,7,1010.1,48,,,16.3,5.3,43257,173,5.4,3.6
2018,6,10,16:50,UTC,6,1010,50,,,16.1,5.6,46818,170,4.7,3.2
2018,6,10,17:00,UTC,6,1009.9,52,,,15.9,6.1,50000,160,4.8,2.8
2018,6,10,17:10,UTC,7,1009.8,52,,,16.1,6.2,42941,179,4.9,3.1
2018,6,10,17:20,UTC,7,1009.8,52,,,16.3,6.3,44265,180,3.8,2.4
2018,6,10,17:30,UTC,4,1009.7,51,,,16.4,6.2,48525,171,3.5,2.3
2018,6,10,17:40,UTC,2,1009.6,53,,,16.5,6.7,44367,176,3.6,2.2
2018,6,10,17:50,UTC,1,1009.6,56,,,16,7.3,49155,198,3.4,2.5
2018,6,10,18:00,UTC,0,1009.6,61,,,15.6,8,50000,198,3.5,2.7
2018,6,10,18:10,UTC,1,1009.5,61,,,15.5,7.9,43189,186,4.9,3.4
2018,6,10,18:20,UTC,3,1009.5,59,,,15.1,7.2,47629,174,5.9,3.7
2018,6,10,18:30,UTC,6,1009.5,62,,,14.9,7.8,49869,176,4.8,3.6
2018,6,10,18:40,UTC,5,1009.3,67,,,14.9,8.8,46544,173,4.9,3.7
2018,6,10,18:50,UTC,4,1009.2,67,,,14.8,8.8,50000,176,4.2,2.9
2018,6,10,19:00,UTC,2,1009.2,67,,,14.7,8.7,50000,170,2.5,1.8
2018,6,10,19:10,UTC,1,1009.2,71,,,14.3,9.1,48562,194,2.2,1.8
2018,6,10,19:20,UTC,1,1009.2,71,,,14.3,9.1,46824,181,3.3,1.4
2018,6,10,19:30,UTC,0,1009.2,73,,,14.3,9.4,50000,178,3.2,2.4
2018,6,10,19:40,UTC,0,1009.2,74,,,14.2,9.6,50000,174,3,2.2
2018,6,10,19:50,UTC,0,1009.2,75,,,14,9.6,50000,182,2.9,2
2018,6,10,20:00,UTC,1,1009.3,74,,,14,9.5,50000,172,2.8,2.1
2018,6,10,20:10,UTC,1,1009.2,73,,,13.9,9.2,50000,177,2.9,2.1
2018,6,10,20:20,UTC,2,1009.2,73,,,13.9,9.2,50000,169,2.6,1.9
2018,6,10,20:30,UTC,3,1009.1,77,,,12.7,8.8,50000,158,2.3,1.5
2018,6,10,20:40,UTC,1,1008.9,83,,,11.9,9,50000,122,2.2,1.4
2018,6,10,20:50,UTC,1,1008.8,83,,,11.7,9,50000,109,2,1.6
2018,6,10,21:00,UTC,0,1008.7,84,,,11.5,8.9,50000,125,1.7,1.4
2018,6,10,21:10,UTC,1,1008.6,82,,,11.3,8.4,50000,141,3,2
2018,6,10,21:20,UTC,1,1008.5,80,,,11.5,8.2,49268,145,2.7,2
2018,6,10,21:30,UTC,1,1008.5,82,,,11.5,8.4,50000,121,1.9,1.5
2018,6,10,21:40,UTC,3,1008.5,85,,,10.6,8.1,50000,134,2.2,1.7
2018,6,10,21:50,UTC,2,1008.4,80,,,11.7,8.3,50000,150,2.1,1.5
2018,6,10,22:00,UTC,6,1008.4,84,,,10.6,8,50000,114,1,0.6
2018,6,10,22:10,UTC,6,1008.3,85,,,10.8,8.4,50000,0,0,0
2018,6,10,22:20,UTC,7,1008.3,86,,,10.7,8.4,50000,80,1.2,0.6
2018,6,10,22:30,UTC,6,1008.1,86,,,10.3,8.1,46936,100,1.4,0.9
2018,6,10,22:40,UTC,7,1008,85,,,10.6,8.2,48185,127,1.4,0.9
2018,6,10,22:50,UTC,7,1007.9,85,,,10.7,8.3,50000,180,1.5,0.6
2018,6,10,23:00,UTC,4,1007.9,85,,,11.2,8.7,50000,181,2.4,1
2018,6,10,23:10,UTC,3,1007.7,83,,,12.7,10,50000,168,2.9,1.8
2018,6,10,23:20,UTC,3,1007.7,84,,,11.1,8.5,49498,178,2.4,1.4
2018,6,10,23:30,UTC,3,1007.6,89,,,10.8,9,50000,191,1.7,1
2018,6,10,23:40,UTC,4,1007.5,89,,,11,9.3,50000,184,2,1.1
2018,6,10,23:50,UTC,2,1007.4,89,,,11,9.2,50000,187,1.3,0.7
2018,6,11,00:00,UTC,2,1007.3,85,,,11.3,8.9,50000,160,1.5,0.8
2018,6,11,00:10,UTC,1,1007.2,88,,,11.2,9.3,50000,134,1.9,1.2
2018,6,11,00:20,UTC,2,1007.2,84,,,10.4,7.9,41480,160,2,1
2018,6,11,00:30,UTC,3,1007.1,91,,,11,9.7,48239,167,1.5,0.8
2018,6,11,00:40,UTC,5,1007,87,,,11.8,9.7,50000,156,1.4,1
2018,6,11,00:50,UTC,5,1006.8,85,,,12.2,9.7,50000,161,2.2,1
2018,6,11,01:00,UTC,4,1006.7,86,,,11.9,9.7,45706,154,2.8,1.7
2018,6,11,01:10,UTC,6,1006.6,82,,,13.3,10.3,47036,176,3,2.2
2018,6,11,01:20,UTC,7,1006.5,82,,,13.3,10.3,50000,195,2.8,2
2018,6,11,01:30,UTC,7,1006.3,78,,,14,10.2,49817,191,3.7,2.3
2018,6,11,01:40,UTC,6,1006.3,78,,,13.7,10,49009,235,2.9,1.9
2018,6,11,01:50,UTC,5,1006.2,79,,,13.8,10.2,48160,211,3.1,2.3
2018,6,11,02:00,UTC,5,1006.1,79,,,13.8,10.2,47087,205,3.9,2.5
2018,6,11,02:10,UTC,3,1005.9,77,,,13.9,10,48479,206,3.8,2.8
2018,6,11,02:20,UTC,4,1005.8,78,,,13.8,10,50000,199,3.6,2.4
2018,6,11,02:30,UTC,5,1005.8,78,,,13.9,10.2,46994,194,3.7,2.3
2018,6,11,02:40,UTC,5,1005.7,77,,,14.1,10.1,44809,205,4.2,2.7
2018,6,11,02:50,UTC,5,1005.7,76,,,14.2,10.1,40816,208,4.3,2.4
2018,6,11,03:00,UTC,6,1005.6,74,,,14.7,10,45034,194,4,2.6
2018,6,11,03:10,UTC,7,1005.4,72,,,14.9,9.8,45868,193,4.8,3.4
2018,6,11,03:20,UTC,7,1005.5,71,,,15,9.8,46609,201,5.1,2.8
2018,6,11,03:30,UTC,7,1005.4,71,,,15,9.8,50000,197,3.1,2
2018,6,11,03:40,UTC,7,1005.3,70,,,15.1,9.7,47985,194,3.6,2.4
2018,6,11,03:50,UTC,7,1005.3,70,,,15.3,9.9,38873,197,4.3,2.9
2018,6,11,04:00,UTC,7,1005.2,70,,,15.7,10.1,37981,194,4.5,3.2
2018,6,11,04:10,UTC,7,1005.1,71,,,15.6,10.3,30979,194,5,2.9
2018,6,11,04:20,UTC,7,1005.1,70,,,15.7,10.3,39255,196,3.7,2.7
2018,6,11,04:30,UTC,6,1005,68,,,15.9,10,37369,202,4,2.8
2018,6,11,04:40,UTC,3,1004.9,68,,,16.2,10.2,38969,200,3.7,2.6
2018,6,11,04:50,UTC,1,1004.9,66,,,16.4,10.1,38527,203,3.5,2
2018,6,11,05:00,UTC,0,1004.9,61,,,17.6,10.1,31018,224,4,2.2
2018,6,11,05:10,UTC,4,1004.9,60,,,17.8,9.9,33573,239,5.2,2.6
2018,6,11,05:20,UTC,4,1004.9,59,,,17.9,9.8,42605,232,5,2.8
2018,6,11,05:30,UTC,4,1004.9,58,,,18.1,9.8,34420,226,4.1,2.4
2018,6,11,05:40,UTC,4,1004.9,56,,,18.6,9.5,41443,251,4.1,2.5
2018,6,11,05:50,UTC,3,1004.9,55,,,18.8,9.5,41208,281,5.2,3.8
2018,6,11,06:00,UTC,2,1004.8,50,,,19.3,8.7,35953,270,5.4,3.4
2018,6,11,06:10,UTC,1,1004.8,48,,,19.8,8.5,41094,283,5.7,3.6
2018,6,11,06:20,UTC,0,1004.7,47,,,20,8.4,41692,277,7.2,3.9
2018,6,11,06:30,UTC,0,1004.6,46,,,20.5,8.4,39438,266,6.1,4.1
2018,6,11,06:40,UTC,0,1004.5,45,,,20.4,8.2,36978,271,5.8,4
2018,6,11,06:50,UTC,1,1004.4,46,,,21,8.9,39838,274,5.2,3.8
2018,6,11,07:00,UTC,1,1004.3,45,,,20.9,8.5,32486,286,6.7,3.9
2018,6,11,07:10,UTC,1,1004.2,44,,,21.6,8.9,36691,272,5.3,3.5
2018,6,11,07:20,UTC,1,1004,44,,,21.9,9.1,40252,266,5.5,3
2018,6,11,07:30,UTC,0,1003.9,43,,,21.8,8.7,36531,243,5,3.1
2018,6,11,07:40,UTC,3,1003.8,44,,,22.2,9.4,38722,242,3.5,1.8
2018,6,11,07:50,UTC,3,1003.7,43,,,22.8,9.7,40983,180,4.1,2.2
2018,6,11,08:00,UTC,2,1003.6,45,,,22.9,10.3,39280,184,4.4,2.9
2018,6,11,08:10,UTC,1,1003.5,43,,,22.7,9.6,30397,168,4.2,2.4
2018,6,11,08:20,UTC,0,1003.4,44,,,23,9.9,33803,172,5.7,2.4
2018,6,11,08:30,UTC,0,1003.2,43,,,23.2,10,31553,173,5.4,3.2
2018,6,11,08:40,UTC,0,1003.1,41,,,23.2,9.4,28146,189,5,3.2
2018,6,11,08:50,UTC,0,1003,41,,,23.5,9.3,32649,192,4.6,2.9
2018,6,11,09:00,UTC,0,1002.9,40,,,23.6,9.1,32357,183,5.4,3.2
2018,6,11,09:10,UTC,3,1002.9,40,,,23.4,9.1,28903,190,5.6,3.7
2018,6,11,09:20,UTC,2,1002.8,39,,,23.5,8.8,34442,181,6.8,4.6
2018,6,11,09:30,UTC,5,1002.8,40,,,23.2,8.8,35270,194,7.4,5.7
2018,6,11,09:40,UTC,4,1002.8,38,,,21.9,7.1,30707,195,8.3,6.1
2018,6,11,09:50,UTC,4,1002.8,42,,,22,8.4,34425,190,8.1,5.9
2018,6,11,10:00,UTC,5,1002.7,42,,,21.8,8.5,38804,177,8,5.5
2018,6,11,10:10,UTC,6,1002.5,41,,,22.3,8.5,38604,176,6.8,5.2
2018,6,11,10:20,UTC,7,1002.4,42,,,22.6,9,32027,187,6.6,4.9
2018,6,11,10:30,UTC,4,1002.3,40,,,22.2,8.1,38263,180,6.3,4.6
2018,6,11,10:40,UTC,2,1002.3,40,,,23.4,8.8,39148,181,7,4.8
2018,6,11,10:50,UTC,0,1002.2,41,,,23,8.9,26901,179,6.5,4.7
2018,6,11,11:00,UTC,1,1002.1,40,,,23.3,8.9,43600,185,5.8,4.1
2018,6,11,11:10,UTC,0,1002.1,39,,,23.4,8.5,35665,178,6.1,4.2
2018,6,11,11:20,UTC,0,1002,37,,,24,8.6,41066,190,6.2,4.2
2018,6,11,11:30,UTC,1,1001.8,37,,,24.8,9.3,28816,208,6.6,3.9
2018,6,11,11:40,UTC,2,1001.7,39,,,23.8,8.8,38816,206,8.1,5.5
2018,6,11,11:50,UTC,1,1001.5,40,,,23.8,9.3,31841,198,7.6,5.4
2018,6,11,12:00,UTC,1,1001.4,40,,,23.2,8.7,32661,202,8.3,5.5
2018,6,11,12:10,UTC,0,1001.4,39,,,24,9.3,38121,201,7.8,4.9
2018,6,11,12:20,UTC,0,1001.3,39,,,24.3,9.6,35985,208,8.1,5.2
2018,6,11,12:30,UTC,0,1001.1,41,,,23.8,9.8,30065,189,6.5,4.6
2018,6,11,12:40,UTC,2,1001.1,40,,,24,9.8,33698,187,7.3,5
2018,6,11,12:50,UTC,2,1001,43,,,23.2,9.8,41048,187,7.6,5.7
2018,6,11,13:00,UTC,2,1001.1,46,,,22,9.8,37176,183,7.8,5.6
2018,6,11,13:10,UTC,1,1001,48,,,21.3,9.9,35899,170,7.2,5.5
2018,6,11,13:20,UTC,0,1000.8,50,,,21.6,10.6,36218,176,7.1,4.9
2018,6,11,13:30,UTC,0,1000.8,49,,,21.6,10.5,40658,182,7,5.2
2018,6,11,13:40,UTC,0,1000.7,52,,,21,10.9,33879,183,6.8,4.9
2018,6,11,13:50,UTC,0,1000.6,53,,,20.6,10.7,32906,186,7.1,5.5
2018,6,11,14:00,UTC,0,1000.5,55,,,20.2,10.9,29057,181,8.5,6.2
2018,6,11,14:10,UTC,0,1000.4,56,,,20.1,11.2,32598,176,7.5,5.4
2018,6,11,14:20,UTC,3,1000.3,54,,,20.7,11.1,37524,184,7.3,5.1
2018,6,11,14:30,UTC,6,1000.2,54,,,20.5,10.9,29907,191,7.7,5
2018,6,11,14:40,UTC,7,1000.1,54,,,20.4,10.9,35550,190,7.3,5.6
2018,6,11,14:50,UTC,7,1000,54,,,20.4,10.9,38499,191,6.6,5
2018,6,11,15:00,UTC,7,999.9,49,,,21.5,10.2,31533,186,6.1,4.3
2018,6,11,15:10,UTC,7,999.6,44,,,21.8,8.9,33084,184,6.2,4.7
2018,6,11,15:20,UTC,7,999.6,42,,,22,8.6,36226,178,6.2,4.5
2018,6,11,15:30,UTC,7,999.4,41,,,21.5,7.7,35850,174,5.8,3.9
2018,6,11,15:40,UTC,7,999.4,41,,,21.5,7.8,45558,178,5,3.8
2018,6,11,15:50,UTC,7,999.3,43,,,21.1,7.9,44054,181,5.4,4
2018,6,11,16:00,UTC,4,999.2,45,,,21.1,8.5,40235,186,5,3.8
2018,6,11,16:10,UTC,2,999.1,46,,,21.3,9.2,37120,187,4.9,3.5
2018,6,11,16:20,UTC,0,999,47,,,21.3,9.6,41420,187,4.4,3.4
2018,6,11,16:30,UTC,3,998.9,48,,,21.4,10.1,33620,185,4.1,2.9
2018,6,11,16:40,UTC,2,999,52,,,20.8,10.7,37259,192,4.5,3.3
2018,6,11,16:50,UTC,5,998.9,55,,,20.6,11.2,39701,187,4.1,2.8
2018,6,11,17:00,UTC,5,998.9,57,,,20.3,11.6,43741,188,4.4,3.3
2018,6,11,17:10,UTC,7,998.9,57,,,20.4,11.6,38753,191,4.3,3.2
2018,6,11,17:20,UTC,7,998.8,59,,,20.1,12,45224,185,4.2,3.2
2018,6,11,17:30,UTC,7,998.6,59,,,20.4,12.1,43372,176,4,2.5
2018,6,11,17:40,UTC,7,998.6,59,,,20.5,12.2,41052,185,3.5,2.6
2018,6,11,17:50,UTC,7,998.6,60,,,20.3,12.3,41546,184,4.8,3.3
2018,6,11,18:00,UTC,7,998.5,62,,,20.1,12.5,37916,174,3.9,3
2018,6,11,18:10,UTC,8,998.5,63,,,19.6,12.4,43394,176,4.7,3.2
2018,6,11,18:20,UTC,8,998.5,65,,,19.3,12.5,42637,178,4.2,3.1
2018,6,11,18:30,UTC,8,998.5,66,,,19,12.6,42195,185,4.8,3.6
2018,6,11,18:40,UTC,8,998.4,66,,,19.1,12.6,39538,192,4.4,3.1
2018,6,11,18:50,UTC,8,998.5,66,,,19.3,12.7,44513,196,4.1,2.9
2018,6,11,19:00,UTC,8,998.4,64,,,19.7,12.6,42043,215,4.5,3.1
2018,6,11,19:10,UTC,8,998.4,63,,,19.8,12.5,46704,234,4.3,2.8
2018,6,11,19:20,UTC,8,998.5,61,,,20.1,12.3,46568,257,5.2,3.4
2018,6,11,19:30,UTC,8,998.5,61,,,20,12.3,39051,246,5.8,3.9
2018,6,11,19:40,UTC,8,998.5,62,,,19.9,12.5,36354,261,6.9,4.1
2018,6,11,19:50,UTC,8,998.4,65,,,19.6,12.7,37232,263,5.5,3.2
2018,6,11,20:00,UTC,8,998.4,71,,,18.8,13.3,22146,264,4.7,3.1
2018,6,11,20:10,UTC,8,998.4,76,,,18.2,13.9,30300,273,4,2.6
2018,6,11,20:20,UTC,8,998.5,78,,,18,14.1,42422,274,2.9,1.9
2018,6,11,20:30,UTC,8,998.5,81,,,17.7,14.4,41998,234,4.4,2.4
2018,6,11,20:40,UTC,7,998.5,81,,,17.5,14.2,41892,231,5.2,3
2018,6,11,20:50,UTC,7,998.5,83,,,17.3,14.3,40133,233,4.9,2.5
2018,6,11,21:00,UTC,7,998.5,83,,,17.2,14.3,37848,240,4.3,2.4
2018,6,11,21:10,UTC,7,998.6,83,,,17.2,14.3,40755,250,4.3,2.7
2018,6,11,21:20,UTC,8,998.5,83,,,17.1,14.3,42992,255,4,2.3
2018,6,11,21:30,UTC,8,998.5,83,,,17.2,14.2,35722,258,4.9,2.7
2018,6,11,21:40,UTC,8,998.4,84,,,17,14.2,25946,243,3.9,2.4
2018,6,11,21:50,UTC,8,998.3,86,,,16.8,14.4,23890,241,3.6,2.1
2018,6,11,22:00,UTC,8,998.1,85,,,16.8,14.4,35593,248,2.7,1.3
2018,6,11,22:10,UTC,8,998,87,,,16.5,14.3,34968,304,1.8,0.8
2018,6,11,22:20,UTC,7,998.1,88,,,16.4,14.3,32944,270,2.9,1.6
2018,6,11,22:30,UTC,7,998.2,86,,,16.4,14.2,31528,225,4.1,2.2
2018,6,11,22:40,UTC,7,998.2,86,,,16.4,14.1,32283,230,3.7,2.2
2018,6,11,22:50,UTC,7,998.2,85,,,16.4,13.9,32979,237,3.7,2.4
2018,6,11,23:00,UTC,7,998.1,86,,,16.2,13.9,34496,244,3.6,1.8
2018,6,11,23:10,UTC,7,998.1,86,,,16.1,13.7,35889,225,2.3,1.5
2018,6,11,23:20,UTC,7,998.1,86,,,16,13.7,34036,221,2.8,1.9
2018,6,11,23:30,UTC,7,998.1,87,,,16,13.8,30231,249,4,1.9
2018,6,11,23:40,UTC,7,998,87,,,16.1,13.9,34895,257,4,2.2
2018,6,11,23:50,UTC,7,997.9,87,,,16.1,13.9,32363,219,2.9,1.8
2018,6,12,00:00,UTC,7,997.9,87,,,16.1,13.8,33705,218,2.1,1.4
2018,6,12,00:10,UTC,8,997.9,87,,,16,13.9,31098,239,2.3,1.6
2018,6,12,00:20,UTC,8,997.9,88,,,16,14,29395,248,3.1,1.9
2018,6,12,00:30,UTC,8,997.8,88,,,15.9,14,28157,232,3.5,2.1
2018,6,12,00:40,UTC,8,997.7,89,,,15.8,14,25320,224,2.4,1.4
2018,6,12,00:50,UTC,8,997.7,90,,,15.6,14.1,16941,261,1.3,0.8
2018,6,12,01:00,UTC,8,997.8,92,,,15.7,14.3,20295,271,1.7,1.2
2018,6,12,01:10,UTC,8,997.7,93,,,15.5,14.4,17408,288,1.7,1
2018,6,12,01:20,UTC,8,997.7,93,,,15.4,14.4,15590,302,2,1.1
2018,6,12,01:30,UTC,8,997.6,94,,,15.3,14.3,8801,318,2.4,1.7
2018,6,12,01:40,UTC,8,997.6,96,,,15.1,14.4,7372,320,2.3,1.4
2018,6,12,01:50,UTC,8,997.5,97,,,15,14.5,9599,299,2.7,1.8
2018,6,12,02:00,UTC,8,997.5,97,,,15,14.6,6629,325,2.8,2.2
2018,6,12,02:10,UTC,8,997.4,97,,,14.9,14.5,3178,14,2.2,1
2018,6,12,02:20,UTC,8,997.4,98,,,14.9,14.5,3096,18,1.7,0.8
2018,6,12,02:30,UTC,8,997.5,98,,,14.8,14.6,3938,0,0,0
2018,6,12,02:40,UTC,7,997.4,99,,,14.8,14.6,5021,10,1.5,0.9
2018,6,12,02:50,UTC,7,997.3,99,,,14.9,14.7,5732,3,2,1.3
2018,6,12,03:00,UTC,7,997.4,99,,,14.9,14.7,7160,2,2.5,1.3
2018,6,12,03:10,UTC,7,997.5,99,,,15,14.8,8656,354,3.7,1.8
2018,6,12,03:20,UTC,7,997.6,97,,,14.9,14.4,14047,360,5.4,3.3
2018,6,12,03:30,UTC,8,997.6,94,,,14.3,13.4,22099,6,5.9,3.6
2018,6,12,03:40,UTC,8,997.8,91,,,13.9,12.4,31128,7,7.3,3.3
2018,6,12,03:50,UTC,8,997.9,89,,,13.5,11.8,42902,20,5.9,2.5
2018,6,12,04:00,UTC,8,997.9,88,,,13.1,11.1,26701,22,4.9,2.4
2018,6,12,04:10,UTC,8,998,89,,,12.8,11,11902,42,6.3,2.5
2018,6,12,04:20,UTC,8,998.1,88,,,12.6,10.7,18309,52,4.9,2.1
2018,6,12,04:30,UTC,8,998.2,90,,,12.5,10.9,37977,18,3.6,1.7
2018,6,12,04:40,UTC,8,998.1,91,,,12.5,11.1,46461,7,3.4,2
2018,6,12,04:50,UTC,8,998.2,90,,,12.7,11.1,47621,17,3.7,1.8
2018,6,12,05:00,UTC,8,998.3,89,,,12.8,11.1,45655,3,2.6,1.4
2018,6,12,05:10,UTC,8,998.3,88,,,12.8,10.9,50000,10,3.4,1.9
2018,6,12,05:20,UTC,8,998.4,82,,,13,10,46567,1,4.5,2.4
2018,6,12,05:30,UTC,8,998.5,80,,,12.9,9.4,50000,352,5.6,2.9
2018,6,12,05:40,UTC,8,998.6,77,,,12.8,8.9,50000,1,4.2,2.5
2018,6,12,05:50,UTC,8,998.5,74,,,13,8.4,46846,4,5,2.9
2018,6,12,06:00,UTC,8,998.5,74,,,13.2,8.6,44011,3,4.2,2.5
2018,6,12,06:10,UTC,8,998.5,72,,,13.5,8.6,50000,5,4.8,2.9
2018,6,12,06:20,UTC,8,998.6,70,,,13.7,8.4,45697,1,6,3
2018,6,12,06:30,UTC,8,998.7,62,,,13.9,6.7,42711,360,8.4,4.2
2018,6,12,06:40,UTC,8,998.7,59,,,14.1,6.1,49708,360,7.9,4.6
2018,6,12,06:50,UTC,8,998.7,61,,,14.2,6.8,47375,359,5.7,3.6
2018,6,12,07:00,UTC,8,998.8,59,,,14,6.2,37476,359,6.4,3.7
2018,6,12,07:10,UTC,8,998.7,65,,,13.5,7,35604,358,5.5,3.3
2018,6,12,07:20,UTC,8,998.7,66,,,13.5,7.2,48475,358,4.2,2.8
2018,6,12,07:30,UTC,8,998.8,65,,,13.7,7.3,49149,353,4.1,2.7
2018,6,12,07:40,UTC,8,998.8,63,,,14.2,7.3,44079,340,5.4,2.8
2018,6,12,07:50,UTC,8,998.8,64,,,14.5,7.7,50000,324,5,3.5
2018,6,12,08:00,UTC,8,998.9,62,,,14.6,7.4,49415,331,6.7,4.4
2018,6,12,08:10,UTC,8,998.9,58,,,14.4,6.4,42870,341,9.1,5.8
2018,6,12,08:20,UTC,8,999.1,55,,,14.6,5.7,50000,342,9.4,6.5
2018,6,12,08:30,UTC,7,999.1,53,,,14.9,5.5,50000,347,9.3,6.6
2018,6,12,08:40,UTC,7,999.1,52,,,15,5.2,44239,346,9.1,6.1
2018,6,12,08:50,UTC,7,999.2,51,,,15.5,5.5,44226,353,9,6
2018,6,12,09:00,UTC,7,999.2,48,,,15.9,5,36732,1,8.8,5.5
2018,6,12,09:10,UTC,7,999.3,48,,,15.5,4.6,35467,358,9.7,6.1
2018,6,12,09:20,UTC,7,999.4,48,,,16.1,5.1,37564,353,10.7,6.7
2018,6,12,09:30,UTC,7,999.4,48,,,15.4,4.5,44838,358,9,5.1
2018,6,12,09:40,UTC,8,999.4,46,,,15.6,4,43192,351,9.4,5.9
2018,6,12,09:50,UTC,8,999.4,44,,,15.5,3.3,41542,1,8.1,4.9
2018,6,12,10:00,UTC,8,999.6,46,,,15.5,4,47605,357,7.2,4.6
2018,6,12,10:10,UTC,8,999.6,44,,,15.5,3.4,50000,342,8.7,6.1
2018,6,12,10:20,UTC,8,999.7,43,,,15.6,3.1,50000,355,7.7,4.5
2018,6,12,10:30,UTC,8,999.8,42,,,15.7,3,43360,2,9.4,4.6
2018,6,12,10:40,UTC,8,999.8,46,,,16,4.3,46349,359,6.6,3.6
2018,6,12,10:50,UTC,7,999.8,44,,,16.8,4.4,50000,360,5.3,3.2
2018,6,12,11:00,UTC,6,999.8,42,,,17,3.9,37034,14,5.7,3.4
2018,6,12,11:10,UTC,7,999.7,41,,,18,4.6,34720,2,9,4.7
2018,6,12,11:20,UTC,5,999.7,40,,,18.4,4.5,39056,346,10,6.9
2018,6,12,11:30,UTC,3,999.8,37,,,18.2,3.3,37116,358,8.9,5.5
2018,6,12,11:40,UTC,1,999.8,37,,,18.7,3.5,39724,357,9,5.2
2018,6,12,11:50,UTC,0,999.9,37,,,18.6,3.5,43979,345,10.4,5.7
2018,6,12,12:00,UTC,0,999.9,37,,,18.8,3.8,50000,2,7.8,4.9
2018,6,12,12:10,UTC,0,999.9,36,,,19.2,3.8,46961,343,8.4,4.6
2018,6,12,12:20,UTC,0,999.9,36,,,19.1,3.7,48209,343,10.4,4.7
2018,6,12,12:30,UTC,0,1000,37,,,19.6,4.6,35925,351,8.5,4.7
2018,6,12,12:40,UTC,0,1000,37,,,19.8,4.7,35307,2,6.3,3.6
2018,6,12,12:50,UTC,0,1000.1,36,,,19.3,3.7,40653,353,10.7,7.2
2018,6,12,13:00,UTC,0,1000.3,35,,,19.4,3.6,41227,345,9.2,6.2
2018,6,12,13:10,UTC,0,1000.3,33,,,19.9,3.2,38389,330,8,4.8
2018,6,12,13:20,UTC,0,1000.3,34,,,19.7,3.2,37708,338,8.1,4.8
2018,6,12,13:30,UTC,0,1000.3,35,,,20.4,4.5,37719,348,9.1,5
2018,6,12,13:40,UTC,1,1000.4,35,,,20.1,4,50000,336,8.1,4.7
2018,6,12,13:50,UTC,2,1000.4,33,,,19.8,3.2,42386,335,8.6,5.2
2018,6,12,14:00,UTC,3,1000.6,34,,,19.9,3.6,43524,335,9.3,6.2
2018,6,12,14:10,UTC,2,1000.5,34,,,20,3.7,35413,326,10.2,4.7
2018,6,12,14:20,UTC,1,1000.7,32,,,19.7,2.7,45568,326,10.2,6.4
2018,6,12,14:30,UTC,1,1000.8,33,,,19.7,2.8,46405,322,9.2,6.3
2018,6,12,14:40,UTC,0,1000.8,33,,,19.8,3,40243,335,8.1,5.3
2018,6,12,14:50,UTC,0,1000.8,34,,,19.3,2.8,38129,343,9.5,6.2
2018,6,12,15:00,UTC,0,1000.8,32,,,19.9,2.8,41751,337,8.2,5.8
2018,6,12,15:10,UTC,0,1000.8,34,,,19.8,3.5,39801,353,8.7,5.2
2018,6,12,15:20,UTC,0,1000.9,33,,,19.5,2.7,40234,351,9.2,5.9
2018,6,12,15:30,UTC,1,1000.8,33,,,19.6,2.7,37837,356,7.9,4.9
2018,6,12,15:40,UTC,0,1000.9,32,,,19.6,2.3,49526,346,8.5,5.5
2018,6,12,15:50,UTC,1,1000.9,33,,,19.9,2.9,46501,308,8.4,5
2018,6,12,16:00,UTC,1,1001,32,,,19.5,2.2,48527,322,9.8,5.9
2018,6,12,16:10,UTC,1,1001.1,32,,,19.6,2.3,41696,318,9,5.9
2018,6,12,16:20,UTC,1,1001.1,32,,,19.5,2.3,41571,320,9.9,5.6
2018,6,12,16:30,UTC,3,1001.2,34,,,19.8,3.3,48529,308,7.8,4.5
2018,6,12,16:40,UTC,5,1001.3,32,,,19.3,2,50000,313,9.6,6.2
2018,6,12,16:50,UTC,6,1001.4,32,,,19.4,2,41087,325,7.8,5.4
2018,6,12,17:00,UTC,5,1001.5,33,,,18.4,1.8,50000,326,9.2,6.3
2018,6,12,17:10,UTC,3,1001.6,34,,,18.3,2.1,50000,329,8.7,5.8
2018,6,12,17:20,UTC,1,1001.7,33,,,18.6,2.1,48300,329,8.3,5.3
2018,6,12,17:30,UTC,0,1001.7,34,,,18.4,2.2,40717,333,9.5,6.8
2018,6,12,17:40,UTC,0,1001.8,34,,,18.3,2.3,46765,335,8.4,6.1
2018,6,12,17:50,UTC,0,1001.9,35,,,18.1,2.5,45881,336,7.7,4.8
2018,6,12,18:00,UTC,0,1002.1,36,,,18,2.5,50000,334,8.7,5.6
2018,6,12,18:10,UTC,0,1002.1,36,,,17.8,2.5,49096,334,7.5,5.2
2018,6,12,18:20,UTC,0,1002.3,37,,,17.5,2.5,45222,334,7.1,4.7
2018,6,12,18:30,UTC,0,1002.4,37,,,17.3,2.5,46453,331,6.4,4.4
2018,6,12,18:40,UTC,0,1002.4,37,,,17.2,2.3,50000,328,6.4,4.8
2018,6,12,18:50,UTC,0,1002.5,38,,,16.7,2.3,50000,334,6.8,4.4
2018,6,12,19:00,UTC,0,1002.6,41,,,15.9,2.6,50000,336,4.9,3.3
2018,6,12,19:10,UTC,0,1002.7,42,,,15.5,2.8,50000,339,5.3,3.3
2018,6,12,19:20,UTC,0,1002.9,43,,,15.3,2.9,50000,355,3.4,2.2
2018,6,12,19:30,UTC,0,1003,45,,,14.9,3.2,50000,355,2.2,1.2
2018,6,12,19:40,UTC,0,1003.1,46,,,14.7,3.1,50000,346,1.2,0.8
2018,6,12,19:50,UTC,0,1003.2,50,,,13.9,3.6,50000,337,1.4,1
2018,6,12,20:00,UTC,0,1003.3,50,,,13.7,3.6,50000,350,1.6,1.2
2018,6,12,20:10,UTC,0,1003.4,50,,,13.6,3.4,50000,345,1.9,1.3
2018,6,12,20:20,UTC,0,1003.5,51,,,13.3,3.3,50000,348,2.1,1.3
2018,6,12,20:30,UTC,0,1003.6,59,,,12.4,4.5,50000,351,1.4,1.1
2018,6,12,20:40,UTC,0,1003.7,60,,,11.5,4,50000,336,1.1,0.8
2018,6,12,20:50,UTC,0,1003.8,66,,,10.3,4.3,50000,343,0.9,0.7
2018,6,12,21:00,UTC,0,1003.9,66,,,10.5,4.4,35122,0,0,0
2018,6,12,21:10,UTC,0,1003.9,69,,,10,4.6,32530,0,0,0
2018,6,12,21:20,UTC,0,1004,72,,,9.5,4.6,50000,0,0,0
2018,6,12,21:30,UTC,0,1004,74,,,9,4.6,25200,0,0,0
2018,6,12,21:40,UTC,0,1004.1,75,,,8.8,4.7,50000,0,0,0
2018,6,12,21:50,UTC,0,1004.2,76,,,8.6,4.5,50000,0,0,0
2018,6,12,22:00,UTC,0,1004.3,76,,,8.7,4.7,50000,0,0,0
2018,6,12,22:10,UTC,0,1004.4,78,,,8,4.3,50000,0,0,0
2018,6,12,22:20,UTC,0,1004.4,80,,,8,4.7,50000,0,0,0
2018,6,12,22:30,UTC,0,1004.5,81,,,7.7,4.6,50000,0,0,0
2018,6,12,22:40,UTC,0,1004.6,82,,,7.5,4.7,50000,0,0,0
2018,6,12,22:50,UTC,0,1004.7,81,,,7.5,4.4,50000,0,0,0
2018,6,12,23:00,UTC,0,1004.8,83,,,7.4,4.6,50000,0,0,0
2018,6,12,23:10,UTC,0,1004.9,83,,,7.1,4.3,50000,0,0,0
2018,6,12,23:20,UTC,0,1004.9,84,,,6.9,4.4,50000,0,0,0
2018,6,12,23:30,UTC,0,1005,83,,,7.2,4.5,50000,325,1,0.6
2018,6,12,23:40,UTC,0,1005.1,81,,,7.1,4.2,50000,346,1.2,0.7
2018,6,12,23:50,UTC,0,1005.2,77,,,7.9,4.1,50000,0,0,0
2018,6,13,00:00,UTC,0,1005.3,76,,,7.9,3.9,50000,0,0,0
2018,6,13,00:10,UTC,0,1005.4,76,,,7.6,3.7,50000,0,0,0
2018,6,13,00:20,UTC,0,1005.5,79,,,7.4,4,50000,339,1.6,0.8
2018,6,13,00:30,UTC,0,1005.5,77,,,7.3,3.5,50000,344,1.2,0.9
2018,6,13,00:40,UTC,0,1005.6,77,,,7.2,3.3,50000,348,1.7,1.1
2018,6,13,00:50,UTC,0,1005.6,74,,,7.4,3,50000,340,1.5,1
2018,6,13,01:00,UTC,0,1005.7,73,,,7.3,2.8,50000,328,2.2,1.5
2018,6,13,01:10,UTC,0,1005.7,73,,,7.1,2.6,50000,328,2.1,1.3
2018,6,13,01:20,UTC,0,1005.8,72,,,7.6,2.8,50000,346,1.9,1.1
2018,6,13,01:30,UTC,0,1005.9,70,,,7.7,2.6,50000,350,1.7,1.2
2018,6,13,01:40,UTC,1,1006,70,,,7.7,2.6,50000,348,2,1.3
2018,6,13,01:50,UTC,2,1005.9,72,,,7.5,2.8,50000,1,1.6,1.1
2018,6,13,02:00,UTC,2,1006,69,,,7.7,2.4,50000,345,2.4,1.6
2018,6,13,02:10,UTC,4,1005.9,70,,,7.8,2.8,50000,340,2.9,2
2018,6,13,02:20,UTC,6,1005.9,68,,,8.8,3.1,50000,345,3.7,2.6
2018,6,13,02:30,UTC,6,1006,65,,,9.2,3,50000,350,4.5,3.1
2018,6,13,02:40,UTC,3,1006,62,,,9.6,2.8,50000,355,4.3,2.9
2018,6,13,02:50,UTC,1,1006,62,,,9.8,2.8,50000,355,4,2.9
2018,6,13,03:00,UTC,0,1006.1,61,,,10.1,2.8,47739,358,4.2,2.7
2018,6,13,03:10,UTC,0,1006.2,59,,,10.4,2.7,32884,1,4.3,2.9
2018,6,13,03:20,UTC,0,1006.4,58,,,10.6,2.6,50000,356,4.7,3.2
2018,6,13,03:30,UTC,0,1006.4,59,,,10.7,3,49778,357,5,3.4
2018,6,13,03:40,UTC,0,1006.5,57,,,11,2.9,44139,360,4.7,3.3
2018,6,13,03:50,UTC,0,1006.6,57,,,11.2,2.9,42985,353,5.6,3.5
2018,6,13,04:00,UTC,0,1006.6,55,,,11.5,2.8,49227,357,5.2,3.1
2018,6,13,04:10,UTC,0,1006.7,54,,,11.8,2.8,44492,356,4.6,3
2018,6,13,04:20,UTC,0,1006.7,53,,,12,2.8,45032,360,5.2,3.2
2018,6,13,04:30,UTC,0,1006.6,52,,,12.4,2.8,42906,356,4.7,3
2018,6,13,04:40,UTC,0,1006.7,51,,,12.9,3.1,45936,2,4.2,2.8
2018,6,13,04:50,UTC,0,1006.8,50,,,13,2.8,38096,350,4.5,3.4
2018,6,13,05:00,UTC,0,1006.8,50,,,13.3,3.1,40092,359,4.1,2.8
2018,6,13,05:10,UTC,0,1006.9,48,,,13.9,3.1,41343,346,4.6,2.8
2018,6,13,05:20,UTC,0,1006.9,46,,,14.1,2.8,37053,353,5.1,3.5
2018,6,13,05:30,UTC,0,1006.9,44,,,14.3,2.3,44194,353,4.9,3.5
2018,6,13,05:40,UTC,0,1007,43,,,14.5,2.2,43763,348,5.5,4.2
2018,6,13,05:50,UTC,0,1007,42,,,14.6,1.8,41099,3,5.7,3.7
2018,6,13,06:00,UTC,0,1007.1,42,,,14.7,2,43077,7,5,3.3
2018,6,13,06:10,UTC,0,1007.2,42,,,15.4,2.7,42247,354,5.3,3.5
2018,6,13,06:20,UTC,0,1007.3,37,,,15.4,0.8,39508,333,6.4,4.1
2018,6,13,06:30,UTC,0,1007.4,38,,,15.3,1.1,41558,329,7.1,4.7
2018,6,13,06:40,UTC,0,1007.4,35,,,15.6,0.2,40608,343,6.4,3.9
2018,6,13,06:50,UTC,0,1007.4,36,,,15.7,0.7,38954,349,7.6,4.9
2018,6,13,07:00,UTC,0,1007.5,35,,,16,0.7,43162,348,5.1,3.2
2018,6,13,07:10,UTC,0,1007.5,37,,,15.9,1.2,42946,345,5.7,3.6
2018,6,13,07:20,UTC,0,1007.6,37,,,16.4,1.7,41020,343,6.1,4.1
2018,6,13,07:30,UTC,0,1007.6,35,,,16,0.4,44023,325,6.2,4.1
2018,6,13,07:40,UTC,0,1007.7,36,,,16.5,1.5,40858,322,6,3.6
2018,6,13,07:50,UTC,0,1007.7,37,,,16.8,2,43675,343,5.5,2.8
2018,6,13,08:00,UTC,0,1007.7,35,,,16.6,1.2,37560,356,5.5,2.9
2018,6,13,08:10,UTC,0,1007.7,35,,,17.1,1.4,44103,334,7.2,4
2018,6,13,08:20,UTC,0,1007.7,33,,,16.7,0.4,40525,331,6.3,3.8
2018,6,13,08:30,UTC,0,1007.7,32,,,17.3,0.5,42466,338,7.2,3
2018,6,13,08:40,UTC,0,1007.7,33,,,17.2,0.8,36641,340,6.1,3.6
2018,6,13,08:50,UTC,0,1007.7,34,,,17.6,1.3,45728,337,5.8,2.5
2018,6,13,09:00,UTC,1,1007.8,31,,,17.1,-0.2,37608,291,6.5,3.7
2018,6,13,09:10,UTC,1,1007.8,31,,,17.8,0.3,38701,320,7.8,4.5
2018,6,13,09:20,UTC,3,1007.9,29,,,17.7,-0.4,38706,358,5.3,3.1
2018,6,13,09:30,UTC,1,1008,30,,,17.9,0.2,42577,2,6.6,3.6
2018,6,13,09:40,UTC,1,1007.9,27,,,18.2,-1.2,37215,100,4.9,2.1
2018,6,13,09:50,UTC,2,1007.9,29,,,18.2,0.1,41930,23,5.9,1.7
2018,6,13,10:00,UTC,3,1007.9,29,,,18.1,-0.3,47866,307,5.5,3.3
2018,6,13,10:10,UTC,6,1007.8,28,,,18.4,-0.5,43046,238,5.1,2.5
2018,6,13,10:20,UTC,7,1007.9,32,,,17.6,0.8,50000,317,5.7,3.7
2018,6,13,10:30,UTC,7,1008,31,,,17.2,-0.3,50000,352,4.8,3.3
2018,6,13,10:40,UTC,4,1008,30,,,17.8,0.1,49747,11,4.7,2.1
2018,6,13,10:50,UTC,5,1008,33,,,17.5,1,39629,249,5.8,2.9
2018,6,13,11:00,UTC,2,1008,35,,,17.4,1.7,39980,178,6.8,4.4
2018,6,13,11:10,UTC,5,1008,36,,,17.5,2.1,34484,182,7.5,5.2
2018,6,13,11:20,UTC,6,1008.1,37,,,17,2,40675,161,7.4,5.8
2018,6,13,11:30,UTC,7,1008.1,39,,,16.7,2.6,42748,170,7.2,4.6
2018,6,13,11:40,UTC,4,1008.2,36,,,18.2,2.7,36007,173,7.5,4.6
2018,6,13,11:50,UTC,6,1008.2,37,,,17.1,2.3,43729,184,7.6,5.2
2018,6,13,12:00,UTC,6,1008.2,37,,,17.3,2.4,45490,181,7.5,5.5
2018,6,13,12:10,UTC,5,1008.2,35,,,18,2.3,39805,182,7.4,5.3
2018,6,13,12:20,UTC,4,1008.3,35,,,17.7,2,34548,197,9.5,6.1
2018,6,13,12:30,UTC,4,1008.3,36,,,17.7,2.5,37685,194,8.3,6.4
2018,6,13,12:40,UTC,6,1008.4,36,,,17.6,2.2,43658,184,8.4,5.9
2018,6,13,12:50,UTC,7,1008.4,36,,,17.4,2.1,43967,182,7.8,5.9
2018,6,13,13:00,UTC,8,1008.5,38,,,16.8,2.3,40931,176,7.9,5.8
2018,6,13,13:10,UTC,8,1008.6,39,,,16.9,2.8,48484,176,6.6,4.7
2018,6,13,13:20,UTC,8,1008.6,41,,,17.2,3.7,35589,185,6.8,5.1
2018,6,13,13:30,UTC,5,1008.7,42,,,17,3.9,41369,182,7.1,4.9
2018,6,13,13:40,UTC,6,1008.6,37,,,17.7,3,35911,203,8,4.5
2018,6,13,13:50,UTC,6,1008.7,38,,,17,2.7,35243,203,8.9,6.1
2018,6,13,14:00,UTC,7,1008.7,39,,,17.5,3.5,44050,198,8.1,6.1
2018,6,13,14:10,UTC,8,1008.7,37,,,18,3.2,39262,189,7.7,5.7
2018,6,13,14:20,UTC,8,1008.8,37,,,17.5,2.7,42972,197,7.3,5.4
2018,6,13,14:30,UTC,8,1008.8,35,,,17.4,2,49451,192,7.2,5.7
2018,6,13,14:40,UTC,7,1008.9,37,,,17.1,2.2,50000,196,6.2,4.5
2018,6,13,14:50,UTC,7,1009,37,,,17.2,2.2,49385,202,6.7,4.7
2018,6,13,15:00,UTC,7,1009,35,,,17.4,1.9,43583,196,7.1,5.2
2018,6,13,15:10,UTC,8,1009,35,,,17.5,2,45267,195,6.1,4.5
2018,6,13,15:20,UTC,8,1009.1,36,,,17.5,2.1,50000,204,5.8,4.2
2018,6,13,15:30,UTC,8,1009.1,36,,,17.1,1.7,46030,197,6.6,4.6
2018,6,13,15:40,UTC,8,1009.2,36,,,17.1,1.9,49176,193,6.7,4.7
2018,6,13,15:50,UTC,8,1009.2,36,,,17.2,2.2,43605,193,7,5
2018,6,13,16:00,UTC,7,1009.3,37,,,17.1,2.2,47157,194,7.2,5.2
2018,6,13,16:10,UTC,7,1009.3,37,,,16.9,2.3,50000,196,7.3,5.1
2018,6,13,16:20,UTC,7,1009.3,37,,,17.1,2.3,50000,201,7.6,5.2
2018,6,13,16:30,UTC,6,1009.4,37,,,16.9,2.2,44745,195,6.6,4.8
2018,6,13,16:40,UTC,7,1009.4,37,,,16.8,2.1,50000,202,6.1,4.4
2018,6,13,16:50,UTC,7,1009.5,38,,,16.9,2.4,50000,199,5.7,3.9
2018,6,13,17:00,UTC,7,1009.5,37,,,17.1,2.3,48769,205,6.3,4.2
2018,6,13,17:10,UTC,7,1009.5,36,,,17.3,2.1,44114,196,6.1,4.6
2018,6,13,17:20,UTC,7,1009.5,37,,,17.1,2.2,50000,196,6.3,4.7
2018,6,13,17:30,UTC,6,1009.5,38,,,16.9,2.6,50000,200,6,4.1
2018,6,13,17:40,UTC,3,1009.6,39,,,17.1,2.9,50000,202,5.3,3.5
2018,6,13,17:50,UTC,2,1009.6,39,,,16.9,2.9,50000,198,5.2,3.8
2018,6,13,18:00,UTC,1,1009.6,42,,,16.8,3.7,43230,199,4.7,3.2
2018,6,13,18:10,UTC,1,1009.7,44,,,16.5,4.1,49071,195,5.3,3.7
2018,6,13,18:20,UTC,3,1009.8,45,,,16,4.1,50000,194,5.2,3.5
2018,6,13,18:30,UTC,5,1009.8,45,,,15.9,4.1,50000,190,3.7,2.8
2018,6,13,18:40,UTC,7,1009.9,47,,,15.8,4.4,50000,182,4,2.7
2018,6,13,18:50,UTC,7,1010,48,,,15.6,4.5,50000,184,3.9,2.8
2018,6,13,19:00,UTC,7,1010,49,,,15.3,4.6,50000,184,3.2,2.2
2018,6,13,19:10,UTC,7,1010,49,,,15.2,4.6,50000,169,3,2.2
2018,6,13,19:20,UTC,7,1010.1,49,,,15,4.4,50000,165,3.3,2.4
2018,6,13,19:30,UTC,7,1010.2,49,,,14.9,4.4,50000,164,3.3,2.2
2018,6,13,19:40,UTC,7,1010.3,50,,,14.8,4.4,50000,166,3.3,2
2018,6,13,19:50,UTC,7,1010.3,51,,,14.6,4.6,50000,169,3.3,2
2018,6,13,20:00,UTC,7,1010.4,53,,,14.3,5,50000,177,2.7,1.9
2018,6,13,20:10,UTC,7,1010.5,55,,,14,5.2,50000,185,2,1.4
2018,6,13,20:20,UTC,7,1010.6,59,,,13.3,5.6,23341,174,1.8,1.1
2018,6,13,20:30,UTC,8,1010.6,62,,,12.8,5.7,50000,162,2.1,1.3
2018,6,13,20:40,UTC,8,1010.6,59,,,13.7,5.8,31115,176,2.7,1.7
2018,6,13,20:50,UTC,8,1010.6,59,,,13.6,5.8,50000,166,2.1,1.5
2018,6,13,21:00,UTC,8,1010.7,67,,,12.3,6.3,14978,104,1.9,0.7
2018,6,13,21:10,UTC,8,1010.8,68,,,12.2,6.4,50000,75,1.1,0.8
2018,6,13,21:20,UTC,8,1010.8,68,,,12.3,6.4,50000,114,1.5,1.1
2018,6,13,21:30,UTC,8,1010.8,66,,,12.9,6.7,50000,123,1.4,1
2018,6,13,21:40,UTC,8,1010.9,70,,,12.3,7,50000,110,1.3,0.9
2018,6,13,21:50,UTC,8,1010.9,72,,,12,7.1,50000,104,1.4,0.9
2018,6,13,22:00,UTC,8,1011,65,,,13,6.6,50000,135,1.5,1.2
2018,6,13,22:10,UTC,8,1011,65,,,13.2,6.8,50000,153,1.3,0.7
2018,6,13,22:20,UTC,8,1011,69,,,12.5,6.9,50000,185,1.6,0.8
2018,6,13,22:30,UTC,8,1011,68,,,12.6,6.9,50000,0,0,0
2018,6,13,22:40,UTC,8,1011,70,,,12.5,7.3,50000,127,1.2,0.8
2018,6,13,22:50,UTC,8,1011,74,,,11.7,7.2,50000,0,0,0
2018,6,13,23:00,UTC,8,1011,75,,,11.7,7.4,50000,0,0,0
2018,6,13,23:10,UTC,7,1011,77,,,11.4,7.4,50000,0,0,0
2018,6,13,23:20,UTC,7,1011,77,,,11.4,7.6,50000,0,0,0
2018,6,13,23:30,UTC,7,1011.2,78,,,11.1,7.4,50000,0,0,0
2018,6,13,23:40,UTC,8,1011.2,79,,,11.2,7.7,50000,102,0.8,0.5
2018,6,13,23:50,UTC,8,1011.3,80,,,11.1,7.8,50000,118,1,0.8
2018,6,14,00:00,UTC,8,1011.4,81,,,11,7.8,50000,111,0.9,0.7
2018,6,14,00:10,UTC,8,1011.5,80,,,11.2,7.9,50000,129,1,0.8
2018,6,14,00:20,UTC,8,1011.5,78,,,11.8,8,50000,139,1.6,1
2018,6,14,00:30,UTC,8,1011.5,75,,,12.3,8,50000,130,2.2,1.3
2018,6,14,00:40,UTC,8,1011.6,76,,,12.5,8.4,50000,192,2.2,1.5
2018,6,14,00:50,UTC,8,1011.6,76,,,12.3,8.2,50000,211,1,0.5
2018,6,14,01:00,UTC,8,1011.7,80,,,11.5,8.3,50000,256,0.9,0.6
2018,6,14,01:10,UTC,7,1011.9,81,,,11.3,8.2,50000,200,1.2,0.6
2018,6,14,01:20,UTC,7,1011.9,80,,,11.4,8,50000,94,2,1.4
2018,6,14,01:30,UTC,7,1011.9,81,,,10.8,7.7,50000,152,1.5,0.7
2018,6,14,01:40,UTC,7,1012,84,,,10.6,8,50000,115,1.7,1.3
2018,6,14,01:50,UTC,7,1012.1,79,,,11.5,7.9,42117,135,1.2,0.7
2018,6,14,02:00,UTC,7,1012.1,82,,,10.9,7.9,50000,0,0,0
2018,6,14,02:10,UTC,7,1012.1,83,,,10.8,8,50000,0,0,0
2018,6,14,02:20,UTC,8,1012.2,82,,,10.9,8,50000,102,0.9,0.6
2018,6,14,02:30,UTC,8,1012.2,82,,,11.1,8.3,42350,100,1.7,0.7
2018,6,14,02:40,UTC,8,1012.2,78,,,11.8,8.1,50000,132,1.8,1.3
2018,6,14,02:50,UTC,8,1012.3,77,,,12.3,8.3,50000,151,1.7,0.9
2018,6,14,03:00,UTC,7,1012.3,72,,,12.6,7.7,50000,159,1.8,1.1
2018,6,14,03:10,UTC,7,1012.4,77,,,12.1,8.2,21108,113,1.6,0.6
2018,6,14,03:20,UTC,5,1012.5,77,,,12.2,8.3,47278,0,0,0
2018,6,14,03:30,UTC,6,1012.6,79,,,12.4,8.9,44911,296,0.9,0.5
2018,6,14,03:40,UTC,5,1012.7,74,,,13.1,8.5,50000,0,0,0
2018,6,14,03:50,UTC,7,1012.7,67,,,13.4,7.5,48771,165,1.4,0.7
2018,6,14,04:00,UTC,7,1012.7,66,,,13.7,7.3,44584,183,1.7,1.1
2018,6,14,04:10,UTC,7,1012.8,63,,,13.8,6.9,49456,189,2.7,1.7
2018,6,14,04:20,UTC,5,1012.8,64,,,14,7.2,44550,195,2.4,1.8
2018,6,14,04:30,UTC,5,1012.8,60,,,14.3,6.6,40317,176,3.1,2
2018,6,14,04:40,UTC,2,1012.8,57,,,14.6,6.3,40462,176,4,2.7
2018,6,14,04:50,UTC,2,1012.9,56,,,15,6.3,48961,200,4.1,2.8
2018,6,14,05:00,UTC,0,1012.9,53,,,15.2,5.8,44452,174,5.4,3.4
2018,6,14,05:10,UTC,0,1013,54,,,15.3,6,43273,173,6,4
2018,6,14,05:20,UTC,3,1013.1,53,,,15.4,6,44073,187,6.1,4.2
2018,6,14,05:30,UTC,4,1013.1,53,,,15.4,5.8,49260,177,5.6,4.2
2018,6,14,05:40,UTC,4,1013.2,54,,,15.9,6.6,42646,190,4.1,2.8
2018,6,14,05:50,UTC,6,1013.3,51,,,16.4,6.1,37166,197,4.5,3.2
2018,6,14,06:00,UTC,7,1013.2,52,,,16.4,6.4,36155,181,4.9,3.2
2018,6,14,06:10,UTC,5,1013.1,50,,,16.5,6.2,33232,167,5.7,3.9
2018,6,14,06:20,UTC,4,1013.1,50,,,16.6,6.1,36337,157,5.5,3.9
2018,6,14,06:30,UTC,1,1013.2,47,,,16.6,5.4,43998,170,5.1,3.7
2018,6,14,06:40,UTC,1,1013.2,46,,,16.7,5.1,36851,162,5.4,3.4
2018,6,14,06:50,UTC,0,1013.3,46,,,17.1,5.3,40024,184,5.3,3.3
2018,6,14,07:00,UTC,0,1013.3,46,,,17.3,5.5,38905,187,4.8,2.8
2018,6,14,07:10,UTC,0,1013.3,45,,,17.5,5.4,37846,167,5,3.1
2018,6,14,07:20,UTC,0,1013.3,45,,,17.6,5.5,41287,169,4.7,3.1
2018,6,14,07:30,UTC,2,1013.3,43,,,18.1,5.5,32482,175,4.4,2.8
2018,6,14,07:40,UTC,1,1013.3,42,,,18.4,5.3,30378,153,6.3,3.4
2018,6,14,07:50,UTC,1,1013.3,41,,,18.2,4.8,45196,171,4.9,3.4
2018,6,14,08:00,UTC,0,1013.3,40,,,18.7,4.9,47185,165,6.4,3
2018,6,14,08:10,UTC,0,1013.4,38,,,18.7,4,35768,180,5,3.1
2018,6,14,08:20,UTC,0,1013.3,36,,,19,3.5,43280,188,4.6,3.2
2018,6,14,08:30,UTC,0,1013.3,38,,,19.4,4.6,37798,180,5.5,2.8
2018,6,14,08:40,UTC,0,1013.4,36,,,19.4,3.9,41349,204,6.1,3.5
2018,6,14,08:50,UTC,1,1013.3,34,,,19.4,3.2,41889,208,6.4,2.9
2018,6,14,09:00,UTC,1,1013.3,30,,,19.4,1.1,37590,179,5,3.3
2018,6,14,09:10,UTC,1,1013.3,31,,,19.6,2,33551,190,6,3.4
2018,6,14,09:20,UTC,0,1013.3,29,,,19.9,1.4,31959,191,6,3.2
2018,6,14,09:30,UTC,0,1013.2,27,,,20.1,0.7,37459,177,6,3.5
2018,6,14,09:40,UTC,0,1013.2,35,,,20.1,4.1,36084,179,6.1,3.6
2018,6,14,09:50,UTC,0,1013.3,33,,,19.6,2.9,37239,186,5.6,3.8
2018,6,14,10:00,UTC,0,1013.4,35,,,20.3,4.2,44201,154,6,4
2018,6,14,10:10,UTC,0,1013.5,34,,,19.8,3.7,41276,141,6.7,4.7
2018,6,14,10:20,UTC,0,1013.5,32,,,20.1,2.7,39263,148,6.2,4.4
2018,6,14,10:30,UTC,0,1013.3,33,,,20.1,3.4,39115,136,6.8,5
2018,6,14,10:40,UTC,0,1013.4,30,,,19.9,1.9,42159,121,7.4,5.7
2018,6,14,10:50,UTC,0,1013.4,30,,,19.9,2,35494,137,8,5.5
2018,6,14,11:00,UTC,0,1013.5,33,,,19.5,3,38993,140,7.4,5.2
2018,6,14,11:10,UTC,0,1013.5,30,,,19.7,1.6,34393,147,6.4,4.5
2018,6,14,11:20,UTC,0,1013.5,31,,,19.4,1.7,46220,151,6.7,4.7
2018,6,14,11:30,UTC,0,1013.4,29,,,19.9,1.5,43454,155,6,4.7
2018,6,14,11:40,UTC,0,1013.3,28,,,19.9,0.7,44647,153,7.5,5.2
2018,6,14,11:50,UTC,0,1013.3,30,,,19.7,1.7,46450,151,7.1,4.7
2018,6,14,12:00,UTC,0,1013.3,30,,,20.3,2.1,38366,137,6.8,4.7
2018,6,14,12:10,UTC,0,1013.3,30,,,20,1.7,43905,145,6.7,4.6
2018,6,14,12:20,UTC,0,1013.3,31,,,19.9,2.4,41018,155,7,5.1
2018,6,14,12:30,UTC,0,1013.2,31,,,19.9,2.2,41106,131,6.8,4.5
2018,6,14,12:40,UTC,0,1013.3,31,,,19.9,2.1,41560,155,7.7,4.6
2018,6,14,12:50,UTC,0,1013.2,32,,,19.8,2.7,36134,140,6.3,4.2
2018,6,14,13:00,UTC,0,1013.2,33,,,20.4,3.7,35406,125,6.2,4.1
2018,6,14,13:10,UTC,0,1013.2,31,,,19.4,1.9,35403,136,6.5,4.8
2018,6,14,13:20,UTC,0,1013,32,,,19.6,2.3,32881,145,6.8,4.9
2018,6,14,13:30,UTC,0,1013,31,,,19.7,2.2,35586,132,6.8,5.1
2018,6,14,13:40,UTC,0,1013,31,,,20.1,2.4,36916,137,7.5,5.2
2018,6,14,13:50,UTC,0,1013,33,,,19.8,3.2,45066,145,6.6,4.8
2018,6,14,14:00,UTC,0,1012.9,35,,,19.3,3.4,38440,136,7.1,4.6
2018,6,14,14:10,UTC,0,1013,36,,,19.2,3.9,38404,134,7.2,5.2
2018,6,14,14:20,UTC,0,1012.9,40,,,19.2,5.3,41088,127,6.5,5
2018,6,14,14:30,UTC,0,1012.9,42,,,19.4,6.3,44573,135,5.9,4
2018,6,14,14:40,UTC,0,1012.8,43,,,18.9,6.1,34862,109,7.3,5.1
2018,6,14,14:50,UTC,0,1012.8,44,,,18.5,6,41773,118,7.5,5.6
2018,6,14,15:00,UTC,0,1012.8,44,,,18.6,6.2,40958,112,7.4,5.7
2018,6,14,15:10,UTC,0,1012.7,44,,,19.2,6.7,40991,113,6.6,4.9
2018,6,14,15:20,UTC,0,1012.7,44,,,18.5,6,44061,112,7.1,5.3
2018,6,14,15:30,UTC,0,1012.6,45,,,18.4,6.2,44367,105,7.3,5.3
2018,6,14,15:40,UTC,0,1012.5,45,,,18.2,6.1,50000,108,7.4,5.7
2018,6,14,15:50,UTC,0,1012.6,46,,,18.1,6.3,43763,122,6.8,5
2018,6,14,16:00,UTC,0,1012.6,47,,,18.2,6.6,33096,128,7.4,5.3
2018,6,14,16:10,UTC,0,1012.4,47,,,17.8,6.3,46760,119,7.2,5.2
2018,6,14,16:20,UTC,0,1012.5,48,,,17.6,6.4,37914,130,7.3,5.5
2018,6,14,16:30,UTC,0,1012.5,48,,,17.7,6.5,48891,132,6.4,4.9
2018,6,14,16:40,UTC,0,1012.6,48,,,17.6,6.5,33895,136,7.1,5
2018,6,14,16:50,UTC,0,1012.6,48,,,17.3,6.3,41572,130,6.8,4.9
2018,6,14,17:00,UTC,0,1012.6,48,,,17.3,6.2,49981,136,7,4.7
2018,6,14,17:10,UTC,0,1012.6,49,,,17.4,6.4,43184,136,6.1,4.2
2018,6,14,17:20,UTC,0,1012.6,49,,,17,6.4,42969,138,6.7,4.8
2018,6,14,17:30,UTC,0,1012.5,52,,,16.8,6.9,50000,125,6.2,4.5
2018,6,14,17:40,UTC,0,1012.6,55,,,16.5,7.3,47314,132,6.5,4.4
2018,6,14,17:50,UTC,0,1012.6,56,,,16.2,7.5,46758,123,6.8,4.6
2018,6,14,18:00,UTC,0,1012.6,57,,,16.1,7.5,50000,128,5.7,4.3
2018,6,14,18:10,UTC,0,1012.6,59,,,16,7.9,48522,131,4.6,3.3
2018,6,14,18:20,UTC,0,1012.6,60,,,15.8,8,50000,124,5.1,3.2
2018,6,14,18:30,UTC,0,1012.6,61,,,15.6,8.2,50000,125,5.2,3.2
2018,6,14,18:40,UTC,0,1012.6,63,,,15.4,8.3,49979,121,5.3,3.3
2018,6,14,18:50,UTC,0,1012.7,63,,,15.2,8.3,50000,122,4.2,2.9
2018,6,14,19:00,UTC,0,1012.7,64,,,15.1,8.5,50000,121,5.4,3.4
2018,6,14,19:10,UTC,0,1012.7,65,,,15,8.5,50000,124,4.8,3.4
2018,6,14,19:20,UTC,0,1012.7,66,,,14.8,8.5,46264,119,4.4,3.2
2018,6,14,19:30,UTC,0,1012.6,66,,,14.8,8.5,47152,119,4.8,3.5
2018,6,14,19:40,UTC,0,1012.7,66,,,14.8,8.4,50000,122,5.1,3.8
2018,6,14,19:50,UTC,0,1012.6,67,,,14.5,8.4,50000,118,5.5,3.9
2018,6,14,20:00,UTC,0,1012.6,68,,,14.4,8.5,50000,118,5.5,3.5
2018,6,14,20:10,UTC,0,1012.6,69,,,14,8.5,50000,116,4.6,3.2
2018,6,14,20:20,UTC,0,1012.5,71,,,13.8,8.6,50000,115,4.8,3.4
2018,6,14,20:30,UTC,3,1012.5,72,,,13.4,8.5,50000,113,4.1,3.3
2018,6,14,20:40,UTC,2,1012.5,74,,,13.2,8.6,48640,112,4.5,3.3
2018,6,14,20:50,UTC,3,1012.3,75,,,13.2,8.8,50000,109,4.1,3.3
2018,6,14,21:00,UTC,4,1012.5,75,,,13.1,8.8,50000,109,4.6,3.4
2018,6,14,21:10,UTC,4,1012.5,76,,,13.1,9,50000,111,3.5,2.7
2018,6,14,21:20,UTC,6,1012.4,75,,,13.4,9,47966,101,3,2.4
2018,6,14,21:30,UTC,7,1012.4,76,,,13.2,9,49984,97,3.1,2.3
2018,6,14,21:40,UTC,7,1012.4,77,,,13.1,9.1,50000,99,3.4,2.4
2018,6,14,21:50,UTC,4,1012.4,78,,,13,9.2,50000,99,3,2.3
2018,6,14,22:00,UTC,2,1012.3,77,,,13.3,9.4,50000,91,3,2
2018,6,14,22:10,UTC,0,1012.2,78,,,13,9.3,50000,97,2.6,1.5
2018,6,14,22:20,UTC,0,1012.1,81,,,12.5,9.2,50000,104,2.9,2.4
2018,6,14,22:30,UTC,0,1012,81,,,12.7,9.5,50000,102,2.9,2.3
2018,6,14,22:40,UTC,3,1012,81,,,12.7,9.5,50000,101,3,2.4
2018,6,14,22:50,UTC,5,1012,80,,,12.8,9.5,50000,105,3.1,2.5
2018,6,14,23:00,UTC,7,1011.9,81,,,12.8,9.6,50000,104,3.1,2.3
2018,6,14,23:10,UTC,8,1011.8,81,,,12.9,9.7,50000,105,3.1,2.2
2018,6,14,23:20,UTC,8,1011.8,81,,,13,9.9,50000,114,2.6,1.9
2018,6,14,23:30,UTC,8,1011.6,81,,,13,9.9,50000,119,2.8,1.7
2018,6,14,23:40,UTC,8,1011.6,82,,,13,10,46145,122,2.9,1.9
2018,6,14,23:50,UTC,8,1011.6,81,,,13,9.8,14137,119,1.8,1
2018,6,15,00:00,UTC,8,1011.5,84,,,12.7,10.1,47777,110,2.5,1.3
2018,6,15,00:10,UTC,8,1011.4,84,,,12.9,10.2,49742,113,2.3,1.8
2018,6,15,00:20,UTC,8,1011.4,84,,,12.7,10,49344,124,1.9,1.3
2018,6,15,00:30,UTC,8,1011.4,87,,,12.5,10.3,46240,133,1.9,1
2018,6,15,00:40,UTC,8,1011.4,85,,,12.8,10.3,46821,124,2.2,1.7
2018,6,15,00:50,UTC,8,1011.4,87,,,12.3,10.2,46743,131,2.5,1.7
2018,6,15,01:00,UTC,8,1011.4,85,,,13.3,10.8,42049,136,2.8,2.1
2018,6,15,01:10,UTC,8,1011.4,83,,,13.7,10.8,47979,140,3.1,2.3
2018,6,15,01:20,UTC,8,1011.5,82,,,13.6,10.7,42110,147,2.3,1.7
2018,6,15,01:30,UTC,8,1011.4,84,,,13.1,10.5,44845,143,2.5,1.7
2018,6,15,01:40,UTC,8,1011.4,85,,,13.5,10.9,44169,143,3,2.2
2018,6,15,01:50,UTC,8,1011.5,81,,,14.4,11.2,45325,151,3.3,2.4
2018,6,15,02:00,UTC,8,1011.6,78,,,14.9,11.2,38387,162,4.5,2.9
2018,6,15,02:10,UTC,8,1011.7,78,,,15,11.2,30094,173,3.9,2.8
2018,6,15,02:20,UTC,8,1011.6,79,,,15,11.4,41576,172,3.8,2.8
2018,6,15,02:30,UTC,7,1011.6,81,,,14.9,11.6,36704,170,3.6,2.5
2018,6,15,02:40,UTC,7,1011.6,81,,,14.7,11.6,34695,176,3.4,2.5
2018,6,15,02:50,UTC,7,1011.6,81,,,14.8,11.5,33714,176,3.5,2.5
2018,6,15,03:00,UTC,7,1011.6,81,,,14.7,11.5,36163,186,3.2,2.1
2018,6,15,03:10,UTC,7,1011.6,81,,,14.7,11.4,34417,190,2.9,2
2018,6,15,03:20,UTC,7,1011.6,79,,,14.8,11.3,39074,195,3.2,2.4
2018,6,15,03:30,UTC,5,1011.6,79,,,14.8,11.2,37735,197,2.8,2
2018,6,15,03:40,UTC,3,1011.5,79,,,15,11.3,42543,193,3.1,2.2
2018,6,15,03:50,UTC,5,1011.6,78,,,15.1,11.2,44126,204,3.3,2
2018,6,15,04:00,UTC,6,1011.7,75,,,15.6,11.2,47626,201,3.8,2.4
2018,6,15,04:10,UTC,7,1011.7,72,,,16,10.8,38172,197,5,3.2
2018,6,15,04:20,UTC,7,1011.7,70,,,16.1,10.6,47075,195,4.7,3.4
2018,6,15,04:30,UTC,7,1011.7,69,,,16.3,10.6,45482,199,3.7,2.7
2018,6,15,04:40,UTC,7,1011.6,68,,,16.9,11,40975,195,3.9,2.6
2018,6,15,04:50,UTC,7,1011.6,70,,,16.8,11.2,43360,181,5.3,3.4
2018,6,15,05:00,UTC,7,1011.6,71,,,16.7,11.3,43018,178,5.1,3.6
2018,6,15,05:10,UTC,7,1011.6,73,,,16.7,11.8,41021,182,5.3,3.5
2018,6,15,05:20,UTC,7,1011.7,72,,,16.9,11.9,39910,187,5.1,3.5
2018,6,15,05:30,UTC,7,1011.6,68,,,17.3,11.4,31975,192,6.7,4.1
2018,6,15,05:40,UTC,7,1011.8,68,,,17.3,11.3,34566,200,8.2,4.8
2018,6,15,05:50,UTC,3,1011.8,70,,,17.5,12.1,29728,207,7.3,4.6
2018,6,15,06:00,UTC,1,1011.8,69,,,17.5,11.7,31802,193,7.5,4.7
2018,6,15,06:10,UTC,0,1011.9,70,,,17.6,12,33456,190,8.5,5.4
2018,6,15,06:20,UTC,3,1012,70,,,18,12.5,33186,192,8.4,6
2018,6,15,06:30,UTC,5,1012,72,,,17.6,12.5,28329,205,7.4,4.9
2018,6,15,06:40,UTC,7,1012,69,,,18,12.2,29575,205,8.1,5.1
2018,6,15,06:50,UTC,7,1012.2,69,,,17.7,11.8,31489,210,9.3,5.6
2018,6,15,07:00,UTC,7,1012.3,70,,,18,12.5,31181,209,7.5,5.3
2018,6,15,07:10,UTC,7,1012.3,70,,,17.6,12.1,35579,189,8.9,6.1
2018,6,15,07:20,UTC,7,1012.4,70,,,17.4,12,34523,192,8.7,6.2
2018,6,15,07:30,UTC,4,1012.5,72,,,17.8,12.6,37589,195,8.7,6
2018,6,15,07:40,UTC,5,1012.6,71,,,17.7,12.4,28919,195,9.9,6.7
2018,6,15,07:50,UTC,5,1012.7,70,,,18,12.6,33049,203,9.1,6.1
2018,6,15,08:00,UTC,7,1012.6,69,,,18,12.3,27573,214,9,6
2018,6,15,08:10,UTC,7,1012.5,68,,,18.9,12.9,24703,209,8.5,5.7
2018,6,15,08:20,UTC,7,1012.7,69,,,18,12.3,30193,204,10.2,6.9
2018,6,15,08:30,UTC,7,1012.9,70,,,17.8,12.3,31220,214,10.3,6.8
2018,6,15,08:40,UTC,7,1013,72,,,17.5,12.4,28449,221,10.6,6.7
2018,6,15,08:50,UTC,7,1012.9,69,,,18,12.4,30752,197,10.5,6.2
2018,6,15,09:00,UTC,7,1013,70,,,18.4,12.8,27719,198,10,7.6
2018,6,15,09:10,UTC,7,1013.2,70,,,18.3,12.7,33686,207,9.2,6.7
2018,6,15,09:20,UTC,7,1013.1,65,,,19,12.3,32698,205,9.8,6.2
2018,6,15,09:30,UTC,7,1013.2,65,,,19.2,12.4,32400,190,9.8,6.3
2018,6,15,09:40,UTC,7,1013.2,66,,,19.1,12.6,34450,219,8.9,6
2018,6,15,09:50,UTC,7,1013.2,65,,,18.8,12.2,21361,207,9.1,6.2
2018,6,15,10:00,UTC,7,1013.3,65,,,18.9,12.2,36256,204,10.3,7.4
2018,6,15,10:10,UTC,7,1013.4,65,,,19.3,12.5,34383,202,8.9,6.3
2018,6,15,10:20,UTC,7,1013.4,67,,,19.2,12.8,33863,198,9.2,6.6
2018,6,15,10:30,UTC,7,1013.4,67,,,19.2,13,40105,196,9.8,6.5
2018,6,15,10:40,UTC,7,1013.4,68,,,18.8,12.7,31577,198,9,6.4
2018,6,15,10:50,UTC,7,1013.3,68,,,19,12.9,24658,206,8.1,5.8
2018,6,15,11:00,UTC,7,1013.5,66,,,19.8,13.2,30113,196,7.8,5.8
2018,6,15,11:10,UTC,7,1013.5,64,,,20.1,13.1,28263,221,8.6,5.2
2018,6,15,11:20,UTC,7,1013.6,65,,,19.6,12.9,29618,207,7.6,4.8
2018,6,15,11:30,UTC,7,1013.6,66,,,20.1,13.6,30939,190,8.5,5.6
2018,6,15,11:40,UTC,7,1013.7,63,,,19.7,12.5,35184,205,8.2,5.6
2018,6,15,11:50,UTC,7,1013.7,64,,,19.8,12.9,38861,206,8.9,6.2
2018,6,15,12:00,UTC,7,1013.7,63,,,20.2,12.8,28477,214,8.5,6.1
2018,6,15,12:10,UTC,7,1013.5,61,,,20.6,12.8,33276,208,8.5,6.3
2018,6,15,12:20,UTC,7,1013.5,59,,,20.4,12.1,34297,211,10.2,6.1
2018,6,15,12:30,UTC,7,1013.4,61,,,20.2,12.4,31565,226,11,6.1
2018,6,15,12:40,UTC,7,1013.4,61,,,20.5,12.8,34432,224,8.7,5.5
2018,6,15,12:50,UTC,7,1013.5,57,,,21.2,12.2,30409,227,9.4,5.1
2018,6,15,13:00,UTC,7,1013.5,58,,,20.8,12.2,35546,221,9.5,6.4
2018,6,15,13:10,UTC,6,1013.5,57,,,20.5,11.6,33964,219,9.2,5.5
2018,6,15,13:20,UTC,6,1013.5,58,,,20.9,12.4,34524,211,7.5,5.2
2018,6,15,13:30,UTC,7,1013.8,58,,,20.2,11.6,41295,234,9.6,6
2018,6,15,13:40,UTC,7,1013.8,60,,,19.9,12,32643,231,9.8,6.9
2018,6,15,13:50,UTC,7,1013.9,60,,,20.1,12,37943,221,8.4,6.1
2018,6,15,14:00,UTC,7,1013.9,59,,,20.4,12.1,34991,237,7.8,5
2018,6,15,14:10,UTC,7,1014,58,,,20.3,11.9,33374,243,10.3,7.1
2018,6,15,14:20,UTC,7,1014.1,59,,,20,11.8,29868,230,10.8,7.3
2018,6,15,14:30,UTC,7,1014.1,62,,,19.9,12.3,34363,227,9.8,6.6
2018,6,15,14:40,UTC,7,1014.1,60,,,19.9,12,37276,235,10.7,6.2
2018,6,15,14:50,UTC,6,1014.2,62,,,19.9,12.3,39997,239,9.5,5.9
2018,6,15,15:00,UTC,5,1014.2,60,,,19.7,11.7,38188,246,9.8,5.4
2018,6,15,15:10,UTC,6,1014.3,61,,,19.6,11.8,35083,243,11.5,6.7
2018,6,15,15:20,UTC,7,1014.3,60,,,19.9,12,39481,235,10.5,6.8
2018,6,15,15:30,UTC,7,1014.3,60,,,19.9,11.9,29952,233,10.8,6.4
2018,6,15,15:40,UTC,7,1014.3,60,,,19.5,11.5,33538,245,10.3,6.4
2018,6,15,15:50,UTC,7,1014.4,61,,,19.8,12,41246,234,7.5,4.5
2018,6,15,16:00,UTC,7,1014.4,61,,,19.6,11.8,31084,222,9.4,6.4
2018,6,15,16:10,UTC,7,1014.4,60,,,19.6,11.6,32821,215,9.2,6.2
2018,6,15,16:20,UTC,5,1014.6,58,,,19.5,11.1,31787,234,9.6,5.6
2018,6,15,16:30,UTC,4,1014.6,60,,,19.3,11.4,32846,247,9,6.2
2018,6,15,16:40,UTC,2,1014.6,61,,,19.1,11.5,38486,229,7.4,4.6
2018,6,15,16:50,UTC,1,1014.6,61,,,19,11.2,36674,244,7.6,4.4
2018,6,15,17:00,UTC,3,1014.5,61,,,18.8,11.3,39938,243,8.2,5.3
2018,6,15,17:10,UTC,5,1014.5,61,,,19.1,11.3,37570,235,8.3,4.2
2018,6,15,17:20,UTC,7,1014.5,62,,,18.8,11.3,36683,222,8.4,5.2
2018,6,15,17:30,UTC,6,1014.6,64,,,18.3,11.3,37641,225,8.2,4.8
2018,6,15,17:40,UTC,5,1014.6,64,,,18.7,11.6,33614,219,7.1,4.7
2018,6,15,17:50,UTC,6,1014.6,64,,,18.9,11.9,43437,217,6.7,4.6
2018,6,15,18:00,UTC,7,1014.6,65,,,18.7,12,35618,219,6.6,4.5
2018,6,15,18:10,UTC,7,1014.7,66,,,18.7,12.1,40082,221,6.5,4.4
2018,6,15,18:20,UTC,7,1014.6,66,,,18.3,11.9,36125,205,5.9,3.5
2018,6,15,18:30,UTC,6,1014.6,69,,,17.8,12.1,33393,181,6.5,4.5
2018,6,15,18:40,UTC,3,1014.7,72,,,17.4,12.2,41061,175,6.1,4.9
2018,6,15,18:50,UTC,1,1014.8,73,,,17,12.2,36406,178,6.3,4.4
2018,6,15,19:00,UTC,0,1014.9,73,,,17,12.1,32796,185,5.7,3.7
2018,6,15,19:10,UTC,0,1015,70,,,16.9,11.4,37083,198,5.7,3.6
2018,6,15,19:20,UTC,0,1015.2,71,,,16.6,11.3,37543,195,4.6,3.3
2018,6,15,19:30,UTC,0,1015.2,75,,,16.1,11.7,39212,182,4.6,3.1
2018,6,15,19:40,UTC,0,1015.3,77,,,15.7,11.7,30788,173,4,2.8
2018,6,15,19:50,UTC,0,1015.5,77,,,15.6,11.5,32734,173,4.5,3.2
2018,6,15,20:00,UTC,0,1015.6,74,,,15.6,11,35057,181,4.4,3.1
2018,6,15,20:10,UTC,0,1015.7,73,,,15.4,10.5,36280,188,4.2,3
2018,6,15,20:20,UTC,0,1015.6,70,,,15.4,10,35014,182,3.9,2.9
2018,6,15,20:30,UTC,0,1015.9,70,,,15,9.7,37975,190,3.8,2.7
2018,6,15,20:40,UTC,0,1015.9,70,,,14.8,9.4,36928,204,3.7,2.5
2018,6,15,20:50,UTC,0,1016,71,,,14.9,9.6,39116,194,3.5,2.9
2018,6,15,21:00,UTC,0,1016.1,72,,,14.6,9.7,36017,195,3.5,2.7
2018,6,15,21:10,UTC,0,1016.2,74,,,14.4,9.8,38891,197,4,2.9
2018,6,15,21:20,UTC,0,1016.3,75,,,14.4,9.9,36256,202,3.9,2.6
2018,6,15,21:30,UTC,0,1016.3,76,,,14.3,10.1,37562,195,3,2.2
2018,6,15,21:40,UTC,0,1016.3,77,,,14.2,10.2,37019,186,2.7,2
2018,6,15,21:50,UTC,0,1016.3,79,,,13.8,10.1,33734,201,2,1.5
2018,6,15,22:00,UTC,0,1016.4,81,,,13.3,10.1,32494,223,1.5,0.8
2018,6,15,22:10,UTC,0,1016.4,82,,,13.4,10.3,31974,193,1.7,1
2018,6,15,22:20,UTC,0,1016.5,81,,,13.4,10.2,32388,196,2.4,1.3
2018,6,15,22:30,UTC,0,1016.5,84,,,12.6,10,28660,167,1.5,0.8
2018,6,15,22:40,UTC,0,1016.7,89,,,11.7,9.9,25877,113,1.9,1.4
2018,6,15,22:50,UTC,0,1016.6,87,,,12.2,10.1,29167,140,1.8,1.2
2018,6,15,23:00,UTC,0,1016.7,88,,,11.4,9.5,27286,145,1,0.6
2018,6,15,23:10,UTC,0,1016.8,90,,,11.2,9.6,23404,122,1.3,0.7
2018,6,15,23:20,UTC,0,1016.9,92,,,11.3,10.1,21573,136,1.1,0.6
2018,6,15,23:30,UTC,0,1016.9,93,,,11,9.9,23966,165,0.8,0.5
2018,6,15,23:40,UTC,0,1017,93,,,10.3,9.3,16339,173,1,0.5
2018,6,15,23:50,UTC,0,1017,94,,,10.1,9.2,24568,0,0,0
2018,6,16,00:00,UTC,0,1017.1,95,,,10.3,9.5,22818,0,0,0
2018,6,16,00:10,UTC,0,1017.2,93,,,9.4,8.3,25103,0,0,0
2018,6,16,00:20,UTC,0,1017.2,96,,,9.7,9.1,20612,0,0,0
2018,6,16,00:30,UTC,0,1017.3,96,,,10.1,9.5,19177,116,1.3,0.9
2018,6,16,00:40,UTC,0,1017.3,93,,,9.3,8.3,19529,0,0,0
2018,6,16,00:50,UTC,0,1017.5,97,,,9.3,8.8,13195,0,0,0
2018,6,16,01:00,UTC,0,1017.5,98,,,9.3,9,5846,0,0,0
2018,6,16,01:10,UTC,0,1017.6,98,,,9.3,9.1,1284,0,0,0
2018,6,16,01:20,UTC,0,1017.6,99,,,8.9,8.7,237,0,0,0
2018,6,16,01:30,UTC,0,1017.6,99,,,9,8.8,2508,0,0,0
2018,6,16,01:40,UTC,0,1017.7,99,,,8.7,8.6,403,0,0,0
2018,6,16,01:50,UTC,0,1017.7,99,,,8.8,8.7,1409,117,1.1,0.8
2018,6,16,02:00,UTC,0,1017.7,99,,,8.9,8.7,7057,99,1.2,0.9
2018,6,16,02:10,UTC,0,1017.8,99,,,8.8,8.7,14918,106,1.3,1
2018,6,16,02:20,UTC,0,1017.8,99,,,8.9,8.8,20720,111,1,0.7
2018,6,16,02:30,UTC,0,1017.8,99,,,9.6,9.5,14020,113,1.8,1.3
2018,6,16,02:40,UTC,0,1017.9,97,,,9.8,9.3,15442,126,1.9,1.4
2018,6,16,02:50,UTC,0,1018,96,,,9.4,8.8,19184,129,1.4,1
2018,6,16,03:00,UTC,0,1018,96,,,9.6,9,17487,122,1.4,1
2018,6,16,03:10,UTC,0,1018,92,,,11.6,10.2,22521,125,2.2,1.1
2018,6,16,03:20,UTC,0,1018,88,,,12.9,10.9,22297,124,1.7,0.9
2018,6,16,03:30,UTC,0,1018,86,,,13.5,11.2,24209,180,2.2,1.4
2018,6,16,03:40,UTC,0,1018.1,86,,,13.7,11.4,23810,176,2.7,2
2018,6,16,03:50,UTC,0,1018.1,85,,,14.1,11.6,25119,184,2.5,1.8
2018,6,16,04:00,UTC,0,1018.1,83,,,14.6,11.8,25818,184,1.9,1.3
2018,6,16,04:10,UTC,0,1018.1,81,,,15.1,11.8,25548,209,2.4,1.3
2018,6,16,04:20,UTC,0,1018.1,79,,,15.4,11.8,31700,206,2.7,1.5
2018,6,16,04:30,UTC,0,1018,77,,,15.6,11.5,29891,191,2.6,1.5
2018,6,16,04:40,UTC,0,1018,74,,,16.1,11.4,28952,198,2.6,1.6
2018,6,16,04:50,UTC,0,1018,70,,,16.5,10.9,33956,226,2.2,1.2
2018,6,16,05:00,UTC,0,1018,69,,,16.9,11.1,28927,236,2.8,1.1
2018,6,16,05:10,UTC,0,1018,64,,,17.1,10.3,30063,245,2.9,1.6
2018,6,16,05:20,UTC,0,1018,63,,,17.5,10.4,31560,222,4.1,2
2018,6,16,05:30,UTC,0,1018.1,60,,,18,10.2,24001,220,3.5,2.1
2018,6,16,05:40,UTC,0,1018,59,,,18.1,9.9,35226,186,3.8,2.7
2018,6,16,05:50,UTC,0,1018.1,55,,,18.3,9,33474,210,3.9,2.5
2018,6,16,06:00,UTC,0,1018,53,,,18.6,8.9,32658,192,4.1,1.8
2018,6,16,06:10,UTC,0,1018,51,,,19,8.6,31097,183,4.5,2.7
2018,6,16,06:20,UTC,0,1018,49,,,19.2,8.2,29855,184,4.6,3.2
2018,6,16,06:30,UTC,0,1018,46,,,19.3,7.5,29138,197,4.2,2.5
2018,6,16,06:40,UTC,0,1017.9,43,,,19.7,6.8,31395,222,4.5,2.8
2018,6,16,06:50,UTC,0,1018,41,,,19.7,6.2,36767,216,4.4,2.8
2018,6,16,07:00,UTC,0,1018,45,,,19.9,7.7,33497,206,4.1,2
2018,6,16,07:10,UTC,0,1018,46,,,19.9,8,30570,175,5,3.4
2018,6,16,07:20,UTC,0,1018,43,,,20.3,7.4,37796,170,4.8,2.8
2018,6,16,07:30,UTC,0,1018.1,43,,,20.5,7.4,28600,179,3.8,2.4
2018,6,16,07:40,UTC,0,1018.1,41,,,20.4,6.8,33179,172,4.5,2.7
2018,6,16,07:50,UTC,0,1018.1,38,,,20.6,5.7,36917,161,5.1,3.3
2018,6,16,08:00,UTC,0,1018.1,44,,,21.5,8.8,34548,182,5,3.5
2018,6,16,08:10,UTC,0,1018.1,50,,,20.2,9.5,34590,183,6,4.3
2018,6,16,08:20,UTC,0,1018.1,52,,,20.2,10.1,31268,183,6,4.4
2018,6,16,08:30,UTC,0,1018.1,54,,,20.4,10.8,41543,190,6.1,4.8
2018,6,16,08:40,UTC,0,1018.2,55,,,19.5,10.1,30537,198,7,5
2018,6,16,08:50,UTC,0,1018.2,55,,,19.8,10.6,33499,183,6.6,4.8
2018,6,16,09:00,UTC,0,1018.2,55,,,19.7,10.4,26760,183,6.2,4.9
2018,6,16,09:10,UTC,0,1018.2,54,,,19.9,10.3,32807,188,7.3,5
2018,6,16,09:20,UTC,0,1018.3,52,,,19.8,9.5,35668,193,7.5,5.4
2018,6,16,09:30,UTC,0,1018.2,49,,,19.5,8.5,35104,199,7.4,5.5
2018,6,16,09:40,UTC,0,1018.3,46,,,20.2,8.3,29906,199,8,5.4
2018,6,16,09:50,UTC,0,1018.4,45,,,19.7,7.5,35217,202,7.8,5.4
2018,6,16,10:00,UTC,0,1018.4,43,,,20,7.2,29004,194,7.1,5.3
2018,6,16,10:10,UTC,0,1018.3,41,,,20.5,6.7,31782,191,6.9,5
2018,6,16,10:20,UTC,0,1018.3,40,,,20.4,6.4,37573,191,7.3,5.5
2018,6,16,10:30,UTC,0,1018.3,42,,,20.2,6.7,30557,188,6.9,5.5
2018,6,16,10:40,UTC,0,1018.3,41,,,20.3,6.6,34973,195,7.1,5.5
2018,6,16,10:50,UTC,0,1018.3,38,,,20.8,6,41743,186,7.2,5.1
2018,6,16,11:00,UTC,0,1018.2,39,,,21.1,6.8,33175,185,7.1,4.8
2018,6,16,11:10,UTC,0,1018.1,39,,,20.3,5.9,33721,191,7.1,5.4
2018,6,16,11:20,UTC,0,1018.1,39,,,20.7,6.1,28782,198,7,5.6
2018,6,16,11:30,UTC,0,1018,38,,,21.1,6,28706,194,7,5.3
2018,6,16,11:40,UTC,0,1018,38,,,21.5,6.4,33155,184,7.3,5
2018,6,16,11:50,UTC,0,1018,37,,,20.6,5.6,43118,195,7.5,5.5
2018,6,16,12:00,UTC,0,1018,37,,,20.7,5.6,28936,187,7.3,4.7
2018,6,16,12:10,UTC,0,1017.9,36,,,21.2,5.7,30862,201,7.2,4.7
2018,6,16,12:20,UTC,0,1017.9,33,,,21.3,4.3,38976,198,6.2,4.3
2018,6,16,12:30,UTC,0,1017.8,34,,,21.5,4.8,35892,206,6.2,4.4
2018,6,16,12:40,UTC,0,1017.7,31,,,21.9,4,35262,193,5.2,3.7
2018,6,16,12:50,UTC,0,1017.6,25,,,22.8,1.6,42654,193,5.3,3.6
2018,6,16,13:00,UTC,0,1017.6,15,,,22.2,-5.8,46335,184,5.4,3.8
2018,6,16,13:10,UTC,0,1017.5,17,,,22.1,-3.8,36020,193,5.5,4.1
2018,6,16,13:20,UTC,0,1017.5,20,,,22.6,-1.6,43590,180,6,4
2018,6,16,13:30,UTC,0,1017.5,21,,,22.2,-1.1,39885,204,6.5,4.6
2018,6,16,13:40,UTC,0,1017.5,19,,,22.2,-2.7,38723,203,6.4,5
2018,6,16,13:50,UTC,0,1017.4,18,,,22.5,-3.1,40683,191,6.4,4.7
2018,6,16,14:00,UTC,0,1017.4,19,,,22.2,-2.8,45489,187,6.1,4.7
2018,6,16,14:10,UTC,0,1017.4,20,,,22,-1.8,37617,202,6.2,4.4
2018,6,16,14:20,UTC,0,1017.4,20,,,22.2,-1.8,37270,176,5.8,4.4
2018,6,16,14:30,UTC,0,1017.4,21,,,22.1,-1.6,39104,191,6,4.4
2018,6,16,14:40,UTC,0,1017.4,22,,,21.9,-1.1,44935,199,5.6,4
2018,6,16,14:50,UTC,0,1017.3,22,,,22.1,-0.8,43650,191,5.5,4.2
2018,6,16,15:00,UTC,0,1017.3,22,,,21.7,-0.7,41453,191,5.7,4.4
2018,6,16,15:10,UTC,0,1017.3,29,,,21.5,2.7,40605,186,5.8,4.4
2018,6,16,15:20,UTC,0,1017.3,28,,,21.7,2.3,39727,195,5.9,4.3
2018,6,16,15:30,UTC,0,1017.2,31,,,21.4,3.7,42744,187,5.7,4.3
2018,6,16,15:40,UTC,0,1017.3,42,,,20.6,7.3,30721,191,5.6,4.3
2018,6,16,15:50,UTC,0,1017.3,43,,,20.7,7.7,35984,190,5.9,4.6
2018,6,16,16:00,UTC,0,1017.3,43,,,20.3,7.3,34212,200,5.9,4.3
2018,6,16,16:10,UTC,0,1017.3,42,,,20.1,6.9,43294,200,6,4.4
2018,6,16,16:20,UTC,0,1017.3,44,,,20.2,7.5,36126,192,5.6,4.3
2018,6,16,16:30,UTC,0,1017.2,44,,,20.1,7.3,35916,193,5.6,4.3
2018,6,16,16:40,UTC,0,1017.2,40,,,20.1,6.1,32886,197,5.7,4
2018,6,16,16:50,UTC,0,1017.1,41,,,20.2,6.5,41024,193,4.9,3.7
2018,6,16,17:00,UTC,0,1017.2,43,,,20.6,7.4,48644,188,5.4,3.8
2018,6,16,17:10,UTC,0,1017.2,50,,,19.6,9.1,36494,146,4.8,3.8
2018,6,16,17:20,UTC,0,1017.2,50,,,19.4,8.8,41528,141,5.4,3.9
2018,6,16,17:30,UTC,0,1017.2,47,,,19.2,7.6,41999,146,6.2,4
2018,6,16,17:40,UTC,0,1017.2,45,,,19.3,7.2,43323,153,4.9,3.3
2018,6,16,17:50,UTC,0,1017.3,48,,,19,7.6,38768,145,3.9,2.6
2018,6,16,18:00,UTC,0,1017.3,47,,,19,7.4,39427,195,3,2
2018,6,16,18:10,UTC,0,1017.4,52,,,18.7,8.7,46154,206,3.2,2
2018,6,16,18:20,UTC,0,1017.4,57,,,18.3,9.6,39395,207,2.9,1.8
2018,6,16,18:30,UTC,0,1017.4,61,,,18,10.3,46859,196,2.3,1.7
2018,6,16,18:40,UTC,0,1017.4,63,,,17.7,10.5,47219,206,2.8,1.8
2018,6,16,18:50,UTC,0,1017.4,63,,,17.5,10.4,46368,210,2.6,1.7
2018,6,16,19:00,UTC,0,1017.5,66,,,17.3,10.8,48053,196,2.2,1.5
2018,6,16,19:10,UTC,0,1017.6,70,,,17,11.5,49635,206,2.3,1.4
2018,6,16,19:20,UTC,0,1017.6,72,,,16.8,11.9,38006,222,2.3,1.6
2018,6,16,19:30,UTC,0,1017.6,74,,,16.3,11.7,36379,223,2.2,1.3
2018,6,16,19:40,UTC,0,1017.7,79,,,15.6,11.9,36546,238,1.2,0.7
2018,6,16,19:50,UTC,0,1017.8,81,,,15.2,12,32762,288,1.2,0.5
2018,6,16,20:00,UTC,0,1017.8,80,,,15.3,12,32301,0,0,0
2018,6,16,20:10,UTC,0,1017.8,82,,,14.8,11.7,33712,0,0,0
2018,6,16,20:20,UTC,0,1017.7,86,,,14.4,12,27649,0,0,0
2018,6,16,20:30,UTC,0,1017.7,87,,,13.5,11.3,30211,0,0,0
2018,6,16,20:40,UTC,0,1017.7,88,,,13.2,11.3,9936,0,0,0
2018,6,16,20:50,UTC,0,1017.7,89,,,13.2,11.5,23732,0,0,0
2018,6,16,21:00,UTC,0,1017.8,86,,,12.9,10.6,18380,0,0,0
2018,6,16,21:10,UTC,0,1017.8,86,,,13.1,10.8,10449,92,1,0.6
2018,6,16,21:20,UTC,0,1017.8,88,,,12.6,10.7,5568,0,0,0
2018,6,16,21:30,UTC,0,1017.8,89,,,12.6,10.7,28442,99,1.2,0.8
2018,6,16,21:40,UTC,0,1017.8,90,,,12.2,10.5,16710,0,0,0
2018,6,16,21:50,UTC,1,1017.8,90,,,12.1,10.6,20095,113,0.9,0.6
2018,6,16,22:00,UTC,1,1017.9,90,,,12.1,10.5,30264,0,0,0
2018,6,16,22:10,UTC,1,1017.9,85,,,12,9.5,29593,130,2.4,1.6
2018,6,16,22:20,UTC,1,1017.9,81,,,13.2,9.9,31581,145,2.1,1.4
2018,6,16,22:30,UTC,1,1018,83,,,12.4,9.6,36069,128,1.2,0.9
2018,6,16,22:40,UTC,0,1018,87,,,12.1,9.9,30002,46,0.7,0.6
2018,6,16,22:50,UTC,1,1018,88,,,11.7,9.8,28027,0,0,0
2018,6,16,23:00,UTC,3,1017.9,88,,,11.3,9.4,35899,0,0,0
2018,6,16,23:10,UTC,2,1017.9,91,,,11,9.5,29070,0,0,0
2018,6,16,23:20,UTC,1,1017.9,93,,,11,9.9,27828,0,0,0
2018,6,16,23:30,UTC,1,1017.9,93,,,10.9,9.8,23467,0,0,0
2018,6,16,23:40,UTC,3,1017.9,94,,,10.3,9.5,21609,306,1,0.7
2018,6,16,23:50,UTC,5,1018,92,,,10.9,9.7,25326,18,1,0.7
2018,6,17,00:00,UTC,3,1017.9,93,,,10.7,9.5,25650,0,0,0
2018,6,17,00:10,UTC,2,1017.8,93,,,10.4,9.2,24480,0,0,0
2018,6,17,00:20,UTC,1,1017.8,92,,,10.7,9.5,26666,140,1,0.6
2018,6,17,00:30,UTC,1,1017.8,92,,,10.2,8.9,23108,0,0,0
2018,6,17,00:40,UTC,1,1017.7,94,,,9.9,9,21748,0,0,0
2018,6,17,00:50,UTC,1,1017.6,94,,,10.1,9.2,23390,108,0.9,0.7
2018,6,17,01:00,UTC,1,1017.7,94,,,9.9,9,19982,0,0,0
2018,6,17,01:10,UTC,1,1017.6,95,,,9.6,8.8,25687,0,0,0
2018,6,17,01:20,UTC,1,1017.6,95,,,9.9,9.1,22357,0,0,0
2018,6,17,01:30,UTC,0,1017.7,94,,,9.2,8.3,22460,0,0,0
2018,6,17,01:40,UTC,2,1017.6,96,,,9.9,9.3,17367,335,1.2,0.8
2018,6,17,01:50,UTC,4,1017.7,95,,,9.8,9,18287,47,1,0.6
2018,6,17,02:00,UTC,7,1017.6,95,,,10,9.2,20453,0,0,0
2018,6,17,02:10,UTC,7,1017.7,93,,,10.5,9.5,22354,0,0,0
2018,6,17,02:20,UTC,7,1017.7,91,,,11,9.6,26420,0,0,0
2018,6,17,02:30,UTC,7,1017.7,89,,,11.4,9.7,23592,0,0,0
2018,6,17,02:40,UTC,7,1017.7,88,,,11.8,9.8,29303,0,0,0
2018,6,17,02:50,UTC,7,1017.7,88,,,11.9,10,26068,330,1.1,0.8
2018,6,17,03:00,UTC,6,1017.8,86,,,12.2,9.9,30956,351,1,0.8
2018,6,17,03:10,UTC,4,1017.7,85,,,13.1,10.7,29764,339,1.5,1.1
2018,6,17,03:20,UTC,5,1017.6,81,,,13.9,10.7,29251,19,1.4,0.9
2018,6,17,03:30,UTC,6,1017.7,78,,,14.4,10.7,34153,352,1.3,0.7
2018,6,17,03:40,UTC,7,1017.7,74,,,14.9,10.2,29682,2,2,1.3
2018,6,17,03:50,UTC,5,1017.6,71,,,15.2,10,35871,350,2.3,1.9
2018,6,17,04:00,UTC,5,1017.6,69,,,15.7,9.9,38536,343,1.9,1.5
2018,6,17,04:10,UTC,4,1017.6,66,,,16.3,10,35918,342,1.8,1.4
2018,6,17,04:20,UTC,3,1017.6,65,,,16.6,9.9,33978,356,1.8,1.2
2018,6,17,04:30,UTC,2,1017.6,62,,,17.1,9.8,40442,342,1.7,1
2018,6,17,04:40,UTC,1,1017.6,61,,,17.6,10.1,35682,355,1.7,1.2
2018,6,17,04:50,UTC,1,1017.5,60,,,18.2,10.4,35273,357,1.6,1.1
2018,6,17,05:00,UTC,1,1017.6,58,,,18.6,10.1,30933,358,1.5,1
2018,6,17,05:10,UTC,0,1017.6,55,,,19,9.7,38520,5,1.3,0.7
2018,6,17,05:20,UTC,0,1017.5,50,,,19.3,8.6,39308,98,3.3,2.1
2018,6,17,05:30,UTC,0,1017.5,53,,,19.4,9.6,35273,88,2.9,2
2018,6,17,05:40,UTC,0,1017.5,52,,,19.7,9.5,39949,94,2.3,1.6
2018,6,17,05:50,UTC,0,1017.4,52,,,19.9,9.9,45089,82,2.7,1.7
2018,6,17,06:00,UTC,0,1017.2,53,,,20.2,10.4,34197,86,2.9,1.7
2018,6,17,06:10,UTC,0,1017.3,55,,,20.4,11,36174,86,3.5,2
2018,6,17,06:20,UTC,0,1017.3,56,,,20.7,11.5,33605,56,3.9,2.1
2018,6,17,06:30,UTC,0,1017.2,56,,,21,11.8,33142,88,4.1,2.4
2018,6,17,06:40,UTC,0,1017.3,56,,,20.9,11.8,43430,112,5.3,3.7
2018,6,17,06:50,UTC,2,1017.3,56,,,20.9,11.9,35168,103,4.8,3.8
2018,6,17,07:00,UTC,1,1017.3,57,,,20.9,12.2,34180,92,4.8,3.2
2018,6,17,07:10,UTC,1,1017.3,60,,,21.3,13.2,34347,101,5.7,3.7
2018,6,17,07:20,UTC,0,1017.2,58,,,21.3,12.8,40021,107,5.6,3.9
2018,6,17,07:30,UTC,0,1017.2,63,,,21.4,14,29953,95,6.3,3.8
2018,6,17,07:40,UTC,0,1017.2,63,,,21.1,13.7,34877,110,6.3,4.3
2018,6,17,07:50,UTC,0,1017.1,63,,,20.9,13.6,33556,116,7.1,4.8
2018,6,17,08:00,UTC,0,1017.2,61,,,20.7,13,35835,127,8,5.3
2018,6,17,08:10,UTC,0,1017.2,63,,,20.4,13.2,26501,103,7.5,5.7
2018,6,17,08:20,UTC,0,1017.2,65,,,20.7,13.9,29541,127,7.7,4.9
2018,6,17,08:30,UTC,2,1017.3,64,,,21.1,14.1,27583,112,6.5,4.4
2018,6,17,08:40,UTC,1,1017.3,61,,,20.1,12.3,36614,144,7.8,6
2018,6,17,08:50,UTC,3,1017.4,60,,,20.2,12.3,27413,134,7.2,5.2
2018,6,17,09:00,UTC,5,1017.3,56,,,20.7,11.6,35947,132,7.1,4.8
2018,6,17,09:10,UTC,6,1017.3,54,,,21,11.3,33351,136,7.1,4.9
2018,6,17,09:20,UTC,5,1017.2,48,,,21.6,10.2,31756,135,7.2,4.7
2018,6,17,09:30,UTC,3,1017.2,48,,,20.9,9.3,34204,156,8.2,5.5
2018,6,17,09:40,UTC,1,1017.2,46,,,21.7,9.5,33411,146,7.4,5.1
2018,6,17,09:50,UTC,0,1017,48,,,21.4,9.8,39152,147,7,5
2018,6,17,10:00,UTC,0,1017.1,46,,,21.3,9.2,36727,131,7.3,5.3
2018,6,17,10:10,UTC,0,1017.1,44,,,22,9.3,33181,133,7.1,4.9
2018,6,17,10:20,UTC,0,1017.1,42,,,22,8.5,45130,146,7.2,4.7
2018,6,17,10:30,UTC,0,1017,42,,,22.2,8.7,40620,140,7.3,5
2018,6,17,10:40,UTC,0,1016.9,40,,,22.3,7.9,38460,147,8,5.4
2018,6,17,10:50,UTC,0,1016.8,37,,,23.2,7.5,36069,142,7.8,5.1
2018,6,17,11:00,UTC,0,1016.7,35,,,23,6.9,34132,129,9.2,5.7
2018,6,17,11:10,UTC,0,1016.8,35,,,22.8,6.6,38378,129,7.9,5.9
2018,6,17,11:20,UTC,0,1016.7,34,,,23.3,6.8,31520,138,8.1,5.6
2018,6,17,11:30,UTC,0,1016.6,36,,,23.2,7.1,32940,145,7.3,5.3
2018,6,17,11:40,UTC,0,1016.6,36,,,24,8.1,36013,149,6.7,4.6
2018,6,17,11:50,UTC,0,1016.6,40,,,23.1,8.8,44924,112,7.6,5.1
2018,6,17,12:00,UTC,0,1016.6,40,,,23,8.6,34957,118,8.1,5.2
2018,6,17,12:10,UTC,0,1016.5,39,,,22.9,8.3,38734,131,7.6,5.2
2018,6,17,12:20,UTC,0,1016.5,43,,,22.5,9.5,41379,125,6.5,5.1
2018,6,17,12:30,UTC,0,1016.4,44,,,23.1,10.1,39451,124,6.7,4.9
2018,6,17,12:40,UTC,0,1016.4,46,,,22.5,10.4,42297,106,7.4,5.2
2018,6,17,12:50,UTC,0,1016.3,48,,,22.1,10.4,38918,115,7.3,5.5
2018,6,17,13:00,UTC,0,1016.2,46,,,22.3,10.1,40427,108,7.7,5.6
2018,6,17,13:10,UTC,0,1016.2,47,,,22.4,10.4,36667,126,7.6,5.5
2018,6,17,13:20,UTC,0,1016.1,46,,,22.1,9.8,42159,127,7.3,5.6
2018,6,17,13:30,UTC,0,1016,47,,,21.6,9.9,31897,129,7.6,5.8
2018,6,17,13:40,UTC,0,1016,48,,,22.1,10.4,36059,136,7.7,5.4
2018,6,17,13:50,UTC,0,1015.9,49,,,22.3,10.9,43657,119,7.1,4.8
2018,6,17,14:00,UTC,0,1015.8,44,,,22.1,9.3,41294,136,7.4,5.3
2018,6,17,14:10,UTC,0,1015.7,44,,,21.9,9.2,43308,116,7.4,5.5
2018,6,17,14:20,UTC,0,1015.7,43,,,22.1,9,37266,127,8.4,5.6
2018,6,17,14:30,UTC,0,1015.7,43,,,21.7,8.7,40545,125,7.9,5.6
2018,6,17,14:40,UTC,0,1015.6,45,,,22,9.4,38690,126,7.1,4.8
2018,6,17,14:50,UTC,0,1015.6,44,,,21.6,8.8,35281,112,7.7,5.1
2018,6,17,15:00,UTC,0,1015.6,46,,,21.3,9.2,40956,116,7.1,5.6
2018,6,17,15:10,UTC,0,1015.6,45,,,21.7,9.1,36773,127,6.9,5
2018,6,17,15:20,UTC,0,1015.5,45,,,21.3,8.9,42320,107,6.6,4.4
2018,6,17,15:30,UTC,0,1015.6,46,,,21.4,9.3,32897,104,6.7,4.3
2018,6,17,15:40,UTC,0,1015.5,45,,,21.1,8.8,45468,115,7.1,4.3
2018,6,17,15:50,UTC,0,1015.6,45,,,20.8,8.6,35442,119,6.6,4.7
2018,6,17,16:00,UTC,0,1015.6,47,,,21,9.3,44679,124,6.4,4.7
2018,6,17,16:10,UTC,0,1015.6,48,,,20.9,9.4,39864,117,6.1,4.3
2018,6,17,16:20,UTC,0,1015.6,47,,,20.8,9.2,41964,125,6.9,4.5
2018,6,17,16:30,UTC,0,1015.6,49,,,20.7,9.5,37574,130,6.9,5
2018,6,17,16:40,UTC,0,1015.6,50,,,20.4,9.6,35187,124,6.5,4.5
2018,6,17,16:50,UTC,0,1015.4,51,,,20.3,9.9,43132,120,5.7,4
2018,6,17,17:00,UTC,0,1015.4,51,,,20,9.6,42775,114,6.4,4.6
2018,6,17,17:10,UTC,0,1015.3,52,,,20.1,9.9,38574,117,5.3,3.6
2018,6,17,17:20,UTC,0,1015.2,52,,,19.9,9.6,41774,104,5.6,4
2018,6,17,17:30,UTC,0,1015.2,52,,,19.8,9.6,44655,114,5.8,3.9
2018,6,17,17:40,UTC,0,1015.2,51,,,19.6,9.3,44690,128,4.7,3.3
2018,6,17,17:50,UTC,0,1015.2,52,,,19.6,9.5,44887,131,5.5,4
2018,6,17,18:00,UTC,0,1015.1,52,,,19.5,9.5,39052,127,5.1,3.2
2018,6,17,18:10,UTC,0,1015.1,54,,,19.2,9.6,46842,113,4.3,2.8
2018,6,17,18:20,UTC,0,1015,54,,,18.9,9.4,46505,94,4.9,2.9
2018,6,17,18:30,UTC,0,1015,55,,,18.7,9.5,49353,99,4.9,3
2018,6,17,18:40,UTC,0,1014.9,56,,,18.6,9.6,45892,101,4.8,3
2018,6,17,18:50,UTC,0,1014.9,57,,,18.3,9.7,50000,98,4.2,3.1
2018,6,17,19:00,UTC,0,1014.8,58,,,18.2,9.8,50000,97,4.1,3
2018,6,17,19:10,UTC,0,1014.8,59,,,17.9,9.9,49667,98,4.6,3.1
2018,6,17,19:20,UTC,0,1014.7,61,,,17.7,10,49605,98,4.4,3.1
2018,6,17,19:30,UTC,0,1014.6,62,,,17.4,10.1,50000,100,3.7,2.8
2018,6,17,19:40,UTC,0,1014.5,63,,,17.4,10.3,49935,94,3.6,2.6
2018,6,17,19:50,UTC,0,1014.4,64,,,17.3,10.4,47731,93,4,2.6
2018,6,17,20:00,UTC,0,1014.3,66,,,16.9,10.5,50000,100,3.7,2.7
2018,6,17,20:10,UTC,0,1014.3,67,,,16.8,10.7,48618,100,4,2.9
2018,6,17,20:20,UTC,0,1014.3,68,,,16.8,10.8,45833,99,4,2.7
2018,6,17,20:30,UTC,0,1014.2,69,,,16.8,11,48500,93,3.6,2.2
2018,6,17,20:40,UTC,0,1014.2,70,,,16.7,11.2,50000,96,3.2,1.9
2018,6,17,20:50,UTC,0,1014.1,71,,,16.8,11.5,50000,89,2.9,1.6
2018,6,17,21:00,UTC,0,1014.1,73,,,16.5,11.7,50000,88,1.9,1
2018,6,17,21:10,UTC,0,1014,76,,,16.3,12.1,48410,81,1.8,0.9
2018,6,17,21:20,UTC,0,1013.9,77,,,16.3,12.3,35128,77,1.5,1.1
2018,6,17,21:30,UTC,0,1013.8,78,,,16.5,12.6,50000,89,2,1.3
2018,6,17,21:40,UTC,0,1013.7,80,,,16.3,12.8,46399,104,2.3,1.4
2018,6,17,21:50,UTC,0,1013.6,82,,,16.2,13,47304,110,2.9,1.5
2018,6,17,22:00,UTC,0,1013.6,83,,,16.3,13.5,43135,120,2.2,1.4
2018,6,17,22:10,UTC,0,1013.5,84,,,16,13.4,47656,126,2.4,1.5
2018,6,17,22:20,UTC,0,1013.4,86,,,15.8,13.5,45145,117,2.4,1.7
2018,6,17,22:30,UTC,0,1013.4,88,,,15.6,13.7,48282,119,2.6,1.8
2018,6,17,22:40,UTC,0,1013.3,90,,,15.6,14,39398,111,2.4,1.5
2018,6,17,22:50,UTC,0,1013.3,89,,,15.7,13.9,34746,113,1.8,1.4
2018,6,17,23:00,UTC,0,1013.2,90,,,15.4,13.8,39548,115,2.9,2
2018,6,17,23:10,UTC,0,1013.1,90,,,15.6,14,43442,112,2.9,2.2
2018,6,17,23:20,UTC,0,1013.1,91,,,15.7,14.2,37237,116,2.8,2.2
2018,6,17,23:30,UTC,0,1013.1,91,,,15.5,14,37665,121,2.8,2
2018,6,17,23:40,UTC,0,1013,91,,,15.6,14.1,35737,121,2.5,2.1
2018,6,17,23:50,UTC,0,1012.9,91,,,15.5,14,35209,114,3.1,2.5
2018,6,18,00:00,UTC,0,1013,91,,,15.6,14.1,34144,122,2.5,1.9
2018,6,18,00:10,UTC,0,1012.8,91,,,15.5,14.1,37930,114,2.8,2.1
2018,6,18,00:20,UTC,0,1012.8,91,,,15.7,14.3,34769,116,2.7,2.1
2018,6,18,00:30,UTC,0,1012.8,91,,,15.9,14.3,39318,122,2.7,1.6
2018,6,18,00:40,UTC,0,1012.8,90,,,16.2,14.5,35466,144,2.4,1.4
2018,6,18,00:50,UTC,0,1012.6,90,,,15.7,14,31735,133,3,2
2018,6,18,01:00,UTC,0,1012.6,90,,,16.3,14.6,35537,136,4,2.6
2018,6,18,01:10,UTC,0,1012.6,89,,,16.6,14.8,37057,145,3.7,2.7
2018,6,18,01:20,UTC,0,1012.5,90,,,16.3,14.6,35101,136,4.1,3
2018,6,18,01:30,UTC,0,1012.5,89,,,16.7,14.9,37128,151,4.4,2.9
2018,6,18,01:40,UTC,0,1012.5,90,,,16.7,15,34779,150,4.1,2.7
2018,6,18,01:50,UTC,0,1012.4,89,,,17,15.1,35140,155,4.8,3
2018,6,18,02:00,UTC,0,1012.4,89,,,17,15.1,34562,162,4.5,3
2018,6,18,02:10,UTC,0,1012.4,89,,,17.1,15.2,31710,167,4.6,3
2018,6,18,02:20,UTC,0,1012.3,88,,,17.1,15.2,35295,169,5,3.5
2018,6,18,02:30,UTC,0,1012.3,89,,,17.1,15.2,30960,175,4.9,3.6
2018,6,18,02:40,UTC,0,1012.3,88,,,17.2,15.2,28179,173,5.8,3.9
2018,6,18,02:50,UTC,0,1012.2,88,,,17.2,15.2,32025,177,5.2,3.9
2018,6,18,03:00,UTC,0,1012.3,88,,,17.3,15.2,29745,181,5.5,3.9
2018,6,18,03:10,UTC,0,1012.1,87,,,17.3,15.2,30098,173,4.9,3.5
2018,6,18,03:20,UTC,0,1012.1,87,,,17.4,15.2,29851,175,4.5,3.1
2018,6,18,03:30,UTC,0,1012.2,85,,,17.7,15.2,32259,182,4.2,3
2018,6,18,03:40,UTC,0,1012.2,85,,,17.8,15.2,37529,183,3.9,2.5
2018,6,18,03:50,UTC,0,1012.1,81,,,18,14.8,34907,189,3.6,2.2
2018,6,18,04:00,UTC,0,1011.9,77,,,18.3,14.1,37656,194,4.1,2.4
2018,6,18,04:10,UTC,1,1012,73,,,18.9,14,29078,191,4.6,2.4
2018,6,18,04:20,UTC,4,1012,69,,,19,13.2,33778,203,4.9,3.2
2018,6,18,04:30,UTC,6,1012,70,,,18.8,13.3,31168,195,4.6,3.1
2018,6,18,04:40,UTC,7,1012,73,,,18.6,13.7,41563,192,5.1,3.4
2018,6,18,04:50,UTC,7,1012.1,75,,,18.5,14,29572,182,5.9,4.4
2018,6,18,05:00,UTC,7,1012,76,,,18.4,14,33641,175,7,4.1
2018,6,18,05:10,UTC,7,1011.7,76,,,17.9,13.7,35890,173,5.6,3.6
2018,6,18,05:20,UTC,7,1011.8,74,,,18,13.4,41051,179,4.6,3
2018,6,18,05:30,UTC,7,1011.6,75,,,17.8,13.3,34901,206,5.4,3.1
2018,6,18,05:40,UTC,7,1011.5,72,,,18,12.8,35538,201,3.6,2.5
2018,6,18,05:50,UTC,7,1011.6,73,,,18.1,13.2,46153,196,4.2,2.7
2018,6,18,06:00,UTC,7,1011.6,75,,,17.9,13.4,36653,199,4.7,3.3
2018,6,18,06:10,UTC,7,1011.6,77,,,18.4,14.4,31708,179,4.4,2.9
2018,6,18,06:20,UTC,7,1011.6,77,,,18.2,14,29578,190,5.9,3.5
2018,6,18,06:30,UTC,7,1011.6,78,,,17.9,14.1,34854,174,4.8,3.5
2018,6,18,06:40,UTC,7,1011.6,77,,,18.3,14.2,33846,178,5.1,3.6
2018,6,18,06:50,UTC,5,1011.5,76,,,18.3,13.9,30490,169,5.4,3.9
2018,6,18,07:00,UTC,4,1011.5,75,,,18.3,13.9,29585,174,5.8,4
2018,6,18,07:10,UTC,3,1011.5,75,,,18.8,14.4,27872,181,5.5,4
2018,6,18,07:20,UTC,2,1011.6,74,,,19.1,14.4,25495,179,6.3,4.1
2018,6,18,07:30,UTC,3,1011.6,76,,,18.6,14.3,26836,175,6.2,4.2
2018,6,18,07:40,UTC,4,1011.6,77,,,18.4,14.2,25509,170,5.5,4.2
2018,6,18,07:50,UTC,5,1011.7,79,,,18.1,14.4,30673,171,6.3,4.6
2018,6,18,08:00,UTC,6,1011.9,81,,,17.8,14.6,29804,176,7.5,5.4
2018,6,18,08:10,UTC,6,1011.9,79,,,18.7,15,26134,179,6.9,5
2018,6,18,08:20,UTC,7,1012,80,,,18,14.4,24840,180,7.5,5.9
2018,6,18,08:30,UTC,6,1012,78,,,18.5,14.7,28479,181,7.5,5.2
2018,6,18,08:40,UTC,7,1011.9,74,,,19,14.2,27386,181,7.8,5.7
2018,6,18,08:50,UTC,3,1011.9,71,,,19.4,13.9,30610,178,7.7,6
2018,6,18,09:00,UTC,2,1011.8,69,,,19.8,14,27404,179,8.7,6.4
2018,6,18,09:10,UTC,0,1011.9,67,,,20,13.7,28660,181,8.7,6.4
2018,6,18,09:20,UTC,0,1011.8,65,,,20.4,13.7,24638,175,9,6.1
2018,6,18,09:30,UTC,0,1011.8,61,,,21.2,13.4,31615,182,8.4,6
2018,6,18,09:40,UTC,0,1011.7,53,,,21.1,11.2,34803,193,10.8,7.1
2018,6,18,09:50,UTC,0,1011.8,48,,,21.2,9.8,31737,207,10.4,7.1
2018,6,18,10:00,UTC,0,1011.9,44,,,21.6,8.7,39398,205,10.6,7.3
2018,6,18,10:10,UTC,0,1012,42,,,21,7.6,38320,210,11.2,7.2
2018,6,18,10:20,UTC,0,1012,40,,,21.5,7.4,41769,203,12.8,7.6
2018,6,18,10:30,UTC,0,1011.9,38,,,21.3,6.5,31433,202,10.5,7.9
2018,6,18,10:40,UTC,0,1011.8,39,,,21.7,7.2,27463,199,10.4,6.8
2018,6,18,10:50,UTC,0,1011.8,40,,,21.4,7.1,33589,202,10,6.7
2018,6,18,11:00,UTC,0,1011.8,41,,,21.2,7.3,29243,195,12,7.6
2018,6,18,11:10,UTC,0,1011.9,40,,,20.6,6.5,30761,197,12.2,9.2
2018,6,18,11:20,UTC,0,1011.9,38,,,20.9,6.1,38440,197,12,8.9
2018,6,18,11:30,UTC,0,1011.9,40,,,20.7,6.8,36119,196,11.3,7.5
2018,6,18,11:40,UTC,0,1012,41,,,20.6,6.7,28392,199,10.8,7.1
2018,6,18,11:50,UTC,0,1011.9,43,,,20.3,7.4,31726,201,12.1,7.8
2018,6,18,12:00,UTC,0,1011.9,46,,,19.5,7.6,37827,189,10.1,7.5
2018,6,18,12:10,UTC,0,1012,42,,,20.2,6.8,32036,184,11.2,7.2
2018,6,18,12:20,UTC,2,1012,47,,,19.7,8.1,34018,189,9.4,6.7
2018,6,18,12:30,UTC,2,1012.2,44,,,20,7.4,31289,193,10.6,7.1
2018,6,18,12:40,UTC,2,1012.2,46,,,18.9,7,30875,201,10.7,7.7
2018,6,18,12:50,UTC,3,1012.2,47,,,19.1,7.6,35612,199,11.8,7.8
2018,6,18,13:00,UTC,4,1012.1,45,,,19.7,7.5,31252,217,10.9,6.7
2018,6,18,13:10,UTC,5,1012.1,45,,,19.2,7,38119,216,11.7,7.2
2018,6,18,13:20,UTC,4,1012.1,45,,,19.1,7,40792,207,12.1,7.7
2018,6,18,13:30,UTC,6,1012,44,,,19.2,6.8,39803,213,11.8,7.1
2018,6,18,13:40,UTC,4,1012,46,,,19.8,7.8,40267,208,11,7.2
2018,6,18,13:50,UTC,3,1011.9,42,,,19.9,6.5,31439,208,11.2,7
2018,6,18,14:00,UTC,1,1011.9,42,,,19.2,6,39042,212,12.1,6.8
2018,6,18,14:10,UTC,1,1011.8,47,,,18.9,7.3,35492,211,11.5,6.7
2018,6,18,14:20,UTC,1,1011.8,46,,,19.2,7.3,42306,202,11,7.1
2018,6,18,14:30,UTC,3,1011.9,46,,,18.9,6.9,40103,210,9.9,7.2
2018,6,18,14:40,UTC,5,1011.9,46,,,18.9,7,33917,208,9.9,5.9
2018,6,18,14:50,UTC,3,1011.9,52,,,18.7,8.5,40411,203,11.9,7.4
2018,6,18,15:00,UTC,2,1011.8,53,,,18.9,9.2,49297,198,9.8,6.7
2018,6,18,15:10,UTC,2,1011.8,54,,,19.4,10,38474,205,9.4,6.5
2018,6,18,15:20,UTC,1,1011.8,58,,,18.3,9.8,38917,216,10.2,7.2
2018,6,18,15:30,UTC,1,1011.9,58,,,18.3,9.8,40700,223,11.4,5.9
2018,6,18,15:40,UTC,0,1011.8,56,,,18.5,9.5,37249,218,12.3,7.5
2018,6,18,15:50,UTC,1,1011.9,55,,,18.1,9,37298,217,11.7,7.3
2018,6,18,16:00,UTC,1,1011.9,54,,,18.1,8.7,33681,211,11.5,7.4
2018,6,18,16:10,UTC,2,1011.9,56,,,18.1,9.3,36935,223,10,6.4
2018,6,18,16:20,UTC,2,1011.9,58,,,18.1,9.6,37936,221,10.9,7.1
2018,6,18,16:30,UTC,3,1011.9,59,,,17.4,9.3,37452,222,10.6,7.1
2018,6,18,16:40,UTC,1,1011.8,57,,,17.3,8.7,44241,229,9.1,5.7
2018,6,18,16:50,UTC,1,1011.7,52,,,17.6,7.7,40551,237,9.8,6
2018,6,18,17:00,UTC,0,1011.7,54,,,17.3,7.9,39265,244,8.8,5.7
2018,6,18,17:10,UTC,3,1011.7,57,,,17,8.4,44436,238,9.3,6.2
2018,6,18,17:20,UTC,2,1011.7,59,,,16.8,8.6,40083,238,8.5,5.9
2018,6,18,17:30,UTC,2,1011.7,60,,,16.7,8.9,39879,226,8.3,5.9
2018,6,18,17:40,UTC,1,1011.7,61,,,16.6,9,41639,224,8.6,5.5
2018,6,18,17:50,UTC,1,1011.6,61,,,16.5,9,42993,230,7.6,4.7
2018,6,18,18:00,UTC,1,1011.4,61,,,16.4,8.9,44447,228,8.6,5.2
2018,6,18,18:10,UTC,0,1011.3,61,,,16.3,8.8,46629,233,8.1,4.5
2018,6,18,18:20,UTC,0,1011.3,61,,,16.3,8.8,43233,232,7.1,4.8
2018,6,18,18:30,UTC,0,1011.3,61,,,16.2,8.6,42181,230,7.5,4.5
2018,6,18,18:40,UTC,3,1011.3,61,,,16.1,8.5,38633,240,7.5,4.4
2018,6,18,18:50,UTC,5,1011.2,62,,,16,8.7,39613,240,5.8,3.5
2018,6,18,19:00,UTC,7,1011.2,64,,,15.9,9,43889,231,6.9,4.5
2018,6,18,19:10,UTC,7,1011.3,65,,,15.8,9.1,50000,224,7.4,4.4
2018,6,18,19:20,UTC,7,1011.4,65,,,15.7,9.2,45139,222,6.2,3.9
2018,6,18,19:30,UTC,7,1011.3,66,,,15.6,9.3,41541,227,8.3,3.5
2018,6,18,19:40,UTC,7,1011.3,67,,,15.5,9.4,45064,218,5.5,3.1
2018,6,18,19:50,UTC,7,1011.3,70,,,15.3,9.8,43148,223,5.3,3.7
2018,6,18,20:00,UTC,7,1011.3,73,,,15.2,10.4,42362,218,5.6,3.6
2018,6,18,20:10,UTC,7,1011.4,74,,,15.1,10.5,43790,223,6.5,4.3
2018,6,18,20:20,UTC,7,1011.5,75,,,14.9,10.4,39246,230,5.8,3.7
2018,6,18,20:30,UTC,7,1011.4,74,,,14.8,10.3,37824,230,5.8,3.8
2018,6,18,20:40,UTC,5,1011.4,73,,,14.7,9.9,44392,231,7.3,4.2
2018,6,18,20:50,UTC,7,1011.5,73,,,14.6,9.8,39826,231,6.6,4.1
2018,6,18,21:00,UTC,3,1011.5,73,,,14.4,9.7,43520,231,5.3,3.3
2018,6,18,21:10,UTC,2,1011.5,74,,,14.3,9.8,44882,230,6.2,3.4
2018,6,18,21:20,UTC,2,1011.6,75,,,14.3,9.8,41689,225,5.2,3.2
2018,6,18,21:30,UTC,5,1011.6,76,,,14.4,10.2,50000,225,5.6,3.3
2018,6,18,21:40,UTC,7,1011.6,77,,,14.5,10.5,40362,220,5.2,3.5
2018,6,18,21:50,UTC,7,1011.6,77,,,14.6,10.7,41258,220,7,4.4
2018,6,18,22:00,UTC,8,1011.5,77,,,14.7,10.8,42608,221,8,4.6
2018,6,18,22:10,UTC,8,1011.4,78,,,14.7,10.8,34868,223,5.8,3.9
2018,6,18,22:20,UTC,8,1011.4,78,,,14.7,10.9,37278,221,7,3.9
2018,6,18,22:30,UTC,8,1011.3,78,,,14.8,11,38676,222,5.9,4.2
2018,6,18,22:40,UTC,8,1011.2,78,,,14.8,11.1,38909,212,6,3.7
2018,6,18,22:50,UTC,8,1011.1,79,,,14.8,11.3,43260,211,5.7,3.5
2018,6,18,23:00,UTC,8,1010.9,80,,,14.8,11.4,38621,211,6.1,4
2018,6,18,23:10,UTC,8,1010.8,80,,,14.8,11.4,39817,216,6.4,4.2
2018,6,18,23:20,UTC,8,1010.8,79,,,14.9,11.4,42751,209,7.1,4.6
2018,6,18,23:30,UTC,8,1010.8,79,,,14.9,11.3,36933,216,7.6,5
2018,6,18,23:40,UTC,8,1010.6,79,,,14.9,11.3,43037,215,7.9,4.6
2018,6,18,23:50,UTC,8,1010.5,79,,,14.9,11.3,44095,212,6.7,4
2018,6,19,00:00,UTC,8,1010.5,79,,,14.9,11.3,38963,210,5.8,4.2
2018,6,19,00:10,UTC,7,1010.3,80,,,14.8,11.4,39341,203,5.9,3.6
2018,6,19,00:20,UTC,6,1010.3,81,,,14.5,11.3,37030,197,6.4,4.2
2018,6,19,00:30,UTC,3,1010.2,82,,,14.2,11.2,40269,203,6,3
2018,6,19,00:40,UTC,1,1010.1,82,,,14.2,11.2,41452,207,5.3,3.2
2018,6,19,00:50,UTC,0,1010,82,,,14.1,11.2,43428,207,4.8,2.9
2018,6,19,01:00,UTC,2,1009.9,83,,,14,11.2,42991,201,4,2.7
2018,6,19,01:10,UTC,5,1009.7,82,,,14.3,11.3,40226,199,3.7,2.6
2018,6,19,01:20,UTC,7,1009.6,82,,,14.4,11.3,42194,194,4.7,3.2
2018,6,19,01:30,UTC,7,1009.5,82,,,14.3,11.4,43685,195,5,3.5
2018,6,19,01:40,UTC,4,1009.5,83,,,14.3,11.4,40408,197,4.8,3.5
2018,6,19,01:50,UTC,2,1009.5,84,,,14.2,11.5,39491,194,6.3,3.8
2018,6,19,02:00,UTC,3,1009.4,84,,,14.4,11.8,33716,191,6.2,4.1
2018,6,19,02:10,UTC,5,1009.6,86,,,14.5,12.2,35261,197,6.6,4.3
2018,6,19,02:20,UTC,7,1009.4,86,,,14.7,12.4,31768,205,7,4.1
2018,6,19,02:30,UTC,7,1009.2,87,,,14.7,12.6,28088,207,8.1,5
2018,6,19,02:40,UTC,7,1009.1,88,,,14.6,12.7,26875,201,7.5,4.7
2018,6,19,02:50,UTC,7,1009,88,,,14.8,12.8,25362,195,6.7,4.2
2018,6,19,03:00,UTC,7,1008.7,87,,,14.7,12.6,26692,193,7.3,4.5
2018,6,19,03:10,UTC,7,1008.6,88,,,14.7,12.7,27164,191,7.9,5.1
2018,6,19,03:20,UTC,7,1008.7,89,,,14.8,12.9,23930,199,7.6,5.1
2018,6,19,03:30,UTC,7,1008.8,88,,,15,13,23090,199,6.9,5
2018,6,19,03:40,UTC,7,1008.7,87,,,15.2,13.1,22684,194,7.4,4.8
2018,6,19,03:50,UTC,7,1008.4,86,,,15.3,13,22032,196,7.2,4.7
2018,6,19,04:00,UTC,7,1008.1,86,,,15.7,13.3,25206,189,7,4.7
2018,6,19,04:10,UTC,7,1008.1,84,,,15.8,13.1,26388,193,7.3,5.3
2018,6,19,04:20,UTC,7,1008,86,,,15.5,13.2,21935,195,9.3,6.3
2018,6,19,04:30,UTC,7,1008,87,,,15.3,13.2,19053,197,8.5,6.3
2018,6,19,04:40,UTC,7,1007.9,88,,,15.4,13.3,21100,198,9.5,6
2018,6,19,04:50,UTC,7,1007.9,88,,,15.2,13.2,18469,196,9.3,5.9
2018,6,19,05:00,UTC,7,1007.7,87,,,15.5,13.3,20067,199,8,5.3
2018,6,19,05:10,UTC,7,1007.6,87,,,15.3,13.1,20230,202,9,6.4
2018,6,19,05:20,UTC,7,1007.4,86,,,15.4,13.2,22739,208,10.1,6.2
2018,6,19,05:30,UTC,7,1007.2,87,,,15.7,13.6,19000,206,9.4,6.1
2018,6,19,05:40,UTC,7,1007.1,86,,,15.7,13.5,21114,201,9.1,6
2018,6,19,05:50,UTC,7,1006.9,86,,,15.6,13.2,21325,202,9.4,6.4
2018,6,19,06:00,UTC,7,1006.9,88,,,15.6,13.6,21039,203,7.8,5.2
2018,6,19,06:10,UTC,7,1006.5,86,,,15.8,13.5,24670,204,9.1,5.6
2018,6,19,06:20,UTC,7,1006.5,87,,,15.9,13.7,21765,197,9.9,5.1
2018,6,19,06:30,UTC,7,1006.3,86,,,15.8,13.6,21171,186,8.5,5.5
2018,6,19,06:40,UTC,7,1006.1,85,,,16.2,13.8,24251,183,9.7,6.4
2018,6,19,06:50,UTC,7,1006.1,84,,,16.3,13.6,27383,187,10.2,5.8
2018,6,19,07:00,UTC,7,1005.8,83,,,16.4,13.6,23325,195,8.9,5.3
2018,6,19,07:10,UTC,7,1005.7,84,,,16.4,13.6,23930,198,7.8,5.3
2018,6,19,07:20,UTC,8,1005.7,84,,,16.2,13.5,27659,184,8.4,5.6
2018,6,19,07:30,UTC,8,1005.5,85,,,15.9,13.4,25725,179,9.2,6
2018,6,19,07:40,UTC,8,1005.4,85,,,15.8,13.4,28832,182,9.2,6.2
2018,6,19,07:50,UTC,8,1005.3,85,,,16,13.5,22030,183,6.8,4.8
2018,6,19,08:00,UTC,8,1005,84,,,16.2,13.6,24941,184,9.9,5.7
2018,6,19,08:10,UTC,8,1004.8,84,,,16.4,13.6,26724,184,8.8,5.7
2018,6,19,08:20,UTC,8,1004.4,84,,,16.4,13.7,26514,184,8,5.7
2018,6,19,08:30,UTC,8,1003.9,85,,,16.3,13.8,20881,183,11,7
2018,6,19,08:40,UTC,8,1003.8,87,,,16.1,14,17675,185,9.8,6.3
2018,6,19,08:50,UTC,8,1003.3,88,,,15.9,13.9,17782,181,11.2,6.9
2018,6,19,09:00,UTC,8,1003,88,,,15.9,13.9,15352,176,10.3,5.9
2018,6,19,09:10,UTC,8,1003,92,,,15.3,14,6097,177,11.1,6.3
2018,6,19,09:20,UTC,8,1003.2,95,,,14.8,14,4756,195,12.6,7.4
2018,6,19,09:30,UTC,8,1002.9,95,,,14.6,13.8,4973,205,12.1,7.4
2018,6,19,09:40,UTC,8,1002.7,96,,,14.7,14.1,10567,202,9.7,5.7
2018,6,19,09:50,UTC,8,1002.7,96,,,14.9,14.3,10252,205,9.8,5.7
2018,6,19,10:00,UTC,8,1002.5,96,,,14.8,14.1,9386,206,8.7,5.4
2018,6,19,10:10,UTC,8,1002.3,95,,,15,14.2,9925,207,8.1,4.6
2018,6,19,10:20,UTC,8,1002.2,93,,,15,13.9,10474,219,9.8,5.9
2018,6,19,10:30,UTC,8,1002.1,93,,,15,13.8,10395,217,11.7,6.4
2018,6,19,10:40,UTC,8,1001.8,91,,,14.9,13.5,13475,223,12.2,7.2
2018,6,19,10:50,UTC,7,1001.7,91,,,14.9,13.5,14503,223,12,7.4
2018,6,19,11:00,UTC,7,1001.8,89,,,14.9,13.1,27056,234,10.6,7.2
2018,6,19,11:10,UTC,7,1001.5,88,,,14.9,12.8,30860,221,10.1,6.3
2018,6,19,11:20,UTC,7,1001.4,87,,,14.8,12.6,29899,219,10.6,6.4
2018,6,19,11:30,UTC,7,1001.3,81,,,14.6,11.3,40160,221,10.1,6.1
2018,6,19,11:40,UTC,7,1001.2,82,,,15,11.9,34685,213,8.1,5.1
2018,6,19,11:50,UTC,7,1001.1,81,,,15.1,11.8,30461,217,10.1,6.6
2018,6,19,12:00,UTC,7,1001.1,80,,,14.6,11.3,33215,216,12.4,7.5
2018,6,19,12:10,UTC,7,1001.1,84,,,14.5,11.8,15376,213,8.1,5.5
2018,6,19,12:20,UTC,7,1000.8,83,,,14.9,12,30061,217,10.5,6.2
2018,6,19,12:30,UTC,7,1000.8,83,,,14.8,11.9,27501,212,10.6,6.8
2018,6,19,12:40,UTC,7,1000.8,82,,,14.7,11.7,29928,215,10.6,6.7
2018,6,19,12:50,UTC,7,1000.7,70,,,16,10.6,27077,227,13.4,7.6
2018,6,19,13:00,UTC,7,1000.7,68,,,15.7,9.9,35015,252,14.3,8.5
2018,6,19,13:10,UTC,7,1000.5,64,,,16.2,9.5,26178,236,12.4,6.8
2018,6,19,13:20,UTC,7,1000.6,63,,,16.6,9.4,29595,239,13.4,7.6
2018,6,19,13:30,UTC,7,1000.4,60,,,16.8,9.1,31763,235,14.9,8.6
2018,6,19,13:40,UTC,5,1000.4,59,,,16.8,8.6,27757,252,14.2,9.5
2018,6,19,13:50,UTC,6,1000.3,58,,,16.6,8.4,28947,245,16,8.6
2018,6,19,14:00,UTC,7,1000.5,63,,,16.1,9.1,21365,252,14.9,8.2
2018,6,19,14:10,UTC,7,1000.4,60,,,16.6,8.8,27213,241,12.5,7.2
2018,6,19,14:20,UTC,7,1000.2,59,,,17.1,9,31861,244,13.2,7.2
2018,6,19,14:30,UTC,7,1000.3,57,,,17.1,8.4,23690,241,14.2,9.4
2018,6,19,14:40,UTC,7,1000.5,59,,,17,8.9,30975,243,16.7,8.7
2018,6,19,14:50,UTC,6,1000.6,59,,,17,9,27752,241,15.2,8.9
2018,6,19,15:00,UTC,6,1000.6,58,,,16.9,8.6,28269,243,15.9,9.4
2018,6,19,15:10,UTC,6,1000.8,58,,,17.3,8.9,28118,249,15,8.3
2018,6,19,15:20,UTC,7,1001.5,54,,,14.8,5.6,32099,292,11.8,7.4
2018,6,19,15:30,UTC,7,1001.2,54,,,14.6,5.4,47688,309,8,3.7
2018,6,19,15:40,UTC,7,1001.2,54,,,15.3,6.1,48045,291,5.1,3.2
2018,6,19,15:50,UTC,7,1001.1,55,,,15.5,6.6,46888,297,4.8,2.9
2018,6,19,16:00,UTC,7,1001.4,62,,,14,7,2145,305,8.7,4.4
2018,6,19,16:10,UTC,7,1001.5,68,,,13.9,8.1,34887,296,8,4.2
2018,6,19,16:20,UTC,7,1002.8,68,,,13,7.2,37194,311,15.9,5.6
2018,6,19,16:30,UTC,7,1002.9,73,,,11.3,6.6,13962,315,18.6,9.8
2018,6,19,16:40,UTC,7,1003.1,84,,,10.5,7.9,12234,305,8.4,4.9
2018,6,19,16:50,UTC,8,1003.1,84,,,10.7,8.2,26159,274,10.1,3.6
2018,6,19,17:00,UTC,8,1002.3,67,,,13,7,10803,257,11.1,6.6
2018,6,19,17:10,UTC,6,1002.3,64,,,13.7,7,35776,235,10,5.2
2018,6,19,17:20,UTC,3,1002.5,63,,,14.2,7.3,49737,250,6.3,3.7
2018,6,19,17:30,UTC,1,1002.5,61,,,14.3,6.8,44772,246,5.9,4
2018,6,19,17:40,UTC,0,1002.5,61,,,14.4,7,42934,234,5.3,3.3
2018,6,19,17:50,UTC,0,1002.5,61,,,14.5,7.1,43920,227,5.2,3.3
2018,6,19,18:00,UTC,0,1002.5,60,,,14.8,7.1,46045,224,5.8,3.4
2018,6,19,18:10,UTC,0,1002.5,61,,,15,7.5,45730,222,5.7,3.4
2018,6,19,18:20,UTC,0,1002.5,61,,,15.4,7.9,43631,216,6.4,3.8
2018,6,19,18:30,UTC,0,1002.7,65,,,14.9,8.4,42073,200,5.4,3.8
2018,6,19,18:40,UTC,0,1002.7,69,,,14.7,9.1,39389,209,6.1,4
2018,6,19,18:50,UTC,0,1002.7,72,,,14.6,9.6,34504,204,5.1,3.7
2018,6,19,19:00,UTC,0,1002.8,75,,,14.4,10,37446,201,5,3.7
2018,6,19,19:10,UTC,0,1002.9,76,,,14.3,10.1,36784,203,5.6,3.8
2018,6,19,19:20,UTC,0,1002.9,78,,,14.1,10.3,29859,202,5.6,3.8
2018,6,19,19:30,UTC,0,1003.1,77,,,14.2,10.2,27872,204,5.4,3.7
2018,6,19,19:40,UTC,0,1003.1,78,,,14,10.2,25240,200,6.3,4.2
2018,6,19,19:50,UTC,0,1003.3,78,,,13.9,10.1,29857,202,5.4,3.3
2018,6,19,20:00,UTC,0,1003.3,77,,,13.9,10,28705,210,5.3,3.5
2018,6,19,20:10,UTC,0,1003.4,74,,,14.2,9.7,30352,220,6.6,3.6
2018,6,19,20:20,UTC,0,1003.4,73,,,14.3,9.5,34407,220,6.5,3.8
2018,6,19,20:30,UTC,0,1003.4,72,,,14.4,9.4,35709,223,6.2,4.1
2018,6,19,20:40,UTC,0,1003.5,71,,,14.3,9.2,40835,222,6.5,4
2018,6,19,20:50,UTC,0,1003.7,72,,,14.2,9.2,39356,226,6.4,3.7
2018,6,19,21:00,UTC,0,1003.8,71,,,14.3,9.1,36013,224,5.8,3.9
2018,6,19,21:10,UTC,0,1003.9,72,,,14.1,9.1,37949,223,5.6,3.6
2018,6,19,21:20,UTC,0,1004,72,,,14,9.1,39038,226,6.3,3.9
2018,6,19,21:30,UTC,0,1004,73,,,13.9,9.1,36902,228,6.2,3.8
2018,6,19,21:40,UTC,0,1003.9,73,,,13.9,9,40587,228,5.5,3.5
2018,6,19,21:50,UTC,0,1004,74,,,13.5,8.9,40104,226,5,3.3
2018,6,19,22:00,UTC,0,1004.1,73,,,13.7,8.9,39464,225,6.1,3.6
2018,6,19,22:10,UTC,0,1004.1,73,,,13.5,8.8,37056,223,5.4,3.7
2018,6,19,22:20,UTC,0,1004.1,74,,,13.5,8.8,38868,225,5.4,3.6
2018,6,19,22:30,UTC,0,1004.1,72,,,13.6,8.6,40147,231,7,3.8
2018,6,19,22:40,UTC,0,1004.1,72,,,13.4,8.5,39602,228,5.3,3.4
2018,6,19,22:50,UTC,0,1004.1,71,,,13.7,8.4,41404,228,6.6,4
2018,6,19,23:00,UTC,0,1004.1,71,,,13.5,8.4,43431,232,6.7,3.8
2018,6,19,23:10,UTC,0,1004,70,,,13.6,8.3,47099,233,6.1,3.9
2018,6,19,23:20,UTC,0,1004,70,,,13.7,8.3,47951,235,6,3.6
2018,6,19,23:30,UTC,0,1003.9,70,,,13.7,8.3,39912,242,5.9,3.8
2018,6,19,23:40,UTC,0,1004,68,,,14,8.2,46621,244,6.6,4
2018,6,19,23:50,UTC,0,1004,69,,,13.8,8.2,42851,243,5.8,3.4
2018,6,20,00:00,UTC,1,1003.9,68,,,13.9,8.2,41831,244,6.1,3.8
2018,6,20,00:10,UTC,2,1004,69,,,13.7,8.2,44043,242,5.4,3.2
2018,6,20,00:20,UTC,4,1004,69,,,13.8,8.2,48297,244,5.9,3.6
2018,6,20,00:30,UTC,4,1004.1,70,,,13.5,8.1,42797,237,5,2.8
2018,6,20,00:40,UTC,3,1004.1,70,,,13.6,8.3,41105,235,4.5,2.8
2018,6,20,00:50,UTC,5,1004.2,70,,,13.8,8.3,39486,239,4.5,2.8
2018,6,20,01:00,UTC,6,1004.3,69,,,13.8,8.2,43611,261,4.7,3.1
2018,6,20,01:10,UTC,7,1004.3,69,,,13.8,8.2,41272,260,4.5,2.8
2018,6,20,01:20,UTC,6,1004.3,70,,,13.7,8.3,39891,260,4.5,2.9
2018,6,20,01:30,UTC,6,1004.3,70,,,13.7,8.3,41194,257,3.9,2.8
2018,6,20,01:40,UTC,5,1004.4,70,,,13.7,8.3,33239,257,4,2.5
2018,6,20,01:50,UTC,6,1004.4,69,,,13.9,8.3,38772,263,4.2,2.3
2018,6,20,02:00,UTC,6,1004.4,69,,,13.9,8.4,42890,259,4.3,2.6
2018,6,20,02:10,UTC,5,1004.3,69,,,13.9,8.3,39063,274,4.7,2.5
2018,6,20,02:20,UTC,5,1004.4,68,,,14.1,8.3,41218,280,5.8,2.8
2018,6,20,02:30,UTC,2,1004.5,67,,,14.3,8.2,43041,271,4.9,3.2
2018,6,20,02:40,UTC,1,1004.6,67,,,14.4,8.3,36686,275,6.6,3.4
2018,6,20,02:50,UTC,0,1004.6,67,,,14.5,8.3,35229,272,6.4,3.6
2018,6,20,03:00,UTC,0,1004.6,66,,,14.6,8.3,36166,275,6.4,3.8
2018,6,20,03:10,UTC,1,1004.6,66,,,14.7,8.5,30707,272,5.3,3.4
2018,6,20,03:20,UTC,1,1004.6,66,,,14.8,8.4,34474,288,6.2,3.5
2018,6,20,03:30,UTC,1,1004.7,65,,,14.9,8.4,36818,271,6,3.5
2018,6,20,03:40,UTC,2,1004.8,65,,,15.1,8.6,36901,275,7.5,3.7
2018,6,20,03:50,UTC,1,1004.8,66,,,15.2,8.9,36202,282,6.1,3.6
2018,6,20,04:00,UTC,2,1005,66,,,14.8,8.6,38197,279,6.4,4
2018,6,20,04:10,UTC,1,1004.9,66,,,15.2,8.9,34042,291,6.9,3.9
2018,6,20,04:20,UTC,1,1005,66,,,15.4,9,28732,284,7.9,5.1
2018,6,20,04:30,UTC,0,1005.1,64,,,15.4,8.7,30065,292,9.5,5.5
2018,6,20,04:40,UTC,0,1005.1,65,,,15.6,8.9,32178,290,8,5.3
2018,6,20,04:50,UTC,0,1005.2,63,,,16,8.9,30160,297,6.4,4.1
2018,6,20,05:00,UTC,0,1005.1,60,,,16,8.2,33897,296,7.6,4
2018,6,20,05:10,UTC,0,1005.2,59,,,16.1,8.1,46274,294,7.9,5.4
2018,6,20,05:20,UTC,0,1005.1,58,,,16.4,8,34807,288,7.7,4.4
2018,6,20,05:30,UTC,0,1005.3,55,,,16.5,7.3,35589,272,7.6,4.3
2018,6,20,05:40,UTC,0,1005.5,53,,,17,7.5,39722,280,6.5,4.3
2018,6,20,05:50,UTC,0,1005.4,52,,,17.2,7.2,37633,275,7.1,3.6
2018,6,20,06:00,UTC,0,1005.6,53,,,17.6,8,40431,266,6.5,3.5
2018,6,20,06:10,UTC,0,1005.7,51,,,17.5,7.3,40878,269,6,3.9
2018,6,20,06:20,UTC,0,1005.7,50,,,17.7,7.1,44735,273,6.3,4
2018,6,20,06:30,UTC,0,1005.8,49,,,18,7,46648,272,7.3,4.8
2018,6,20,06:40,UTC,1,1005.8,46,,,17.7,5.9,37130,284,8,5.2
2018,6,20,06:50,UTC,1,1006.1,47,,,18.3,6.9,47114,285,9.8,5.2
2018,6,20,07:00,UTC,2,1006.1,47,,,18.1,6.5,50000,299,7.3,4.1
2018,6,20,07:10,UTC,3,1006.1,46,,,18,6.1,40585,286,5.8,4
2018,6,20,07:20,UTC,3,1006.1,47,,,18,6.4,40024,287,7.3,4.8
2018,6,20,07:30,UTC,4,1006.2,45,,,18.5,6.4,41666,275,6.9,4.4
2018,6,20,07:40,UTC,4,1006.3,43,,,18.6,5.7,43069,295,7.2,4.8
2018,6,20,07:50,UTC,3,1006.3,42,,,18.8,5.8,35158,293,7.8,4.5
2018,6,20,08:00,UTC,1,1006.4,43,,,18.8,6.1,42451,283,8.6,5.2
2018,6,20,08:10,UTC,1,1006.4,43,,,18.8,6,39591,281,7.1,3.9
2018,6,20,08:20,UTC,2,1006.6,43,,,18.2,5.5,45323,273,6.9,4.4
2018,6,20,08:30,UTC,4,1006.6,43,,,18.8,6.1,40917,271,6.6,3.5
2018,6,20,08:40,UTC,5,1006.7,44,,,19.2,6.5,38783,275,7.3,3.6
2018,6,20,08:50,UTC,5,1006.7,43,,,19.2,6.4,42717,270,6.7,4.1
2018,6,20,09:00,UTC,7,1006.8,41,,,18.9,5.5,36122,262,8.1,5.4
2018,6,20,09:10,UTC,5,1006.9,46,,,18.9,7.1,40686,241,6.6,4.6
2018,6,20,09:20,UTC,4,1006.9,49,,,18.5,7.5,46469,225,7.4,4.6
2018,6,20,09:30,UTC,5,1007,54,,,18.5,9.1,35703,216,7.8,5.1
2018,6,20,09:40,UTC,6,1007,55,,,18.2,9,38797,214,8.1,4.9
2018,6,20,09:50,UTC,7,1006.9,53,,,19,9.3,33628,221,6.8,3.6
2018,6,20,10:00,UTC,7,1006.9,51,,,19.4,9.1,34269,231,7.3,4.2
2018,6,20,10:10,UTC,4,1006.8,47,,,20.2,8.6,32580,225,8.5,5.4
2018,6,20,10:20,UTC,5,1006.8,32,,,20.6,3.1,33009,239,12,6.4
2018,6,20,10:30,UTC,3,1006.8,30,,,20.6,2.6,34799,242,12.5,7.8
2018,6,20,10:40,UTC,2,1006.8,31,,,20.4,2.7,39220,236,12.3,7.6
2018,6,20,10:50,UTC,1,1006.8,31,,,20.1,2.3,40391,247,10.9,7.2
2018,6,20,11:00,UTC,1,1006.8,31,,,20.7,3.2,34019,265,10.8,6.5
2018,6,20,11:10,UTC,0,1006.9,29,,,21,2.2,33805,247,12.1,6.9
2018,6,20,11:20,UTC,0,1006.9,30,,,21.1,2.9,40352,249,10.5,6.9
2018,6,20,11:30,UTC,0,1007,28,,,20.9,1.6,35344,251,11.3,7.4
2018,6,20,11:40,UTC,0,1006.9,27,,,20.9,1.1,32481,241,13.4,6.6
2018,6,20,11:50,UTC,0,1007.1,25,,,20.6,0,39087,256,11.2,7.2
2018,6,20,12:00,UTC,0,1006.9,27,,,20.6,0.9,36648,247,10.7,6.9
2018,6,20,12:10,UTC,0,1007,35,,,20.2,4.1,45197,238,12,6.2
2018,6,20,12:20,UTC,0,1006.9,28,,,20.7,1.4,30668,242,9.3,5.5
2018,6,20,12:30,UTC,0,1007,27,,,20.7,0.8,35366,242,9.9,5.3
2018,6,20,12:40,UTC,0,1007.1,27,,,21.3,1.7,31738,257,10,6.2
2018,6,20,12:50,UTC,0,1007.2,35,,,20.3,4.3,31925,255,11.6,7.1
2018,6,20,13:00,UTC,0,1007.1,41,,,18.9,5.4,33289,227,13.2,7
2018,6,20,13:10,UTC,3,1007.1,41,,,19,5.3,41093,222,11.9,7.5
2018,6,20,13:20,UTC,2,1007.4,42,,,18.9,5.8,29885,209,11.8,7.8
2018,6,20,13:30,UTC,2,1007.3,42,,,18.6,5.5,33217,218,11.7,7.2
2018,6,20,13:40,UTC,1,1007.4,44,,,18.6,6.2,35307,204,12,7.2
2018,6,20,13:50,UTC,1,1007.3,45,,,18,5.9,35609,209,14.2,8.9
2018,6,20,14:00,UTC,4,1007.4,47,,,17.7,6.2,35976,208,10.6,7.8
2018,6,20,14:10,UTC,6,1007.4,45,,,18.4,6.4,36676,209,11.5,7.6
2018,6,20,14:20,UTC,6,1007.4,46,,,18.7,6.8,37576,210,12.6,8.8
2018,6,20,14:30,UTC,6,1007.5,48,,,17.9,6.8,34898,200,12.9,8.9
2018,6,20,14:40,UTC,4,1007.6,50,,,17.5,6.9,35139,217,11.1,7.2
2018,6,20,14:50,UTC,6,1007.6,47,,,18.2,6.8,30797,215,10.9,6.9
2018,6,20,15:00,UTC,6,1007.7,49,,,18.1,7.1,36725,222,11.6,7.7
2018,6,20,15:10,UTC,7,1007.7,50,,,17.5,7,41407,228,11.5,7.6
2018,6,20,15:20,UTC,4,1007.7,52,,,17.5,7.5,43207,221,10.5,7.3
2018,6,20,15:30,UTC,6,1007.8,53,,,17.3,7.7,37083,225,11.6,7.6
2018,6,20,15:40,UTC,3,1007.8,53,,,17.3,7.6,39758,222,11.1,7
2018,6,20,15:50,UTC,3,1007.9,54,,,17.2,7.7,41287,224,10.2,6.9
2018,6,20,16:00,UTC,1,1008,54,,,17.3,8,34824,219,9.5,6.8
2018,6,20,16:10,UTC,1,1007.9,52,,,17.1,7.1,35524,226,8.5,5.2
2018,6,20,16:20,UTC,1,1007.9,48,,,17.2,5.9,43728,230,10.4,5.7
2018,6,20,16:30,UTC,2,1007.9,47,,,17.2,5.7,46837,235,11.3,6.6
2018,6,20,16:40,UTC,2,1007.9,47,,,17,5.5,47834,256,10.7,6.1
2018,6,20,16:50,UTC,1,1007.9,48,,,16.8,5.7,45151,249,10.5,5.9
2018,6,20,17:00,UTC,2,1007.9,48,,,16.5,5.6,46648,249,11.1,7.2
2018,6,20,17:10,UTC,3,1007.8,49,,,16.5,5.6,38556,247,10.8,6.5
2018,6,20,17:20,UTC,3,1007.7,49,,,16.3,5.5,46038,249,9.4,6.4
2018,6,20,17:30,UTC,5,1007.7,48,,,16.2,5.3,50000,239,9.9,6.6
2018,6,20,17:40,UTC,6,1007.6,48,,,16.1,5.1,48620,244,7.8,4.9
2018,6,20,17:50,UTC,7,1007.5,47,,,16,4.8,48482,242,10.1,5.2
2018,6,20,18:00,UTC,7,1007.5,47,,,16.1,4.9,45192,252,9.3,5.5
2018,6,20,18:10,UTC,8,1007.5,48,,,16,4.9,46511,251,8,4.9
2018,6,20,18:20,UTC,8,1007.4,48,,,15.9,4.9,50000,249,8,5.3
2018,6,20,18:30,UTC,8,1007.4,48,,,15.8,4.8,50000,243,7.6,4.8
2018,6,20,18:40,UTC,8,1007.4,52,,,15.5,5.6,50000,240,6.3,4.2
2018,6,20,18:50,UTC,8,1007.5,61,,,15.1,7.7,44163,220,6.4,4.5
2018,6,20,19:00,UTC,8,1007.7,61,,,15,7.6,41568,226,6.9,4.5
2018,6,20,19:10,UTC,8,1007.8,61,,,15,7.5,44340,225,7.4,4.6
2018,6,20,19:20,UTC,8,1007.7,61,,,14.9,7.5,41893,227,7.3,4.3
2018,6,20,19:30,UTC,8,1007.7,64,,,14.8,7.9,38267,222,5.5,3.8
2018,6,20,19:40,UTC,8,1007.6,73,,,14.1,9.4,35412,199,4.8,3.3
2018,6,20,19:50,UTC,8,1007.5,75,,,14,9.7,27845,194,5.4,3.9
2018,6,20,20:00,UTC,8,1007.4,77,,,13.8,9.9,25459,194,4.9,3.8
2018,6,20,20:10,UTC,8,1007.4,79,,,13.7,10.1,25667,197,5.7,4
2018,6,20,20:20,UTC,8,1007.3,80,,,13.6,10.2,23453,203,5,3.6
2018,6,20,20:30,UTC,8,1007.3,81,,,13.5,10.3,24732,208,4.8,3.2
2018,6,20,20:40,UTC,8,1007.3,82,,,13.4,10.4,22392,216,5.3,3.1
2018,6,20,20:50,UTC,8,1007.3,83,,,13.3,10.4,23038,219,5.1,3.9
2018,6,20,21:00,UTC,8,1007.3,81,,,13.4,10.2,23986,222,5.2,3.4
2018,6,20,21:10,UTC,7,1007.3,80,,,13.4,10.1,24366,218,4.9,3
2018,6,20,21:20,UTC,7,1007.3,79,,,13.5,10,24824,225,5,3.4
2018,6,20,21:30,UTC,7,1007.3,80,,,13.4,10,26188,221,3.9,2.4
2018,6,20,21:40,UTC,7,1007.2,80,,,13.3,9.9,27114,224,4,2.8
2018,6,20,21:50,UTC,7,1007.1,80,,,13.3,9.9,28732,223,4.7,2.7
2018,6,20,22:00,UTC,7,1007,80,,,13.3,9.9,26942,221,5,3.3
2018,6,20,22:10,UTC,7,1007.1,80,,,13.2,9.9,29563,222,5,2.6
2018,6,20,22:20,UTC,7,1007,79,,,13.2,9.7,27161,218,3.6,2.3
2018,6,20,22:30,UTC,8,1007,79,,,13.1,9.5,31549,232,3.3,1.5
2018,6,20,22:40,UTC,8,1006.9,77,,,13.2,9.2,32116,221,3.2,1.7
2018,6,20,22:50,UTC,8,1006.9,74,,,13.3,8.8,30166,221,4,2.5
2018,6,20,23:00,UTC,8,1006.9,75,,,13.2,8.8,35182,218,3.6,2.1
2018,6,20,23:10,UTC,8,1006.8,77,,,13.1,9.2,35077,199,2.9,1.8
2018,6,20,23:20,UTC,8,1006.7,81,,,12.8,9.6,31179,177,3.2,2.3
2018,6,20,23:30,UTC,8,1006.7,83,,,12.6,9.8,28932,177,3.9,3
2018,6,20,23:40,UTC,8,1006.7,85,,,12.4,9.9,28039,185,4.7,3.4
2018,6,20,23:50,UTC,8,1006.6,85,,,12.3,9.9,28870,193,4,2.8
2018,6,21,00:00,UTC,8,1006.5,83,,,12.5,9.6,32459,207,4.4,2.8
2018,6,21,00:10,UTC,8,1006.5,82,,,12.5,9.5,33086,211,3.3,2.4
2018,6,21,00:20,UTC,8,1006.4,81,,,12.5,9.4,33007,210,3.4,2.1
2018,6,21,00:30,UTC,8,1006.4,80,,,12.5,9.2,35771,194,3.2,2.2
2018,6,21,00:40,UTC,8,1006.4,79,,,12.6,9.1,37423,205,4.4,2.5
2018,6,21,00:50,UTC,8,1006.4,79,,,12.5,9,35418,198,4.1,2.5
2018,6,21,01:00,UTC,8,1006.3,78,,,12.4,8.6,35107,184,3.7,2.6
2018,6,21,01:10,UTC,7,1006.3,76,,,12.2,8.2,45044,196,3.8,2.8
2018,6,21,01:20,UTC,3,1006.2,78,,,11.8,8.1,42914,199,3.9,2.6
2018,6,21,01:30,UTC,1,1006.3,75,,,11.7,7.5,42044,195,3.8,2.7
2018,6,21,01:40,UTC,0,1006.3,71,,,11.7,6.6,49711,189,4,2.9
2018,6,21,01:50,UTC,0,1006.3,70,,,11.7,6.3,50000,193,4.2,3.1
2018,6,21,02:00,UTC,0,1006.3,71,,,11.6,6.5,50000,199,4.1,2.9
2018,6,21,02:10,UTC,0,1006.2,72,,,11.6,6.8,50000,201,3.9,2.5
2018,6,21,02:20,UTC,0,1006.3,73,,,11.7,7,47966,195,4.4,2.9
2018,6,21,02:30,UTC,0,1006.3,78,,,11.5,7.8,41909,178,4.2,3.2
2018,6,21,02:40,UTC,4,1006.3,77,,,11.9,8,44311,191,3.3,2.3
2018,6,21,02:50,UTC,6,1006.3,77,,,12.2,8.3,48505,198,4.8,3
2018,6,21,03:00,UTC,7,1006.2,76,,,12.4,8.3,41256,216,3.7,2
2018,6,21,03:10,UTC,8,1006.2,76,,,12.4,8.4,35756,225,3.6,2.6
2018,6,21,03:20,UTC,7,1006.2,76,,,12.6,8.6,37437,215,3,2
2018,6,21,03:30,UTC,6,1006,76,,,12.5,8.5,34614,182,3.6,2.7
2018,6,21,03:40,UTC,3,1006.1,76,,,12.5,8.5,34933,180,3.4,2.5
2018,6,21,03:50,UTC,1,1006,77,,,12.7,8.8,34276,177,3.6,2.2
2018,6,21,04:00,UTC,0,1006,76,,,12.6,8.5,40469,201,3.4,2.3
2018,6,21,04:10,UTC,0,1006,80,,,12.5,9.2,37347,195,3.6,2.4
2018,6,21,04:20,UTC,0,1006.2,80,,,12.6,9.3,36203,181,4.5,3.1
2018,6,21,04:30,UTC,0,1006.2,79,,,12.8,9.2,35965,176,4.2,2.3
2018,6,21,04:40,UTC,0,1006.3,81,,,12.8,9.6,26694,183,5.1,3.3
2018,6,21,04:50,UTC,0,1006.2,80,,,12.8,9.4,32335,170,4.2,2.9
2018,6,21,05:00,UTC,0,1006.3,78,,,13.3,9.6,29433,181,4.2,2.3
2018,6,21,05:10,UTC,0,1006.2,77,,,13.3,9.3,36343,157,4.2,2.9
2018,6,21,05:20,UTC,0,1006.1,75,,,13.5,9.2,37493,159,3.7,2.6
2018,6,21,05:30,UTC,0,1006.1,72,,,13.9,9,37861,157,4.6,2.9
2018,6,21,05:40,UTC,0,1005.8,70,,,13.7,8.4,42607,169,3.9,2.5
2018,6,21,05:50,UTC,0,1005.7,75,,,14.1,9.8,37783,187,4.1,1.8
2018,6,21,06:00,UTC,1,1005.5,70,,,14.6,9.2,35925,143,5.3,2.4
2018,6,21,06:10,UTC,1,1005.5,70,,,14.5,9.2,31709,158,4.8,2.8
2018,6,21,06:20,UTC,1,1005.5,72,,,14.3,9.4,35393,142,5.1,3.3
2018,6,21,06:30,UTC,1,1005.5,70,,,14.4,9,37223,141,5.1,3.4
2018,6,21,06:40,UTC,1,1005.6,68,,,14.5,8.7,37681,148,5.7,3.5
2018,6,21,06:50,UTC,1,1005.6,69,,,14.8,9.2,36324,148,5.7,3.7
2018,6,21,07:00,UTC,1,1005.4,66,,,14.5,8.2,30363,153,5.7,4.1
2018,6,21,07:10,UTC,4,1005.3,69,,,14.7,9.1,39281,143,6.6,4.5
2018,6,21,07:20,UTC,6,1005.2,69,,,15.1,9.5,32715,150,5.5,3.9
2018,6,21,07:30,UTC,5,1005.2,68,,,14.8,8.8,37664,138,5.6,4.2
2018,6,21,07:40,UTC,3,1005,67,,,14.9,8.8,34513,149,6.8,4.8
2018,6,21,07:50,UTC,2,1005.1,67,,,14.7,8.7,33168,154,6.6,4.6
2018,6,21,08:00,UTC,4,1004.9,70,,,14.7,9.4,38601,128,7.8,4.1
2018,6,21,08:10,UTC,5,1004.8,67,,,14.7,8.7,35221,121,6.4,4.5
2018,6,21,08:20,UTC,7,1004.8,68,,,14.8,8.9,35309,131,7.4,5
2018,6,21,08:30,UTC,7,1004.8,68,,,15.4,9.6,31660,137,8,5.2
2018,6,21,08:40,UTC,7,1004.9,68,,,15,9.2,47865,134,8.5,5.6
2018,6,21,08:50,UTC,7,1004.8,73,,,14.3,9.5,36973,129,7.6,5.7
2018,6,21,09:00,UTC,7,1004.7,73,,,15.1,10.2,41936,130,6.7,5
2018,6,21,09:10,UTC,7,1004.6,74,,,14.9,10.3,33124,145,7.6,5.1
2018,6,21,09:20,UTC,7,1004.9,76,,,15.4,11.1,33848,143,7.8,4.9
2018,6,21,09:30,UTC,7,1004.8,77,,,14.3,10.2,36030,142,7.8,5.4
2018,6,21,09:40,UTC,7,1004.7,80,,,14,10.5,40063,134,7.4,5.2
2018,6,21,09:50,UTC,7,1004.6,82,,,13.6,10.7,40470,118,7.1,5
2018,6,21,10:00,UTC,7,1004.3,82,,,13.7,10.7,41979,114,7.6,5.3
2018,6,21,10:10,UTC,7,1004.4,83,,,13.5,10.5,41073,121,7.5,5.6
2018,6,21,10:20,UTC,7,1004.3,83,,,13.6,10.8,38056,123,8.4,5.7
2018,6,21,10:30,UTC,7,1004,82,,,13.6,10.7,38653,128,7.9,5.5
2018,6,21,10:40,UTC,7,1003.9,82,,,13.8,10.8,32430,112,7.4,4.5
2018,6,21,10:50,UTC,7,1003.9,84,,,13.7,11.1,40186,103,8.4,6
2018,6,21,11:00,UTC,8,1003.9,84,,,13.4,10.8,38142,116,8.1,5.3
2018,6,21,11:10,UTC,8,1003.8,86,,,13.4,11.1,30352,107,7.7,5.3
2018,6,21,11:20,UTC,8,1003.8,86,,,13.4,11.1,29774,114,7.1,5
2018,6,21,11:30,UTC,8,1003.7,91,,,13.4,11.9,12150,113,6.9,4.4
2018,6,21,11:40,UTC,8,1003.6,94,,,13.6,12.7,8631,105,6.5,4.6
2018,6,21,11:50,UTC,8,1003.5,93,,,13.4,12.2,11132,114,6.1,4.2
2018,6,21,12:00,UTC,8,1003.4,94,,,13,12,9232,118,7.3,5
2018,6,21,12:10,UTC,8,1003.4,95,,,13,12.2,6148,112,7.4,4.9
2018,6,21,12:20,UTC,8,1003.4,96,,,13,12.3,6502,117,6.5,4.5
2018,6,21,12:30,UTC,8,1003.1,96,,,12.9,12.3,6244,116,7.4,5
2018,6,21,12:40,UTC,8,1003.1,96,,,13.1,12.4,9463,112,7.2,5.3
2018,6,21,12:50,UTC,8,1003.1,96,,,13.1,12.4,13583,109,6.3,4.5
2018,6,21,13:00,UTC,8,1003.1,96,,,13,12.5,12660,111,7.4,4.4
2018,6,21,13:10,UTC,8,1002.9,96,,,12.9,12.3,10784,112,7,5.3
2018,6,21,13:20,UTC,8,1002.8,96,,,12.8,12.3,12636,104,7.2,5
2018,6,21,13:30,UTC,8,1002.7,96,,,12.9,12.3,13002,103,7.5,5.2
2018,6,21,13:40,UTC,8,1002.7,96,,,13.3,12.7,13474,103,6.4,4.5
2018,6,21,13:50,UTC,8,1002.8,96,,,13.3,12.6,13254,114,4.8,3.1
2018,6,21,14:00,UTC,8,1002.5,96,,,13.5,12.9,12481,119,6.5,4
2018,6,21,14:10,UTC,8,1002.5,95,,,13.3,12.5,11756,111,7.8,5.2
2018,6,21,14:20,UTC,8,1002.5,95,,,13.4,12.7,13228,186,7.5,3
2018,6,21,14:30,UTC,8,1002.4,95,,,13.4,12.6,14521,329,3.3,1.6
2018,6,21,14:40,UTC,8,1002.2,95,,,13.7,12.9,14637,108,6.2,4.3
2018,6,21,14:50,UTC,8,1002.3,95,,,13.8,13,13775,110,5.1,3
2018,6,21,15:00,UTC,8,1002.2,95,,,13.9,13.2,12516,133,5.3,3.5
2018,6,21,15:10,UTC,7,1002.1,95,,,14,13.2,11283,115,4.9,3.7
2018,6,21,15:20,UTC,7,1002.1,95,,,14.2,13.5,11455,113,4,2.9
2018,6,21,15:30,UTC,7,1001.9,94,,,14.6,13.6,12787,125,3.9,2.6
2018,6,21,15:40,UTC,6,1001.6,94,,,14.6,13.6,13918,117,4.2,3
2018,6,21,15:50,UTC,7,1001.5,94,,,14.8,13.8,12924,109,4.5,3
2018,6,21,16:00,UTC,5,1001.4,94,,,14.9,13.9,12475,104,4.1,2.8
2018,6,21,16:10,UTC,6,1001.3,94,,,14.8,13.8,13361,109,5.1,3.8
2018,6,21,16:20,UTC,6,1001.1,94,,,14.8,13.8,13083,115,4.8,3.6
2018,6,21,16:30,UTC,7,1001.1,94,,,14.8,13.9,11914,117,4.5,2.9
2018,6,21,16:40,UTC,7,1001.1,95,,,14.7,13.9,10852,110,4.5,3.2
2018,6,21,16:50,UTC,7,1001.1,95,,,14.7,14,11083,114,5,3
2018,6,21,17:00,UTC,7,1000.6,95,,,14.6,13.9,10964,111,4.1,2.8
2018,6,21,17:10,UTC,7,1000,97,,,14.4,13.9,8269,86,3.5,2
2018,6,21,17:20,UTC,8,999.6,97,,,14.3,13.9,7604,94,4.1,2.5
2018,6,21,17:30,UTC,8,999.8,98,,,14.3,14,7932,107,4,2.8
2018,6,21,17:40,UTC,8,999.9,98,,,14.3,14,7876,109,4,2.8
2018,6,21,17:50,UTC,8,999.5,98,,,14.3,14.1,7212,99,5.2,3.6
2018,6,21,18:00,UTC,8,999.5,99,,,14.4,14.2,7143,104,5.3,4
2018,6,21,18:10,UTC,8,999.4,98,,,14.4,14.2,7519,109,5.4,3.7
2018,6,21,18:20,UTC,8,999.2,98,,,14.4,14.2,6951,110,5.1,3.5
2018,6,21,18:30,UTC,8,999.3,99,,,14.3,14.1,6493,104,5.1,3.4
2018,6,21,18:40,UTC,8,999.2,98,,,14.3,14,7994,122,4.8,3.1
2018,6,21,18:50,UTC,8,998.8,97,,,14.4,13.9,12886,122,4.3,3
2018,6,21,19:00,UTC,8,998.7,95,,,14.5,13.7,21502,130,3.7,2.5
2018,6,21,19:10,UTC,8,998.3,94,,,14.4,13.4,28603,127,3.7,2.4
2018,6,21,19:20,UTC,8,998.4,94,,,14.3,13.4,28695,118,3.4,2.3
2018,6,21,19:30,UTC,8,998.2,95,,,14.2,13.4,26433,113,3.3,2.3
2018,6,21,19:40,UTC,8,998,96,,,14,13.3,20897,92,2.4,1.6
2018,6,21,19:50,UTC,8,997.5,96,,,14,13.4,21426,64,2.6,1.7
2018,6,21,20:00,UTC,8,997.1,95,,,14.1,13.3,23344,67,3.5,2
2018,6,21,20:10,UTC,8,996.8,95,,,14,13.2,24606,67,3,1.8
2018,6,21,20:20,UTC,8,996.8,95,,,14,13.2,20916,79,2.9,1.7
2018,6,21,20:30,UTC,8,996.9,96,,,13.9,13.3,8883,108,2.4,1.4
2018,6,21,20:40,UTC,8,996.8,96,,,14,13.4,3185,152,1.9,1
2018,6,21,20:50,UTC,8,996.5,97,,,13.7,13.3,3149,318,2.2,1
2018,6,21,21:00,UTC,8,996.1,98,,,13.7,13.5,3932,312,3.2,1.9
2018,6,21,21:10,UTC,8,995.7,99,,,13.7,13.6,3383,302,4.2,3.4
2018,6,21,21:20,UTC,8,995.6,99,,,13.7,13.6,1481,297,5.2,3.7
2018,6,21,21:30,UTC,8,995.5,100,,,13.8,13.7,2008,317,5.4,4
2018,6,21,21:40,UTC,8,995,100,,,13.4,13.3,2796,302,6.2,4.4
2018,6,21,21:50,UTC,8,994.5,100,,,13.3,13.3,3896,318,5.5,4
2018,6,21,22:00,UTC,8,993.9,100,,,13.2,13.2,6877,333,6.7,4.8
2018,6,21,22:10,UTC,8,993.6,100,,,13.3,13.3,10838,327,5.5,4.1
2018,6,21,22:20,UTC,8,993.3,100,,,13.3,13.3,10789,318,6.1,4
2018,6,21,22:30,UTC,8,993.4,100,,,13.3,13.3,13186,319,5.7,3.4
2018,6,21,22:40,UTC,8,993.2,99,,,13.3,13.2,11543,302,5,3.6
2018,6,21,22:50,UTC,8,992.6,99,,,13.3,13.2,10638,337,5,3.1
2018,6,21,23:00,UTC,8,992.5,99,,,13.3,13.2,11156,332,4,2.3
2018,6,21,23:10,UTC,8,992.5,99,,,13.4,13.3,14082,290,3.8,2.4
2018,6,21,23:20,UTC,7,992.5,99,,,13.4,13.2,20549,292,4.1,2.4
2018,6,21,23:30,UTC,7,992.5,99,,,13.4,13.2,24102,292,2.9,1.6
2018,6,21,23:40,UTC,7,992.5,99,,,13.4,13.2,18767,284,1.7,0.9
2018,6,21,23:50,UTC,7,992.6,99,,,13.6,13.4,24085,196,3.2,1.4
2018,6,22,00:00,UTC,8,992.6,99,,,13.4,13.2,20751,233,4,2.6
2018,6,22,00:10,UTC,8,993,99,,,13.4,13.2,22343,218,5.3,3
2018,6,22,00:20,UTC,7,993,98,,,13.5,13.2,22697,210,7.8,4.8
2018,6,22,00:30,UTC,7,993,98,,,13.4,13.1,25887,211,7.3,5
2018,6,22,00:40,UTC,7,993,97,,,13.3,12.9,22284,207,7.5,4.3
2018,6,22,00:50,UTC,8,993,96,,,13.2,12.6,29189,205,7.5,4.3
2018,6,22,01:00,UTC,7,993,95,,,13.1,12.4,32594,206,6,4.1
2018,6,22,01:10,UTC,7,993,94,,,13,12.1,39486,205,7.2,4.5
2018,6,22,01:20,UTC,7,993,94,,,12.8,11.8,43883,207,8.9,5.4
2018,6,22,01:30,UTC,7,993,94,,,12.6,11.6,40363,204,9.5,6
2018,6,22,01:40,UTC,7,993.3,96,,,12.1,11.5,4978,207,8.2,5.5
2018,6,22,01:50,UTC,7,993.3,96,,,11.9,11.3,3129,213,8.5,5.2
2018,6,22,02:00,UTC,8,993.3,96,,,11.8,11.2,5926,205,8.4,4.8
2018,6,22,02:10,UTC,8,993.2,96,,,11.7,11.1,26564,201,8.5,5.8
2018,6,22,02:20,UTC,8,993.3,95,,,11.7,10.9,46560,198,8.1,5.5
2018,6,22,02:30,UTC,8,993.3,94,,,11.6,10.7,48660,200,8.1,5.3
2018,6,22,02:40,UTC,8,993.3,94,,,11.6,10.7,49149,201,7.6,4.4
2018,6,22,02:50,UTC,7,993.3,94,,,11.7,10.7,43877,197,8.5,5.2
2018,6,22,03:00,UTC,7,993.3,93,,,11.7,10.6,50000,196,9.5,5.6
2018,6,22,03:10,UTC,7,993.4,93,,,11.8,10.8,50000,195,9.1,5.9
2018,6,22,03:20,UTC,7,993.4,93,,,12,10.9,45653,192,10.1,6.2
2018,6,22,03:30,UTC,7,993.3,93,,,12,10.9,50000,190,9.3,6.1
2018,6,22,03:40,UTC,7,993.3,93,,,12,10.9,41476,186,9.5,6.4
2018,6,22,03:50,UTC,8,993.3,93,,,12.1,10.9,32962,190,12.8,6.1
2018,6,22,04:00,UTC,8,993.3,92,,,12.1,10.8,36833,190,11.6,7.2
2018,6,22,04:10,UTC,8,993.3,93,,,12.1,11,39830,186,11.1,6.6
2018,6,22,04:20,UTC,7,993.3,91,,,12.5,11,32725,193,11.8,6.3
2018,6,22,04:30,UTC,7,993.3,91,,,12.4,11,36660,192,10.7,6.9
2018,6,22,04:40,UTC,7,993.3,89,,,12.7,11,37452,191,12.1,7.8
2018,6,22,04:50,UTC,7,993.3,87,,,12.9,10.8,38935,195,10.9,7.5
2018,6,22,05:00,UTC,7,993.2,88,,,12.8,10.8,34929,197,13.4,7.6
2018,6,22,05:10,UTC,7,993.2,86,,,13,10.6,34682,190,12.9,7.6
2018,6,22,05:20,UTC,7,993.2,84,,,12.9,10.2,47618,187,12.9,8
2018,6,22,05:30,UTC,7,993.3,82,,,13,10,33911,191,13.1,8.7
2018,6,22,05:40,UTC,6,993.4,82,,,13.2,10.1,32523,191,13,7.9
2018,6,22,05:50,UTC,6,993.4,81,,,13.1,9.9,44132,192,12.9,8.2
2018,6,22,06:00,UTC,6,993.5,80,,,13.2,9.9,31721,187,11.6,7.6
2018,6,22,06:10,UTC,7,993.5,81,,,12.8,9.6,40005,184,11.4,7.4
2018,6,22,06:20,UTC,7,993.8,85,,,12,9.5,12194,193,13.4,7.6
2018,6,22,06:30,UTC,8,993.9,83,,,11,8.3,18339,204,13.1,7.9
2018,6,22,06:40,UTC,8,993.9,88,,,10.7,8.9,13945,201,10.9,6.7
2018,6,22,06:50,UTC,8,993.9,91,,,10.6,9.1,7278,206,14.2,7.2
2018,6,22,07:00,UTC,8,993.9,90,,,10.9,9.3,10497,199,11.9,7.5
2018,6,22,07:10,UTC,8,993.8,88,,,11,9.2,9710,199,13,7.8
2018,6,22,07:20,UTC,8,993.8,92,,,11,9.7,7839,197,12.8,7.6
2018,6,22,07:30,UTC,8,993.9,91,,,11.3,9.9,9840,194,11.4,7.5
2018,6,22,07:40,UTC,8,994.1,93,,,11.2,10.1,7782,191,10.6,7.5
2018,6,22,07:50,UTC,8,994.1,91,,,12,10.6,15936,190,11.1,6.8
2018,6,22,08:00,UTC,8,994.1,86,,,11.6,9.4,34933,199,14.9,8.4
2018,6,22,08:10,UTC,8,994.1,87,,,12,9.8,21981,196,12.3,7
2018,6,22,08:20,UTC,7,994.2,85,,,12.3,9.8,39142,193,12.5,7.6
2018,6,22,08:30,UTC,7,994.3,84,,,11.6,9,32304,187,11.9,7.9
2018,6,22,08:40,UTC,7,994.2,83,,,12.1,9.3,27744,193,14,8.6
2018,6,22,08:50,UTC,7,994.2,82,,,12.3,9.2,32488,186,14.5,9.1
2018,6,22,09:00,UTC,7,994.3,79,,,12.5,8.9,36054,194,15.5,9.3
2018,6,22,09:10,UTC,7,994.3,81,,,12.4,9.1,27803,184,12.6,8
2018,6,22,09:20,UTC,7,994.2,81,,,13.4,10.1,36104,188,12.7,8.1
2018,6,22,09:30,UTC,4,994,76,,,13,9,37726,188,15.3,9.4
2018,6,22,09:40,UTC,6,994,78,,,12.8,9.1,36355,183,13.2,8.6
2018,6,22,09:50,UTC,6,994.1,78,,,13.4,9.5,36691,182,12.7,8
2018,6,22,10:00,UTC,6,994.1,75,,,13.9,9.6,32921,177,12.7,7.9
2018,6,22,10:10,UTC,7,994.1,74,,,13.4,8.9,40263,187,11.5,7.3
2018,6,22,10:20,UTC,7,994.1,76,,,13.4,9.4,25078,187,10.5,6.9
2018,6,22,10:30,UTC,8,994.2,76,,,13,8.8,26968,183,12.6,7.6
2018,6,22,10:40,UTC,8,994.1,84,,,12,9.3,15651,188,12.9,8.7
2018,6,22,10:50,UTC,7,994,83,,,12.3,9.4,30739,182,11,7.3
2018,6,22,11:00,UTC,7,993.7,78,,,13.5,9.8,30343,179,9.8,6.2
2018,6,22,11:10,UTC,7,993.7,72,,,13.5,8.6,32613,183,14.4,7.3
2018,6,22,11:20,UTC,7,993.7,72,,,13.3,8.4,42830,187,11.3,7.5
2018,6,22,11:30,UTC,7,993.7,73,,,13.1,8.3,34216,183,14.6,7.3
2018,6,22,11:40,UTC,8,993.7,74,,,13.2,8.6,30872,194,14.4,9.5
2018,6,22,11:50,UTC,8,993.7,75,,,13,8.6,42992,193,14.7,9.3
2018,6,22,12:00,UTC,8,993.9,78,,,12.6,8.8,36370,185,17,9.4
2018,6,22,12:10,UTC,8,993.6,82,,,12,9.1,14908,184,14.5,9.3
2018,6,22,12:20,UTC,8,993.6,81,,,12.3,9.1,19893,189,16.6,9.6
2018,6,22,12:30,UTC,8,993.7,83,,,11.9,9.2,16051,194,17.7,11.2
2018,6,22,12:40,UTC,8,993.7,91,,,11.2,9.9,6664,192,16.1,10.2
2018,6,22,12:50,UTC,8,993.8,93,,,11.1,9.9,6397,189,16.3,9.8
2018,6,22,13:00,UTC,8,993.8,94,,,11.5,10.5,9800,193,14.9,9.2
2018,6,22,13:10,UTC,8,993.7,91,,,11.5,10.1,34615,190,12.6,8.6
2018,6,22,13:20,UTC,8,993.8,91,,,11.7,10.3,36622,191,16.1,9.5
2018,6,22,13:30,UTC,8,993.6,90,,,11.5,9.9,34347,190,15,9.6
2018,6,22,13:40,UTC,8,993.8,90,,,11.7,10.1,38680,189,15.8,9.1
2018,6,22,13:50,UTC,7,993.6,87,,,11.8,9.8,34620,182,12.1,8.3
2018,6,22,14:00,UTC,7,993.7,86,,,12,9.7,28141,186,12.4,8.4
2018,6,22,14:10,UTC,7,993.6,84,,,12,9.4,29606,190,13.7,9.1
2018,6,22,14:20,UTC,7,993.6,83,,,11.8,9,30513,199,14.1,9.7
2018,6,22,14:30,UTC,6,993.5,82,,,11.9,9,27366,200,14.1,9.2
2018,6,22,14:40,UTC,6,993.9,82,,,11.5,8.4,39456,197,13.1,9.1
2018,6,22,14:50,UTC,7,994,82,,,11.3,8.3,33094,198,13.7,8.5
2018,6,22,15:00,UTC,7,994.1,82,,,11.2,8.3,31879,198,13.9,9.2
2018,6,22,15:10,UTC,7,994.2,82,,,11.3,8.3,37009,200,13.4,8.6
2018,6,22,15:20,UTC,8,994.4,81,,,11.4,8.2,38033,204,11.6,7.7
2018,6,22,15:30,UTC,8,994.9,79,,,11.7,8.3,17360,221,11.8,7.4
2018,6,22,15:40,UTC,8,995.3,86,,,10.9,8.7,6178,234,13.8,7.4
2018,6,22,15:50,UTC,8,995.7,91,,,10.6,9.1,4895,237,9.1,5.7
2018,6,22,16:00,UTC,8,996,91,,,10.4,9,5420,242,12.6,7.7
2018,6,22,16:10,UTC,8,996.4,89,,,10.5,8.8,9785,241,14,7.9
2018,6,22,16:20,UTC,8,996.8,90,,,10.5,8.8,10372,242,13.3,8
2018,6,22,16:30,UTC,8,997.3,90,,,10.5,8.9,18337,244,12,7.4
2018,6,22,16:40,UTC,8,997.7,88,,,10.6,8.6,29841,242,11,7.3
2018,6,22,16:50,UTC,8,998.1,86,,,10.8,8.6,42898,242,12.5,6.8
2018,6,22,17:00,UTC,8,998.3,85,,,10.9,8.5,19014,244,12,6.5
2018,6,22,17:10,UTC,8,998.7,84,,,11,8.4,41697,237,9.8,6.1
2018,6,22,17:20,UTC,8,999,82,,,11.2,8.2,41122,237,9.6,6.1
2018,6,22,17:30,UTC,8,999.2,79,,,11.4,7.9,50000,237,11.5,7
2018,6,22,17:40,UTC,8,999.5,79,,,11.4,7.9,50000,243,10.8,6.6
2018,6,22,17:50,UTC,8,999.8,77,,,11.5,7.7,50000,245,10.8,6.8
2018,6,22,18:00,UTC,8,1000,77,,,11.6,7.7,49715,246,10.5,7.2
2018,6,22,18:10,UTC,8,1000.2,76,,,11.7,7.7,50000,243,11.5,7.6
2018,6,22,18:20,UTC,7,1000.5,77,,,11.8,7.8,50000,239,9.9,6.6
2018,6,22,18:30,UTC,7,1000.7,77,,,11.8,8,50000,235,9.3,5.8
2018,6,22,18:40,UTC,7,1000.8,78,,,11.8,8,46320,238,10.6,6.6
2018,6,22,18:50,UTC,7,1001,80,,,11.7,8.3,50000,236,9.1,5.1
2018,6,22,19:00,UTC,7,1001.1,80,,,11.6,8.2,49373,238,10.6,5.6
2018,6,22,19:10,UTC,7,1001.2,79,,,11.6,8.1,50000,234,10,5.9
2018,6,22,19:20,UTC,4,1001.3,78,,,11.6,7.9,50000,233,9.1,5.4
2018,6,22,19:30,UTC,4,1001.6,76,,,11.8,7.7,50000,232,10.2,6.1
2018,6,22,19:40,UTC,4,1001.7,75,,,11.9,7.5,50000,232,11.8,6.9
2018,6,22,19:50,UTC,3,1001.9,74,,,11.8,7.4,50000,226,10.9,7.1
2018,6,22,20:00,UTC,6,1002,75,,,11.7,7.4,50000,231,11.4,6.6
2018,6,22,20:10,UTC,6,1002.4,75,,,11.7,7.4,50000,230,11.3,7.2
2018,6,22,20:20,UTC,7,1002.7,75,,,11.7,7.4,50000,230,12.4,7.2
2018,6,22,20:30,UTC,7,1002.9,75,,,11.6,7.4,50000,231,12.2,6.4
2018,6,22,20:40,UTC,5,1003,75,,,11.6,7.4,50000,234,10.4,6.3
2018,6,22,20:50,UTC,3,1003.1,75,,,11.6,7.4,50000,227,9.5,5.7
2018,6,22,21:00,UTC,1,1003.2,75,,,11.7,7.3,50000,221,9.7,6.4
2018,6,22,21:10,UTC,0,1003.3,76,,,11.5,7.5,50000,219,9.6,5.5
2018,6,22,21:20,UTC,0,1003.5,76,,,11.4,7.4,50000,220,9.5,6
2018,6,22,21:30,UTC,0,1003.5,79,,,11.3,7.8,50000,224,11,6.4
2018,6,22,21:40,UTC,0,1003.6,81,,,11.4,8.2,49641,224,12.1,6.9
2018,6,22,21:50,UTC,0,1003.8,83,,,11.2,8.4,50000,221,11.7,6.2
2018,6,22,22:00,UTC,0,1003.9,83,,,11.3,8.5,50000,223,11.2,6.5
2018,6,22,22:10,UTC,0,1004,83,,,11.4,8.7,50000,217,10.7,6.4
2018,6,22,22:20,UTC,1,1004.2,84,,,11.4,8.8,50000,212,9,6.2
2018,6,22,22:30,UTC,2,1004.2,85,,,11.2,8.9,46888,215,8.6,5.5
2018,6,22,22:40,UTC,1,1004.3,86,,,11.2,8.9,50000,206,9.4,6
2018,6,22,22:50,UTC,2,1004.3,86,,,11.1,8.9,49788,199,8.9,5.5
2018,6,22,23:00,UTC,3,1004.3,88,,,10.8,8.9,49655,200,8.5,5.5
2018,6,22,23:10,UTC,3,1004.4,88,,,10.8,9,45104,206,8.2,5.3
2018,6,22,23:20,UTC,2,1004.6,89,,,10.4,8.7,43469,190,6.7,5
2018,6,22,23:30,UTC,1,1004.7,91,,,10.1,8.6,41509,192,6.9,5.2
2018,6,22,23:40,UTC,2,1004.7,92,,,9.9,8.6,38348,191,7.4,4.8
2018,6,22,23:50,UTC,1,1004.8,92,,,9.9,8.7,40844,190,5.9,4.5
2018,6,23,00:00,UTC,2,1004.8,92,,,9.8,8.7,37762,185,7.6,5.2
2018,6,23,00:10,UTC,2,1004.9,93,,,9.9,8.8,34039,196,7.9,5.5
2018,6,23,00:20,UTC,2,1005,93,,,10.2,9.1,41871,197,8.5,5.6
2018,6,23,00:30,UTC,1,1005.1,93,,,10.3,9.2,38147,199,7.7,5.4
2018,6,23,00:40,UTC,3,1005.2,93,,,10.5,9.4,35897,198,8,5.5
2018,6,23,00:50,UTC,4,1005.2,92,,,10.6,9.4,41103,201,8.2,5.3
2018,6,23,01:00,UTC,5,1005.2,92,,,10.5,9.2,38820,204,8.5,5.4
2018,6,23,01:10,UTC,3,1005.2,93,,,10.3,9.2,39533,202,7.8,5.2
2018,6,23,01:20,UTC,1,1005.2,93,,,10.4,9.3,41347,201,8,5
2018,6,23,01:30,UTC,1,1005.2,93,,,10.4,9.4,38684,200,8.3,4.9
2018,6,23,01:40,UTC,2,1005.3,94,,,10.3,9.3,34042,196,7.9,5.2
2018,6,23,01:50,UTC,2,1005.4,94,,,10.2,9.3,43763,197,8,5.4
2018,6,23,02:00,UTC,1,1005.4,93,,,10.3,9.2,39817,199,7.9,5.5
2018,6,23,02:10,UTC,1,1005.5,93,,,10.4,9.4,40658,199,8.2,5.3
2018,6,23,02:20,UTC,4,1005.6,93,,,10.6,9.5,40677,203,6,4.2
2018,6,23,02:30,UTC,5,1005.6,93,,,10.6,9.5,38079,197,7.5,4.9
2018,6,23,02:40,UTC,6,1005.8,93,,,10.6,9.5,40395,200,7.4,5.1
2018,6,23,02:50,UTC,3,1005.9,92,,,10.8,9.5,36424,202,8.5,5.8
2018,6,23,03:00,UTC,2,1006,90,,,11.1,9.5,40869,203,8.5,5
2018,6,23,03:10,UTC,1,1006.1,89,,,11.2,9.4,43350,205,8.2,5.5
2018,6,23,03:20,UTC,1,1006.2,89,,,11.3,9.6,42783,205,7.6,4.5
2018,6,23,03:30,UTC,1,1006.3,87,,,11.6,9.5,36028,205,7.6,5.1
2018,6,23,03:40,UTC,1,1006.2,86,,,11.7,9.4,35222,199,7.8,5.4
2018,6,23,03:50,UTC,0,1006.3,85,,,11.9,9.5,39585,199,7.6,4.9
2018,6,23,04:00,UTC,0,1006.3,85,,,12,9.5,34693,192,8.9,5.6
2018,6,23,04:10,UTC,0,1006.4,84,,,12,9.4,42089,195,8.7,6
2018,6,23,04:20,UTC,0,1006.5,83,,,12.1,9.4,36320,198,9.9,5.7
2018,6,23,04:30,UTC,1,1006.6,82,,,12.4,9.5,36757,203,10.7,6.4
2018,6,23,04:40,UTC,2,1006.8,83,,,12.3,9.4,45038,217,9.2,6.4
2018,6,23,04:50,UTC,1,1006.8,82,,,12.5,9.5,43721,209,8.1,5.3
2018,6,23,05:00,UTC,1,1006.9,82,,,12.9,9.8,39065,210,8.9,5.8
2018,6,23,05:10,UTC,0,1006.9,80,,,12.9,9.4,39717,207,8.6,6.2
2018,6,23,05:20,UTC,0,1007,79,,,13.3,9.6,37926,208,7.8,5.3
2018,6,23,05:30,UTC,1,1007,77,,,13.6,9.7,39295,207,8.9,5.7
2018,6,23,05:40,UTC,0,1007.1,77,,,13.7,9.8,39360,202,8.9,6
2018,6,23,05:50,UTC,0,1007.2,76,,,13.5,9.3,40183,198,10.2,6.7
2018,6,23,06:00,UTC,0,1007.3,76,,,13.7,9.5,38640,198,8.7,6.1
2018,6,23,06:10,UTC,1,1007.4,73,,,13.7,8.9,43435,210,10.1,6.8
2018,6,23,06:20,UTC,1,1007.6,75,,,14,9.5,43997,211,9.7,6
2018,6,23,06:30,UTC,1,1007.6,74,,,13.8,9.2,42508,217,10.1,6.2
2018,6,23,06:40,UTC,0,1007.7,73,,,14,9.2,43378,218,9.5,5.8
2018,6,23,06:50,UTC,0,1007.9,76,,,14.2,10.1,39012,220,10.5,7
2018,6,23,07:00,UTC,1,1008,76,,,13.9,9.8,43669,219,10,6.9
2018,6,23,07:10,UTC,0,1008,73,,,14,9.1,46534,211,10.3,7.1
2018,6,23,07:20,UTC,0,1008,72,,,14.6,9.6,39226,197,10.1,7.6
2018,6,23,07:30,UTC,0,1008.2,68,,,14.8,9,44094,206,9.5,6.4
2018,6,23,07:40,UTC,0,1008.2,70,,,15.2,9.7,39841,201,9.5,6.1
2018,6,23,07:50,UTC,1,1008.4,69,,,15.1,9.6,32588,197,11.3,6.5
2018,6,23,08:00,UTC,1,1008.5,71,,,14.9,9.7,36878,195,9.6,6.8
2018,6,23,08:10,UTC,1,1008.4,70,,,15.2,9.7,41401,204,9.9,6.5
2018,6,23,08:20,UTC,1,1008.5,69,,,15.3,9.5,42133,198,10.5,7.3
2018,6,23,08:30,UTC,0,1008.6,66,,,15.2,8.9,35835,201,9.8,6.9
2018,6,23,08:40,UTC,0,1008.8,65,,,15.5,8.9,34043,212,10,7
2018,6,23,08:50,UTC,0,1008.9,62,,,15.8,8.6,49514,207,10.7,6.7
2018,6,23,09:00,UTC,0,1008.9,66,,,15.4,9.1,38996,201,9.9,6.9
2018,6,23,09:10,UTC,0,1009,65,,,16.2,9.7,42749,208,9.1,5.8
2018,6,23,09:20,UTC,0,1009.1,63,,,15.4,8.3,34554,214,11.1,7.2
2018,6,23,09:30,UTC,0,1009,63,,,15.9,8.8,40982,207,11.1,7.8
2018,6,23,09:40,UTC,0,1009.1,60,,,16.1,8.2,36092,202,11.8,7.2
2018,6,23,09:50,UTC,0,1009.2,60,,,16,8.3,40644,207,10.1,7
2018,6,23,10:00,UTC,0,1009.2,57,,,16.3,7.9,33922,216,9.3,5.9
2018,6,23,10:10,UTC,0,1009.3,55,,,16.8,7.6,37434,215,9.6,5.8
2018,6,23,10:20,UTC,0,1009.2,55,,,16.1,6.9,37642,217,11.2,7.5
2018,6,23,10:30,UTC,0,1009.2,54,,,16.5,7,43753,216,10.1,7.3
2018,6,23,10:40,UTC,0,1009.2,56,,,16.7,7.9,36013,204,10.8,7.2
2018,6,23,10:50,UTC,0,1009.1,57,,,16.8,8.2,32392,198,10.3,7
2018,6,23,11:00,UTC,0,1009.1,58,,,16.4,8.3,42869,184,10.4,7
2018,6,23,11:10,UTC,0,1009.2,57,,,16.6,7.9,44258,182,9.7,6.8
2018,6,23,11:20,UTC,0,1009.4,55,,,16.5,7.5,33769,190,10.9,7.3
2018,6,23,11:30,UTC,0,1009.4,55,,,16.9,7.8,30551,184,9.7,7
2018,6,23,11:40,UTC,0,1009.4,56,,,16.8,7.9,36365,186,11,6.6
2018,6,23,11:50,UTC,0,1009.5,53,,,17.5,7.8,30716,192,8.9,6.4
2018,6,23,12:00,UTC,0,1009.6,50,,,17.3,6.9,37835,202,9.9,5.7
2018,6,23,12:10,UTC,0,1009.7,49,,,17,6.1,40789,211,9.1,6.2
2018,6,23,12:20,UTC,0,1009.6,46,,,16.9,5.3,34015,202,9.7,6.8
2018,6,23,12:30,UTC,0,1009.7,49,,,17.5,6.8,46040,200,9.9,6.3
2018,6,23,12:40,UTC,0,1009.9,56,,,16.5,7.6,39695,184,9.3,6.7
2018,6,23,12:50,UTC,0,1009.9,54,,,16.3,7.1,35556,175,9.3,7.1
2018,6,23,13:00,UTC,0,1009.8,56,,,16.2,7.5,39772,173,10.3,7.3
2018,6,23,13:10,UTC,0,1009.9,57,,,16.4,7.9,38942,176,9.6,6.9
2018,6,23,13:20,UTC,0,1010,56,,,16.3,7.5,44250,185,9.7,6.7
2018,6,23,13:30,UTC,0,1010.1,55,,,16.1,7.2,37255,181,9.3,6.1
2018,6,23,13:40,UTC,0,1010.1,50,,,16.6,6,32800,193,9.3,6
2018,6,23,13:50,UTC,0,1010.1,48,,,16.6,5.6,41709,195,8.9,6.1
2018,6,23,14:00,UTC,0,1010.1,49,,,16.6,5.9,43416,205,10.7,6.4
2018,6,23,14:10,UTC,0,1010,51,,,16.7,6.4,45940,202,8.8,5.8
2018,6,23,14:20,UTC,0,1010.1,48,,,17.2,6,38186,191,8.3,5.7
2018,6,23,14:30,UTC,0,1010.3,48,,,16.1,5,50000,194,9,6
2018,6,23,14:40,UTC,0,1010.3,48,,,16.5,5.4,45478,199,10.6,6.3
2018,6,23,14:50,UTC,0,1010.4,47,,,16.2,4.9,41528,193,9.9,6.4
2018,6,23,15:00,UTC,0,1010.4,49,,,15.9,5.1,47044,200,9.9,7
2018,6,23,15:10,UTC,0,1010.4,48,,,16.1,5.2,37204,194,9.2,6.3
2018,6,23,15:20,UTC,0,1010.4,48,,,16.3,5.3,50000,191,9.4,6.8
2018,6,23,15:30,UTC,0,1010.5,48,,,16.4,5.3,49126,197,8.5,5.9
2018,6,23,15:40,UTC,0,1010.4,49,,,15.9,5,46364,194,9,6.8
2018,6,23,15:50,UTC,0,1010.5,49,,,16,5.2,45648,194,9,6.4
2018,6,23,16:00,UTC,0,1010.5,49,,,15.9,5.3,41735,206,8.4,5.4
2018,6,23,16:10,UTC,0,1010.5,49,,,15.8,5,43431,206,7.5,5.1
2018,6,23,16:20,UTC,0,1010.6,49,,,15.6,4.8,44505,200,9.7,6.4
2018,6,23,16:30,UTC,0,1010.6,48,,,15.8,4.9,39585,199,9.4,5.9
2018,6,23,16:40,UTC,0,1010.7,49,,,15.8,5.2,48109,214,7.6,4.9
2018,6,23,16:50,UTC,0,1010.7,50,,,15.5,5.1,45878,198,7.9,5.7
2018,6,23,17:00,UTC,0,1010.8,51,,,15.6,5.4,49890,202,6.6,4.6
2018,6,23,17:10,UTC,0,1010.8,51,,,15.6,5.4,48147,206,7.5,4.4
2018,6,23,17:20,UTC,0,1010.7,51,,,15.5,5.5,46709,208,6.4,4.3
2018,6,23,17:30,UTC,0,1010.7,52,,,15.4,5.5,49613,216,5.6,3.9
2018,6,23,17:40,UTC,0,1010.7,52,,,15.4,5.6,45956,214,5.6,3.5
2018,6,23,17:50,UTC,0,1010.7,53,,,15.3,5.8,49807,203,5,3.4
2018,6,23,18:00,UTC,0,1010.7,52,,,15.3,5.5,50000,216,4.8,2.6
2018,6,23,18:10,UTC,0,1010.8,53,,,15.1,5.6,50000,229,5,2.9
2018,6,23,18:20,UTC,0,1010.8,53,,,14.9,5.4,50000,241,5.1,3
2018,6,23,18:30,UTC,0,1010.9,55,,,14.6,5.5,50000,231,6.1,3
2018,6,23,18:40,UTC,0,1010.9,56,,,14.4,5.7,50000,233,4.8,3
2018,6,23,18:50,UTC,0,1010.9,55,,,14.4,5.5,49223,227,3.7,2.8
2018,6,23,19:00,UTC,0,1011,56,,,14.2,5.4,50000,226,4.9,3
2018,6,23,19:10,UTC,0,1011,56,,,14,5.4,50000,223,4.3,2.9
2018,6,23,19:20,UTC,0,1011.1,57,,,13.9,5.5,50000,219,3.8,2.3
2018,6,23,19:30,UTC,0,1011,58,,,13.5,5.5,50000,230,3.4,1.8
2018,6,23,19:40,UTC,0,1011.1,59,,,13.3,5.5,50000,222,3.3,1.8
2018,6,23,19:50,UTC,0,1011.2,60,,,13,5.5,50000,229,2.7,1.6
2018,6,23,20:00,UTC,0,1011.2,61,,,12.9,5.6,50000,228,1.8,1.2
2018,6,23,20:10,UTC,0,1011.3,64,,,12.4,5.7,50000,217,1.8,1.2
2018,6,23,20:20,UTC,0,1011.4,67,,,11.6,5.8,49893,208,2,1.3
2018,6,23,20:30,UTC,0,1011.4,67,,,12,6,50000,225,2.3,1.5
2018,6,23,20:40,UTC,0,1011.3,68,,,11.5,5.9,21909,226,1.6,1.2
2018,6,23,20:50,UTC,0,1011.4,75,,,10.4,6.1,25636,236,1.2,0.8
2018,6,23,21:00,UTC,0,1011.4,80,,,9.1,5.7,22011,0,0,0
2018,6,23,21:10,UTC,0,1011.5,82,,,8.9,6,4378,0,0,0
2018,6,23,21:20,UTC,0,1011.6,86,,,8.2,5.9,18710,0,0,0
2018,6,23,21:30,UTC,0,1011.7,88,,,8.3,6.4,45037,0,0,0
2018,6,23,21:40,UTC,0,1011.8,86,,,8.1,5.9,50000,0,0,0
2018,6,23,21:50,UTC,0,1011.9,88,,,7.5,5.6,50000,0,0,0
2018,6,23,22:00,UTC,0,1012,89,,,7.6,6,50000,0,0,0
2018,6,23,22:10,UTC,0,1012,91,,,7.3,6,50000,0,0,0
2018,6,23,22:20,UTC,0,1012.1,94,,,7.2,6.3,50000,0,0,0
2018,6,23,22:30,UTC,0,1012.1,96,,,6.8,6.1,50000,0,0,0
2018,6,23,22:40,UTC,0,1012.1,96,,,6.6,6.1,50000,0,0,0
2018,6,23,22:50,UTC,0,1012.1,96,,,6.5,5.9,50000,0,0,0
2018,6,23,23:00,UTC,0,1012.2,95,,,6.2,5.5,50000,0,0,0
2018,6,23,23:10,UTC,0,1012.2,96,,,6.2,5.6,47367,0,0,0
2018,6,23,23:20,UTC,0,1012.2,98,,,6.3,6,42194,0,0,0
2018,6,23,23:30,UTC,0,1012.2,95,,,5.8,5.1,50000,323,0.8,0.5
2018,6,23,23:40,UTC,0,1012.1,97,,,6,5.5,19992,359,0.9,0.7
2018,6,23,23:50,UTC,0,1012.1,98,,,6.1,5.8,31101,0,0,0
2018,6,24,00:00,UTC,0,1012,98,,,6.3,6,35791,0,0,0
2018,6,24,00:10,UTC,0,1012,98,,,6.2,5.9,42834,104,0.8,0.6
2018,6,24,00:20,UTC,0,1012.1,98,,,5.6,5.3,46725,0,0,0
2018,6,24,00:30,UTC,0,1012.1,98,,,5.7,5.4,2160,0,0,0
2018,6,24,00:40,UTC,0,1012.2,99,,,5.8,5.6,2958,0,0,0
2018,6,24,00:50,UTC,0,1012.3,98,,,5.1,4.8,944,0,0,0
2018,6,24,01:00,UTC,0,1012.2,99,,,5.3,5.2,893,0,0,0
2018,6,24,01:10,UTC,0,1012.1,99,,,5.4,5.3,583,0,0,0
2018,6,24,01:20,UTC,0,1012.2,99,,,5.1,5,251,0,0,0
2018,6,24,01:30,UTC,0,1012.2,99,,,4.6,4.5,1289,0,0,0
2018,6,24,01:40,UTC,0,1012.3,98,,,4.8,4.6,3733,0,0,0
2018,6,24,01:50,UTC,0,1012,99,,,5.1,4.9,1929,353,1.4,0.8
2018,6,24,02:00,UTC,0,1012.1,99,,,5.3,5.2,1384,18,1.5,0.7
2018,6,24,02:10,UTC,0,1012.1,99,,,6,5.9,44763,0,0,0
2018,6,24,02:20,UTC,0,1012.1,99,,,6.8,6.7,36876,0,0,0
2018,6,24,02:30,UTC,0,1012.1,99,,,6.5,6.3,1116,347,0.9,0.7
2018,6,24,02:40,UTC,0,1011.9,97,,,6.2,5.8,14622,351,1.3,1
2018,6,24,02:50,UTC,0,1011.9,97,,,6.9,6.5,32866,343,1.8,1.1
2018,6,24,03:00,UTC,0,1011.9,92,,,7.8,6.6,44932,354,1.5,0.9
2018,6,24,03:10,UTC,0,1012,90,,,8.7,7.2,44314,11,1.4,0.8
2018,6,24,03:20,UTC,0,1012,89,,,9.5,7.7,45976,358,1.4,0.9
2018,6,24,03:30,UTC,1,1011.9,86,,,9.6,7.4,47025,359,2.4,1.1
2018,6,24,03:40,UTC,1,1011.9,88,,,10.1,8.3,40765,338,3.2,1.7
2018,6,24,03:50,UTC,2,1011.9,84,,,10.8,8.2,44219,336,3.2,2.2
2018,6,24,04:00,UTC,4,1011.9,83,,,11.2,8.4,34867,328,3.5,2.3
2018,6,24,04:10,UTC,5,1011.9,79,,,11.8,8.2,33653,351,3.9,2.7
2018,6,24,04:20,UTC,6,1011.8,77,,,11.9,8,36726,356,5.7,3.2
2018,6,24,04:30,UTC,4,1011.8,76,,,12.5,8.3,39986,349,5.1,3.7
2018,6,24,04:40,UTC,5,1011.7,76,,,12.3,8.2,38203,353,4.9,3.2
2018,6,24,04:50,UTC,4,1011.7,76,,,12.4,8.3,49226,1,4.2,2.5
2018,6,24,05:00,UTC,3,1011.7,76,,,12.8,8.6,40729,357,4.2,2.8
2018,6,24,05:10,UTC,2,1011.8,74,,,13.2,8.6,43272,352,5.1,2.7
2018,6,24,05:20,UTC,4,1012,71,,,13.3,8.2,41325,357,5.2,3.4
2018,6,24,05:30,UTC,2,1012,70,,,13.5,8.1,46513,1,5.2,3.3
2018,6,24,05:40,UTC,5,1012,69,,,13.8,8.3,48999,4,5.5,3.2
2018,6,24,05:50,UTC,4,1012,69,,,13.5,7.9,40856,3,5.1,3
2018,6,24,06:00,UTC,4,1011.9,69,,,13.7,8,46559,1,4.8,3
2018,6,24,06:10,UTC,5,1011.8,67,,,14.1,8.1,47508,2,4,2.3
2018,6,24,06:20,UTC,6,1011.8,68,,,13.9,8.1,41424,360,4.7,2.5
2018,6,24,06:30,UTC,7,1011.7,70,,,13.8,8.4,42915,355,5,3.2
2018,6,24,06:40,UTC,7,1011.8,69,,,13.8,8.2,49981,351,4.5,3.4
2018,6,24,06:50,UTC,7,1011.9,69,,,13.9,8.3,45875,346,4,2.7
2018,6,24,07:00,UTC,7,1011.7,70,,,14,8.5,49631,348,4.3,2.7
2018,6,24,07:10,UTC,7,1011.6,68,,,14.2,8.3,46769,354,4,2.7
2018,6,24,07:20,UTC,7,1011.7,67,,,14.3,8.3,46284,351,4.4,3.2
2018,6,24,07:30,UTC,7,1011.5,64,,,14.4,7.7,47044,359,4.7,2.7
2018,6,24,07:40,UTC,5,1011.4,64,,,14.5,7.8,42967,12,3.8,2.5
2018,6,24,07:50,UTC,7,1011.4,63,,,15,7.9,37434,8,4.8,2.8
2018,6,24,08:00,UTC,5,1011.3,62,,,15,7.8,46045,358,4.6,3
2018,6,24,08:10,UTC,3,1011.4,60,,,14.8,7.2,38232,4,5.1,3.1
2018,6,24,08:20,UTC,1,1011.3,63,,,15.1,8,38371,7,4.1,2.4
2018,6,24,08:30,UTC,1,1011.2,61,,,15.5,8,48325,353,5.7,3
2018,6,24,08:40,UTC,3,1011.2,59,,,15.9,7.9,42018,2,4.8,2.7
2018,6,24,08:50,UTC,2,1011.2,57,,,15.8,7.3,39898,347,5.6,3.4
2018,6,24,09:00,UTC,5,1011,55,,,16.1,7,37688,335,5.4,3.7
2018,6,24,09:10,UTC,4,1011,54,,,16,6.8,43428,344,8,4.1
2018,6,24,09:20,UTC,5,1011,53,,,16.3,6.6,42049,349,7.3,4.2
2018,6,24,09:30,UTC,6,1011,50,,,16.2,5.8,43391,338,7.1,5.1
2018,6,24,09:40,UTC,7,1011,48,,,16.3,5.4,48746,347,6.3,4.3
2018,6,24,09:50,UTC,7,1010.9,50,,,16.4,6,41526,353,7.7,4
2018,6,24,10:00,UTC,4,1010.9,50,,,16.6,6.1,41408,349,5.5,3.3
2018,6,24,10:10,UTC,2,1010.9,53,,,16.3,6.6,46962,359,6.2,3.6
2018,6,24,10:20,UTC,1,1010.8,51,,,16.7,6.4,43869,13,5.8,2.8
2018,6,24,10:30,UTC,1,1010.8,51,,,16.7,6.5,49018,21,5.9,2.6
2018,6,24,10:40,UTC,1,1010.8,51,,,16.2,6.2,50000,19,5.6,2.8
2018,6,24,10:50,UTC,1,1010.6,51,,,16.5,6.3,43199,14,5.6,3
2018,6,24,11:00,UTC,0,1010.5,49,,,16.5,5.8,42144,12,5.7,3.1
2018,6,24,11:10,UTC,0,1010.5,50,,,16.9,6.4,43241,11,6.2,3.2
2018,6,24,11:20,UTC,2,1010.5,49,,,16.9,6.1,46823,9,5.7,2.8
2018,6,24,11:30,UTC,4,1010.5,52,,,16.5,6.7,37291,14,6.6,3.4
2018,6,24,11:40,UTC,6,1010.3,52,,,16.6,6.8,44081,3,6.3,3.4
2018,6,24,11:50,UTC,7,1010.2,51,,,16.5,6.4,42583,355,6.8,4.6
2018,6,24,12:00,UTC,7,1010.3,54,,,16.7,7.2,50000,356,6,3.8
2018,6,24,12:10,UTC,8,1010.3,53,,,16.3,6.8,43902,357,7.2,3.8
2018,6,24,12:20,UTC,8,1010.3,54,,,16.2,7,48815,356,7.7,4.4
2018,6,24,12:30,UTC,8,1010.2,55,,,16.3,7.3,50000,352,7.2,4.3
2018,6,24,12:40,UTC,8,1010.1,55,,,16.1,7.2,49203,354,7.7,4.9
2018,6,24,12:50,UTC,8,1010.1,56,,,16.2,7.3,46061,355,5.9,3.7
2018,6,24,13:00,UTC,8,1010,55,,,16.5,7.3,50000,2,6,3.6
2018,6,24,13:10,UTC,7,1010,54,,,17,7.7,46536,357,6.1,3.6
2018,6,24,13:20,UTC,5,1009.9,55,,,17.4,8.2,44159,359,6.5,4
2018,6,24,13:30,UTC,5,1009.8,55,,,17.4,8.2,40077,348,8.9,5.2
2018,6,24,13:40,UTC,6,1009.8,55,,,17.5,8.4,46516,357,8.6,4.2
2018,6,24,13:50,UTC,7,1009.7,58,,,17.2,8.8,43055,357,8.6,4.3
2018,6,24,14:00,UTC,7,1009.7,57,,,16.8,8.1,45264,11,7.6,4.4
2018,6,24,14:10,UTC,8,1009.8,56,,,16.5,7.8,47160,1,8.6,4.5
2018,6,24,14:20,UTC,8,1009.7,57,,,16.5,7.9,44527,357,7.5,4.5
2018,6,24,14:30,UTC,8,1009.7,57,,,16.5,7.9,47878,2,7.2,3.7
2018,6,24,14:40,UTC,8,1009.6,58,,,16.4,8.2,44421,356,8.2,4.3
2018,6,24,14:50,UTC,8,1009.5,59,,,16.4,8.3,46691,2,7.5,4.3
2018,6,24,15:00,UTC,8,1009.5,59,,,16.5,8.5,50000,359,6.4,3.9
2018,6,24,15:10,UTC,8,1009.3,59,,,16.5,8.5,44650,357,6.4,4.1
2018,6,24,15:20,UTC,8,1009.2,60,,,16.6,8.8,50000,358,6.3,3.9
2018,6,24,15:30,UTC,8,1009.1,61,,,16.4,8.8,47577,355,7,3.8
2018,6,24,15:40,UTC,8,1009.2,61,,,16.4,8.8,50000,353,7.7,4.6
2018,6,24,15:50,UTC,8,1009.1,62,,,16.2,8.9,47108,356,7.6,4.7
2018,6,24,16:00,UTC,8,1009.1,65,,,16,9.4,38035,2,6.7,4.1
2018,6,24,16:10,UTC,8,1009.1,70,,,15.5,10,31954,352,6.6,4.4
2018,6,24,16:20,UTC,8,1009.1,69,,,15.7,9.9,42013,349,6.4,4.6
2018,6,24,16:30,UTC,8,1009.1,71,,,15.3,10.1,33930,342,7.9,5.4
2018,6,24,16:40,UTC,8,1009,70,,,15.4,9.9,45661,338,7.1,4.6
2018,6,24,16:50,UTC,8,1008.9,69,,,15.4,9.8,49385,338,6.2,4.2
2018,6,24,17:00,UTC,8,1008.8,68,,,15.4,9.5,50000,343,6.1,4.3
2018,6,24,17:10,UTC,8,1008.8,67,,,15.5,9.3,50000,342,6.8,4.8
2018,6,24,17:20,UTC,8,1008.8,66,,,15.6,9.2,50000,346,6.9,4.8
2018,6,24,17:30,UTC,8,1008.8,66,,,15.5,9.2,50000,349,6.8,4.4
2018,6,24,17:40,UTC,8,1008.7,65,,,15.6,9,50000,346,7.4,4.8
2018,6,24,17:50,UTC,8,1008.4,64,,,15.7,9,50000,351,8.3,4.8
2018,6,24,18:00,UTC,8,1008.5,64,,,15.8,8.9,50000,349,7.8,5.5
2018,6,24,18:10,UTC,8,1008.4,63,,,15.8,8.8,50000,350,6.9,4.9
2018,6,24,18:20,UTC,8,1008.4,63,,,15.9,8.8,50000,354,8.4,5.3
2018,6,24,18:30,UTC,8,1008.3,63,,,15.9,8.8,50000,355,7.3,4.7
2018,6,24,18:40,UTC,8,1008.2,64,,,15.8,8.9,50000,353,8.9,4.9
2018,6,24,18:50,UTC,8,1008.2,65,,,15.6,9.1,50000,351,7.6,4.9
2018,6,24,19:00,UTC,8,1008.2,65,,,15.7,9.1,50000,354,6.7,4.3
2018,6,24,19:10,UTC,8,1008.3,65,,,15.7,9.1,50000,354,6.3,4.1
2018,6,24,19:20,UTC,8,1008.2,64,,,15.8,9,50000,356,6.8,4.3
2018,6,24,19:30,UTC,8,1008,64,,,15.8,9.1,50000,354,6.4,4.1
2018,6,24,19:40,UTC,8,1007.9,64,,,15.9,9,50000,356,8.6,4.5
2018,6,24,19:50,UTC,8,1007.9,65,,,15.8,9.1,50000,357,6.7,4.1
2018,6,24,20:00,UTC,8,1007.9,65,,,15.7,9.2,35025,356,6.8,4.6
2018,6,24,20:10,UTC,8,1007.9,67,,,15.6,9.4,50000,359,7.6,4.6
2018,6,24,20:20,UTC,8,1007.8,67,,,15.6,9.4,50000,1,7.6,4.8
2018,6,24,20:30,UTC,8,1007.8,68,,,15.5,9.5,50000,357,7,4.1
2018,6,24,20:40,UTC,8,1007.7,68,,,15.4,9.6,50000,359,8,4.2
2018,6,24,20:50,UTC,8,1007.7,68,,,15.5,9.6,50000,5,7.8,3.5
2018,6,24,21:00,UTC,8,1007.8,68,,,15.5,9.6,50000,4,5.5,3.1
2018,6,24,21:10,UTC,8,1007.7,68,,,15.5,9.7,43717,4,8.8,3.7
2018,6,24,21:20,UTC,8,1007.7,76,,,14.6,10.5,14646,10,5.3,3.2
2018,6,24,21:30,UTC,8,1007.8,83,,,13.9,11.1,9979,3,5.4,2.5
2018,6,24,21:40,UTC,8,1007.7,82,,,13.9,11,13788,12,6.3,2.9
2018,6,24,21:50,UTC,8,1007.6,79,,,14.4,10.7,50000,8,8.8,3.6
2018,6,24,22:00,UTC,8,1007.8,77,,,14.6,10.5,47566,6,9.5,4.1
2018,6,24,22:10,UTC,8,1007.7,78,,,14.4,10.6,30501,8,6.8,2.9
2018,6,24,22:20,UTC,8,1007.8,78,,,14.4,10.6,50000,9,5.4,3.1
2018,6,24,22:30,UTC,8,1007.8,76,,,14.6,10.4,50000,5,6.5,3.6
2018,6,24,22:40,UTC,8,1007.9,77,,,14.5,10.5,50000,8,5.7,3.2
2018,6,24,22:50,UTC,8,1007.8,77,,,14.5,10.4,50000,6,5.8,2.8
2018,6,24,23:00,UTC,8,1007.5,77,,,14.5,10.5,48737,4,6.5,3.4
2018,6,24,23:10,UTC,8,1007.5,80,,,14.3,10.8,24509,6,8.2,4.4
2018,6,24,23:20,UTC,8,1007.5,80,,,14.2,10.8,40019,7,6.5,3.5
2018,6,24,23:30,UTC,8,1007.4,84,,,13.8,11.1,18462,3,5.9,3.2
2018,6,24,23:40,UTC,8,1007.6,86,,,13.6,11.2,35898,4,4.1,2
2018,6,24,23:50,UTC,8,1007.6,84,,,13.8,11.2,50000,8,3.8,2.3
2018,6,25,00:00,UTC,8,1007.6,83,,,13.9,11.1,50000,1,4.7,2.1
2018,6,25,00:10,UTC,8,1007.6,84,,,13.9,11.2,50000,4,5.4,2.5
2018,6,25,00:20,UTC,8,1007.5,84,,,13.8,11.2,50000,3,3.8,2.1
2018,6,25,00:30,UTC,8,1007.6,85,,,13.8,11.3,50000,17,3.8,1.7
2018,6,25,00:40,UTC,8,1007.5,85,,,13.8,11.3,49615,8,3.9,2
2018,6,25,00:50,UTC,8,1007.5,85,,,13.8,11.4,48538,7,3.7,2.1
2018,6,25,01:00,UTC,8,1007.5,86,,,13.7,11.5,27627,24,4.8,2.4
2018,6,25,01:10,UTC,8,1007.6,90,,,13.4,11.7,7543,27,4.2,1.7
2018,6,25,01:20,UTC,8,1007.7,93,,,13.1,12,7940,17,4.5,2.2
2018,6,25,01:30,UTC,8,1007.7,93,,,13.1,12,14928,9,3.6,2
2018,6,25,01:40,UTC,8,1007.7,93,,,13.1,12,29272,359,3.7,2.3
2018,6,25,01:50,UTC,8,1007.7,92,,,13.2,12,29717,10,3.8,2.1
2018,6,25,02:00,UTC,8,1007.8,93,,,13.2,12,10687,7,4,2.2
2018,6,25,02:10,UTC,8,1007.9,94,,,13.1,12.1,8700,12,3.8,1.9
2018,6,25,02:20,UTC,8,1007.9,95,,,13,12.3,4663,6,3.7,2.1
2018,6,25,02:30,UTC,8,1008,96,,,12.9,12.4,6785,360,3.7,2.2
2018,6,25,02:40,UTC,8,1008,97,,,13,12.5,8765,6,3.7,1.9
2018,6,25,02:50,UTC,8,1008.1,97,,,13.1,12.5,23576,4,3.9,1.8
2018,6,25,03:00,UTC,8,1008.2,96,,,13.1,12.6,32918,357,2.8,1.6
2018,6,25,03:10,UTC,8,1008.3,96,,,13.3,12.6,35410,360,3.8,2.1
2018,6,25,03:20,UTC,8,1008.4,95,,,13.3,12.6,33695,8,3.8,1.9
2018,6,25,03:30,UTC,8,1008.4,94,,,13.5,12.6,41840,3,3.6,2.1
2018,6,25,03:40,UTC,8,1008.5,94,,,13.5,12.6,41008,4,4.1,2.2
2018,6,25,03:50,UTC,8,1008.6,94,,,13.6,12.6,43760,7,3.3,1.8
2018,6,25,04:00,UTC,8,1008.7,93,,,13.8,12.7,34188,15,3,1.7
2018,6,25,04:10,UTC,8,1008.7,92,,,13.8,12.6,39365,19,3.5,1.9
2018,6,25,04:20,UTC,8,1008.7,92,,,13.9,12.7,34617,21,3.9,1.8
2018,6,25,04:30,UTC,8,1008.8,91,,,14,12.6,36870,47,4.6,1.9
2018,6,25,04:40,UTC,8,1008.9,92,,,14,12.7,33880,64,4.4,2.2
2018,6,25,04:50,UTC,8,1009,93,,,14,12.9,25722,69,4.2,2.2
2018,6,25,05:00,UTC,8,1009.1,92,,,13.9,12.6,22197,88,6.5,3
2018,6,25,05:10,UTC,8,1009.2,91,,,13.7,12.3,20582,96,6.8,4.2
2018,6,25,05:20,UTC,8,1009.3,90,,,13.7,12.1,40936,100,5.5,3.8
2018,6,25,05:30,UTC,8,1009.4,90,,,13.8,12.2,49639,110,5.4,3.5
2018,6,25,05:40,UTC,8,1009.5,89,,,14.1,12.4,46477,110,4.5,3.3
2018,6,25,05:50,UTC,8,1009.6,88,,,13.9,11.9,40877,105,5.4,4.1
2018,6,25,06:00,UTC,8,1009.6,87,,,14.3,12.2,43873,102,4.7,3.4
2018,6,25,06:10,UTC,8,1009.8,85,,,14.4,12,44653,102,5.9,3.7
2018,6,25,06:20,UTC,8,1010,82,,,14.7,11.7,50000,87,5.7,3.6
2018,6,25,06:30,UTC,8,1010.1,82,,,14.6,11.6,44853,118,4.9,3.9
2018,6,25,06:40,UTC,8,1010.2,81,,,14.6,11.3,46006,113,5.4,3.7
2018,6,25,06:50,UTC,8,1010.2,80,,,14.7,11.3,48818,94,5.2,2.9
2018,6,25,07:00,UTC,8,1010.3,80,,,14.5,11,46523,105,5.9,3.9
2018,6,25,07:10,UTC,8,1010.5,76,,,14.7,10.6,44564,100,5.6,3.5
2018,6,25,07:20,UTC,8,1010.6,78,,,14.5,10.6,44221,100,5.2,3.1
2018,6,25,07:30,UTC,8,1010.7,79,,,14.4,10.9,48124,100,6.3,4.2
2018,6,25,07:40,UTC,8,1011,79,,,14.2,10.6,50000,98,5.9,4.2
2018,6,25,07:50,UTC,8,1011.2,80,,,14.1,10.8,50000,99,5.5,3.8
2018,6,25,08:00,UTC,8,1011.3,80,,,14,10.7,43442,95,5.6,3.4
2018,6,25,08:10,UTC,8,1011.4,83,,,14.1,11.3,50000,92,4.9,3.3
2018,6,25,08:20,UTC,8,1011.6,82,,,14.4,11.5,50000,105,4.2,2.5
2018,6,25,08:30,UTC,8,1011.7,80,,,14.5,11,50000,99,4.8,3.2
2018,6,25,08:40,UTC,8,1011.9,82,,,14.4,11.3,40829,105,5.5,3.6
2018,6,25,08:50,UTC,8,1012.1,83,,,14.3,11.4,46589,114,5.2,3.8
2018,6,25,09:00,UTC,8,1012.1,85,,,14.2,11.7,45466,111,5.5,3.9
2018,6,25,09:10,UTC,8,1012.3,84,,,14.4,11.8,41520,106,5,3.2
2018,6,25,09:20,UTC,8,1012.5,84,,,14.9,12.2,48587,109,4.7,3.2
2018,6,25,09:30,UTC,8,1012.6,82,,,15,11.9,40298,112,5.7,4.3
2018,6,25,09:40,UTC,8,1012.6,78,,,15.7,11.8,40943,105,4.8,2.7
2018,6,25,09:50,UTC,8,1012.8,79,,,15.4,11.8,36132,99,5.9,4.2
2018,6,25,10:00,UTC,8,1012.9,81,,,15.1,12,35475,97,5.7,3.7
2018,6,25,10:10,UTC,8,1013,79,,,15.5,11.9,33160,101,5.5,3.3
2018,6,25,10:20,UTC,8,1013.1,81,,,15.2,11.9,34437,117,5.1,3.6
2018,6,25,10:30,UTC,8,1013.2,81,,,15.3,12.1,35560,105,5,3.3
2018,6,25,10:40,UTC,8,1013.2,81,,,15.4,12.2,33849,99,4.6,3
2018,6,25,10:50,UTC,8,1013.4,79,,,15.5,11.8,32477,93,3.5,2.3
2018,6,25,11:00,UTC,8,1013.5,76,,,16.1,11.9,33498,113,3.6,2
2018,6,25,11:10,UTC,8,1013.5,77,,,16.1,12,38959,110,5,2.6
2018,6,25,11:20,UTC,7,1013.5,71,,,17.2,11.8,42119,96,4.1,2.6
2018,6,25,11:30,UTC,5,1013.6,71,,,17.4,12,38891,104,5.6,2.1
2018,6,25,11:40,UTC,4,1013.6,64,,,17.7,10.7,37073,75,4.4,2.2
2018,6,25,11:50,UTC,5,1013.7,61,,,17.8,10.2,35852,126,5.8,3
2018,6,25,12:00,UTC,3,1013.7,62,,,17.4,10.1,39251,115,5.3,3.5
2018,6,25,12:10,UTC,4,1013.8,67,,,17.1,10.9,36015,112,4.7,2.7
2018,6,25,12:20,UTC,5,1013.9,62,,,17.7,10.4,36668,139,6.5,4
2018,6,25,12:30,UTC,4,1014,70,,,17.3,11.7,41235,136,6.8,4.6
2018,6,25,12:40,UTC,2,1014,69,,,17.8,11.9,37193,103,6.1,4.5
2018,6,25,12:50,UTC,1,1014.3,67,,,17.5,11.2,40265,113,6.5,4.5
2018,6,25,13:00,UTC,2,1014.4,67,,,18.1,11.8,35544,132,6.5,4.2
2018,6,25,13:10,UTC,3,1014.5,67,,,17.6,11.4,38547,113,5.8,3.9
2018,6,25,13:20,UTC,3,1014.6,64,,,17.6,10.7,37123,135,6.5,3.8
2018,6,25,13:30,UTC,2,1014.7,67,,,17.6,11.4,41273,151,5.6,3.6
2018,6,25,13:40,UTC,1,1014.9,67,,,17.3,11.2,38010,159,5.3,3.6
2018,6,25,13:50,UTC,0,1015,68,,,17.3,11.3,34338,141,5.5,3.7
2018,6,25,14:00,UTC,4,1015.2,71,,,17.1,11.7,50000,121,5.1,3.9
2018,6,25,14:10,UTC,6,1015.2,68,,,17.3,11.3,50000,163,5.1,3.3
2018,6,25,14:20,UTC,7,1015.3,68,,,17.4,11.5,46513,151,4.4,2.8
2018,6,25,14:30,UTC,6,1015.3,67,,,18,11.8,35665,158,4.2,2.6
2018,6,25,14:40,UTC,3,1015.5,67,,,17.3,11.2,49498,157,4.4,3.1
2018,6,25,14:50,UTC,1,1015.6,68,,,17.4,11.5,39233,153,3.9,2.2
2018,6,25,15:00,UTC,2,1015.7,69,,,17,11.3,45080,147,4.1,2.8
2018,6,25,15:10,UTC,1,1015.6,66,,,17.5,11.1,46612,177,2.2,1.4
2018,6,25,15:20,UTC,2,1015.6,68,,,17.3,11.3,45178,139,4.9,2.9
2018,6,25,15:30,UTC,2,1015.8,68,,,17.5,11.7,47611,146,5.1,2.6
2018,6,25,15:40,UTC,2,1015.9,72,,,17.2,12,50000,131,5.6,3.5
2018,6,25,15:50,UTC,2,1016,73,,,16.9,12.1,50000,146,6,4.1
2018,6,25,16:00,UTC,1,1016.1,75,,,16.6,12.2,49932,144,5.6,4.4
2018,6,25,16:10,UTC,1,1016.2,75,,,16.9,12.4,41109,149,4.6,3.7
2018,6,25,16:20,UTC,0,1016.3,73,,,17.1,12.2,45208,140,4.3,3.2
2018,6,25,16:30,UTC,0,1016.4,72,,,17.4,12.3,44506,163,4.9,3
2018,6,25,16:40,UTC,0,1016.5,72,,,17.4,12.3,41755,140,5.2,3.1
2018,6,25,16:50,UTC,1,1016.6,72,,,17.2,12.1,42303,149,4.5,3.2
2018,6,25,17:00,UTC,1,1016.7,73,,,17.1,12.2,46889,169,4.1,2.6
2018,6,25,17:10,UTC,1,1016.7,73,,,17,12.2,40354,138,4.2,2.9
2018,6,25,17:20,UTC,0,1016.8,73,,,17.1,12.3,39776,141,4,2.9
2018,6,25,17:30,UTC,0,1016.9,75,,,16.6,12.2,48993,132,4.1,2.8
2018,6,25,17:40,UTC,0,1016.9,75,,,16.8,12.4,49883,129,4.7,3.6
2018,6,25,17:50,UTC,0,1017,75,,,16.7,12.1,45006,150,4.4,3.1
2018,6,25,18:00,UTC,0,1017.2,76,,,16.4,12.3,40039,142,4.7,3.3
2018,6,25,18:10,UTC,0,1017.4,77,,,16.2,12.3,49562,135,5.1,3.2
2018,6,25,18:20,UTC,1,1017.6,77,,,16.4,12.3,47515,145,4.1,2.9
2018,6,25,18:30,UTC,1,1017.7,78,,,16,12.2,50000,160,3.7,2.7
2018,6,25,18:40,UTC,4,1017.8,80,,,15.7,12.3,46622,150,3.4,2.6
2018,6,25,18:50,UTC,5,1017.8,81,,,15.6,12.4,50000,145,4.1,2.8
2018,6,25,19:00,UTC,7,1018,82,,,15.4,12.4,49931,141,4,2.9
2018,6,25,19:10,UTC,7,1018.1,83,,,15.3,12.4,50000,144,4.3,3.1
2018,6,25,19:20,UTC,7,1018.2,83,,,15.3,12.5,50000,153,3.9,2.5
2018,6,25,19:30,UTC,7,1018.3,84,,,15.3,12.6,50000,173,3.3,2.3
2018,6,25,19:40,UTC,7,1018.5,85,,,15.1,12.5,49510,173,3.5,2.5
2018,6,25,19:50,UTC,7,1018.5,85,,,15.1,12.6,50000,174,2.8,2.1
2018,6,25,20:00,UTC,7,1018.6,86,,,14.9,12.7,49050,187,3,2.3
2018,6,25,20:10,UTC,7,1018.7,88,,,14.7,12.7,49261,194,2.8,2
2018,6,25,20:20,UTC,6,1018.7,89,,,14.5,12.7,50000,197,2.2,1.6
2018,6,25,20:30,UTC,3,1018.9,91,,,14.1,12.6,38896,200,1.7,1.2
2018,6,25,20:40,UTC,1,1019,94,,,13.5,12.5,9384,201,1.2,0.6
2018,6,25,20:50,UTC,1,1019.1,97,,,12.8,12.3,4964,0,0,0
2018,6,25,21:00,UTC,4,1019.1,97,,,12.3,11.9,4807,44,1.1,0.5
2018,6,25,21:10,UTC,3,1019.3,98,,,12.6,12.3,31891,117,2.2,1.5
2018,6,25,21:20,UTC,3,1019.4,96,,,13.1,12.5,24074,131,1.9,1.1
2018,6,25,21:30,UTC,1,1019.4,96,,,13.1,12.4,39589,123,1.9,1.2
2018,6,25,21:40,UTC,0,1019.5,96,,,12.8,12.1,20274,133,1.6,1.1
2018,6,25,21:50,UTC,0,1019.6,94,,,11.9,10.9,30035,0,0,0
2018,6,25,22:00,UTC,0,1019.6,98,,,12.1,11.9,15995,0,0,0
2018,6,25,22:10,UTC,0,1019.7,99,,,12,11.9,8362,128,0.9,0.6
2018,6,25,22:20,UTC,0,1019.8,99,,,11.3,11.1,431,0,0,0
2018,6,25,22:30,UTC,0,1019.9,99,,,11,10.8,857,93,1.2,0.7
2018,6,25,22:40,UTC,3,1019.9,99,,,11.2,11.1,3363,68,0.7,0.5
2018,6,25,22:50,UTC,5,1019.9,99,,,11,10.9,880,0,0,0
2018,6,25,23:00,UTC,7,1020.1,99,,,10.9,10.8,4136,104,1.3,0.6
2018,6,25,23:10,UTC,7,1020.1,100,,,11.6,11.6,17907,118,1.2,0.9
2018,6,25,23:20,UTC,7,1020.2,100,,,11.6,11.6,5063,118,1.3,1
2018,6,25,23:30,UTC,7,1020.3,99,,,10.9,10.8,36352,1,1.3,0.7
2018,6,25,23:40,UTC,7,1020.4,100,,,11.6,11.5,16061,0,0,0
2018,6,25,23:50,UTC,7,1020.4,99,,,12,11.9,11517,0,0,0
2018,6,26,00:00,UTC,7,1020.5,99,,,11.7,11.5,39314,0,0,0
2018,6,26,00:10,UTC,7,1020.4,99,,,12.3,12.1,30261,141,0.9,0.6
2018,6,26,00:20,UTC,8,1020.4,98,,,12.9,12.6,38689,145,2.4,1.2
2018,6,26,00:30,UTC,8,1020.4,97,,,13.7,13.2,27627,154,2.7,1.9
2018,6,26,00:40,UTC,8,1020.3,95,,,13.8,13,29500,151,2.3,1.6
2018,6,26,00:50,UTC,7,1020.4,96,,,13.2,12.5,22547,139,2.2,1.3
2018,6,26,01:00,UTC,7,1020.5,97,,,12.9,12.5,16384,104,1.3,0.6
2018,6,26,01:10,UTC,6,1020.6,98,,,12.6,12.3,3144,106,1.3,0.9
2018,6,26,01:20,UTC,4,1020.7,98,,,12.7,12.4,16897,132,1.6,1.1
2018,6,26,01:30,UTC,1,1020.7,98,,,12.4,12.1,2026,142,1.6,1
2018,6,26,01:40,UTC,0,1020.8,99,,,11.9,11.7,1082,0,0,0
2018,6,26,01:50,UTC,0,1020.9,99,,,11.9,11.7,2504,0,0,0
2018,6,26,02:00,UTC,0,1021,99,,,11.5,11.3,256,0,0,0
2018,6,26,02:10,UTC,9,1021.1,100,,,11.3,11.2,291,0,0,0
2018,6,26,02:20,UTC,2,1021.1,99,,,11.4,11.4,121,0,0,0
2018,6,26,02:30,UTC,5,1021.3,100,,,11.5,11.5,171,215,2.5,0.7
2018,6,26,02:40,UTC,6,1021.3,100,,,12.6,12.6,1194,203,2.8,1.7
2018,6,26,02:50,UTC,9,1021.4,100,,,12.7,12.7,781,197,2.2,1.6
2018,6,26,03:00,UTC,9,1021.5,100,,,12.7,12.7,667,200,2.3,1.4
2018,6,26,03:10,UTC,9,1021.7,100,,,12.8,12.8,502,196,2.1,1.5
2018,6,26,03:20,UTC,9,1021.7,100,,,12.9,12.9,698,194,2.6,1.9
2018,6,26,03:30,UTC,7,1021.8,100,,,13.2,13.1,5093,206,2.3,1.5
2018,6,26,03:40,UTC,7,1021.8,100,,,13.7,13.6,10869,212,2.4,1.5
2018,6,26,03:50,UTC,4,1021.8,97,,,14.2,13.6,22114,235,3,1.9
2018,6,26,04:00,UTC,2,1021.9,89,,,14.8,13.1,33118,225,3.6,2.1
2018,6,26,04:10,UTC,3,1022.1,86,,,14.8,12.6,37084,244,4.6,2.8
2018,6,26,04:20,UTC,2,1022.1,85,,,15.1,12.7,38438,230,4.2,2.7
2018,6,26,04:30,UTC,2,1022.2,83,,,15.4,12.5,42368,237,4.1,2.9
2018,6,26,04:40,UTC,3,1022.4,81,,,15.5,12.4,36382,234,4.5,2.6
2018,6,26,04:50,UTC,4,1022.5,82,,,15.4,12.3,50000,243,3.9,2.8
2018,6,26,05:00,UTC,6,1022.4,81,,,15.8,12.5,37132,221,4.1,2.5
2018,6,26,05:10,UTC,7,1022.6,79,,,16.1,12.5,39127,227,3.6,2.3
2018,6,26,05:20,UTC,4,1022.7,77,,,16.7,12.6,43862,229,4.4,2.8
2018,6,26,05:30,UTC,2,1022.7,71,,,17,11.7,35875,210,4.8,3.2
2018,6,26,05:40,UTC,0,1022.7,72,,,16.9,11.7,36269,208,5.2,4.2
2018,6,26,05:50,UTC,0,1022.8,73,,,16.9,12,38334,185,5.1,3.7
2018,6,26,06:00,UTC,0,1022.9,74,,,16.8,12.2,41576,182,5.3,3.6
2018,6,26,06:10,UTC,0,1023,71,,,17.1,11.8,42006,195,6.1,3.8
2018,6,26,06:20,UTC,0,1023,72,,,17.2,12,36197,231,5.5,4.1
2018,6,26,06:30,UTC,0,1023,69,,,17.8,12,39280,219,5.3,3.1
2018,6,26,06:40,UTC,0,1023.1,68,,,17.6,11.7,46641,203,5.5,3.8
2018,6,26,06:50,UTC,0,1023.1,68,,,17.6,11.7,40984,188,6.6,4.6
2018,6,26,07:00,UTC,4,1023.1,66,,,18.6,12.2,32500,196,5.5,3.8
2018,6,26,07:10,UTC,6,1023,65,,,18.2,11.5,42812,209,6.4,4.6
2018,6,26,07:20,UTC,6,1023,66,,,18.3,11.9,40126,192,6.8,4.7
2018,6,26,07:30,UTC,4,1023.1,66,,,17.8,11.4,37107,188,6.4,4.7
2018,6,26,07:40,UTC,4,1023.2,69,,,18,12.2,33497,182,6.7,4.8
2018,6,26,07:50,UTC,3,1023.4,70,,,17.9,12.4,36595,185,6.5,5
2018,6,26,08:00,UTC,6,1023.4,71,,,17.7,12.3,44749,179,6.2,4.5
2018,6,26,08:10,UTC,7,1023.4,72,,,17.5,12.3,41168,178,6.4,4.9
2018,6,26,08:20,UTC,7,1023.4,70,,,17.8,12.3,37457,168,6.8,4.7
2018,6,26,08:30,UTC,6,1023.4,70,,,18,12.3,36946,172,5.9,4.2
2018,6,26,08:40,UTC,7,1023.4,66,,,18.1,11.7,39547,175,6.2,4.5
2018,6,26,08:50,UTC,5,1023.5,66,,,18.1,11.7,34989,182,6.4,5
2018,6,26,09:00,UTC,3,1023.6,65,,,18.5,11.8,33917,187,6.9,4.6
2018,6,26,09:10,UTC,3,1023.7,67,,,18,11.8,47624,196,6.3,4.3
2018,6,26,09:20,UTC,4,1023.7,68,,,18.7,12.6,35655,191,6.4,4.7
2018,6,26,09:30,UTC,6,1023.7,67,,,18.7,12.5,46519,182,6,4.3
2018,6,26,09:40,UTC,7,1023.8,63,,,19.2,12.1,33167,185,7.7,4.5
2018,6,26,09:50,UTC,7,1023.8,63,,,19,11.9,34225,178,6.7,4.9
2018,6,26,10:00,UTC,8,1023.6,61,,,19.8,12.1,37239,178,6.5,4.7
2018,6,26,10:10,UTC,6,1023.7,61,,,19.1,11.3,41622,177,6.4,4.9
2018,6,26,10:20,UTC,7,1023.8,63,,,18.8,11.7,49297,190,6.6,4.7
2018,6,26,10:30,UTC,6,1023.8,64,,,19.1,12.1,37990,186,6.9,5
2018,6,26,10:40,UTC,4,1023.8,62,,,19.1,11.6,34562,190,7.1,4.9
2018,6,26,10:50,UTC,2,1023.9,64,,,19.4,12.3,47893,187,5.9,4.2
2018,6,26,11:00,UTC,1,1023.9,60,,,19.9,12,36385,179,6.2,4.5
2018,6,26,11:10,UTC,0,1023.9,59,,,20.1,12,33941,186,7,4.4
2018,6,26,11:20,UTC,0,1023.8,59,,,19.7,11.5,28928,171,7.7,5.1
2018,6,26,11:30,UTC,1,1023.9,57,,,19.7,11,31291,166,7.3,5.2
2018,6,26,11:40,UTC,1,1023.9,55,,,20.6,11.3,46190,178,7,5.3
2018,6,26,11:50,UTC,3,1023.9,57,,,20.6,11.7,38349,176,7.3,5.3
2018,6,26,12:00,UTC,5,1024,56,,,20.1,11,36458,175,7.4,5
2018,6,26,12:10,UTC,4,1024,57,,,20.4,11.7,37285,182,6.8,5.3
2018,6,26,12:20,UTC,6,1024.1,57,,,20.7,11.9,43316,185,7.5,4.7
2018,6,26,12:30,UTC,4,1023.9,55,,,20.5,11,41377,188,6.8,5.1
2018,6,26,12:40,UTC,3,1023.8,55,,,20.4,11.1,33961,184,7.1,5.3
2018,6,26,12:50,UTC,1,1023.8,54,,,20.9,11.1,36816,190,7.5,5.5
2018,6,26,13:00,UTC,0,1023.8,55,,,20.8,11.5,33238,188,7.6,5.2
2018,6,26,13:10,UTC,2,1023.9,55,,,20.6,11.3,38855,190,7,5.2
2018,6,26,13:20,UTC,2,1023.8,54,,,20.7,11,44811,180,7.2,5.5
2018,6,26,13:30,UTC,4,1023.9,51,,,21.1,10.4,35983,194,7.4,5.1
2018,6,26,13:40,UTC,3,1023.8,50,,,21.3,10.5,36514,193,7.2,4.6
2018,6,26,13:50,UTC,2,1023.7,48,,,21.3,9.9,40047,192,7.5,5.1
2018,6,26,14:00,UTC,1,1023.8,49,,,21.9,10.8,36172,196,7.4,5
2018,6,26,14:10,UTC,2,1023.8,49,,,21.2,10.2,40014,218,7.8,5.3
2018,6,26,14:20,UTC,4,1023.8,46,,,21.1,9.1,38947,219,7.7,5.2
2018,6,26,14:30,UTC,5,1023.8,48,,,21.4,9.8,46250,211,8.2,5.7
2018,6,26,14:40,UTC,2,1023.8,49,,,21.4,10.3,39285,222,7.1,4.9
2018,6,26,14:50,UTC,1,1023.7,47,,,21.4,9.6,41253,212,7.5,4.8
2018,6,26,15:00,UTC,0,1023.7,48,,,21.3,9.8,43495,213,7.8,5.3
2018,6,26,15:10,UTC,0,1023.7,48,,,21.2,9.8,50000,201,6.4,4.5
2018,6,26,15:20,UTC,0,1023.7,50,,,21.3,10.4,38715,196,7.2,4.9
2018,6,26,15:30,UTC,0,1023.7,50,,,21.2,10.4,43074,198,6.7,4.8
2018,6,26,15:40,UTC,0,1023.7,51,,,21,10.4,42314,196,6.1,4.5
2018,6,26,15:50,UTC,0,1023.7,50,,,20.7,10,50000,198,6.3,4.5
2018,6,26,16:00,UTC,0,1023.7,51,,,20.7,10.3,41765,201,5.6,3.9
2018,6,26,16:10,UTC,1,1023.7,50,,,20.7,9.9,50000,200,6.3,4.2
2018,6,26,16:20,UTC,4,1023.6,51,,,20.7,10.2,48213,197,6.8,4.6
2018,6,26,16:30,UTC,6,1023.6,51,,,20.7,10.3,43732,195,5.6,3.8
2018,6,26,16:40,UTC,7,1023.7,53,,,20.7,10.9,47258,199,4.6,3.2
2018,6,26,16:50,UTC,7,1023.7,52,,,20.9,10.7,41369,193,4.7,3
2018,6,26,17:00,UTC,7,1023.7,52,,,20.9,10.6,43844,212,4.4,2.7
2018,6,26,17:10,UTC,6,1023.7,53,,,20.8,10.8,43590,221,4.5,3
2018,6,26,17:20,UTC,3,1023.8,56,,,20.4,11.2,47632,203,4.3,2.7
2018,6,26,17:30,UTC,1,1023.8,56,,,20.4,11.2,41418,196,3.3,2.3
2018,6,26,17:40,UTC,0,1023.7,55,,,20.4,11.1,44339,205,4.5,2.9
2018,6,26,17:50,UTC,0,1023.7,59,,,19.9,11.7,48314,195,4.1,2.9
2018,6,26,18:00,UTC,0,1023.7,59,,,19.8,11.7,47891,191,3.5,2.7
2018,6,26,18:10,UTC,1,1023.7,59,,,19.8,11.6,44235,187,3.8,2.9
2018,6,26,18:20,UTC,4,1023.7,61,,,19.5,11.8,46048,184,3.6,2.6
2018,6,26,18:30,UTC,3,1023.8,63,,,19.2,11.9,46579,185,2.9,2.4
2018,6,26,18:40,UTC,3,1023.9,65,,,18.7,11.9,48903,179,3,2.4
2018,6,26,18:50,UTC,1,1024,67,,,18.3,12,45934,184,3.6,2.5
2018,6,26,19:00,UTC,0,1024.1,68,,,18,12,50000,187,3.1,2.3
2018,6,26,19:10,UTC,0,1024.2,70,,,17.4,12,50000,193,3,2.5
2018,6,26,19:20,UTC,0,1024.1,72,,,17.2,12.1,49270,193,2.8,2.4
2018,6,26,19:30,UTC,0,1024.2,73,,,17,12.2,45124,190,3.1,2.4
2018,6,26,19:40,UTC,0,1024.3,74,,,16.7,12.1,49418,189,2.5,2.1
2018,6,26,19:50,UTC,0,1024.3,76,,,16.4,12.1,50000,190,2.7,2.1
2018,6,26,20:00,UTC,0,1024.4,77,,,16.4,12.3,49944,189,2.7,2.1
2018,6,26,20:10,UTC,2,1024.6,78,,,15.9,12.1,48067,196,2.5,1.9
2018,6,26,20:20,UTC,4,1024.7,79,,,15.8,12.3,46138,193,2.3,1.9
2018,6,26,20:30,UTC,6,1024.7,80,,,15.5,12.2,50000,189,2.3,1.8
2018,6,26,20:40,UTC,7,1024.8,81,,,15.5,12.3,35288,186,2.2,1.7
2018,6,26,20:50,UTC,4,1024.8,82,,,15.3,12.2,48916,184,2.6,1.8
2018,6,26,21:00,UTC,2,1024.9,83,,,14.9,12.1,47729,189,3.1,2.1
2018,6,26,21:10,UTC,0,1024.9,84,,,14.6,12,50000,190,3.5,2.4
2018,6,26,21:20,UTC,0,1025,85,,,14.4,12,50000,189,2.6,1.9
2018,6,26,21:30,UTC,1,1025.1,86,,,14.2,11.9,47174,186,2.5,1.8
2018,6,26,21:40,UTC,4,1025.2,87,,,14.2,12,50000,187,2.3,1.5
2018,6,26,21:50,UTC,6,1025.3,86,,,14.3,12,50000,184,1.9,1.3
2018,6,26,22:00,UTC,7,1025.4,87,,,14.2,12,50000,177,1.8,1.3
2018,6,26,22:10,UTC,4,1025.4,88,,,13.7,11.7,50000,179,1.6,1.1
2018,6,26,22:20,UTC,2,1025.4,90,,,13.1,11.6,49800,153,1.5,0.8
2018,6,26,22:30,UTC,0,1025.4,94,,,12.6,11.6,43723,0,0,0
2018,6,26,22:40,UTC,4,1025.4,96,,,12.3,11.8,32228,0,0,0
2018,6,26,22:50,UTC,6,1025.4,95,,,12.5,11.7,42704,111,1.2,0.8
2018,6,26,23:00,UTC,4,1025.4,95,,,12.8,11.9,44640,129,1.5,1.1
2018,6,26,23:10,UTC,2,1025.5,94,,,11.9,11.1,41565,127,1.1,0.6
2018,6,26,23:20,UTC,0,1025.5,97,,,11.5,10.9,29767,104,1.1,0.8
2018,6,26,23:30,UTC,0,1025.4,97,,,11.9,11.4,37762,123,1.4,1.1
2018,6,26,23:40,UTC,0,1025.5,95,,,11.3,10.6,10408,115,1.2,0.9
2018,6,26,23:50,UTC,0,1025.6,97,,,11.1,10.6,37327,143,1.1,0.8
2018,6,27,00:00,UTC,0,1025.6,98,,,11.3,11,43454,162,1.1,0.6
2018,6,27,00:10,UTC,0,1025.6,96,,,12.6,12,49609,152,1.7,0.8
2018,6,27,00:20,UTC,0,1025.7,93,,,13,11.9,47052,193,2.8,1.6
2018,6,27,00:30,UTC,0,1025.7,93,,,12.9,11.8,47205,187,2,1.5
2018,6,27,00:40,UTC,0,1025.8,93,,,12.9,11.9,41769,192,2.4,1.6
2018,6,27,00:50,UTC,0,1025.8,93,,,13.1,12,42842,189,2.3,1.9
2018,6,27,01:00,UTC,0,1025.9,91,,,12.8,11.3,44574,203,2.4,1.6
2018,6,27,01:10,UTC,3,1026,93,,,12.4,11.3,46356,206,1.5,0.8
2018,6,27,01:20,UTC,5,1026,96,,,12.5,11.9,47583,179,1.8,1.1
2018,6,27,01:30,UTC,7,1026.2,94,,,12.8,11.8,44874,214,1.6,1
2018,6,27,01:40,UTC,7,1026.3,93,,,12.8,11.8,50000,259,1.3,0.8
2018,6,27,01:50,UTC,7,1026.3,93,,,13,11.9,43967,239,1.4,0.9
2018,6,27,02:00,UTC,4,1026.4,93,,,12.6,11.5,42037,242,1.6,0.7
2018,6,27,02:10,UTC,4,1026.4,93,,,12.8,11.8,45331,270,1.4,0.7
2018,6,27,02:20,UTC,1,1026.5,91,,,12.7,11.3,41387,216,1.4,0.6
2018,6,27,02:30,UTC,1,1026.5,93,,,12.8,11.8,33445,0,0,0
2018,6,27,02:40,UTC,0,1026.5,92,,,13,11.7,44827,232,1.2,0.7
2018,6,27,02:50,UTC,1,1026.6,90,,,13.2,11.7,40174,251,2.1,1.1
2018,6,27,03:00,UTC,4,1026.6,89,,,13.5,11.8,47221,245,2.3,0.8
2018,6,27,03:10,UTC,3,1026.6,88,,,13.7,11.7,44308,246,1.9,1.1
2018,6,27,03:20,UTC,2,1026.8,88,,,13.9,11.8,42083,244,1.5,1
2018,6,27,03:30,UTC,1,1026.8,85,,,14.1,11.6,46494,255,2.6,1.1
2018,6,27,03:40,UTC,0,1026.8,85,,,14.1,11.5,47521,261,2.4,1.6
2018,6,27,03:50,UTC,0,1026.9,84,,,14.4,11.7,41835,277,2.4,1.3
2018,6,27,04:00,UTC,0,1026.9,79,,,14.9,11.4,34483,262,3.1,2
2018,6,27,04:10,UTC,0,1026.8,78,,,15.3,11.5,43403,274,2.8,1.9
2018,6,27,04:20,UTC,0,1026.9,74,,,15.4,10.9,43622,276,3.4,2.1
2018,6,27,04:30,UTC,0,1027,71,,,15.9,10.7,43229,279,3.6,2
2018,6,27,04:40,UTC,0,1027,70,,,16.3,10.8,39111,285,4.8,2.9
2018,6,27,04:50,UTC,0,1027,69,,,16.5,10.9,47446,293,5.9,3.3
2018,6,27,05:00,UTC,0,1027,68,,,16.7,10.7,40185,290,4.7,2.8
2018,6,27,05:10,UTC,0,1027,67,,,17.1,10.8,35521,278,4,2.4
2018,6,27,05:20,UTC,0,1026.9,67,,,17.2,10.9,43891,294,4.4,2.8
2018,6,27,05:30,UTC,0,1027,65,,,17.2,10.6,39037,265,3.3,1.7
2018,6,27,05:40,UTC,0,1027,66,,,17.3,10.8,44720,236,3.5,2.3
2018,6,27,05:50,UTC,0,1027,65,,,17.7,11.1,43174,246,3.3,2.2
2018,6,27,06:00,UTC,0,1027,63,,,17.7,10.7,41451,219,4.1,2.6
2018,6,27,06:10,UTC,0,1026.9,62,,,18.1,10.8,34498,210,4,2.6
2018,6,27,06:20,UTC,0,1026.9,61,,,18.3,10.7,38615,208,4.3,2.8
2018,6,27,06:30,UTC,0,1026.9,62,,,18.3,10.8,38653,215,4.2,3
2018,6,27,06:40,UTC,0,1026.9,62,,,18.5,11,31920,227,4.7,3.1
2018,6,27,06:50,UTC,0,1026.9,61,,,18.7,10.9,37670,225,5.1,3.1
2018,6,27,07:00,UTC,0,1026.9,60,,,19,10.9,37960,217,6.2,3.3
2018,6,27,07:10,UTC,0,1027,60,,,19.2,11.3,38899,216,6.5,3.9
2018,6,27,07:20,UTC,0,1027,59,,,19.5,11.2,40132,224,5,3.1
2018,6,27,07:30,UTC,0,1027,58,,,19.6,11,38462,232,5.4,3.6
2018,6,27,07:40,UTC,0,1027,54,,,19.8,10.1,40669,206,5.9,3.8
2018,6,27,07:50,UTC,0,1026.9,57,,,19.8,11,33063,214,5,3.2
2018,6,27,08:00,UTC,0,1027,57,,,20,11.4,33816,215,6.4,4.1
2018,6,27,08:10,UTC,0,1027.1,54,,,20.3,10.8,36939,246,4.9,2.9
2018,6,27,08:20,UTC,0,1027.1,50,,,20.9,10.2,37614,215,5.6,3.4
2018,6,27,08:30,UTC,0,1027,55,,,20.4,11.1,38308,188,6.8,4
2018,6,27,08:40,UTC,0,1026.9,56,,,19.9,11,44029,176,6.9,4.9
2018,6,27,08:50,UTC,0,1027,57,,,20.2,11.3,31304,175,7.5,4.9
2018,6,27,09:00,UTC,0,1027,58,,,19.8,11.2,35404,176,6.7,4.7
2018,6,27,09:10,UTC,0,1027,56,,,20,10.8,35786,179,6.5,4.8
2018,6,27,09:20,UTC,0,1027.1,55,,,20.6,11.3,34355,189,6.7,4.6
2018,6,27,09:30,UTC,0,1027.1,55,,,20.8,11.4,30949,182,7.1,5.5
2018,6,27,09:40,UTC,0,1027,55,,,20.4,10.9,39332,183,7.3,5.8
2018,6,27,09:50,UTC,0,1027,54,,,20.7,11.1,35119,184,7.2,5.6
2018,6,27,10:00,UTC,0,1027,54,,,20.9,11.3,42858,173,6.9,5.3
2018,6,27,10:10,UTC,0,1027,53,,,21,11.1,40579,179,7.5,5.6
2018,6,27,10:20,UTC,0,1027.1,55,,,21.4,11.9,31146,167,7.3,5.3
2018,6,27,10:30,UTC,0,1027,53,,,21.7,11.7,33447,165,7.3,5
2018,6,27,10:40,UTC,0,1027,53,,,22.3,12.2,35071,196,8.1,5.1
2018,6,27,10:50,UTC,0,1027,52,,,22,11.8,30961,194,8.1,5.9
2018,6,27,11:00,UTC,0,1026.9,52,,,21.6,11.3,33252,202,7.6,5.3
2018,6,27,11:10,UTC,0,1027,51,,,22.1,11.5,29399,191,8.1,5.6
2018,6,27,11:20,UTC,0,1026.9,51,,,22.3,11.5,30834,190,8.2,5.1
2018,6,27,11:30,UTC,0,1026.8,50,,,22.6,11.6,28601,177,7.9,5.7
2018,6,27,11:40,UTC,2,1026.7,51,,,22.4,11.8,31776,181,8.5,5.6
2018,6,27,11:50,UTC,5,1026.7,48,,,22.4,11,34193,197,8.7,6.6
2018,6,27,12:00,UTC,7,1026.6,50,,,21.5,10.7,40087,190,8.3,6
2018,6,27,12:10,UTC,8,1026.7,52,,,21.3,11.2,35427,178,8.4,6
2018,6,27,12:20,UTC,7,1026.6,52,,,21.4,11.1,33192,177,7.8,6
2018,6,27,12:30,UTC,6,1026.6,50,,,22.5,11.7,37887,176,7.8,5.3
2018,6,27,12:40,UTC,3,1026.5,49,,,22.7,11.5,39631,190,6.9,4.6
2018,6,27,12:50,UTC,1,1026.5,49,,,22.4,11.2,40744,212,7.8,5.4
2018,6,27,13:00,UTC,0,1026.3,48,,,22.5,10.9,35472,194,8.1,5.7
2018,6,27,13:10,UTC,0,1026.2,49,,,22.3,10.9,35980,188,7.4,5
2018,6,27,13:20,UTC,0,1026.1,49,,,22.9,11.6,34107,191,7,4.8
2018,6,27,13:30,UTC,0,1026.1,49,,,22.7,11.4,34958,189,8.2,5.6
2018,6,27,13:40,UTC,0,1026.1,49,,,23.3,12,36381,194,8.2,6
2018,6,27,13:50,UTC,2,1026,51,,,23.3,12.5,33829,196,7.6,5.5
2018,6,27,14:00,UTC,1,1026,50,,,22.8,11.8,40898,193,9,6
2018,6,27,14:10,UTC,1,1025.9,51,,,22.9,12.1,43330,188,7.7,5.7
2018,6,27,14:20,UTC,1,1025.8,51,,,22.8,12.2,38624,194,7.9,5.9
2018,6,27,14:30,UTC,1,1025.8,51,,,23.5,12.7,39202,190,8.3,5.6
2018,6,27,14:40,UTC,1,1025.7,51,,,22.8,12.2,37359,189,7.7,6
2018,6,27,14:50,UTC,1,1025.6,50,,,23.5,12.3,42094,196,7.9,5.4
2018,6,27,15:00,UTC,0,1025.5,50,,,23.2,12.1,39881,200,7.5,5.2
2018,6,27,15:10,UTC,0,1025.4,48,,,23.5,11.8,44060,196,6.8,4.9
2018,6,27,15:20,UTC,0,1025.4,48,,,23.5,11.9,37050,196,7.2,5
2018,6,27,15:30,UTC,0,1025.4,48,,,23.3,11.6,43834,195,7,5.1
2018,6,27,15:40,UTC,0,1025.3,49,,,23.1,11.8,43988,203,6.9,5.3
2018,6,27,15:50,UTC,0,1025.3,51,,,22.7,11.9,42364,203,7.4,4.9
2018,6,27,16:00,UTC,0,1025.3,52,,,22.7,12.3,34722,201,7.8,4.9
2018,6,27,16:10,UTC,0,1025.2,51,,,22.6,11.8,41051,192,7.1,4.5
2018,6,27,16:20,UTC,0,1025.3,51,,,22.6,11.9,38883,204,6.7,4.6
2018,6,27,16:30,UTC,0,1025.2,52,,,22.6,12.2,46628,193,6.2,4.5
2018,6,27,16:40,UTC,0,1025.1,55,,,21.8,12.3,47536,185,6.9,4.4
2018,6,27,16:50,UTC,0,1025.1,56,,,21.5,12.3,39819,183,5.8,4.3
2018,6,27,17:00,UTC,0,1025.1,56,,,21.3,12.2,42896,180,5.8,4.3
2018,6,27,17:10,UTC,0,1025,58,,,21,12.3,41524,176,5.4,4.1
2018,6,27,17:20,UTC,0,1025,57,,,21.2,12.4,48330,182,4.7,3.5
2018,6,27,17:30,UTC,0,1025,56,,,21.3,12.1,50000,178,5,3.6
2018,6,27,17:40,UTC,0,1025,56,,,21.2,12.2,46921,184,5.3,3.6
2018,6,27,17:50,UTC,0,1025.1,57,,,21.3,12.4,43305,196,4.9,3
2018,6,27,18:00,UTC,0,1025.1,58,,,21,12.3,42498,193,4.4,2.9
2018,6,27,18:10,UTC,0,1025.1,59,,,20.7,12.4,45328,193,5,2.9
2018,6,27,18:20,UTC,0,1025.3,60,,,20.5,12.4,50000,193,4.7,2.9
2018,6,27,18:30,UTC,0,1025.4,61,,,20.4,12.5,47775,201,3.4,2.3
2018,6,27,18:40,UTC,0,1025.4,62,,,20.1,12.5,50000,191,3.8,2.8
2018,6,27,18:50,UTC,0,1025.5,64,,,19.7,12.7,50000,190,3.2,2.5
2018,6,27,19:00,UTC,0,1025.6,66,,,19.2,12.7,50000,188,3.7,2.9
2018,6,27,19:10,UTC,0,1025.7,67,,,19.1,12.8,50000,192,3.7,2.8
2018,6,27,19:20,UTC,0,1025.7,68,,,18.8,12.8,50000,198,4,2.8
2018,6,27,19:30,UTC,0,1025.7,68,,,19,12.9,50000,214,3.8,2.2
2018,6,27,19:40,UTC,0,1025.8,67,,,19,12.8,50000,222,4.1,2.2
2018,6,27,19:50,UTC,0,1025.9,67,,,19,12.8,50000,225,3.8,2.3
2018,6,27,20:00,UTC,0,1026,68,,,18.8,12.8,50000,225,3,2.1
2018,6,27,20:10,UTC,0,1026,69,,,18.6,12.8,50000,228,2.7,1.8
2018,6,27,20:20,UTC,0,1026,70,,,18.3,12.8,50000,225,3.2,2.1
2018,6,27,20:30,UTC,0,1026,71,,,18.2,12.8,50000,232,2.8,1.8
2018,6,27,20:40,UTC,0,1026,73,,,18,12.9,50000,222,2.6,1.9
2018,6,27,20:50,UTC,0,1025.9,74,,,17.7,12.9,50000,224,2.9,2
2018,6,27,21:00,UTC,0,1026,75,,,17.3,12.8,47266,237,2.5,1.5
2018,6,27,21:10,UTC,0,1026.1,75,,,17.1,12.7,44557,240,1.7,1.2
2018,6,27,21:20,UTC,0,1026.1,79,,,16.5,12.9,35506,225,1.4,1
2018,6,27,21:30,UTC,0,1026.1,82,,,16,13,12409,195,1.2,0.7
2018,6,27,21:40,UTC,0,1026.1,83,,,15.9,12.9,17137,0,0,0
2018,6,27,21:50,UTC,0,1026,86,,,14.5,12.3,15347,0,0,0
2018,6,27,22:00,UTC,0,1026,90,,,14.3,12.7,23147,0,0,0
2018,6,27,22:10,UTC,0,1026,88,,,14.5,12.5,50000,111,0.8,0.6
2018,6,27,22:20,UTC,0,1026,92,,,14,12.7,20506,0,0,0
2018,6,27,22:30,UTC,0,1026,91,,,13.7,12.2,41892,0,0,0
2018,6,27,22:40,UTC,0,1026,92,,,13.4,12.1,22984,0,0,0
2018,6,27,22:50,UTC,0,1025.9,91,,,13.6,12.2,50000,122,0.9,0.7
2018,6,27,23:00,UTC,0,1025.8,92,,,13.7,12.5,11310,117,0.8,0.5
2018,6,27,23:10,UTC,0,1025.8,94,,,12.9,12,12178,0,0,0
2018,6,27,23:20,UTC,0,1025.8,94,,,12.8,12,50000,0,0,0
2018,6,27,23:30,UTC,0,1025.8,95,,,12.9,12.2,44049,0,0,0
2018,6,27,23:40,UTC,0,1025.7,94,,,12.7,11.7,48414,108,0.8,0.5
2018,6,27,23:50,UTC,0,1025.8,96,,,12.5,11.9,15185,0,0,0
2018,6,28,00:00,UTC,0,1025.7,95,,,12.4,11.7,46698,0,0,0
2018,6,28,00:10,UTC,0,1025.6,96,,,12.3,11.7,50000,95,0.8,0.5
2018,6,28,00:20,UTC,0,1025.6,95,,,12,11.3,42959,0,0,0
2018,6,28,00:30,UTC,0,1025.5,96,,,11.8,11.1,42316,0,0,0
2018,6,28,00:40,UTC,0,1025.5,97,,,11.9,11.5,37067,0,0,0
2018,6,28,00:50,UTC,0,1025.5,92,,,11.6,10.4,19026,0,0,0
2018,6,28,01:00,UTC,0,1025.4,98,,,12.1,11.8,2628,0,0,0
2018,6,28,01:10,UTC,0,1025.5,99,,,11.8,11.5,958,0,0,0
2018,6,28,01:20,UTC,0,1025.5,99,,,11.6,11.4,11426,115,0.9,0.7
2018,6,28,01:30,UTC,0,1025.5,98,,,11.6,11.3,34109,133,0.9,0.6
2018,6,28,01:40,UTC,0,1025.6,99,,,12,11.9,35348,141,0.9,0.7
2018,6,28,01:50,UTC,0,1025.6,98,,,12.4,12.1,34540,0,0,0
2018,6,28,02:00,UTC,0,1025.7,97,,,11.6,11.2,22972,118,0.7,0.5
2018,6,28,02:10,UTC,0,1025.6,98,,,11.9,11.6,28321,119,0.7,0.6
2018,6,28,02:20,UTC,0,1025.6,98,,,12.1,11.7,35717,113,0.7,0.5
2018,6,28,02:30,UTC,0,1025.7,96,,,12,11.3,38008,0,0,0
2018,6,28,02:40,UTC,0,1025.6,91,,,13.2,11.8,39314,192,1.3,0.6
2018,6,28,02:50,UTC,0,1025.7,88,,,14,12,42345,232,1.1,0.8
2018,6,28,03:00,UTC,0,1025.6,85,,,14.6,12.1,41606,231,1.4,0.9
2018,6,28,03:10,UTC,0,1025.5,85,,,15.2,12.6,34519,226,1.6,1.1
2018,6,28,03:20,UTC,0,1025.5,84,,,15.5,12.8,35310,235,1.6,0.8
2018,6,28,03:30,UTC,0,1025.4,84,,,16,13.2,44846,0,0,0
2018,6,28,03:40,UTC,0,1025.2,81,,,16.4,13.2,36832,0,0,0
2018,6,28,03:50,UTC,0,1025.2,78,,,16.6,12.7,36014,316,1.4,0.9
2018,6,28,04:00,UTC,0,1025.2,73,,,16.8,12,36779,280,1.9,1.3
2018,6,28,04:10,UTC,0,1025.2,71,,,17.1,11.7,47010,274,2.1,1.6
2018,6,28,04:20,UTC,0,1025.2,69,,,17.4,11.8,38860,286,2,1.4
2018,6,28,04:30,UTC,0,1025.2,69,,,17.7,11.9,37701,267,2.2,1.4
2018,6,28,04:40,UTC,0,1025,68,,,18.2,12.1,36445,272,1.8,1.1
2018,6,28,04:50,UTC,0,1024.9,66,,,18.4,11.9,33162,273,1.7,1
2018,6,28,05:00,UTC,0,1024.8,64,,,18.8,11.8,36249,271,1.5,0.9
2018,6,28,05:10,UTC,0,1024.7,62,,,19.2,11.8,30576,268,1.6,0.9
2018,6,28,05:20,UTC,0,1024.7,59,,,19.9,11.7,38462,250,1.9,0.8
2018,6,28,05:30,UTC,0,1024.6,57,,,19.7,11.1,42837,210,2.5,1.5
2018,6,28,05:40,UTC,0,1024.6,56,,,20.4,11.5,35643,210,2.6,1.7
2018,6,28,05:50,UTC,0,1024.5,54,,,20.8,11.1,41988,211,3,1.9
2018,6,28,06:00,UTC,0,1024.4,51,,,21.3,10.7,39817,234,4,2.3
2018,6,28,06:10,UTC,0,1024.3,46,,,21.4,9.2,39661,225,4.3,3.2
2018,6,28,06:20,UTC,0,1024.3,47,,,21.7,9.9,39716,251,4.6,2.8
2018,6,28,06:30,UTC,0,1024.3,42,,,21.8,8.5,33618,268,5,3.1
2018,6,28,06:40,UTC,0,1024.2,41,,,22,8.1,40633,281,4.7,3.3
2018,6,28,06:50,UTC,0,1024,43,,,22.2,8.9,35655,268,4,2.5
2018,6,28,07:00,UTC,0,1023.9,41,,,22.6,8.6,36816,269,3.8,2.3
2018,6,28,07:10,UTC,0,1023.8,44,,,22.6,9.8,45544,214,5.3,2.9
2018,6,28,07:20,UTC,0,1023.7,53,,,22.4,12.4,39085,209,5.8,3.7
2018,6,28,07:30,UTC,0,1023.6,54,,,21.7,11.9,29590,185,5.8,4.6
2018,6,28,07:40,UTC,0,1023.5,55,,,21.9,12.4,37136,181,6.1,4.6
2018,6,28,07:50,UTC,0,1023.4,53,,,21.9,11.8,33838,185,6.5,4.6
2018,6,28,08:00,UTC,0,1023.4,51,,,21.6,11.1,33404,182,6.5,4.7
2018,6,28,08:10,UTC,0,1023.3,51,,,22.2,11.6,34679,191,5.7,4.5
2018,6,28,08:20,UTC,0,1023.1,52,,,22.3,12,38163,193,5.9,4.1
2018,6,28,08:30,UTC,0,1023.1,50,,,22.9,11.9,35957,191,5.8,4.1
2018,6,28,08:40,UTC,0,1022.9,51,,,22.8,12,36344,191,5.7,4.3
2018,6,28,08:50,UTC,0,1022.8,50,,,22.5,11.7,30502,194,6.3,5
2018,6,28,09:00,UTC,0,1022.7,50,,,22.2,11.2,33059,188,7.2,5.2
2018,6,28,09:10,UTC,0,1022.6,49,,,22.4,11.1,34793,165,7,5.2
2018,6,28,09:20,UTC,0,1022.4,48,,,22.7,11,38332,180,7.5,5.1
2018,6,28,09:30,UTC,0,1022.5,50,,,22.5,11.5,31368,183,7.7,5.2
2018,6,28,09:40,UTC,0,1022.4,51,,,21.9,11.2,33448,185,7.9,5.5
2018,6,28,09:50,UTC,0,1022.3,49,,,22.1,10.9,33991,171,7,5.2
2018,6,28,10:00,UTC,0,1022.1,42,,,22.8,9.3,40250,186,8.5,5.7
2018,6,28,10:10,UTC,0,1022,42,,,22.9,9.2,30980,191,7.3,5.5
2018,6,28,10:20,UTC,0,1021.8,39,,,23.3,8.6,36653,192,7.8,5.2
2018,6,28,10:30,UTC,0,1021.7,42,,,23.8,10.2,37478,193,7.3,4.7
2018,6,28,10:40,UTC,0,1021.5,39,,,24,9.4,34032,202,8.3,6
2018,6,28,10:50,UTC,0,1021.3,40,,,24.3,9.9,37319,205,8.6,5.7
2018,6,28,11:00,UTC,0,1021.2,43,,,23.2,9.9,38732,180,7.7,5.9
2018,6,28,11:10,UTC,0,1021,47,,,22.6,10.6,30048,184,9.1,6.5
2018,6,28,11:20,UTC,0,1020.9,49,,,22.9,11.6,33344,191,7.7,5.8
2018,6,28,11:30,UTC,0,1020.7,48,,,22.8,11.2,31059,192,7.8,5.6
2018,6,28,11:40,UTC,0,1020.6,48,,,23,11.4,30920,190,7.8,5.7
2018,6,28,11:50,UTC,0,1020.5,46,,,22.8,10.5,41713,178,8,6
2018,6,28,12:00,UTC,0,1020.3,44,,,23.8,10.8,32597,185,9.1,6
2018,6,28,12:10,UTC,0,1020.1,41,,,23.6,9.6,35746,199,8.8,6.3
2018,6,28,12:20,UTC,0,1019.9,40,,,23.7,9.2,35229,201,9.2,6.2
2018,6,28,12:30,UTC,0,1019.8,41,,,23.9,9.9,38968,201,9.4,6
2018,6,28,12:40,UTC,0,1019.6,41,,,24.1,10.1,35357,196,8.9,6.4
2018,6,28,12:50,UTC,0,1019.4,42,,,24,10.4,31797,206,9.7,6.9
2018,6,28,13:00,UTC,0,1019.2,43,,,23.9,10.6,45834,200,9.3,6.8
2018,6,28,13:10,UTC,0,1019,41,,,23.9,9.9,39007,208,9.3,6.7
2018,6,28,13:20,UTC,0,1018.8,41,,,23.9,10,33882,215,8.5,5.8
2018,6,28,13:30,UTC,0,1018.7,42,,,23.8,10,36366,207,8.8,5.8
2018,6,28,13:40,UTC,0,1018.5,42,,,24.1,10.4,35649,201,8.6,5.8
2018,6,28,13:50,UTC,0,1018.3,42,,,23.9,10.1,37680,209,8.8,5.8
2018,6,28,14:00,UTC,0,1018.2,41,,,24,10,37572,211,9.7,5.4
2018,6,28,14:10,UTC,0,1018,41,,,24,10,36105,197,9.1,6.3
2018,6,28,14:20,UTC,0,1018,40,,,23.8,9.3,38468,207,8.7,5.8
2018,6,28,14:30,UTC,0,1017.8,39,,,24.1,9.3,37230,209,8.5,5.7
2018,6,28,14:40,UTC,0,1017.7,38,,,24.1,9,40660,196,9.3,5.8
2018,6,28,14:50,UTC,0,1017.4,40,,,23.7,9.3,35713,192,9.9,7.1
2018,6,28,15:00,UTC,0,1017.3,39,,,23.9,9.1,43001,191,9.6,6.9
2018,6,28,15:10,UTC,0,1017.2,38,,,24.4,9.1,48393,209,9.1,4.8
2018,6,28,15:20,UTC,0,1017,36,,,24.1,8.2,40833,212,8.1,5
2018,6,28,15:30,UTC,0,1016.8,36,,,23.9,7.9,41087,204,9.5,5.5
2018,6,28,15:40,UTC,0,1016.6,37,,,23.6,8.1,35361,202,9.3,5.3
2018,6,28,15:50,UTC,0,1016.6,35,,,23.4,7.1,47872,212,8.9,5.7
2018,6,28,16:00,UTC,0,1016.5,35,,,23.2,6.8,38870,217,10,6
2018,6,28,16:10,UTC,0,1016.2,35,,,23.1,6.9,48237,225,9.7,6.1
2018,6,28,16:20,UTC,0,1016.1,35,,,22.6,6.3,41356,220,10.4,6.2
2018,6,28,16:30,UTC,0,1015.8,34,,,22.7,6.2,48080,219,9.7,6.2
2018,6,28,16:40,UTC,0,1015.7,33,,,22.7,5.8,50000,218,10.3,6.2
2018,6,28,16:50,UTC,0,1015.5,34,,,22.4,5.6,50000,217,10.5,5.4
2018,6,28,17:00,UTC,0,1015.3,34,,,22.4,5.6,38783,217,8.3,5
2018,6,28,17:10,UTC,0,1015.2,35,,,22.1,5.8,44985,217,9.3,5.6
2018,6,28,17:20,UTC,0,1015.1,34,,,21.9,5.4,45898,219,9.9,6.4
2018,6,28,17:30,UTC,0,1014.9,35,,,21.6,5.7,43690,219,8.6,5.7
2018,6,28,17:40,UTC,0,1014.7,36,,,21.7,5.9,45881,219,7.4,4.8
2018,6,28,17:50,UTC,0,1014.6,35,,,21.6,5.4,47661,234,8.4,5.3
2018,6,28,18:00,UTC,0,1014.4,37,,,21.3,6,50000,228,7,3.8
2018,6,28,18:10,UTC,0,1014.3,39,,,21,6.7,50000,219,6.6,3.6
2018,6,28,18:20,UTC,0,1014.1,41,,,20.8,6.9,50000,215,6.7,4.3
2018,6,28,18:30,UTC,0,1014,39,,,20.6,6.1,50000,221,6.7,4.1
2018,6,28,18:40,UTC,0,1013.9,38,,,20.4,5.4,50000,219,6.2,3.7
2018,6,28,18:50,UTC,0,1013.8,38,,,20.3,5.4,50000,217,6.3,3.8
2018,6,28,19:00,UTC,0,1013.5,40,,,20,5.9,50000,205,5.5,3.1
2018,6,28,19:10,UTC,0,1013.4,41,,,20,6.2,50000,206,7.1,3.8
2018,6,28,19:20,UTC,0,1013.3,41,,,19.8,6.1,50000,205,5.9,3.3
2018,6,28,19:30,UTC,0,1013.1,42,,,19.5,6.1,50000,209,6,3.5
2018,6,28,19:40,UTC,0,1012.9,42,,,19.4,6.1,50000,211,4.8,3.1
2018,6,28,19:50,UTC,0,1012.6,43,,,19.2,6.2,50000,207,6.5,3.5
2018,6,28,20:00,UTC,1,1012.6,44,,,18.9,6.5,50000,212,5.5,3.6
2018,6,28,20:10,UTC,3,1012.6,46,,,18.7,6.8,50000,208,4.8,3.3
2018,6,28,20:20,UTC,2,1012.5,46,,,18.6,6.8,50000,218,5.4,3.3
2018,6,28,20:30,UTC,1,1012.4,46,,,18.5,6.7,50000,219,6.6,3.7
2018,6,28,20:40,UTC,0,1012.4,46,,,18.1,6.5,50000,227,5.6,2.9
2018,6,28,20:50,UTC,0,1012.3,48,,,18,6.6,50000,229,6.6,4
2018,6,28,21:00,UTC,4,1012.1,49,,,17.7,7,50000,227,4.9,3.2
2018,6,28,21:10,UTC,6,1012,51,,,17.6,7.2,50000,225,4.8,3
2018,6,28,21:20,UTC,7,1011.7,52,,,17.5,7.4,50000,221,4.8,2.8
2018,6,28,21:30,UTC,7,1011.6,51,,,17.6,7.3,50000,215,5.3,3.3
2018,6,28,21:40,UTC,7,1011.6,50,,,17.8,7.3,50000,225,5.4,3.7
2018,6,28,21:50,UTC,7,1011.6,51,,,17.6,7.3,50000,230,5,2.8
2018,6,28,22:00,UTC,7,1011.2,51,,,17.5,7.4,50000,226,6.6,4.1
2018,6,28,22:10,UTC,7,1010.9,51,,,17.7,7.4,50000,213,6.9,4
2018,6,28,22:20,UTC,7,1010.6,52,,,17.6,7.6,50000,199,6,3.8
2018,6,28,22:30,UTC,7,1010.1,54,,,17.4,8.2,50000,190,6.2,4.2
2018,6,28,22:40,UTC,7,1010.1,57,,,17.2,8.5,50000,189,6.7,3.9
2018,6,28,22:50,UTC,7,1010,57,,,17.1,8.7,50000,210,6.4,3.7
2018,6,28,23:00,UTC,7,1010,60,,,16.9,9.1,50000,221,6.8,4.3
2018,6,28,23:10,UTC,7,1009.7,62,,,16.7,9.4,50000,220,7.1,4.2
2018,6,28,23:20,UTC,7,1009.6,64,,,16.5,9.7,50000,222,5,3
2018,6,28,23:30,UTC,7,1009.4,66,,,16.4,10,50000,219,4.6,3
2018,6,28,23:40,UTC,7,1009.2,68,,,16.3,10.3,50000,232,4.6,2.7
2018,6,28,23:50,UTC,7,1009.1,70,,,16.2,10.6,50000,237,4.6,3
2018,6,29,00:00,UTC,7,1009,71,,,16.1,10.8,50000,244,4.9,2.9
2018,6,29,00:10,UTC,7,1008.8,71,,,16.1,10.9,50000,237,3.8,2.3
2018,6,29,00:20,UTC,7,1008.8,72,,,16,10.9,50000,235,3.4,1.9
2018,6,29,00:30,UTC,7,1008.6,73,,,15.9,11,50000,232,2.7,1.9
2018,6,29,00:40,UTC,7,1008.6,73,,,15.9,11,50000,246,3,2.2
2018,6,29,00:50,UTC,7,1008.7,71,,,16.1,10.9,50000,264,4.2,2.8
2018,6,29,01:00,UTC,7,1008.4,71,,,16.1,10.8,50000,287,4.4,2.6
2018,6,29,01:10,UTC,7,1008.3,71,,,16.1,10.7,50000,281,3.9,2
2018,6,29,01:20,UTC,7,1008.2,70,,,16.1,10.6,50000,287,3.9,2.3
2018,6,29,01:30,UTC,7,1008.3,69,,,16.2,10.6,50000,282,3.3,2.4
2018,6,29,01:40,UTC,7,1007.9,70,,,16.2,10.7,50000,292,4.2,2.8
2018,6,29,01:50,UTC,7,1007.7,70,,,16.2,10.7,50000,290,3.8,2.5
2018,6,29,02:00,UTC,8,1008.3,70,,,16.4,10.9,37768,270,6.6,3.9
2018,6,29,02:10,UTC,8,1007.9,80,,,15.2,11.8,9943,257,5,3
2018,6,29,02:20,UTC,8,1008.1,87,,,14.6,12.5,9857,209,4,2.7
2018,6,29,02:30,UTC,8,1007.8,92,,,14.3,12.9,8530,195,2.8,1.9
2018,6,29,02:40,UTC,8,1007.3,93,,,14.2,13,4887,173,2.3,1.6
2018,6,29,02:50,UTC,8,1007,97,,,13.6,13.1,7568,123,5.3,3.4
2018,6,29,03:00,UTC,7,1007.8,96,,,13.9,13.2,27852,228,5.1,3.8
2018,6,29,03:10,UTC,7,1007.4,95,,,13.9,13.2,41846,242,4.4,2.4
2018,6,29,03:20,UTC,7,1007,95,,,14,13.2,42170,242,4.5,2.6
2018,6,29,03:30,UTC,8,1006.8,95,,,14,13.3,34121,229,2.7,1.5
2018,6,29,03:40,UTC,7,1006.9,96,,,14.1,13.5,27875,205,2.8,2.1
2018,6,29,03:50,UTC,7,1006.8,96,,,14.1,13.5,30533,200,3.1,2.1
2018,6,29,04:00,UTC,7,1006.6,93,,,14.1,13.1,37117,223,5.2,3.5
2018,6,29,04:10,UTC,7,1006.2,93,,,14.2,13.1,37436,221,5.7,3.9
2018,6,29,04:20,UTC,7,1006.1,95,,,14.3,13.4,36548,231,4.1,2.6
2018,6,29,04:30,UTC,7,1005.8,94,,,14.3,13.3,11775,220,4.3,2.9
2018,6,29,04:40,UTC,7,1005.8,95,,,14.3,13.5,27912,223,5.2,3.5
2018,6,29,04:50,UTC,7,1005.7,94,,,14.3,13.4,32062,220,5.3,3.5
2018,6,29,05:00,UTC,7,1005.6,94,,,14.3,13.3,39852,225,5.6,3.6
2018,6,29,05:10,UTC,8,1005.4,91,,,14.3,12.9,26331,257,6.8,4.1
2018,6,29,05:20,UTC,8,1005.5,92,,,14.4,13.1,32441,273,8,4.5
2018,6,29,05:30,UTC,8,1005.4,90,,,14.3,12.7,50000,282,8.5,4.9
2018,6,29,05:40,UTC,7,1005.4,89,,,14.5,12.7,46688,284,7.4,4.9
2018,6,29,05:50,UTC,7,1005.5,89,,,14.6,12.8,46778,287,8.6,5.7
2018,6,29,06:00,UTC,7,1005.3,86,,,14.5,12.2,50000,283,8.1,5.4
2018,6,29,06:10,UTC,8,1005.4,88,,,14.2,12.3,29031,283,9.2,5.8
2018,6,29,06:20,UTC,8,1005.5,86,,,14.7,12.4,38347,299,9.3,5.7
2018,6,29,06:30,UTC,7,1005.5,85,,,14.7,12.2,48514,294,11,5.9
2018,6,29,06:40,UTC,7,1005.6,86,,,14.5,12.1,14192,285,9.4,5
2018,6,29,06:50,UTC,7,1005.7,86,,,14.4,12.1,32456,292,8.1,4.8
2018,6,29,07:00,UTC,7,1005.7,86,,,14.6,12.2,22814,296,7.4,4.9
2018,6,29,07:10,UTC,7,1005.7,89,,,14.2,12.3,11937,289,9,5.6
2018,6,29,07:20,UTC,7,1005.8,91,,,13.9,12.5,9271,292,9.8,5.9
2018,6,29,07:30,UTC,8,1005.9,92,,,13.8,12.6,10959,300,7.5,5.1
2018,6,29,07:40,UTC,8,1005.9,90,,,13.9,12.4,22949,301,9.8,5.9
2018,6,29,07:50,UTC,7,1006,90,,,14.3,12.7,50000,316,8.4,5.1
2018,6,29,08:00,UTC,7,1005.9,85,,,14.3,11.8,36359,302,8.9,5.9
2018,6,29,08:10,UTC,7,1006.1,86,,,14.3,12,19038,323,10.3,6.7
2018,6,29,08:20,UTC,7,1006.2,84,,,13.9,11.2,32086,315,9.4,6.2
2018,6,29,08:30,UTC,7,1006.3,85,,,14.1,11.6,45699,316,10.1,6
2018,6,29,08:40,UTC,7,1006.3,81,,,14.5,11.3,34806,319,12,6.5
2018,6,29,08:50,UTC,7,1006.4,78,,,14.5,10.7,45538,328,10.8,6.4
2018,6,29,09:00,UTC,7,1006.4,76,,,15.1,10.9,50000,331,11.5,7.3
2018,6,29,09:10,UTC,7,1006.5,76,,,15.3,11,37358,325,9.9,6.8
2018,6,29,09:20,UTC,7,1006.6,75,,,15.8,11.4,39935,326,8.9,6.2
2018,6,29,09:30,UTC,7,1006.7,75,,,14.9,10.5,46602,323,8.3,5.7
2018,6,29,09:40,UTC,7,1006.9,80,,,14.4,10.9,15058,320,8.7,6.5
2018,6,29,09:50,UTC,7,1006.9,76,,,16,11.8,48848,329,8.7,5.9
2018,6,29,10:00,UTC,7,1007,72,,,16.3,11.2,42582,324,10.4,6.9
2018,6,29,10:10,UTC,7,1007.1,69,,,15.1,9.5,50000,331,12.3,8.4
2018,6,29,10:20,UTC,8,1007.4,80,,,13.8,10.4,15707,345,9.7,7.3
2018,6,29,10:30,UTC,8,1007.3,76,,,15,10.8,36754,347,8.7,5.9
2018,6,29,10:40,UTC,8,1007.4,77,,,14.6,10.6,43755,349,9.1,6.4
2018,6,29,10:50,UTC,8,1007.5,78,,,14.4,10.7,29001,348,7.1,4.8
2018,6,29,11:00,UTC,8,1007.6,76,,,14.6,10.4,39042,332,9.9,5.9
2018,6,29,11:10,UTC,8,1007.7,77,,,14.1,10,30224,336,11,7.9
2018,6,29,11:20,UTC,7,1007.7,74,,,15,10.4,39915,340,11.7,7.8
2018,6,29,11:30,UTC,5,1007.8,71,,,16.2,11,45417,336,13.3,8.7
2018,6,29,11:40,UTC,6,1008,71,,,15.2,10.1,44136,328,11.8,8.6
2018,6,29,11:50,UTC,6,1008.1,68,,,15.1,9.3,35375,334,14.1,9.3
2018,6,29,12:00,UTC,7,1008.3,67,,,15.6,9.6,47789,335,12.6,8.8
2018,6,29,12:10,UTC,7,1008.6,74,,,13.6,9.1,48719,340,14.2,9.7
2018,6,29,12:20,UTC,7,1008.8,74,,,13.5,8.9,50000,339,13.7,9.7
2018,6,29,12:30,UTC,7,1008.9,71,,,14,8.8,41576,332,12,7.1
2018,6,29,12:40,UTC,7,1009,72,,,13.9,8.9,45485,337,12.2,7.9
2018,6,29,12:50,UTC,7,1009.2,72,,,13.7,8.8,50000,335,11.8,8.4
2018,6,29,13:00,UTC,8,1009.2,72,,,13.5,8.6,49536,338,12.9,9
2018,6,29,13:10,UTC,7,1009.1,70,,,14.5,9.1,44009,343,11.8,7.4
2018,6,29,13:20,UTC,7,1009.1,68,,,14.3,8.4,47862,337,11.6,7.5
2018,6,29,13:30,UTC,7,1009.1,66,,,14.8,8.6,39620,331,12.5,8.5
2018,6,29,13:40,UTC,7,1009.2,68,,,14.2,8.4,43208,320,12.4,8.9
2018,6,29,13:50,UTC,7,1009.3,69,,,14.4,8.8,44549,330,11.1,8.1
2018,6,29,14:00,UTC,7,1009.3,66,,,14.4,8.2,50000,341,10.7,6.7
2018,6,29,14:10,UTC,7,1009.3,67,,,14.1,8,50000,349,10.5,6.9
2018,6,29,14:20,UTC,7,1009.5,69,,,13.9,8.4,48558,346,9.3,6
2018,6,29,14:30,UTC,7,1009.5,70,,,14,8.6,50000,330,8.3,5.8
2018,6,29,14:40,UTC,8,1009.6,80,,,13.1,9.7,49962,311,9.6,5.8
2018,6,29,14:50,UTC,7,1009.8,81,,,12.9,9.6,50000,319,8.9,5.4
2018,6,29,15:00,UTC,7,1009.9,80,,,12.9,9.6,35791,323,8.3,5.7
2018,6,29,15:10,UTC,7,1010,79,,,13.2,9.5,41091,324,8.8,5.7
2018,6,29,15:20,UTC,7,1010.1,69,,,14.1,8.4,45290,338,9.4,5.9
2018,6,29,15:30,UTC,7,1009.9,65,,,14.4,8,49496,339,9.6,6.2
2018,6,29,15:40,UTC,7,1010,65,,,14.3,7.8,45719,342,10.2,6.8
2018,6,29,15:50,UTC,7,1010.1,62,,,14.5,7.4,50000,344,10.3,6.4
2018,6,29,16:00,UTC,8,1010.3,65,,,14.2,7.8,48226,330,10.2,6.8
2018,6,29,16:10,UTC,8,1010.3,64,,,13.9,7.2,50000,330,12.9,8
2018,6,29,16:20,UTC,8,1010.4,64,,,13.7,7.1,50000,332,12.6,8.2
2018,6,29,16:30,UTC,8,1010.5,68,,,13.3,7.5,43129,329,11.8,8.2
2018,6,29,16:40,UTC,8,1010.6,75,,,12.9,8.5,32362,333,10.5,5.7
2018,6,29,16:50,UTC,8,1010.6,71,,,13.3,8.2,48898,328,8.3,5.5
2018,6,29,17:00,UTC,7,1010.6,68,,,13.7,7.8,46980,326,10.2,5.9
2018,6,29,17:10,UTC,7,1010.6,64,,,13.9,7.1,50000,331,12.9,7.4
2018,6,29,17:20,UTC,7,1010.9,64,,,13.8,7.2,45629,338,12.1,7.8
2018,6,29,17:30,UTC,6,1010.9,63,,,13.6,6.8,49140,339,11.7,7
2018,6,29,17:40,UTC,4,1011.1,63,,,13.7,6.7,48235,335,9.6,6.5
2018,6,29,17:50,UTC,2,1011.1,62,,,13.9,6.7,49975,335,8.6,5.5
2018,6,29,18:00,UTC,3,1011.3,63,,,13.6,6.7,48918,330,7.5,5
2018,6,29,18:10,UTC,5,1011.3,61,,,14.1,6.7,49164,335,7.4,5
2018,6,29,18:20,UTC,7,1011.3,60,,,14.1,6.4,46645,333,8.7,5
2018,6,29,18:30,UTC,7,1011.5,59,,,14,6.1,50000,332,9.5,6.2
2018,6,29,18:40,UTC,7,1011.6,59,,,13.9,6.1,48721,331,8.8,6
2018,6,29,18:50,UTC,6,1011.6,59,,,13.7,5.7,50000,332,10.5,6.7
2018,6,29,19:00,UTC,4,1011.8,61,,,13.4,5.9,50000,330,7.4,5.1
2018,6,29,19:10,UTC,2,1011.8,61,,,13,5.8,50000,330,8.3,5.6
2018,6,29,19:20,UTC,4,1011.9,60,,,13.1,5.6,50000,331,10.1,6
2018,6,29,19:30,UTC,5,1012,62,,,12.8,5.6,50000,335,7.8,5.5
2018,6,29,19:40,UTC,5,1012.1,63,,,12.5,5.7,50000,331,7.3,4.8
2018,6,29,19:50,UTC,3,1012.2,65,,,12.2,5.8,50000,329,6.1,4.4
2018,6,29,20:00,UTC,3,1012.3,65,,,12.2,5.8,50000,326,7.4,4.6
2018,6,29,20:10,UTC,1,1012.4,66,,,12,5.8,50000,328,6.6,4.4
2018,6,29,20:20,UTC,1,1012.4,66,,,11.8,5.6,50000,329,6.6,4.7
2018,6,29,20:30,UTC,1,1012.4,67,,,11.4,5.5,50000,327,5.8,3.9
2018,6,29,20:40,UTC,4,1012.4,66,,,11.5,5.4,50000,323,5.9,4.1
2018,6,29,20:50,UTC,2,1012.5,67,,,11.4,5.3,50000,322,6.2,3.8
2018,6,29,21:00,UTC,5,1012.6,66,,,11.5,5.4,50000,323,5.5,3.8
2018,6,29,21:10,UTC,6,1012.6,66,,,11.4,5.3,50000,319,4.5,3.1
2018,6,29,21:20,UTC,7,1012.7,65,,,11.5,5.2,50000,318,5.5,3.5
2018,6,29,21:30,UTC,4,1012.7,66,,,11.3,5,50000,325,6.2,4
2018,6,29,21:40,UTC,2,1012.8,64,,,11.4,4.9,50000,325,6.4,4
2018,6,29,21:50,UTC,1,1012.8,65,,,11.3,4.9,50000,321,6.4,4
2018,6,29,22:00,UTC,0,1012.9,65,,,11.2,4.8,50000,324,6.7,4.8
2018,6,29,22:10,UTC,0,1013,67,,,10.8,4.9,50000,320,5.5,3.5
2018,6,29,22:20,UTC,0,1013.1,68,,,10.7,5,50000,312,5.2,3
2018,6,29,22:30,UTC,0,1013.1,69,,,10.7,5.1,50000,313,5.8,3.6
2018,6,29,22:40,UTC,0,1013.2,70,,,10.3,5.2,50000,313,5.7,3.2
2018,6,29,22:50,UTC,0,1013.2,72,,,10,5.2,50000,311,4.5,2.9
2018,6,29,23:00,UTC,0,1013.1,73,,,10,5.4,50000,313,4.8,3.2
2018,6,29,23:10,UTC,0,1013.1,74,,,9.9,5.4,50000,316,5,3.4
2018,6,29,23:20,UTC,0,1013.1,75,,,9.8,5.5,50000,313,4.8,3
2018,6,29,23:30,UTC,0,1013.1,75,,,9.6,5.5,50000,301,3.9,2.5
2018,6,29,23:40,UTC,0,1013.1,75,,,9.7,5.5,50000,307,5.8,3.2
2018,6,29,23:50,UTC,0,1013.1,74,,,9.6,5.2,50000,312,6.3,4
2018,6,30,00:00,UTC,0,1013.2,72,,,9.8,4.9,50000,313,6.2,4
2018,6,30,00:10,UTC,0,1013.3,71,,,9.8,4.7,50000,317,6.7,4.4
2018,6,30,00:20,UTC,0,1013.3,71,,,9.6,4.5,50000,322,6.5,4.4
2018,6,30,00:30,UTC,0,1013.4,72,,,9.3,4.5,50000,327,6.1,3.9
2018,6,30,00:40,UTC,0,1013.4,71,,,9.4,4.5,50000,322,5.2,3.4
2018,6,30,00:50,UTC,0,1013.4,71,,,9.4,4.4,50000,325,6.3,3.6
2018,6,30,01:00,UTC,0,1013.4,71,,,9.3,4.3,50000,324,5.9,3.9
2018,6,30,01:10,UTC,0,1013.5,71,,,9.3,4.3,50000,321,5.7,4
2018,6,30,01:20,UTC,0,1013.5,72,,,9.1,4.3,50000,321,5.3,3.8
2018,6,30,01:30,UTC,0,1013.4,72,,,9.1,4.3,50000,319,5.4,3.6
2018,6,30,01:40,UTC,0,1013.4,73,,,9,4.3,50000,319,5.1,3.4
2018,6,30,01:50,UTC,0,1013.4,73,,,9,4.3,50000,318,5.1,3.5
2018,6,30,02:00,UTC,0,1013.4,72,,,9.3,4.4,50000,324,5.7,3.7
2018,6,30,02:10,UTC,0,1013.5,72,,,9.2,4.4,50000,328,6.1,4
2018,6,30,02:20,UTC,0,1013.5,72,,,9.4,4.5,50000,323,5.7,3.8
2018,6,30,02:30,UTC,0,1013.6,72,,,9.4,4.6,50000,317,6.2,3.6
2018,6,30,02:40,UTC,0,1013.6,72,,,9.5,4.7,50000,326,4.7,3.1
2018,6,30,02:50,UTC,0,1013.6,71,,,9.8,4.8,50000,330,5.9,4.3
2018,6,30,03:00,UTC,0,1013.6,70,,,10.1,4.8,47335,331,7.7,5.2
2018,6,30,03:10,UTC,0,1013.7,70,,,10.2,5,50000,334,7.2,4.9
2018,6,30,03:20,UTC,0,1013.8,69,,,10.4,4.9,50000,330,7.9,5.4
2018,6,30,03:30,UTC,0,1013.9,69,,,10.7,5.1,42394,330,7.2,5
2018,6,30,03:40,UTC,0,1013.9,68,,,11,5.3,48241,330,7.6,4.8
2018,6,30,03:50,UTC,1,1013.9,67,,,11,5.2,42366,331,9.2,6.2
2018,6,30,04:00,UTC,1,1014,68,,,11.1,5.4,43341,332,9.2,5.8
2018,6,30,04:10,UTC,1,1014.1,67,,,11.3,5.4,45305,335,8.3,5.7
2018,6,30,04:20,UTC,1,1014.1,66,,,11.6,5.5,38587,328,9,6.1
2018,6,30,04:30,UTC,0,1014,65,,,12,5.8,45138,332,9.2,5.1
2018,6,30,04:40,UTC,0,1014.1,65,,,12.3,5.8,44331,334,6.9,4.9
2018,6,30,04:50,UTC,0,1014.1,63,,,12.6,5.8,39976,336,8.1,5.8
2018,6,30,05:00,UTC,0,1014.2,60,,,12.8,5.3,39620,341,9.8,6
2018,6,30,05:10,UTC,0,1014.2,59,,,13.4,5.6,40539,345,9,5.2
2018,6,30,05:20,UTC,0,1014.2,58,,,13.5,5.3,37988,343,9.5,6.2
2018,6,30,05:30,UTC,0,1014.4,57,,,13.4,5.2,47504,342,10.3,6.7
2018,6,30,05:40,UTC,0,1014.4,58,,,13.4,5.2,44257,351,9.7,6.3
2018,6,30,05:50,UTC,0,1014.4,57,,,13.7,5.3,49143,355,11.7,5.9
2018,6,30,06:00,UTC,0,1014.5,56,,,13.9,5.4,47764,341,10.7,6.7
2018,6,30,06:10,UTC,0,1014.5,56,,,14.3,5.6,42152,339,10.7,6.4
2018,6,30,06:20,UTC,0,1014.6,55,,,14.2,5.4,41430,341,11.9,8
2018,6,30,06:30,UTC,1,1014.7,56,,,14.6,5.8,42579,341,10.2,6.9
2018,6,30,06:40,UTC,1,1014.7,55,,,14.8,5.8,38442,341,9.9,6.4
2018,6,30,06:50,UTC,3,1014.8,54,,,14.4,5.1,40710,341,10.2,6.3
2018,6,30,07:00,UTC,4,1014.6,52,,,15.5,5.7,40843,342,9.9,7
2018,6,30,07:10,UTC,6,1014.7,51,,,14.7,4.7,47769,340,10.5,6.9
2018,6,30,07:20,UTC,6,1014.8,51,,,15.2,5.1,37485,352,9.7,5.8
2018,6,30,07:30,UTC,7,1014.8,48,,,15.9,5,45054,342,12.2,6.9
2018,6,30,07:40,UTC,5,1014.9,49,,,15.6,5,46775,351,11.1,7.1
2018,6,30,07:50,UTC,5,1015.1,51,,,14.7,4.7,43584,3,9.8,5.4
2018,6,30,08:00,UTC,4,1015,47,,,15.9,4.7,37600,348,10.7,6.8
2018,6,30,08:10,UTC,6,1015.1,49,,,14.8,4.2,46933,345,12.7,8.1
2018,6,30,08:20,UTC,6,1015.1,49,,,16.3,5.4,45019,341,11.1,7.4
2018,6,30,08:30,UTC,5,1015.3,47,,,15.2,4,40826,347,11.1,6.9
2018,6,30,08:40,UTC,4,1015.2,46,,,16.3,4.5,38918,347,12,8.1
2018,6,30,08:50,UTC,3,1015.3,46,,,16.1,4.5,36785,345,11.6,8
2018,6,30,09:00,UTC,5,1015.5,49,,,14.7,4.1,34782,344,13.1,8
2018,6,30,09:10,UTC,3,1015.5,48,,,15,4.2,47305,351,9.2,6.1
2018,6,30,09:20,UTC,5,1015.4,49,,,16.1,5.2,47268,352,10,5.4
2018,6,30,09:30,UTC,4,1015.4,45,,,16.1,4,47844,350,11.5,6.4
2018,6,30,09:40,UTC,6,1015.5,46,,,15.5,3.9,47645,354,11.1,6.3
2018,6,30,09:50,UTC,7,1015.7,46,,,15.5,3.9,46686,359,9.8,5.5
2018,6,30,10:00,UTC,8,1015.7,45,,,15.3,3.3,45060,360,10,5.3
2018,6,30,10:10,UTC,8,1015.7,44,,,15.6,3.3,46392,7,7.2,3.8
2018,6,30,10:20,UTC,7,1015.7,41,,,16.3,2.9,42080,357,10.2,5.5
2018,6,30,10:30,UTC,7,1015.7,41,,,16.8,3.5,45002,359,7.7,4.8
2018,6,30,10:40,UTC,7,1015.9,43,,,15.6,3,43088,351,11.2,6.1
2018,6,30,10:50,UTC,6,1016,41,,,16.6,3.4,45760,350,12.7,7.9
2018,6,30,11:00,UTC,7,1016.2,43,,,15.5,2.9,50000,4,10.4,5.6
2018,6,30,11:10,UTC,7,1016.1,43,,,15.5,2.9,46127,2,9.3,4.9
2018,6,30,11:20,UTC,5,1016,42,,,17.7,4.5,36176,2,7.7,4.2
2018,6,30,11:30,UTC,5,1016,40,,,16.6,2.9,50000,342,13.4,7.9
2018,6,30,11:40,UTC,4,1016,39,,,16.9,2.9,42666,352,12.5,7.2
2018,6,30,11:50,UTC,4,1016.3,37,,,16.9,2.2,33138,7,9.6,5.7
2018,6,30,12:00,UTC,3,1016.3,38,,,16.3,2,38523,14,9.3,5.2
2018,6,30,12:10,UTC,5,1016.2,38,,,17.5,3,44361,10,11.8,5.1
2018,6,30,12:20,UTC,6,1016.3,38,,,16.5,2.2,43647,9,9,4.8
2018,6,30,12:30,UTC,7,1016.2,40,,,16.8,3.1,43900,4,8.4,4.1
2018,6,30,12:40,UTC,7,1016.4,44,,,16.4,4.1,43203,46,8.3,3.7
2018,6,30,12:50,UTC,7,1016.6,47,,,15.9,4.5,38755,61,6.6,3.8
2018,6,30,13:00,UTC,7,1016.6,46,,,16,4.4,40245,43,6.5,3
2018,6,30,13:10,UTC,7,1016.5,45,,,16.4,4.3,45108,37,7,3.3
2018,6,30,13:20,UTC,7,1016.5,41,,,16.1,3,49475,7,7.1,3.8
2018,6,30,13:30,UTC,7,1016.6,41,,,17.1,3.8,42756,15,8.8,4.4
2018,6,30,13:40,UTC,7,1016.7,45,,,16.7,4.7,35718,19,8.9,4.6
2018,6,30,13:50,UTC,7,1016.8,43,,,16.5,4,38315,360,9.7,5
2018,6,30,14:00,UTC,7,1016.8,42,,,16.3,3.4,38415,11,9.5,5.1
2018,6,30,14:10,UTC,7,1016.9,45,,,16.3,4.3,45021,12,6.2,3
2018,6,30,14:20,UTC,8,1017.1,45,,,15.9,4,50000,39,7.8,3.3
2018,6,30,14:30,UTC,6,1017.2,47,,,16.1,4.7,44668,32,9,4
2018,6,30,14:40,UTC,7,1017.2,50,,,15.8,5.5,49258,44,8.5,3.6
2018,6,30,14:50,UTC,7,1017.3,46,,,16.2,4.5,39354,21,8.8,4.8
2018,6,30,15:00,UTC,7,1017.3,45,,,16,4.2,38943,15,9.1,4.7
2018,6,30,15:10,UTC,4,1017.4,47,,,16.2,4.9,44250,6,9,4.8
2018,6,30,15:20,UTC,2,1017.3,48,,,16.3,5.3,48303,5,10.5,5.2
2018,6,30,15:30,UTC,1,1017.4,45,,,16.4,4.4,37529,10,8.9,4.8
2018,6,30,15:40,UTC,4,1017.5,45,,,15.6,3.6,50000,1,9.7,6.7
2018,6,30,15:50,UTC,6,1017.5,47,,,15.3,4.1,48925,3,6.7,3.9
2018,6,30,16:00,UTC,5,1017.6,48,,,15.5,4.4,50000,4,9.4,4.2
2018,6,30,16:10,UTC,2,1017.6,46,,,16.4,4.9,48494,6,8.8,3.5
2018,6,30,16:20,UTC,3,1017.8,47,,,16,4.6,31697,8,10.4,4.4
2018,6,30,16:30,UTC,5,1017.8,58,,,14.6,6.5,29955,31,6.6,3
2018,6,30,16:40,UTC,5,1017.9,53,,,15.2,5.8,48375,33,6.1,2.2
2018,6,30,16:50,UTC,6,1018,52,,,15.4,5.5,46388,30,6.1,2.7
2018,6,30,17:00,UTC,6,1018.1,51,,,15.7,5.7,50000,13,6.1,2.9
2018,6,30,17:10,UTC,7,1018.2,50,,,15.5,5,38696,7,8.8,4.9
2018,6,30,17:20,UTC,7,1018.3,52,,,15.1,5.2,41208,3,7.6,4.4
2018,6,30,17:30,UTC,7,1018.5,51,,,15,5,46504,8,10.1,4.4
2018,6,30,17:40,UTC,8,1018.6,52,,,14.7,4.8,50000,10,8.4,5
2018,6,30,17:50,UTC,7,1018.7,54,,,14.3,5.1,49545,7,9.9,5.3
2018,6,30,18:00,UTC,7,1018.7,53,,,14.4,4.9,50000,10,7.6,3.3
2018,6,30,18:10,UTC,7,1018.7,56,,,14.2,5.6,42269,4,6.7,3.6
2018,6,30,18:20,UTC,7,1018.9,56,,,14,5.4,50000,1,5.8,3.4
2018,6,30,18:30,UTC,8,1018.9,56,,,14.1,5.3,50000,1,5.7,3.6
2018,6,30,18:40,UTC,7,1019.1,56,,,14,5.4,50000,8,4.7,2.6
2018,6,30,18:50,UTC,7,1019.1,56,,,13.9,5.4,50000,12,7.5,3.3
2018,6,30,19:00,UTC,7,1019.3,59,,,13.6,5.8,48767,1,7.7,3.8
2018,6,30,19:10,UTC,7,1019.3,60,,,13.5,5.9,50000,359,7,4.2
2018,6,30,19:20,UTC,7,1019.4,59,,,13.5,5.7,50000,5,6.8,3.6
2018,6,30,19:30,UTC,5,1019.5,60,,,13.3,5.6,50000,360,7.3,4.3
2018,6,30,19:40,UTC,3,1019.6,61,,,13.1,5.7,50000,1,5.8,3.4
2018,6,30,19:50,UTC,1,1019.7,61,,,12.9,5.6,50000,360,6.6,3.7
2018,6,30,20:00,UTC,0,1019.7,61,,,12.8,5.5,50000,1,5.6,3.7
2018,6,30,20:10,UTC,0,1019.8,61,,,12.6,5.3,50000,359,6.6,3.8
2018,6,30,20:20,UTC,0,1019.8,62,,,12.4,5.2,50000,2,5.6,3.4
2018,6,30,20:30,UTC,0,1019.9,62,,,12.2,5.2,50000,1,5.5,3.4
2018,6,30,20:40,UTC,0,1019.9,62,,,12.1,5.2,50000,2,5.6,3.3
2018,6,30,20:50,UTC,0,1020,63,,,12,5.2,50000,2,5.1,2.9
2018,6,30,21:00,UTC,0,1020,63,,,12,5.2,50000,2,5.2,3.2
2018,6,30,21:10,UTC,0,1020.1,65,,,11.6,5.2,50000,1,4.7,2.7
2018,6,30,21:20,UTC,0,1020,66,,,11.4,5.3,50000,356,5,3
2018,6,30,21:30,UTC,0,1020,68,,,11.1,5.3,50000,356,4.5,3
2018,6,30,21:40,UTC,0,1020.1,69,,,10.9,5.5,50000,358,3.9,2.8
2018,6,30,21:50,UTC,0,1020.2,71,,,10.6,5.5,50000,356,3.8,2.7
2018,6,30,22:00,UTC,0,1020.2,74,,,9.9,5.5,50000,352,4.1,2.9
2018,6,30,22:10,UTC,0,1020.2,77,,,9.8,5.9,50000,349,4.5,3.4
2018,6,30,22:20,UTC,0,1020.2,77,,,9.9,6,50000,349,4.8,3.5
2018,6,30,22:30,UTC,0,1020.3,74,,,10.4,6.1,50000,352,5.4,3.8
2018,6,30,22:40,UTC,0,1020.3,72,,,10.7,5.9,50000,357,6.3,3.7
2018,6,30,22:50,UTC,0,1020.3,72,,,10.8,5.8,50000,358,6.6,3.8
2018,6,30,23:00,UTC,0,1020.4,70,,,10.8,5.6,50000,359,8.1,4.3
2018,6,30,23:10,UTC,0,1020.5,69,,,11,5.5,50000,360,6.7,3.8
2018,6,30,23:20,UTC,0,1020.5,69,,,10.9,5.5,50000,358,6.6,4
2018,6,30,23:30,UTC,0,1020.5,70,,,10.8,5.5,50000,359,6.8,4
2018,6,30,23:40,UTC,0,1020.7,71,,,10.6,5.6,50000,360,5.5,3.4
2018,6,30,23:50,UTC,0,1020.7,72,,,10.4,5.6,50000,1,4.7,2.9
2018,7,1,00:00,UTC,0,1020.8,73,,,10.3,5.6,50000,357,5.4,3.3