Year,m,d,Time,Time zone,Cloud amount (1/8),Pressure (msl) (hPa),Relative humidity (%),Precipitation intensity (mm/h),Snow depth (cm),Air temperature (degC),Dew-point temperature (degC),Horizontal visibility (m),Wind direction (deg),Gust speed (m/s),Wind speed (m/s)
2018,8,1,00:00,UTC,0,1022.8,91,,,20,18.4,28794,85,2.2,1.5
2018,8,1,00:10,UTC,0,1022.8,90,,,20,18.3,31405,95,2.6,1.9
2018,8,1,00:20,UTC,0,1022.8,91,,,19.9,18.4,30549,98,2.6,2.1
2018,8,1,00:30,UTC,0,1022.8,92,,,20.1,18.6,29723,89,2.2,1.5
2018,8,1,00:40,UTC,0,1022.7,91,,,20.1,18.6,29794,81,2.7,1.8
2018,8,1,00:50,UTC,0,1022.8,91,,,20.2,18.7,24954,88,2.4,1.6
2018,8,1,01:00,UTC,0,1022.8,94,,,19.3,18.3,7026,94,2.2,1.2
2018,8,1,01:10,UTC,0,1022.7,94,,,19.8,18.7,19705,96,2.3,1.3
2018,8,1,01:20,UTC,0,1022.7,94,,,19.6,18.7,22892,98,2.7,1.8
2018,8,1,01:30,UTC,0,1022.6,95,,,19.1,18.3,21377,90,2.5,1.9
2018,8,1,01:40,UTC,0,1022.6,95,,,19.5,18.6,20558,95,2.7,1.9
2018,8,1,01:50,UTC,0,1022.7,95,,,19.3,18.5,19635,103,3.1,2.6
2018,8,1,02:00,UTC,0,1022.7,96,,,19.5,18.8,21929,99,3.1,2.7
2018,8,1,02:10,UTC,0,1022.7,95,,,19.7,18.9,19493,95,3,2.2
2018,8,1,02:20,UTC,0,1022.8,95,,,19.6,18.8,18204,82,2.1,1.2
2018,8,1,02:30,UTC,0,1022.8,96,,,19.6,19,18845,91,1.6,0.9
2018,8,1,02:40,UTC,0,1022.8,97,,,19.5,19,13376,67,1.2,0.8
2018,8,1,02:50,UTC,0,1022.8,96,,,19.8,19.2,17531,81,1.7,0.9
2018,8,1,03:00,UTC,0,1023,95,,,19.8,19,20130,99,1.3,0.6
2018,8,1,03:10,UTC,1,1022.9,96,,,20,19.3,16250,61,1.1,0.7
2018,8,1,03:20,UTC,0,1022.9,92,,,20.5,19.2,22043,96,1.5,1.2
2018,8,1,03:30,UTC,0,1022.8,89,,,21.1,19.1,21362,103,1.5,1.1
2018,8,1,03:40,UTC,0,1022.9,87,,,21.4,19.1,24499,109,1.6,1.2
2018,8,1,03:50,UTC,0,1022.9,84,,,21.6,18.9,28846,106,2.1,1.4
2018,8,1,04:00,UTC,0,1022.9,82,,,22,18.7,26014,116,2.2,1.5
2018,8,1,04:10,UTC,0,1022.9,81,,,22.1,18.6,29785,116,2.3,1.5
2018,8,1,04:20,UTC,0,1023,78,,,22.4,18.4,37727,118,2.3,1.5
2018,8,1,04:30,UTC,0,1023,77,,,22.5,18.2,32978,113,2.4,1.8
2018,8,1,04:40,UTC,0,1023,76,,,22.7,18.3,30601,109,2.6,1.7
2018,8,1,04:50,UTC,0,1023,75,,,22.9,18.3,30297,108,2.2,1.6
2018,8,1,05:00,UTC,0,1023,73,,,23.2,18.1,27759,99,2.2,1.5
2018,8,1,05:10,UTC,3,1022.9,73,,,23.6,18.4,29649,99,2.2,1.3
2018,8,1,05:20,UTC,2,1023.1,71,,,23.7,18.2,31144,85,2,1.3
2018,8,1,05:30,UTC,4,1023.1,70,,,24.5,18.6,32033,89,2,0.9
2018,8,1,05:40,UTC,1,1022.9,71,,,24.2,18.6,28127,110,2.1,1.3
2018,8,1,05:50,UTC,1,1022.9,71,,,24.2,18.5,27695,,,
2018,8,1,06:00,UTC,0,1022.9,68,,,24.6,18.2,32388,135,2.3,1.3
2018,8,1,06:10,UTC,0,1022.9,68,,,24.9,18.5,31720,114,2.3,1.2
2018,8,1,06:20,UTC,0,1023,67,,,25,18.4,27201,99,2.2,1.3
2018,8,1,06:30,UTC,0,1022.9,66,,,25.4,18.7,31506,102,2.6,1.6
2018,8,1,06:40,UTC,0,1023,66,,,25.6,18.7,27388,99,3,1.6
2018,8,1,06:50,UTC,0,1023,65,,,25.7,18.5,32077,97,3,2.1
2018,8,1,07:00,UTC,0,1023,65,,,26,18.9,26579,83,3.5,1.8
2018,8,1,07:10,UTC,0,1022.9,64,,,26,18.7,33343,98,3.5,2.2
2018,8,1,07:20,UTC,0,1022.9,63,,,26.4,18.6,25411,107,3.7,2.5
2018,8,1,07:30,UTC,0,1022.9,63,,,26.6,18.9,30098,105,4.1,2.6
2018,8,1,07:40,UTC,0,1022.9,61,,,26.7,18.6,30057,104,3.6,2.7
2018,8,1,07:50,UTC,0,1022.9,62,,,26.4,18.6,36779,104,4.3,2.9
2018,8,1,08:00,UTC,0,1022.9,61,,,26.5,18.5,28367,102,4.3,2.7
2018,8,1,08:10,UTC,0,1022.9,61,,,26.7,18.6,30279,94,4.5,3.1
2018,8,1,08:20,UTC,0,1023,59,,,26.8,18.1,31405,114,5.3,3.1
2018,8,1,08:30,UTC,0,1023.1,57,,,27.5,18.3,29240,111,4.2,2.6
2018,8,1,08:40,UTC,0,1023.2,56,,,27.3,17.9,32045,130,5.4,3.2
2018,8,1,08:50,UTC,0,1023.2,57,,,27.5,18.2,30431,127,5.3,3.5
2018,8,1,09:00,UTC,0,1023.2,56,,,27.5,18.1,29206,118,5.5,3.6
2018,8,1,09:10,UTC,0,1023.2,56,,,27.3,17.8,26227,138,5.7,4.2
2018,8,1,09:20,UTC,0,1023.2,57,,,27.5,18.2,25921,128,5.8,4
2018,8,1,09:30,UTC,0,1023.2,60,,,27.1,18.6,29703,117,5.5,4.1
2018,8,1,09:40,UTC,0,1023.2,57,,,27.4,18.1,25105,122,5.8,4
2018,8,1,09:50,UTC,0,1023.3,58,,,26.8,17.8,30468,134,7.3,4.6
2018,8,1,10:00,UTC,0,1023.4,59,,,26.6,18,28402,142,6.5,4.4
2018,8,1,10:10,UTC,0,1023.4,59,,,26.8,18.1,29210,143,5.3,4
2018,8,1,10:20,UTC,0,1023.4,60,,,26.7,18.3,34044,156,5.8,3.8
2018,8,1,10:30,UTC,0,1023.4,59,,,26.9,18.2,27061,124,5.9,3.9
2018,8,1,10:40,UTC,0,1023.4,59,,,26.6,17.9,24926,135,5.4,3.7
2018,8,1,10:50,UTC,0,1023.3,59,,,26.8,18.2,24470,143,5.4,3.4
2018,8,1,11:00,UTC,0,1023.3,57,,,27.3,18.1,26393,156,6.2,3.9
2018,8,1,11:10,UTC,0,1023.2,55,,,27.7,17.9,26060,151,5.4,4
2018,8,1,11:20,UTC,0,1023.2,56,,,27.4,17.8,26033,153,5.6,4.2
2018,8,1,11:30,UTC,0,1023.1,56,,,27.6,18,24265,146,5.7,4
2018,8,1,11:40,UTC,0,1023,56,,,27.7,18.2,25600,141,6.2,4.3
2018,8,1,11:50,UTC,0,1023,57,,,27.4,18.2,23207,142,5.4,3.7
2018,8,1,12:00,UTC,0,1023,56,,,27.6,18.1,26465,159,6,3.7
2018,8,1,12:10,UTC,0,1023,58,,,27.5,18.5,23157,157,5.2,3.4
2018,8,1,12:20,UTC,0,1022.9,57,,,28.2,18.9,19992,151,4.9,3.3
2018,8,1,12:30,UTC,0,1022.8,57,,,28.3,19,23152,162,5.6,3.3
2018,8,1,12:40,UTC,0,1022.9,57,,,28.2,19,23863,160,4.9,3.1
2018,8,1,12:50,UTC,0,1022.8,57,,,27.9,18.6,30636,159,4.9,3.1
2018,8,1,13:00,UTC,0,1022.7,57,,,28,18.8,29058,157,4.9,3.1
2018,8,1,13:10,UTC,0,1022.6,58,,,27.8,18.9,27250,138,5.1,3.7
2018,8,1,13:20,UTC,0,1022.7,59,,,28.1,19.3,24846,137,5.4,3.5
2018,8,1,13:30,UTC,0,1022.6,60,,,27.7,19.3,22899,149,5.6,4.2
2018,8,1,13:40,UTC,0,1022.6,62,,,27.1,19.3,29691,137,5.8,4.5
2018,8,1,13:50,UTC,0,1022.6,61,,,27.1,19,29199,152,5.2,3.9
2018,8,1,14:00,UTC,0,1022.6,62,,,27,19.2,28875,150,5.8,3.8
2018,8,1,14:10,UTC,0,1022.6,62,,,26.9,19,29218,155,4.9,3.4
2018,8,1,14:20,UTC,0,1022.5,60,,,27.1,18.8,30860,153,4.6,3.5
2018,8,1,14:30,UTC,0,1022.6,60,,,27.1,18.7,26815,156,5.1,3.7
2018,8,1,14:40,UTC,0,1022.6,60,,,27,18.7,23898,153,4.8,3.7
2018,8,1,14:50,UTC,0,1022.6,62,,,26.9,18.9,26177,145,4.8,3.5
2018,8,1,15:00,UTC,0,1022.5,62,,,26.7,18.8,29455,149,5.1,3.7
2018,8,1,15:10,UTC,0,1022.5,62,,,26.8,18.9,29442,147,4.9,3.4
2018,8,1,15:20,UTC,0,1022.5,62,,,26.7,18.8,32482,136,5.1,3.4
2018,8,1,15:30,UTC,0,1022.5,63,,,26.7,19.2,25774,140,5.4,3.5
2018,8,1,15:40,UTC,0,1022.5,64,,,26.6,19.1,29758,150,5.2,3.8
2018,8,1,15:50,UTC,0,1022.4,64,,,26.5,19.1,28654,142,5.7,3.6
2018,8,1,16:00,UTC,0,1022.3,63,,,26.6,19.1,27398,129,4.4,3.1
2018,8,1,16:10,UTC,0,1022.2,61,,,27.1,18.9,26937,173,4.4,2.5
2018,8,1,16:20,UTC,0,1022.2,61,,,27.2,19,29096,176,2.6,1.6
2018,8,1,16:30,UTC,0,1022.2,61,,,27.1,18.9,31266,216,3.2,2.3
2018,8,1,16:40,UTC,0,1022.3,61,,,26.9,18.8,27325,201,3.1,2.1
2018,8,1,16:50,UTC,0,1022.3,61,,,26.9,18.9,34128,218,3.2,2.1
2018,8,1,17:00,UTC,0,1022.2,60,,,26.9,18.5,27153,181,3.5,2.2
2018,8,1,17:10,UTC,0,1022.3,61,,,26.9,18.7,29167,173,3.6,2.4
2018,8,1,17:20,UTC,0,1022.2,62,,,26.7,18.8,27156,179,2.5,1.8
2018,8,1,17:30,UTC,0,1022.2,63,,,26.6,19.1,29588,174,3.3,2.1
2018,8,1,17:40,UTC,0,1022.2,65,,,26.4,19.3,26588,150,3.4,2.5
2018,8,1,17:50,UTC,0,1022.2,68,,,25.7,19.3,28083,131,3.7,2.9
2018,8,1,18:00,UTC,0,1022.2,68,,,25.5,19.3,34565,137,3.2,2.5
2018,8,1,18:10,UTC,0,1022.3,70,,,25.2,19.2,30446,140,3.5,2.6
2018,8,1,18:20,UTC,0,1022.3,71,,,24.8,19.2,30854,129,3,2.1
2018,8,1,18:30,UTC,0,1022.3,72,,,24.5,19,29955,134,2.9,2.1
2018,8,1,18:40,UTC,0,1022.4,74,,,23.9,19,29886,126,2.6,1.9
2018,8,1,18:50,UTC,0,1022.4,72,,,24.3,19,30665,142,3,2
2018,8,1,19:00,UTC,0,1022.4,72,,,24.2,18.9,32197,149,3.1,2.2
2018,8,1,19:10,UTC,0,1022.5,75,,,23.5,18.8,26704,145,2.1,1.5
2018,8,1,19:20,UTC,0,1022.6,78,,,23.1,19,25526,153,1.6,0.7
2018,8,1,19:30,UTC,0,1022.6,81,,,22.3,18.9,21978,127,2.1,1.2
2018,8,1,19:40,UTC,0,1022.7,82,,,22,18.8,17994,170,1.5,1
2018,8,1,19:50,UTC,0,1022.8,83,,,21.8,18.8,4539,163,1.4,0.6
2018,8,1,20:00,UTC,0,1022.8,83,,,21.9,19,5710,160,1.2,0.5
2018,8,1,20:10,UTC,0,1022.9,85,,,21.6,19,8892,119,1.1,0.8
2018,8,1,20:20,UTC,0,1022.8,88,,,20.8,18.8,1701,0,0,0
2018,8,1,20:30,UTC,0,1022.8,87,,,20.8,18.6,6968,0,0,0
2018,8,1,20:40,UTC,0,1022.8,90,,,20.7,19,22900,0,0,0
2018,8,1,20:50,UTC,0,1022.8,89,,,20.2,18.3,20669,0,0,0
2018,8,1,21:00,UTC,0,1022.8,94,,,20,19,18908,0,0,0
2018,8,1,21:10,UTC,0,1022.9,93,,,20,18.8,19723,0,0,0
2018,8,1,21:20,UTC,0,1022.8,95,,,19.6,18.7,16026,0,0,0
2018,8,1,21:30,UTC,0,1022.8,95,,,19.3,18.5,17537,0,0,0
2018,8,1,21:40,UTC,0,1022.8,96,,,19.1,18.4,15863,96,0.8,0.5
2018,8,1,21:50,UTC,0,1022.8,97,,,19.2,18.7,16036,111,0.8,0.6
2018,8,1,22:00,UTC,0,1022.7,96,,,19.1,18.4,19733,0,0,0
2018,8,1,22:10,UTC,0,1022.7,97,,,18.9,18.5,15821,0,0,0
2018,8,1,22:20,UTC,0,1022.6,98,,,19,18.7,13583,0,0,0
2018,8,1,22:30,UTC,0,1022.6,99,,,18.9,18.7,1895,0,0,0
2018,8,1,22:40,UTC,0,1022.7,98,,,18.4,18.2,5952,0,0,0
2018,8,1,22:50,UTC,0,1022.7,98,,,18.5,18.2,11807,0,0,0
2018,8,1,23:00,UTC,0,1022.7,98,,,18.3,18,6220,0,0,0
2018,8,1,23:10,UTC,0,1022.7,99,,,18.7,18.6,515,0,0,0
2018,8,1,23:20,UTC,0,1022.7,100,,,18.3,18.2,286,0,0,0
2018,8,1,23:30,UTC,0,1022.6,99,,,17.8,17.7,292,0,0,0
2018,8,1,23:40,UTC,0,1022.6,98,,,18,17.8,15252,0,0,0
2018,8,1,23:50,UTC,0,1022.6,99,,,18,17.9,1649,0,0,0
2018,8,2,00:00,UTC,0,1022.6,99,,,18,17.9,671,0,0,0
2018,8,2,00:10,UTC,0,1022.6,100,,,18.4,18.4,274,0,0,0
2018,8,2,00:20,UTC,0,1022.6,100,,,18.4,18.3,2374,90,0.9,0.7
2018,8,2,00:30,UTC,0,1022.7,100,,,17.7,17.6,1083,0,0,0
2018,8,2,00:40,UTC,0,1022.6,100,,,17.8,17.8,689,0,0,0
2018,8,2,00:50,UTC,0,1022.6,100,,,17.8,17.8,485,0,0,0
2018,8,2,01:00,UTC,1,1022.6,100,,,17.8,17.8,146,120,0.7,0.5
2018,8,2,01:10,UTC,1,1022.5,100,,,17.6,17.6,395,0,0,0
2018,8,2,01:20,UTC,1,1022.4,100,,,17.7,17.7,561,0,0,0
2018,8,2,01:30,UTC,0,1022.5,100,,,17.8,17.8,2299,117,0.7,0.6
2018,8,2,01:40,UTC,0,1022.5,100,,,17.3,17.3,423,0,0,0
2018,8,2,01:50,UTC,0,1022.6,100,,,17.1,17.1,16704,0,0,0
2018,8,2,02:00,UTC,0,1022.5,100,,,17.8,17.8,554,83,0.7,0.5
2018,8,2,02:10,UTC,0,1022.6,100,,,17.4,17.4,1273,0,0,0
2018,8,2,02:20,UTC,0,1022.5,100,,,17,17,992,0,0,0
2018,8,2,02:30,UTC,0,1022.5,100,,,17.6,17.6,214,0,0,0
2018,8,2,02:40,UTC,0,1022.6,100,,,17.4,17.4,223,0,0,0
2018,8,2,02:50,UTC,0,1022.6,100,,,17.5,17.5,584,102,0.8,0.5
2018,8,2,03:00,UTC,0,1022.6,100,,,17.6,17.6,6660,0,0,0
2018,8,2,03:10,UTC,0,1022.6,100,,,17.9,17.9,2131,0,0,0
2018,8,2,03:20,UTC,0,1022.6,100,,,17.9,17.8,11651,0,0,0
2018,8,2,03:30,UTC,0,1022.6,100,,,18.4,18.3,3144,0,0,0
2018,8,2,03:40,UTC,0,1022.7,99,,,18.9,18.7,8306,0,0,0
2018,8,2,03:50,UTC,0,1022.6,98,,,20,19.7,7122,111,1,0.7
2018,8,2,04:00,UTC,0,1022.6,95,,,20.4,19.5,8971,0,0,0
2018,8,2,04:10,UTC,0,1022.6,90,,,21.7,20,12386,0,0,0
2018,8,2,04:20,UTC,0,1022.6,88,,,22.2,20.1,14847,0,0,0
2018,8,2,04:30,UTC,0,1022.5,84,,,22.8,19.9,16346,0,0,0
2018,8,2,04:40,UTC,0,1022.5,80,,,23.4,19.7,20817,0,0,0
2018,8,2,04:50,UTC,0,1022.4,77,,,23.4,19.3,21258,188,1.3,0.5
2018,8,2,05:00,UTC,0,1022.4,75,,,23.9,19.1,29841,244,1.6,0.7
2018,8,2,05:10,UTC,0,1022.5,73,,,24.1,19,25265,249,1.8,1
2018,8,2,05:20,UTC,0,1022.5,71,,,24.3,18.8,25226,226,1.7,1
2018,8,2,05:30,UTC,0,1022.5,70,,,24.8,19,24144,288,1.1,0.6
2018,8,2,05:40,UTC,0,1022.5,68,,,25.4,19,25699,0,0,0
2018,8,2,05:50,UTC,0,1022.5,66,,,26.1,19.4,24243,351,1,0.5
2018,8,2,06:00,UTC,0,1022.4,65,,,26.1,18.9,26594,90,1.9,1
2018,8,2,06:10,UTC,0,1022.4,63,,,26.4,18.9,29731,69,2,0.9
2018,8,2,06:20,UTC,0,1022.2,60,,,26.7,18.4,26279,49,1.5,0.8
2018,8,2,06:30,UTC,0,1022.2,59,,,27.1,18.4,28447,54,1.4,0.8
2018,8,2,06:40,UTC,0,1022.2,56,,,27.2,17.6,27131,21,1.8,0.7
2018,8,2,06:50,UTC,0,1022.3,55,,,27.9,18.1,21586,148,1.6,0.6
2018,8,2,07:00,UTC,0,1022.2,55,,,27.7,17.8,28435,179,2.5,1.4
2018,8,2,07:10,UTC,0,1022.3,53,,,28.2,17.8,25848,191,2.4,1.2
2018,8,2,07:20,UTC,0,1022.2,53,,,28.4,18,25633,201,2.4,1.2
2018,8,2,07:30,UTC,0,1022.2,54,,,28.1,17.9,30031,212,2.8,1.6
2018,8,2,07:40,UTC,0,1022.2,50,,,28.8,17.3,30708,189,4,1.7
2018,8,2,07:50,UTC,0,1022.1,53,,,28.4,18,29476,258,4.7,2.1
2018,8,2,08:00,UTC,0,1022.2,53,,,28.7,18.1,28223,186,6.1,3.1
2018,8,2,08:10,UTC,0,1022.1,52,,,28.7,17.9,34048,169,5.1,3.3
2018,8,2,08:20,UTC,0,1022.2,49,,,29.4,17.5,29064,174,4.5,3.1
2018,8,2,08:30,UTC,0,1022.1,50,,,28.9,17.3,30800,167,6.7,3.6
2018,8,2,08:40,UTC,0,1022.1,47,,,29.5,16.8,31166,211,5.3,3.3
2018,8,2,08:50,UTC,0,1022.1,50,,,29.4,17.8,25675,200,5.8,4
2018,8,2,09:00,UTC,0,1022,49,,,29.4,17.7,28386,176,6.9,4.5
2018,8,2,09:10,UTC,0,1021.9,50,,,29.2,17.6,28702,180,6.8,5
2018,8,2,09:20,UTC,0,1021.7,48,,,29.1,17.1,34865,178,6.8,4.9
2018,8,2,09:30,UTC,0,1021.8,49,,,29,17.1,30967,174,7.1,5.1
2018,8,2,09:40,UTC,0,1021.8,49,,,28.9,17,27954,187,6.4,4.8
2018,8,2,09:50,UTC,0,1021.8,47,,,29.3,16.9,28452,199,7.9,5
2018,8,2,10:00,UTC,0,1021.6,46,,,29.1,16.4,32079,177,7.5,5.6
2018,8,2,10:10,UTC,0,1021.6,46,,,29.1,16.4,28743,179,8.1,5.5
2018,8,2,10:20,UTC,0,1021.6,46,,,29.3,16.6,26521,186,6.6,4.5
2018,8,2,10:30,UTC,0,1021.8,47,,,29.3,17,28149,201,6,3.9
2018,8,2,10:40,UTC,2,1021.6,50,,,29.3,17.9,31586,330,4.1,2
2018,8,2,10:50,UTC,4,1021.6,48,,,29.3,17.3,32274,299,5,3.1
2018,8,2,11:00,UTC,5,1021.5,50,,,29,17.4,26302,268,4.6,2.4
2018,8,2,11:10,UTC,7,1021.3,50,,,29,17.6,34680,320,6.7,4.1
2018,8,2,11:20,UTC,4,1021.2,45,,,29.9,16.6,33481,323,5.9,3.6
2018,8,2,11:30,UTC,2,1021.1,47,,,28.8,16.5,32818,344,6.1,4
2018,8,2,11:40,UTC,1,1020.9,46,,,29.8,17.1,35928,309,5.9,2.1
2018,8,2,11:50,UTC,0,1020.9,48,,,29.9,17.8,27569,188,5.9,4.2
2018,8,2,12:00,UTC,3,1020.9,46,,,29.9,17.2,30105,196,5.9,4.4
2018,8,2,12:10,UTC,5,1020.7,49,,,29.2,17.4,27770,204,6.3,4
2018,8,2,12:20,UTC,5,1020.6,49,,,29.4,17.5,32909,180,6.4,4.4
2018,8,2,12:30,UTC,3,1020.5,47,,,29.8,17.2,28436,176,5.7,4
2018,8,2,12:40,UTC,1,1020.4,46,,,29.7,16.9,35711,172,6.4,4.6
2018,8,2,12:50,UTC,0,1020.3,45,,,29.7,16.6,28136,184,6.5,4.4
2018,8,2,13:00,UTC,0,1020.3,45,,,29.8,16.7,30122,186,7.4,4.4
2018,8,2,13:10,UTC,0,1020.2,46,,,29.3,16.3,30057,186,6,4.2
2018,8,2,13:20,UTC,0,1020.1,45,,,29.5,16.4,29290,192,6.2,4.4
2018,8,2,13:30,UTC,0,1020,43,,,29.7,15.9,28143,178,6.3,4.2
2018,8,2,13:40,UTC,0,1019.9,44,,,29.6,16.2,33593,187,6.8,4.6
2018,8,2,13:50,UTC,0,1019.8,44,,,29.3,15.9,37538,180,6.6,5
2018,8,2,14:00,UTC,0,1019.8,46,,,29.4,16.5,38207,187,6.1,4.5
2018,8,2,14:10,UTC,0,1019.7,45,,,29.5,16.2,35337,198,6.5,4.8
2018,8,2,14:20,UTC,0,1019.6,47,,,28.9,16.4,31252,194,7.1,5.6
2018,8,2,14:30,UTC,0,1019.5,47,,,28.9,16.6,29585,192,8.4,6.2
2018,8,2,14:40,UTC,0,1019.5,48,,,28.4,16.3,31190,192,8,6
2018,8,2,14:50,UTC,0,1019.5,49,,,28.4,16.7,36946,190,7.2,5.2
2018,8,2,15:00,UTC,0,1019.5,48,,,28.6,16.6,39191,190,6.8,4.9
2018,8,2,15:10,UTC,0,1019.4,49,,,28.3,16.6,34279,188,7.4,5.5
2018,8,2,15:20,UTC,0,1019.2,49,,,28.2,16.6,35815,191,7.8,5.4
2018,8,2,15:30,UTC,0,1019.1,49,,,28.1,16.2,37793,175,7.3,5.4
2018,8,2,15:40,UTC,0,1019.1,50,,,28,16.8,39962,185,7.1,4.7
2018,8,2,15:50,UTC,0,1019.1,50,,,28.1,16.8,38378,191,5.9,3.8
2018,8,2,16:00,UTC,0,1019.2,50,,,28.2,16.8,33714,190,5.5,3.9
2018,8,2,16:10,UTC,0,1019.1,50,,,28.1,16.6,29905,191,5.7,3.9
2018,8,2,16:20,UTC,0,1019.1,50,,,28.2,16.8,31870,187,5.4,3.6
2018,8,2,16:30,UTC,0,1019,51,,,27.9,16.8,34795,189,5.5,3.8
2018,8,2,16:40,UTC,0,1019,53,,,27.5,17,36650,194,5.1,3.8
2018,8,2,16:50,UTC,0,1018.8,54,,,27.3,17.3,37031,193,5.7,3.8
2018,8,2,17:00,UTC,0,1018.8,56,,,27.1,17.5,31663,195,4.8,2.9
2018,8,2,17:10,UTC,0,1018.8,56,,,27,17.5,30304,202,5.3,3.3
2018,8,2,17:20,UTC,0,1018.6,57,,,27,17.7,28603,200,5,3.4
2018,8,2,17:30,UTC,0,1018.5,57,,,26.9,17.8,30796,202,4.5,2.9
2018,8,2,17:40,UTC,0,1018.5,59,,,26.8,18,35419,216,5.4,2.8
2018,8,2,17:50,UTC,0,1018.4,59,,,26.8,18.1,37072,197,3.5,2.3
2018,8,2,18:00,UTC,0,1018.3,61,,,26.6,18.4,32484,182,3.4,2.4
2018,8,2,18:10,UTC,0,1018.2,62,,,26.4,18.4,34813,192,4,2.9
2018,8,2,18:20,UTC,0,1018.2,62,,,26.2,18.4,35993,194,4.7,3
2018,8,2,18:30,UTC,0,1018.2,64,,,25.9,18.6,32344,194,3.9,3.1
2018,8,2,18:40,UTC,0,1018.2,66,,,25.7,18.8,36729,196,3.8,2.8
2018,8,2,18:50,UTC,0,1018.1,67,,,25.4,18.8,33784,196,3.6,2.6
2018,8,2,19:00,UTC,0,1018.1,67,,,25.5,18.9,36400,188,3.3,2.3
2018,8,2,19:10,UTC,0,1018.2,67,,,25.2,18.7,33950,182,3.5,2.2
2018,8,2,19:20,UTC,0,1018.2,68,,,24.9,18.6,30045,182,2.7,2.1
2018,8,2,19:30,UTC,0,1018.3,71,,,24.4,18.6,28598,195,2.5,1.9
2018,8,2,19:40,UTC,0,1018.3,71,,,24.2,18.7,30117,198,2.2,1.7
2018,8,2,19:50,UTC,0,1018.3,72,,,24,18.7,10254,192,2.8,2.3
2018,8,2,20:00,UTC,0,1018.4,71,,,24.4,18.8,30984,189,3.1,2.4
2018,8,2,20:10,UTC,0,1018.4,71,,,24.1,18.5,30421,189,3.1,2.2
2018,8,2,20:20,UTC,0,1018.4,73,,,23.7,18.5,32869,199,2.5,1.5
2018,8,2,20:30,UTC,0,1018.3,76,,,22.8,18.4,29155,202,2.1,1.3
2018,8,2,20:40,UTC,0,1018.2,76,,,23.5,19,28290,189,2.5,2
2018,8,2,20:50,UTC,0,1018.3,75,,,23.4,18.6,29953,187,2.2,1.7
2018,8,2,21:00,UTC,0,1018.2,85,,,21.3,18.7,24926,116,1.5,0.6
2018,8,2,21:10,UTC,0,1018.2,85,,,20.8,18.2,15027,104,1.1,0.8
2018,8,2,21:20,UTC,0,1018.3,89,,,20.1,18.2,24374,73,1.1,0.7
2018,8,2,21:30,UTC,0,1018.2,90,,,20,18.3,22531,0,0,0
2018,8,2,21:40,UTC,0,1018.1,91,,,20,18.5,21210,114,0.9,0.6
2018,8,2,21:50,UTC,0,1018,91,,,19.9,18.5,19524,96,0.8,0.7
2018,8,2,22:00,UTC,0,1017.9,90,,,19.6,18,20309,0,0,0
2018,8,2,22:10,UTC,0,1017.9,91,,,19.6,18.1,23345,0,0,0
2018,8,2,22:20,UTC,0,1017.9,93,,,19.8,18.6,20090,0,0,0
2018,8,2,22:30,UTC,0,1017.8,92,,,19.8,18.4,20500,98,0.8,0.6
2018,8,2,22:40,UTC,0,1017.7,93,,,19.3,18.1,19024,110,1,0.8
2018,8,2,22:50,UTC,0,1017.6,94,,,19.4,18.4,20394,50,1.1,0.8
2018,8,2,23:00,UTC,0,1017.6,94,,,18.7,17.7,17945,0,0,0
2018,8,2,23:10,UTC,0,1017.5,94,,,18.8,17.8,19637,150,0.8,0.6
2018,8,2,23:20,UTC,2,1017.5,93,,,19,17.9,12503,0,0,0
2018,8,2,23:30,UTC,5,1017.5,94,,,19.3,18.3,19026,0,0,0
2018,8,2,23:40,UTC,7,1017.4,94,,,19.2,18.2,17040,0,0,0
2018,8,2,23:50,UTC,7,1017.4,94,,,19.5,18.5,18469,132,0.9,0.6
2018,8,3,00:00,UTC,5,1017.3,93,,,19.8,18.6,19679,119,1,0.7
2018,8,3,00:10,UTC,4,1017.1,92,,,19.8,18.5,18830,112,1.2,0.8
2018,8,3,00:20,UTC,5,1017,94,,,19.2,18.2,16875,97,1.1,0.7
2018,8,3,00:30,UTC,5,1016.9,95,,,19,18.2,16439,99,1.2,0.9
2018,8,3,00:40,UTC,6,1016.8,94,,,18.7,17.7,17443,0,0,0
2018,8,3,00:50,UTC,6,1016.6,95,,,18.8,18,18108,0,0,0
2018,8,3,01:00,UTC,6,1016.6,96,,,18.7,18.1,6480,0,0,0
2018,8,3,01:10,UTC,3,1016.6,97,,,18.6,18.1,3188,0,0,0
2018,8,3,01:20,UTC,1,1016.5,98,,,18.7,18.4,5077,0,0,0
2018,8,3,01:30,UTC,0,1016.3,98,,,18.6,18.2,9883,114,1.1,0.8
2018,8,3,01:40,UTC,0,1016.3,98,,,18.2,17.8,5929,99,0.9,0.5
2018,8,3,01:50,UTC,3,1016.3,99,,,18.3,18.1,8264,120,1,0.8
2018,8,3,02:00,UTC,5,1016.3,98,,,18.1,17.8,12572,102,0.8,0.6
2018,8,3,02:10,UTC,7,1016.2,98,,,18.4,18.1,14740,0,0,0
2018,8,3,02:20,UTC,7,1016.2,98,,,18.6,18.4,13730,0,0,0
2018,8,3,02:30,UTC,7,1016.1,97,,,18.6,18.1,19600,0,0,0
2018,8,3,02:40,UTC,4,1016,97,,,18.7,18.2,21240,137,0.9,0.5
2018,8,3,02:50,UTC,6,1016,96,,,19,18.3,22575,166,1.4,0.7
2018,8,3,03:00,UTC,4,1015.9,95,,,18.8,17.9,20468,171,1.4,0.7
2018,8,3,03:10,UTC,3,1015.8,93,,,19.7,18.6,20577,160,1.6,1
2018,8,3,03:20,UTC,1,1015.8,94,,,20.6,19.5,18750,131,1.7,0.9
2018,8,3,03:30,UTC,0,1015.8,94,,,19.8,18.9,17345,110,1.4,0.9
2018,8,3,03:40,UTC,0,1015.7,95,,,21.4,20.6,17802,124,1.8,1.3
2018,8,3,03:50,UTC,0,1015.6,91,,,22.2,20.7,20954,177,2,0.9
2018,8,3,04:00,UTC,0,1015.5,83,,,23.3,20.3,25262,181,2.4,1.2
2018,8,3,04:10,UTC,0,1015.5,79,,,23.6,19.8,27952,197,2.6,1.6
2018,8,3,04:20,UTC,0,1015.4,78,,,23.7,19.7,27179,193,2.7,1.9
2018,8,3,04:30,UTC,0,1015.4,78,,,23.8,19.6,30854,190,2.2,1.6
2018,8,3,04:40,UTC,0,1015.4,78,,,23.7,19.7,31198,188,2.3,1.5
2018,8,3,04:50,UTC,1,1015.3,76,,,23.9,19.4,32234,198,2.9,2
2018,8,3,05:00,UTC,0,1015.2,78,,,23.9,19.8,25278,180,2.6,1.8
2018,8,3,05:10,UTC,3,1015.1,77,,,24.2,19.8,32758,191,3.7,2.1
2018,8,3,05:20,UTC,3,1015.1,75,,,24.6,19.9,29864,216,4.4,2.9
2018,8,3,05:30,UTC,2,1015,75,,,24.5,19.9,29199,236,4.6,2.9
2018,8,3,05:40,UTC,3,1014.8,76,,,24.7,20.2,33303,246,6.5,3
2018,8,3,05:50,UTC,4,1014.9,79,,,24.6,20.6,28857,233,6.5,3.8
2018,8,3,06:00,UTC,4,1014.8,77,,,24.7,20.5,27493,242,6.2,3.9
2018,8,3,06:10,UTC,3,1014.8,78,,,24.5,20.5,25376,247,5.1,3.2
2018,8,3,06:20,UTC,4,1014.7,78,,,24.7,20.7,25788,214,4.2,2.9
2018,8,3,06:30,UTC,3,1014.6,77,,,25.2,20.8,24704,198,4.8,3.1
2018,8,3,06:40,UTC,5,1014.5,74,,,25.5,20.5,26063,219,5.1,3.2
2018,8,3,06:50,UTC,5,1014.5,74,,,25.7,20.7,25507,193,4.7,3.1
2018,8,3,07:00,UTC,7,1014.3,74,,,25.6,20.7,28148,200,4.6,3.4
2018,8,3,07:10,UTC,7,1014.3,75,,,25.8,21,26779,217,4.9,3.1
2018,8,3,07:20,UTC,7,1014.3,76,,,25.7,21.1,26316,230,4.6,2.4
2018,8,3,07:30,UTC,6,1014.3,77,,,25.8,21.4,24988,199,4,2.6
2018,8,3,07:40,UTC,6,1014.3,79,,,25.3,21.5,25763,224,4.5,2.1
2018,8,3,07:50,UTC,5,1014.4,76,,,26,21.5,26295,202,4.3,2.4
2018,8,3,08:00,UTC,5,1014.4,79,,,25.5,21.6,24426,231,4.1,2
2018,8,3,08:10,UTC,5,1014.3,77,,,25.4,21.1,25516,213,4.2,2.8
2018,8,3,08:20,UTC,2,1014.2,71,,,25.8,20,30718,239,3.5,2.1
2018,8,3,08:30,UTC,1,1014.1,70,,,25.6,19.7,28475,252,3.7,2.6
2018,8,3,08:40,UTC,0,1014.1,67,,,26.7,20,30975,224,2.8,1.5
2018,8,3,08:50,UTC,1,1013.9,64,,,26.7,19.4,29088,137,3.2,2
2018,8,3,09:00,UTC,4,1013.9,61,,,26.7,18.4,35433,236,5.2,2.8
2018,8,3,09:10,UTC,3,1013.8,58,,,27.3,18.3,28803,235,5.8,3.4
2018,8,3,09:20,UTC,3,1013.7,56,,,27.7,18.1,34713,230,3.3,2
2018,8,3,09:30,UTC,2,1013.5,58,,,27,18,33686,233,4.8,3.1
2018,8,3,09:40,UTC,4,1013.5,59,,,26.7,18,34363,226,5.1,2.8
2018,8,3,09:50,UTC,5,1013.4,66,,,26.7,20,32762,266,5.1,2.4
2018,8,3,10:00,UTC,6,1013.3,71,,,26.7,21,23182,202,9.1,5.6
2018,8,3,10:10,UTC,3,1013.2,71,,,26.4,20.7,23546,189,8.2,5.8
2018,8,3,10:20,UTC,2,1013.3,69,,,27.4,21.2,25770,191,7.5,5.2
2018,8,3,10:30,UTC,2,1013.1,61,,,26.9,18.6,30260,205,7.2,4.7
2018,8,3,10:40,UTC,3,1013,62,,,27.2,19.3,27742,198,6.2,4.8
2018,8,3,10:50,UTC,2,1013,66,,,27,20,32228,201,7.9,5.3
2018,8,3,11:00,UTC,1,1012.9,65,,,26.6,19.3,33263,195,10,6.6
2018,8,3,11:10,UTC,0,1012.8,64,,,26.4,19,41077,197,8.5,5.9
2018,8,3,11:20,UTC,0,1012.8,63,,,26.9,19.2,41735,194,8.2,6.2
2018,8,3,11:30,UTC,0,1012.6,58,,,27.9,18.8,30878,199,8.6,6.1
2018,8,3,11:40,UTC,0,1012.5,54,,,28,17.9,38388,189,8.4,6.1
2018,8,3,11:50,UTC,0,1012.5,53,,,28.1,17.5,31307,192,8.1,5.5
2018,8,3,12:00,UTC,0,1012.4,36,,,29.6,13.1,27955,214,6,3.9
2018,8,3,12:10,UTC,0,1012.2,30,,,29.5,10.1,38879,271,6.2,3.7
2018,8,3,12:20,UTC,0,1012.1,25,,,29.5,7.3,40411,274,7.6,3.5
2018,8,3,12:30,UTC,0,1012,25,,,29.9,8,35724,275,6.4,4
2018,8,3,12:40,UTC,0,1012,27,,,30.2,8.9,44187,250,5.4,3.4
2018,8,3,12:50,UTC,0,1011.8,30,,,30.2,10.9,35860,261,6.1,2.9
2018,8,3,13:00,UTC,0,1011.8,32,,,30,11.4,39809,321,6.3,4.1
2018,8,3,13:10,UTC,0,1011.8,32,,,29.9,11.4,35914,280,9.2,5.1
2018,8,3,13:20,UTC,0,1011.7,31,,,30.2,11,36631,271,5.9,3.6
2018,8,3,13:30,UTC,0,1011.6,30,,,30.3,10.7,32777,315,5.6,3.5
2018,8,3,13:40,UTC,0,1011.7,30,,,29.9,10.6,37145,297,8,4.4
2018,8,3,13:50,UTC,0,1011.7,30,,,30.3,10.7,38348,288,7,4
2018,8,3,14:00,UTC,0,1011.6,29,,,30.3,10.3,38029,297,8.9,4.8
2018,8,3,14:10,UTC,0,1011.5,31,,,30.4,11.5,36797,288,6.2,4
2018,8,3,14:20,UTC,0,1011.4,29,,,30.4,10.6,40640,292,7.2,4
2018,8,3,14:30,UTC,0,1011.3,30,,,30.4,11,36689,284,8.4,4.7
2018,8,3,14:40,UTC,0,1011.2,30,,,30.4,10.7,33635,280,6.6,4.1
2018,8,3,14:50,UTC,0,1011.2,30,,,30.1,10.6,40759,268,8.1,5.5
2018,8,3,15:00,UTC,0,1011.1,31,,,29.7,10.6,41690,274,6.4,4
2018,8,3,15:10,UTC,0,1011.1,33,,,29.9,12.1,42274,277,7.2,5
2018,8,3,15:20,UTC,0,1010.9,33,,,29.8,12,36964,289,8.2,5.2
2018,8,3,15:30,UTC,1,1010.9,34,,,29.6,12.1,44011,284,8.8,5.1
2018,8,3,15:40,UTC,2,1010.8,35,,,29.6,12.4,46425,255,8.4,5.2
2018,8,3,15:50,UTC,3,1010.8,36,,,29.3,12.5,42228,260,8.8,5.9
2018,8,3,16:00,UTC,2,1010.8,36,,,29.1,12.5,47765,275,7.4,5
2018,8,3,16:10,UTC,2,1010.7,37,,,29,12.8,46221,293,8.7,5.2
2018,8,3,16:20,UTC,2,1010.6,39,,,28.3,12.9,42119,302,8.3,5.7
2018,8,3,16:30,UTC,1,1010.6,40,,,28.3,13.2,45252,288,8.3,5.1
2018,8,3,16:40,UTC,1,1010.5,41,,,28.1,13.5,44220,293,8.3,5.2
2018,8,3,16:50,UTC,0,1010.6,40,,,27.7,13,50000,299,9.8,5.2
2018,8,3,17:00,UTC,0,1010.7,40,,,27.5,12.8,48597,297,9.6,5.4
2018,8,3,17:10,UTC,0,1010.8,41,,,27.2,12.8,50000,294,7.9,4.8
2018,8,3,17:20,UTC,0,1010.9,43,,,26.6,13,50000,302,7.6,3.8
2018,8,3,17:30,UTC,0,1010.8,43,,,26.4,12.9,47823,304,7.8,5
2018,8,3,17:40,UTC,0,1010.9,44,,,26.3,13,50000,297,8.2,5.3
2018,8,3,17:50,UTC,2,1010.9,44,,,26.2,13.2,50000,282,6,3.8
2018,8,3,18:00,UTC,3,1011.1,44,,,26.1,12.9,43936,277,7.6,5
2018,8,3,18:10,UTC,2,1011.2,46,,,25.7,13.1,48392,290,6.5,3.7
2018,8,3,18:20,UTC,5,1011.3,46,,,25.4,13.1,50000,294,8.6,5.7
2018,8,3,18:30,UTC,4,1011.4,48,,,25.1,13.4,50000,293,8.5,5.3
2018,8,3,18:40,UTC,3,1011.5,50,,,24.8,13.7,50000,293,7.7,5.3
2018,8,3,18:50,UTC,1,1011.6,51,,,24.6,13.9,50000,289,8.4,4.4
2018,8,3,19:00,UTC,0,1011.7,53,,,24.1,14,50000,294,7.3,4.2
2018,8,3,19:10,UTC,0,1011.7,56,,,23.7,14.3,50000,310,6.9,4.4
2018,8,3,19:20,UTC,0,1011.8,57,,,23.5,14.6,49400,307,7.4,4.8
2018,8,3,19:30,UTC,0,1011.9,59,,,23.2,14.7,50000,308,6.5,4.4
2018,8,3,19:40,UTC,0,1012,61,,,22.8,14.9,50000,303,6.9,4.5
2018,8,3,19:50,UTC,0,1012.1,62,,,22.6,15,49472,298,7.7,4.7
2018,8,3,20:00,UTC,1,1012,63,,,22.5,15.1,50000,294,6.8,4.7
2018,8,3,20:10,UTC,4,1012,61,,,22.3,14.5,50000,288,7.3,4.7
2018,8,3,20:20,UTC,3,1012.1,59,,,21.9,13.6,50000,292,7.8,4.8
2018,8,3,20:30,UTC,2,1012,61,,,21.7,13.9,48330,297,8.9,4.9
2018,8,3,20:40,UTC,1,1012.1,64,,,21.3,14.2,50000,297,7,4.2
2018,8,3,20:50,UTC,0,1012.1,66,,,21.1,14.4,50000,295,7.5,4.4
2018,8,3,21:00,UTC,0,1012.1,67,,,21,14.7,50000,290,6.9,4.5
2018,8,3,21:10,UTC,0,1012,69,,,20.7,14.9,50000,291,6.9,4.5
2018,8,3,21:20,UTC,0,1012.2,71,,,20.5,15,50000,291,5.7,4
2018,8,3,21:30,UTC,0,1012.2,72,,,20.2,15,50000,286,5.6,3.7
2018,8,3,21:40,UTC,0,1012.1,74,,,19.8,15,50000,295,5.9,3.8
2018,8,3,21:50,UTC,0,1012.1,74,,,19.8,15,50000,297,5.6,3.4
2018,8,3,22:00,UTC,0,1012,75,,,19.5,15,50000,294,5.5,3.4
2018,8,3,22:10,UTC,0,1012.1,75,,,19.5,15,50000,290,5,3.3
2018,8,3,22:20,UTC,0,1012,76,,,19.4,15,50000,294,6.1,3.4
2018,8,3,22:30,UTC,0,1011.8,77,,,19,14.9,50000,296,4.2,3
2018,8,3,22:40,UTC,0,1011.8,77,,,19,15,50000,301,4.3,2.8
2018,8,3,22:50,UTC,0,1011.8,78,,,18.9,14.9,50000,293,5.3,3
2018,8,3,23:00,UTC,0,1011.7,79,,,18.7,14.9,50000,287,4.1,2.5
2018,8,3,23:10,UTC,0,1011.7,79,,,18.7,15,50000,284,4.3,2.7
2018,8,3,23:20,UTC,0,1011.6,80,,,18.5,14.9,50000,291,4,2.4
2018,8,3,23:30,UTC,0,1011.7,80,,,18.5,15,50000,288,3.3,2.1
2018,8,3,23:40,UTC,0,1011.6,81,,,18.2,15,48194,289,2.7,1.9
2018,8,3,23:50,UTC,0,1011.7,81,,,18.2,14.9,50000,279,3.4,2.2
2018,8,4,00:00,UTC,0,1011.7,82,,,18,15,50000,282,3.4,2.1
2018,8,4,00:10,UTC,0,1011.6,83,,,17.9,14.9,50000,287,3.1,1.9
2018,8,4,00:20,UTC,0,1011.6,84,,,17.7,14.9,50000,297,2.9,1.8
2018,8,4,00:30,UTC,0,1011.7,84,,,17.9,15.1,50000,291,3.1,2.1
2018,8,4,00:40,UTC,0,1011.6,84,,,17.7,15,50000,294,2.7,1.9
2018,8,4,00:50,UTC,0,1011.6,85,,,17.6,15.1,50000,296,3.1,2
2018,8,4,01:00,UTC,0,1011.5,86,,,17.4,15.1,50000,292,2.3,1.5
2018,8,4,01:10,UTC,0,1011.4,86,,,17.4,15.1,50000,284,2.2,1.5
2018,8,4,01:20,UTC,0,1011.4,86,,,17.5,15.1,50000,281,3.8,1.9
2018,8,4,01:30,UTC,0,1011.3,87,,,17.4,15.2,50000,286,3.2,1.8
2018,8,4,01:40,UTC,0,1011.2,87,,,17.2,15,50000,288,3,1.8
2018,8,4,01:50,UTC,0,1011.2,87,,,17.2,15,50000,289,3,2.2
2018,8,4,02:00,UTC,3,1011.2,87,,,17.4,15.2,50000,287,3.9,2.3
2018,8,4,02:10,UTC,3,1011.1,87,,,17.3,15.2,50000,287,4.3,2.3
2018,8,4,02:20,UTC,2,1011.1,88,,,17.1,15.1,50000,287,3.8,2.6
2018,8,4,02:30,UTC,1,1011,88,,,17.1,15.1,50000,294,4,2.4
2018,8,4,02:40,UTC,0,1010.9,88,,,17.1,15.1,50000,296,3.8,2.4
2018,8,4,02:50,UTC,0,1010.8,88,,,17.1,15.1,50000,289,3.8,2.4
2018,8,4,03:00,UTC,0,1010.8,87,,,17.3,15.2,50000,287,3.2,2.2
2018,8,4,03:10,UTC,0,1010.8,86,,,17.4,15.1,50000,285,3.2,2
2018,8,4,03:20,UTC,0,1010.8,86,,,17.6,15.1,49773,290,2.9,2.1
2018,8,4,03:30,UTC,0,1010.8,85,,,17.8,15.3,50000,289,3.1,1.9
2018,8,4,03:40,UTC,1,1010.8,84,,,18.1,15.3,46708,284,2.9,1.8
2018,8,4,03:50,UTC,5,1010.8,82,,,18.4,15.4,45035,275,3.9,2
2018,8,4,04:00,UTC,6,1010.7,82,,,18.6,15.5,46449,286,4.8,3
2018,8,4,04:10,UTC,5,1010.7,80,,,19,15.5,49289,286,3.6,2.3
2018,8,4,04:20,UTC,2,1010.7,79,,,19.2,15.5,46434,286,4.2,2.3
2018,8,4,04:30,UTC,1,1010.7,78,,,19.5,15.6,40972,289,3.9,2.1
2018,8,4,04:40,UTC,0,1010.7,78,,,19.6,15.7,50000,278,3.8,2.4
2018,8,4,04:50,UTC,0,1010.6,77,,,19.9,15.8,47662,276,4.1,2.7
2018,8,4,05:00,UTC,0,1010.6,77,,,20.1,15.8,39220,278,4.8,3
2018,8,4,05:10,UTC,0,1010.6,77,,,20.3,16.1,36594,274,4,2.5
2018,8,4,05:20,UTC,1,1010.6,77,,,20.4,16.2,40033,273,4.8,3.3
2018,8,4,05:30,UTC,1,1010.6,76,,,20.6,16.1,45533,273,4.3,2.8
2018,8,4,05:40,UTC,1,1010.6,75,,,20.6,16.1,50000,271,5.2,3.4
2018,8,4,05:50,UTC,1,1010.6,75,,,20.8,16.3,49479,276,6.6,3.6
2018,8,4,06:00,UTC,1,1010.4,74,,,20.9,16.2,47315,270,5,3.4
2018,8,4,06:10,UTC,1,1010.4,75,,,20.9,16.2,44480,283,5.1,3.2
2018,8,4,06:20,UTC,4,1010.3,72,,,21.5,16.3,50000,279,4.8,2.9
2018,8,4,06:30,UTC,4,1010.2,69,,,21.7,15.7,39804,270,6.1,3.7
2018,8,4,06:40,UTC,5,1010.1,66,,,21.9,15.3,42004,286,5.9,4
2018,8,4,06:50,UTC,2,1010.1,63,,,22.5,15.1,40160,290,5.1,3.6
2018,8,4,07:00,UTC,1,1010.1,58,,,23.2,14.4,35019,296,5.8,4.1
2018,8,4,07:10,UTC,0,1010,59,,,23.8,15.2,39096,288,5.7,3.2
2018,8,4,07:20,UTC,0,1009.8,55,,,24.1,14.3,50000,257,5.9,3.5
2018,8,4,07:30,UTC,0,1009.8,51,,,24.5,13.8,45073,282,5.5,3.5
2018,8,4,07:40,UTC,2,1009.6,50,,,24.7,13.6,47105,291,5.9,3.2
2018,8,4,07:50,UTC,1,1009.6,49,,,24.3,12.9,36530,288,7.1,4.3
2018,8,4,08:00,UTC,2,1009.6,48,,,24.4,12.6,48385,303,7.1,4
2018,8,4,08:10,UTC,2,1009.5,47,,,25.3,13.3,39271,270,6.5,4
2018,8,4,08:20,UTC,2,1009.4,46,,,24.8,12.3,49918,290,6.6,4.3
2018,8,4,08:30,UTC,1,1009.3,46,,,25.2,12.7,44605,275,6.2,3.8
2018,8,4,08:40,UTC,1,1009.3,46,,,25.2,12.6,45151,288,7.1,4.5
2018,8,4,08:50,UTC,3,1009.3,47,,,25.1,13,42968,289,5.1,2.7
2018,8,4,09:00,UTC,3,1009.4,47,,,25.2,13.1,40768,281,6.9,3.6
2018,8,4,09:10,UTC,3,1009.4,44,,,25.3,12.2,44524,291,7.8,3.9
2018,8,4,09:20,UTC,4,1009.3,44,,,24.9,12,39927,296,7,4.5
2018,8,4,09:30,UTC,6,1009.3,43,,,25.3,12,44072,285,6.1,3.8
2018,8,4,09:40,UTC,7,1009.4,44,,,25.1,12.1,50000,309,7.2,4.7
2018,8,4,09:50,UTC,7,1009.4,45,,,24.9,12,44688,290,6.7,4
2018,8,4,10:00,UTC,7,1009.4,44,,,24.6,11.7,41404,276,7.1,4.8
2018,8,4,10:10,UTC,7,1009.3,45,,,24.9,12,50000,271,5.8,3.7
2018,8,4,10:20,UTC,7,1009.3,47,,,24.7,12.6,42561,284,7.3,4.5
2018,8,4,10:30,UTC,7,1009.2,47,,,24.5,12.6,50000,297,7.8,4.9
2018,8,4,10:40,UTC,6,1009,48,,,24.6,12.7,49418,293,8.1,4.8
2018,8,4,10:50,UTC,3,1008.8,48,,,24.4,12.9,47369,279,6.8,3.9
2018,8,4,11:00,UTC,4,1008.8,51,,,24.1,13.4,45465,294,7.1,4.6
2018,8,4,11:10,UTC,5,1008.8,55,,,24.1,14.6,32747,279,7.6,4.9
2018,8,4,11:20,UTC,7,1008.8,57,,,24.2,15.2,33646,267,6.3,4.2
2018,8,4,11:30,UTC,7,1008.8,60,,,24,15.7,39856,267,7.1,4.7
2018,8,4,11:40,UTC,7,1008.7,54,,,25,15,39511,272,6.6,3.8
2018,8,4,11:50,UTC,7,1008.6,55,,,25,15.3,45019,280,7.1,4.1
2018,8,4,12:00,UTC,7,1008.6,54,,,24.4,14.7,44498,250,6.4,3.8
2018,8,4,12:10,UTC,7,1008.5,51,,,24.4,13.7,44072,261,5.9,3.5
2018,8,4,12:20,UTC,7,1008.4,56,,,24.4,15.2,43228,270,5.5,3.7
2018,8,4,12:30,UTC,6,1008.2,57,,,24.5,15.5,35780,273,6.1,4.1
2018,8,4,12:40,UTC,3,1008,56,,,24.7,15.5,36557,264,6.3,4.3
2018,8,4,12:50,UTC,2,1008,52,,,24.9,14.5,41590,273,5.8,3.8
2018,8,4,13:00,UTC,1,1007.9,51,,,25,14,35179,258,5.6,3.7
2018,8,4,13:10,UTC,1,1007.8,45,,,25.5,12.6,38711,276,5.2,3.4
2018,8,4,13:20,UTC,2,1007.8,44,,,25.4,12.2,32610,273,5.8,3.8
2018,8,4,13:30,UTC,1,1007.7,43,,,25.1,11.8,45529,272,6.1,3.8
2018,8,4,13:40,UTC,3,1007.7,46,,,25.4,13,39919,263,5.5,3.5
2018,8,4,13:50,UTC,2,1007.7,45,,,25.2,12.5,34547,269,6.1,3.8
2018,8,4,14:00,UTC,3,1007.6,43,,,25.6,11.9,50000,301,5.9,3.7
2018,8,4,14:10,UTC,5,1007.5,42,,,25.3,11.3,38844,292,6.2,4.1
2018,8,4,14:20,UTC,6,1007.5,43,,,25.3,11.8,50000,282,6.2,3.9
2018,8,4,14:30,UTC,7,1007.5,44,,,25.2,12,39231,283,5.6,3.9
2018,8,4,14:40,UTC,7,1007.5,43,,,25.2,11.6,41159,271,7.2,3.9
2018,8,4,14:50,UTC,6,1007.5,56,,,24.8,15.4,41263,218,6.6,4.1
2018,8,4,15:00,UTC,7,1007.4,57,,,24.3,15.2,43861,183,8.1,5
2018,8,4,15:10,UTC,5,1007.4,57,,,23.6,14.5,46472,193,7.3,5.4
2018,8,4,15:20,UTC,7,1007.5,59,,,24,15.5,50000,198,7.1,4.9
2018,8,4,15:30,UTC,5,1007.4,61,,,23.1,15.3,44639,213,7.4,5.1
2018,8,4,15:40,UTC,4,1007.3,61,,,23.9,15.9,43673,206,5.9,4.1
2018,8,4,15:50,UTC,6,1007.2,60,,,23.8,15.7,35723,204,6.2,4.2
2018,8,4,16:00,UTC,6,1007.1,65,,,22.9,15.9,43881,201,7.2,5.1
2018,8,4,16:10,UTC,7,1007.1,66,,,23,16.3,49063,197,6.8,4.7
2018,8,4,16:20,UTC,7,1007.1,66,,,23,16.3,48605,201,6.1,4.3
2018,8,4,16:30,UTC,7,1007.2,66,,,22.9,16.3,50000,209,6.9,4.6
2018,8,4,16:40,UTC,7,1007.1,66,,,22.6,16,46165,219,6.2,4
2018,8,4,16:50,UTC,8,1007.1,66,,,22.5,15.8,50000,219,5.9,4.3
2018,8,4,17:00,UTC,8,1007.2,66,,,22.3,15.7,50000,224,6.2,4.2
2018,8,4,17:10,UTC,8,1007.2,66,,,22.3,15.6,50000,220,5.3,3.9
2018,8,4,17:20,UTC,8,1007.3,65,,,22.3,15.3,50000,228,5.9,3.5
2018,8,4,17:30,UTC,7,1007.4,65,,,22.3,15.4,50000,258,4.1,2.8
2018,8,4,17:40,UTC,7,1007.3,65,,,21.6,14.7,50000,339,6.7,4.8
2018,8,4,17:50,UTC,7,1007.2,66,,,21.5,14.8,50000,338,5.5,3.8
2018,8,4,18:00,UTC,8,1007.2,67,,,21.1,14.7,50000,345,6.8,3.9
2018,8,4,18:10,UTC,8,1007.1,69,,,20.6,14.7,50000,336,4.9,3.2
2018,8,4,18:20,UTC,8,1007.2,70,,,20.2,14.6,50000,345,4.2,2.7
2018,8,4,18:30,UTC,6,1007.1,68,,,20.1,14,50000,322,5.7,3.8
2018,8,4,18:40,UTC,4,1007.1,69,,,19.9,14.1,50000,324,5.3,3.7
2018,8,4,18:50,UTC,2,1007,70,,,19.6,14,50000,325,4.2,3.2
2018,8,4,19:00,UTC,1,1006.9,71,,,19.5,14.1,50000,319,3.9,2.8
2018,8,4,19:10,UTC,0,1006.9,73,,,19.3,14.3,50000,317,4.2,3
2018,8,4,19:20,UTC,0,1006.8,75,,,19.2,14.6,50000,316,3.5,2.6
2018,8,4,19:30,UTC,0,1006.7,77,,,18.8,14.6,50000,325,3.8,2.7
2018,8,4,19:40,UTC,0,1006.7,78,,,18.7,14.7,50000,320,2.7,2
2018,8,4,19:50,UTC,3,1006.7,79,,,18.6,14.8,50000,309,2.7,1.9
2018,8,4,20:00,UTC,6,1006.6,77,,,19,14.9,50000,289,2.3,1.8
2018,8,4,20:10,UTC,7,1006.6,78,,,18.9,15,50000,291,2.4,1.8
2018,8,4,20:20,UTC,8,1006.7,78,,,18.9,15.1,50000,285,2.4,1.8
2018,8,4,20:30,UTC,8,1006.7,78,,,18.9,15.1,50000,280,3,2
2018,8,4,20:40,UTC,8,1006.7,78,,,18.9,15,50000,286,3.6,2.1
2018,8,4,20:50,UTC,8,1006.7,78,,,18.9,15,50000,288,3,1.6
2018,8,4,21:00,UTC,8,1006.6,78,,,18.9,15.1,50000,290,2.5,1.5
2018,8,4,21:10,UTC,8,1006.5,79,,,18.9,15.2,49617,295,3.4,2.1
2018,8,4,21:20,UTC,8,1006.4,80,,,18.8,15.2,50000,308,3,1.9
2018,8,4,21:30,UTC,8,1006.4,80,,,18.8,15.4,50000,303,2.4,1.5
2018,8,4,21:40,UTC,8,1006.3,80,,,19,15.5,50000,287,2.6,1.6
2018,8,4,21:50,UTC,8,1006.4,81,,,19,15.7,50000,293,3.6,2.2
2018,8,4,22:00,UTC,8,1006.3,82,,,19,15.8,50000,307,3.7,2.2
2018,8,4,22:10,UTC,8,1006.4,82,,,19,15.9,50000,295,4.2,2.3
2018,8,4,22:20,UTC,8,1006.3,83,,,18.9,15.9,50000,293,3.4,2.4
2018,8,4,22:30,UTC,8,1006.2,84,,,18.7,15.9,50000,294,4.5,2.5
2018,8,4,22:40,UTC,8,1006.1,85,,,18.6,16,49540,294,4.3,2.6
2018,8,4,22:50,UTC,7,1006.1,86,,,18.4,15.9,50000,299,4.3,2.4
2018,8,4,23:00,UTC,7,1006.1,87,,,18.2,15.9,50000,300,3.1,2
2018,8,4,23:10,UTC,7,1006,86,,,18.2,15.9,50000,300,4,2.2
2018,8,4,23:20,UTC,7,1006,87,,,18.1,15.9,49368,302,4.1,2.3
2018,8,4,23:30,UTC,7,1006,87,,,18.1,15.9,44573,293,3.2,2.3
2018,8,4,23:40,UTC,7,1006,87,,,18,15.9,45199,290,3.1,2.4
2018,8,4,23:50,UTC,7,1005.9,88,,,17.9,15.9,50000,297,4.5,2.6
2018,8,5,00:00,UTC,8,1005.9,89,,,17.7,15.8,50000,308,3.7,2.2
2018,8,5,00:10,UTC,8,1006,89,,,17.8,15.9,48184,313,5.4,3.1
2018,8,5,00:20,UTC,8,1006,89,,,17.8,15.9,50000,311,4.8,3.2
2018,8,5,00:30,UTC,8,1005.9,90,,,17.6,15.9,49050,313,3.8,2.5
2018,8,5,00:40,UTC,8,1005.8,90,,,17.6,15.8,50000,311,3.7,2.6
2018,8,5,00:50,UTC,8,1005.8,90,,,17.6,15.9,50000,312,4.9,2.8
2018,8,5,01:00,UTC,7,1005.9,90,,,17.6,15.9,50000,304,3.9,2.4
2018,8,5,01:10,UTC,7,1005.8,90,,,17.5,15.9,50000,304,3.7,2.5
2018,8,5,01:20,UTC,3,1005.8,91,,,17.3,15.8,50000,307,3.7,2.4
2018,8,5,01:30,UTC,3,1005.9,91,,,17.3,15.8,50000,303,4.1,2.5
2018,8,5,01:40,UTC,5,1005.8,91,,,17.5,16,2406,311,5.7,3.6
2018,8,5,01:50,UTC,7,1005.8,92,,,17.4,16.1,18468,327,5.9,3.8
2018,8,5,02:00,UTC,7,1006,93,,,17.4,16.2,24513,299,5.8,3.8
2018,8,5,02:10,UTC,8,1006,95,,,17,16.2,16899,337,5.9,4.2
2018,8,5,02:20,UTC,8,1006,96,,,16.9,16.3,28095,325,5.8,3.7
2018,8,5,02:30,UTC,7,1006.1,96,,,16.9,16.3,44861,322,4.9,3.2
2018,8,5,02:40,UTC,7,1005.9,96,,,16.8,16.1,45454,334,4.3,2.8
2018,8,5,02:50,UTC,7,1006,96,,,16.8,16.1,42856,347,4.9,3.2
2018,8,5,03:00,UTC,7,1005.8,96,,,16.6,16,41689,333,3.7,2.6
2018,8,5,03:10,UTC,7,1005.8,96,,,16.4,15.8,48634,344,4.5,2.8
2018,8,5,03:20,UTC,6,1005.7,96,,,16.5,15.8,48102,322,4.6,3.1
2018,8,5,03:30,UTC,3,1005.7,96,,,16.3,15.7,44535,317,3.6,2.5
2018,8,5,03:40,UTC,3,1005.8,97,,,16.3,15.8,44995,322,3.3,2.2
2018,8,5,03:50,UTC,4,1005.9,96,,,16.5,15.8,48971,309,3.7,2.7
2018,8,5,04:00,UTC,3,1006,95,,,16.4,15.7,50000,315,4.3,3.2
2018,8,5,04:10,UTC,3,1005.9,95,,,16.6,15.9,50000,318,4,2.6
2018,8,5,04:20,UTC,5,1005.9,92,,,17,15.7,37220,310,4.6,3.2
2018,8,5,04:30,UTC,5,1005.9,92,,,16.9,15.5,47453,310,5.9,3.6
2018,8,5,04:40,UTC,6,1005.8,91,,,17,15.5,48539,304,6.4,4.4
2018,8,5,04:50,UTC,4,1005.8,90,,,17.1,15.4,46150,315,6.9,4.6
2018,8,5,05:00,UTC,4,1005.9,89,,,17.3,15.5,46101,313,7.3,4.2
2018,8,5,05:10,UTC,5,1006,89,,,17,15.2,45302,304,7.3,4.6
2018,8,5,05:20,UTC,5,1006,88,,,17.4,15.4,43507,306,6.7,3.8
2018,8,5,05:30,UTC,7,1006,87,,,17.9,15.7,42132,314,5.4,3.4
2018,8,5,05:40,UTC,7,1006.1,85,,,17.4,14.8,48880,329,6.8,4.5
2018,8,5,05:50,UTC,6,1006.1,87,,,17.1,14.9,50000,316,5,3.6
2018,8,5,06:00,UTC,3,1006.2,87,,,17.1,15,50000,313,5,3.2
2018,8,5,06:10,UTC,2,1006.3,87,,,17.6,15.4,49593,314,5.4,3.3
2018,8,5,06:20,UTC,3,1006.3,86,,,17.7,15.4,47991,317,5.7,3.9
2018,8,5,06:30,UTC,4,1006.2,84,,,18.2,15.5,36760,326,5.4,4
2018,8,5,06:40,UTC,4,1006.1,81,,,18.7,15.3,43397,326,6.4,3.6
2018,8,5,06:50,UTC,5,1006.1,81,,,18.4,15.1,46857,310,5.3,3.6
2018,8,5,07:00,UTC,5,1006.1,81,,,18.9,15.6,45906,308,5,3
2018,8,5,07:10,UTC,6,1006.1,77,,,19.5,15.4,45202,317,6.3,3.3
2018,8,5,07:20,UTC,3,1006,76,,,19.5,15.3,38870,318,3.4,2.4
2018,8,5,07:30,UTC,2,1005.9,74,,,19.8,15,43330,4,4.3,2.6
2018,8,5,07:40,UTC,1,1005.9,70,,,20.9,15.3,36489,352,5.7,2.9
2018,8,5,07:50,UTC,3,1006,72,,,20.3,15.1,42679,320,7,4.4
2018,8,5,08:00,UTC,3,1006,66,,,20.9,14.4,38701,320,6.9,4.3
2018,8,5,08:10,UTC,2,1005.9,64,,,21.4,14.2,37980,327,6.5,4.2
2018,8,5,08:20,UTC,2,1006,63,,,21.8,14.4,42986,337,6.7,4.4
2018,8,5,08:30,UTC,4,1005.9,59,,,22,13.8,35905,342,6.2,4.1
2018,8,5,08:40,UTC,6,1005.9,61,,,21.8,14.1,43765,329,5.6,3.7
2018,8,5,08:50,UTC,7,1005.9,64,,,21.2,14.1,45465,326,7.7,4.9
2018,8,5,09:00,UTC,7,1006,59,,,22.3,13.8,47987,320,6.5,4.2
2018,8,5,09:10,UTC,5,1006,60,,,21.7,13.6,50000,301,6.7,4
2018,8,5,09:20,UTC,3,1005.9,59,,,21.8,13.4,46402,307,6.8,4.1
2018,8,5,09:30,UTC,2,1005.9,59,,,21.9,13.6,42545,307,6.3,3.9
2018,8,5,09:40,UTC,1,1005.9,58,,,22.8,13.9,36146,326,7.4,4.6
2018,8,5,09:50,UTC,1,1005.9,53,,,23,13,40136,318,7.2,4.5
2018,8,5,10:00,UTC,1,1005.8,55,,,23,13.4,42720,332,6.9,4.1
2018,8,5,10:10,UTC,1,1005.6,53,,,23.4,13.3,38229,298,6.2,3.1
2018,8,5,10:20,UTC,3,1005.6,46,,,23.6,11.5,38857,305,6.8,4.2
2018,8,5,10:30,UTC,2,1005.5,45,,,24.4,11.7,39982,330,6.9,4.3
2018,8,5,10:40,UTC,3,1005.4,46,,,24.3,11.8,28487,312,4.9,2.7
2018,8,5,10:50,UTC,4,1005.5,47,,,23.2,11.1,47547,314,6.3,3.9
2018,8,5,11:00,UTC,4,1005.3,45,,,24,11.3,43559,321,5.6,3.6
2018,8,5,11:10,UTC,3,1005.2,43,,,24.4,10.9,41981,304,5.5,3.8
2018,8,5,11:20,UTC,1,1005.2,43,,,24.6,11.4,41137,291,5.4,3.2
2018,8,5,11:30,UTC,4,1005.1,43,,,24.2,10.8,49000,302,6.7,3.3
2018,8,5,11:40,UTC,2,1005,41,,,24.7,10.4,38000,321,5.9,3.9
2018,8,5,11:50,UTC,2,1005,42,,,24.2,10.4,47376,290,6.5,3.5
2018,8,5,12:00,UTC,2,1004.9,45,,,24.1,11.3,48700,272,6.6,3.6
2018,8,5,12:10,UTC,5,1004.7,44,,,24.5,11.6,46485,274,6.5,3.8
2018,8,5,12:20,UTC,4,1004.8,45,,,24.7,11.8,39847,297,6.1,4.3
2018,8,5,12:30,UTC,4,1004.9,43,,,24.1,10.7,39693,288,7.8,4.8
2018,8,5,12:40,UTC,2,1004.9,41,,,24.5,10.3,37867,293,6.9,4.7
2018,8,5,12:50,UTC,1,1005,40,,,24.9,10.4,35949,314,6.4,4.6
2018,8,5,13:00,UTC,1,1004.9,44,,,25,12.1,43020,281,6.1,3.7
2018,8,5,13:10,UTC,1,1004.8,43,,,25,11.5,43728,282,6.8,3.9
2018,8,5,13:20,UTC,2,1004.7,42,,,25.4,11.6,31218,284,7.5,4.4
2018,8,5,13:30,UTC,5,1004.7,43,,,24.8,11.2,41472,304,6.9,4.4
2018,8,5,13:40,UTC,7,1004.7,41,,,24.5,10.4,45307,295,6.5,4.6
2018,8,5,13:50,UTC,7,1004.8,41,,,25.3,11,44300,301,7.3,4.3
2018,8,5,14:00,UTC,7,1004.9,42,,,24.6,10.7,50000,307,7,4.7
2018,8,5,14:10,UTC,7,1005.3,53,,,21.9,11.9,44936,308,12.9,7.4
2018,8,5,14:20,UTC,7,1005.5,60,,,20.8,12.9,35615,298,12,8
2018,8,5,14:30,UTC,7,1005.6,83,,,17.8,14.9,9483,285,10.9,6.5
2018,8,5,14:40,UTC,7,1005.4,89,,,17.1,15.3,7046,320,7.4,4.2
2018,8,5,14:50,UTC,8,1005.5,90,,,17.9,16.2,21975,327,4.5,3.2
2018,8,5,15:00,UTC,8,1005.2,87,,,18.1,15.9,40105,349,3.7,2.3
2018,8,5,15:10,UTC,7,1005.3,86,,,18.6,16.3,43228,325,2.2,1.3
2018,8,5,15:20,UTC,6,1005.2,85,,,19,16.4,47695,266,1.5,0.9
2018,8,5,15:30,UTC,5,1005,83,,,19.3,16.4,48536,253,1.4,0.9
2018,8,5,15:40,UTC,6,1005.1,83,,,19.8,16.8,45615,240,2.5,1.7
2018,8,5,15:50,UTC,5,1004.9,83,,,19.3,16.4,46051,228,3.9,2.4
2018,8,5,16:00,UTC,4,1004.9,83,,,19.3,16.5,49044,228,2.9,2.2
2018,8,5,16:10,UTC,2,1004.8,82,,,19.7,16.6,50000,231,2.4,1.6
2018,8,5,16:20,UTC,5,1004.9,77,,,20.1,15.9,46153,231,2.2,1.7
2018,8,5,16:30,UTC,3,1005,75,,,20.1,15.5,45325,228,2.9,2
2018,8,5,16:40,UTC,6,1005.1,74,,,20.4,15.6,45070,232,2.8,2
2018,8,5,16:50,UTC,3,1005,74,,,20.7,16,48965,216,3.1,2.3
2018,8,5,17:00,UTC,2,1005,73,,,20.6,15.6,47282,238,3.7,2.3
2018,8,5,17:10,UTC,1,1005,75,,,20.3,15.7,50000,242,2.3,1.4
2018,8,5,17:20,UTC,0,1004.9,76,,,20.2,15.8,50000,226,1.9,1.1
2018,8,5,17:30,UTC,0,1004.8,80,,,19.6,16,50000,217,2.1,1.1
2018,8,5,17:40,UTC,0,1004.8,77,,,19.7,15.5,50000,213,2.3,1.3
2018,8,5,17:50,UTC,0,1004.9,77,,,19.6,15.5,46268,204,1.9,1.1
2018,8,5,18:00,UTC,0,1004.9,77,,,19.4,15.3,50000,216,2.6,1.6
2018,8,5,18:10,UTC,1,1004.9,76,,,19.6,15.3,50000,217,3.6,2.4
2018,8,5,18:20,UTC,1,1004.9,76,,,19.8,15.5,50000,215,4.8,2.4
2018,8,5,18:30,UTC,5,1004.8,79,,,19.7,16,33126,216,4,2.3
2018,8,5,18:40,UTC,6,1004.6,81,,,19.5,16.2,46466,217,3.1,1.7
2018,8,5,18:50,UTC,7,1004.5,81,,,19.7,16.3,47481,206,3,1.7
2018,8,5,19:00,UTC,7,1004.6,83,,,19.2,16.2,50000,233,3.3,1.9
2018,8,5,19:10,UTC,7,1004.5,82,,,19.1,16,50000,249,2.9,1.7
2018,8,5,19:20,UTC,7,1004.8,82,,,19.1,15.9,50000,281,4.8,2.9
2018,8,5,19:30,UTC,7,1004.6,81,,,18.9,15.6,50000,291,4.4,2.6
2018,8,5,19:40,UTC,7,1004.6,81,,,18.7,15.3,42389,272,3.5,2.1
2018,8,5,19:50,UTC,7,1004.5,81,,,18.6,15.2,50000,265,4,2.3
2018,8,5,20:00,UTC,7,1004.5,82,,,18.3,15.2,50000,272,4.5,2.6
2018,8,5,20:10,UTC,4,1004.4,83,,,18.1,15.1,50000,267,3.9,2.7
2018,8,5,20:20,UTC,2,1004.4,84,,,17.7,15.1,50000,267,3.1,2
2018,8,5,20:30,UTC,1,1004.4,85,,,17.7,15.1,50000,266,3.6,2.3
2018,8,5,20:40,UTC,2,1004.5,84,,,17.7,15,48992,271,3.2,1.9
2018,8,5,20:50,UTC,5,1004.6,85,,,17.7,15,50000,278,3.4,1.9
2018,8,5,21:00,UTC,7,1004.7,85,,,17.7,15.1,50000,276,4.4,2.6
2018,8,5,21:10,UTC,8,1004.7,84,,,17.7,15,50000,280,4.1,2.6
2018,8,5,21:20,UTC,8,1004.7,83,,,17.7,14.7,50000,285,4,2.4
2018,8,5,21:30,UTC,8,1004.7,82,,,17.5,14.4,48763,289,4.7,3
2018,8,5,21:40,UTC,6,1004.8,83,,,17.2,14.3,50000,287,4.6,3
2018,8,5,21:50,UTC,5,1004.8,83,,,17.2,14.3,50000,281,4.7,3
2018,8,5,22:00,UTC,2,1004.9,83,,,16.9,13.9,50000,288,4.5,2.9
2018,8,5,22:10,UTC,1,1004.9,81,,,16.8,13.5,50000,283,4.4,2.7
2018,8,5,22:20,UTC,0,1005,81,,,16.7,13.4,50000,277,5.3,3.2
2018,8,5,22:30,UTC,0,1004.9,82,,,16.5,13.3,50000,275,6.4,4
2018,8,5,22:40,UTC,0,1004.9,82,,,16.4,13.2,50000,273,6.1,3.9
2018,8,5,22:50,UTC,0,1004.9,82,,,16.1,13.1,50000,276,5.2,3.3
2018,8,5,23:00,UTC,0,1005,83,,,16,13.2,50000,277,5.1,2.8
2018,8,5,23:10,UTC,0,1005,85,,,15.9,13.3,50000,278,5.7,3.1
2018,8,5,23:20,UTC,0,1005,86,,,15.6,13.2,50000,281,4.2,2.7
2018,8,5,23:30,UTC,0,1005.1,87,,,15.4,13.2,50000,273,3.6,2.4
2018,8,5,23:40,UTC,0,1005.1,87,,,15.3,13.2,50000,278,3.9,2.3
2018,8,5,23:50,UTC,0,1005,89,,,15.1,13.3,50000,278,4.3,2.3
2018,8,6,00:00,UTC,0,1005.1,90,,,15,13.3,50000,280,3.1,2
2018,8,6,00:10,UTC,0,1005.1,91,,,14.8,13.3,50000,268,3.4,2.1
2018,8,6,00:20,UTC,0,1005.2,91,,,14.9,13.6,50000,268,4,2.5
2018,8,6,00:30,UTC,0,1005.2,92,,,14.8,13.5,50000,275,3.6,2
2018,8,6,00:40,UTC,0,1005.3,93,,,14.6,13.4,47489,285,3.2,1.7
2018,8,6,00:50,UTC,0,1005.3,94,,,14.6,13.7,50000,287,4.2,2.3
2018,8,6,01:00,UTC,2,1005.5,94,,,14.7,13.8,49650,291,4.7,3
2018,8,6,01:10,UTC,5,1005.5,94,,,14.7,13.7,43121,292,7.7,4
2018,8,6,01:20,UTC,7,1005.5,93,,,14.7,13.6,48500,291,6,4.5
2018,8,6,01:30,UTC,4,1005.4,94,,,14.5,13.5,46410,291,5,3.2
2018,8,6,01:40,UTC,2,1005.5,95,,,14.3,13.5,45585,294,3.8,2.7
2018,8,6,01:50,UTC,0,1005.5,95,,,14.2,13.4,48877,295,3.6,2.3
2018,8,6,02:00,UTC,0,1005.6,95,,,14.3,13.5,49120,288,4.5,2.6
2018,8,6,02:10,UTC,0,1005.6,95,,,14.3,13.5,42171,289,4.3,3
2018,8,6,02:20,UTC,0,1005.7,95,,,14.2,13.4,45299,286,5.2,2.9
2018,8,6,02:30,UTC,0,1005.7,95,,,14.3,13.5,43286,280,4.1,2.6
2018,8,6,02:40,UTC,0,1005.7,95,,,14.3,13.5,45720,277,3.6,2.4
2018,8,6,02:50,UTC,0,1005.7,95,,,14.3,13.5,42642,274,3.8,2.5
2018,8,6,03:00,UTC,0,1005.7,95,,,14.3,13.5,46001,275,4.5,2.8
2018,8,6,03:10,UTC,0,1005.7,94,,,14.5,13.5,49366,279,5.2,3.2
2018,8,6,03:20,UTC,0,1005.8,93,,,14.6,13.5,50000,276,4.5,3
2018,8,6,03:30,UTC,0,1005.8,91,,,14.7,13.3,43662,273,4.9,3.2
2018,8,6,03:40,UTC,0,1005.8,90,,,14.9,13.2,40627,275,4.9,3
2018,8,6,03:50,UTC,0,1005.8,89,,,15,13.2,42948,278,5.1,3.1
2018,8,6,04:00,UTC,0,1005.9,87,,,15.2,12.9,38950,281,5.4,3.3
2018,8,6,04:10,UTC,0,1005.9,85,,,15.3,12.7,43950,284,4.8,3.5
2018,8,6,04:20,UTC,0,1006,84,,,15.6,12.9,45868,283,5.6,3.2
2018,8,6,04:30,UTC,0,1006,81,,,15.7,12.4,49160,282,4.3,2.8
2018,8,6,04:40,UTC,0,1005.9,80,,,16.1,12.6,42749,280,4.4,3
2018,8,6,04:50,UTC,0,1005.9,75,,,16.3,11.8,43456,276,5.7,3.5
2018,8,6,05:00,UTC,1,1005.9,75,,,16.7,12.2,40344,285,5.2,3.5
2018,8,6,05:10,UTC,3,1006,72,,,16.9,11.7,43146,280,6.6,3.8
2018,8,6,05:20,UTC,2,1006,71,,,17,11.8,40306,278,6.6,4.4
2018,8,6,05:30,UTC,1,1006,69,,,17.1,11.4,41396,278,7.2,4.7
2018,8,6,05:40,UTC,0,1006,68,,,17.1,11.3,45161,281,7.2,4.6
2018,8,6,05:50,UTC,0,1006,65,,,17.3,10.6,44732,288,8.1,5.1
2018,8,6,06:00,UTC,0,1006,65,,,17.5,10.9,44867,288,8.9,5.7
2018,8,6,06:10,UTC,0,1006,64,,,17.6,10.6,35933,293,8.7,5.8
2018,8,6,06:20,UTC,0,1006,62,,,18.1,10.6,44652,270,7.1,4.7
2018,8,6,06:30,UTC,1,1006,59,,,17.8,9.8,48283,284,8.7,5.8
2018,8,6,06:40,UTC,3,1006,61,,,18.1,10.4,48798,278,9.1,5.5
2018,8,6,06:50,UTC,5,1006,60,,,18.3,10.4,42224,264,11.2,6.7
2018,8,6,07:00,UTC,5,1005.9,59,,,18.3,10.2,48305,262,11,6.3
2018,8,6,07:10,UTC,5,1005.9,61,,,18.2,10.5,46139,263,10.4,6.6
2018,8,6,07:20,UTC,5,1005.9,60,,,18.3,10.3,48558,289,11.1,5.9
2018,8,6,07:30,UTC,6,1005.9,60,,,18.6,10.6,42257,280,8.7,5.7
2018,8,6,07:40,UTC,5,1005.9,56,,,18.2,9.4,47889,285,12.2,7.1
2018,8,6,07:50,UTC,4,1006,56,,,18.5,9.5,39800,270,11.8,7.7
2018,8,6,08:00,UTC,4,1006.1,53,,,19,9.3,46095,281,11,5.9
2018,8,6,08:10,UTC,2,1006,53,,,18.8,8.9,48909,276,11.8,6.1
2018,8,6,08:20,UTC,2,1006,49,,,19.2,8.2,40758,278,12.7,7.2
2018,8,6,08:30,UTC,1,1006,47,,,19.7,8.1,48174,288,11.8,7.3
2018,8,6,08:40,UTC,3,1006,50,,,18.8,8.1,42359,276,11.5,6.7
2018,8,6,08:50,UTC,2,1005.9,48,,,18.9,7.8,47718,275,9.8,6
2018,8,6,09:00,UTC,4,1005.9,47,,,19.5,7.7,39581,286,10,5.5
2018,8,6,09:10,UTC,4,1005.8,47,,,19.4,7.8,45923,292,8.5,5.6
2018,8,6,09:20,UTC,4,1005.7,47,,,20.3,8.5,41256,296,9,5.6
2018,8,6,09:30,UTC,5,1005.6,45,,,20.4,8.2,42437,270,9.2,5.8
2018,8,6,09:40,UTC,5,1005.7,44,,,20.4,7.6,33494,298,10.2,6.8
2018,8,6,09:50,UTC,5,1005.7,45,,,20.5,8.1,42655,292,10.2,6.4
2018,8,6,10:00,UTC,3,1005.5,43,,,20.5,7.4,40874,291,11.1,6.5
2018,8,6,10:10,UTC,3,1005.5,40,,,20.5,6.5,37819,278,11.4,6.8
2018,8,6,10:20,UTC,3,1005.5,41,,,20.9,7,40358,280,10,6.9
2018,8,6,10:30,UTC,2,1005.3,39,,,21.4,6.9,46425,286,9.9,6.4
2018,8,6,10:40,UTC,3,1005.5,41,,,20.1,6.4,46506,277,13.8,7
2018,8,6,10:50,UTC,2,1005.4,39,,,21.4,6.7,41427,273,9.7,6.3
2018,8,6,11:00,UTC,1,1005.3,37,,,21.3,5.8,37044,270,9.6,6.4
2018,8,6,11:10,UTC,1,1005.3,37,,,21,5.7,36414,274,11.6,7.5
2018,8,6,11:20,UTC,3,1005.3,38,,,20.5,5.6,43601,269,12.3,6.4
2018,8,6,11:30,UTC,4,1005.2,38,,,21.3,6.4,38301,274,9.6,6.4
2018,8,6,11:40,UTC,6,1005.1,37,,,21.1,6,32430,296,9.9,6.7
2018,8,6,11:50,UTC,4,1005.2,39,,,21.5,6.8,39425,286,9.3,6
2018,8,6,12:00,UTC,3,1005,36,,,21.4,5.6,45325,269,11.5,7.1
2018,8,6,12:10,UTC,1,1005,35,,,22.1,5.9,40592,274,10.8,6.1
2018,8,6,12:20,UTC,3,1005.1,37,,,21.2,5.7,48621,268,9.4,6
2018,8,6,12:30,UTC,3,1005,37,,,20.8,5.6,49403,290,11,7.5
2018,8,6,12:40,UTC,5,1005,35,,,21.7,5.5,32683,295,12.6,8.1
2018,8,6,12:50,UTC,5,1005.1,36,,,20.9,5.3,38425,290,12.2,7.4
2018,8,6,13:00,UTC,6,1005.1,36,,,20.5,5.1,46798,287,11.9,7.5
2018,8,6,13:10,UTC,6,1005.2,36,,,21,5.5,50000,286,10.9,6.7
2018,8,6,13:20,UTC,5,1005.2,35,,,20.8,4.9,39026,287,11.5,7.3
2018,8,6,13:30,UTC,3,1005.2,36,,,21.6,5.8,40360,281,11.6,6.3
2018,8,6,13:40,UTC,1,1005.3,37,,,20.8,5.5,45307,285,12.7,7.5
2018,8,6,13:50,UTC,3,1005.2,37,,,21.1,5.7,37269,302,11,7.5
2018,8,6,14:00,UTC,4,1005.3,37,,,20.7,5.4,44499,288,11.1,6.9
2018,8,6,14:10,UTC,5,1005.4,36,,,20.6,5.1,43962,286,12.1,7.8
2018,8,6,14:20,UTC,3,1005.4,37,,,21.4,5.9,41569,283,12.6,7.4
2018,8,6,14:30,UTC,2,1005.4,37,,,21.1,5.8,36769,273,11.5,7.2
2018,8,6,14:40,UTC,2,1005.4,36,,,21.1,5.4,45214,279,11.3,7.6
2018,8,6,14:50,UTC,1,1005.4,36,,,20.9,5.4,43080,285,13.7,7.9
2018,8,6,15:00,UTC,1,1005.6,37,,,21.1,5.7,43102,285,13.7,7.8
2018,8,6,15:10,UTC,1,1005.5,37,,,20.4,5.2,39479,268,13.7,8.4
2018,8,6,15:20,UTC,2,1005.7,38,,,20.3,5.7,47298,281,10,6.9
2018,8,6,15:30,UTC,4,1005.7,39,,,20,5.5,50000,277,11.8,7.9
2018,8,6,15:40,UTC,6,1005.8,40,,,20,6.1,48739,292,13.2,7.5
2018,8,6,15:50,UTC,7,1005.9,41,,,19.8,6.3,50000,293,12.2,6.8
2018,8,6,16:00,UTC,8,1005.9,42,,,19.3,6.2,50000,302,9.9,7
2018,8,6,16:10,UTC,8,1006.1,44,,,19.4,6.7,48994,294,9.7,6
2018,8,6,16:20,UTC,7,1006,44,,,19,6.6,49366,292,10.6,7.3
2018,8,6,16:30,UTC,6,1006.1,45,,,19,6.8,46058,293,9.7,6.3
2018,8,6,16:40,UTC,5,1006.1,46,,,19.1,7.2,50000,299,9.2,5.8
2018,8,6,16:50,UTC,4,1006.2,46,,,19.2,7.3,41859,293,9.8,5.9
2018,8,6,17:00,UTC,3,1006.1,48,,,18.6,7.3,50000,290,9.2,5.6
2018,8,6,17:10,UTC,2,1006.2,50,,,18.4,7.7,49802,303,9.9,6.3
2018,8,6,17:20,UTC,2,1006.4,50,,,18.5,7.9,48810,297,8.4,5.4
2018,8,6,17:30,UTC,3,1006.4,52,,,17.9,8,50000,288,10.1,6.6
2018,8,6,17:40,UTC,4,1006.6,54,,,17.6,8.3,50000,290,10.2,6.6
2018,8,6,17:50,UTC,4,1006.5,55,,,17.7,8.4,50000,286,9.3,6.1
2018,8,6,18:00,UTC,2,1006.5,55,,,17.6,8.5,50000,282,10.3,5.4
2018,8,6,18:10,UTC,3,1006.6,56,,,17.5,8.6,50000,284,10.7,5.9
2018,8,6,18:20,UTC,4,1006.7,57,,,17.3,8.7,50000,284,8.9,5.1
2018,8,6,18:30,UTC,4,1006.7,57,,,17.3,8.8,50000,280,9.2,5.3
2018,8,6,18:40,UTC,2,1006.8,58,,,17.2,8.8,50000,282,9.5,5.4
2018,8,6,18:50,UTC,1,1006.8,59,,,17,9,50000,280,7,4.7
2018,8,6,19:00,UTC,0,1006.9,60,,,16.9,9,50000,283,9.9,5.6
2018,8,6,19:10,UTC,0,1007,61,,,16.7,9.1,50000,286,7.4,5.1
2018,8,6,19:20,UTC,0,1007,62,,,16.6,9.2,50000,282,10.2,4.6
2018,8,6,19:30,UTC,0,1007,63,,,16.4,9.3,50000,287,7.5,4.4
2018,8,6,19:40,UTC,0,1007,63,,,16.4,9.4,50000,285,7.1,4.3
2018,8,6,19:50,UTC,1,1007.1,63,,,16.4,9.4,50000,288,7.8,4.9
2018,8,6,20:00,UTC,2,1007.1,64,,,16.2,9.4,50000,290,8.3,4.7
2018,8,6,20:10,UTC,1,1007.2,64,,,16.3,9.5,50000,289,7.7,5.4
2018,8,6,20:20,UTC,1,1007.2,66,,,16.1,9.6,50000,289,7.3,4.2
2018,8,6,20:30,UTC,0,1007.2,66,,,16,9.8,50000,290,6.9,4.1
2018,8,6,20:40,UTC,0,1007.2,67,,,16.1,10,50000,285,6.8,4.1
2018,8,6,20:50,UTC,1,1007.3,67,,,16.1,10.1,50000,287,7.6,5
2018,8,6,21:00,UTC,4,1007.4,67,,,16.3,10.2,50000,287,7.3,5.1
2018,8,6,21:10,UTC,6,1007.4,68,,,16.3,10.3,50000,288,7.2,4.6
2018,8,6,21:20,UTC,7,1007.5,68,,,16.2,10.3,50000,283,7.4,4.9
2018,8,6,21:30,UTC,7,1007.6,69,,,16.1,10.4,50000,287,7.8,4.5
2018,8,6,21:40,UTC,7,1007.7,69,,,16,10.4,50000,290,7.9,4.7
2018,8,6,21:50,UTC,7,1007.7,70,,,15.9,10.5,50000,286,7.6,4.7
2018,8,6,22:00,UTC,7,1007.8,72,,,15.6,10.5,50000,292,7.4,4.7
2018,8,6,22:10,UTC,7,1007.9,73,,,15.3,10.5,50000,295,5.5,3.7
2018,8,6,22:20,UTC,7,1007.9,73,,,15.5,10.7,50000,293,6.8,4.5
2018,8,6,22:30,UTC,7,1008,73,,,15.5,10.8,50000,293,6.6,4.1
2018,8,6,22:40,UTC,7,1008,74,,,15.5,10.8,50000,297,7.3,4.5
2018,8,6,22:50,UTC,7,1008.1,74,,,15.4,10.8,50000,296,6.8,4.3
2018,8,6,23:00,UTC,7,1008.2,75,,,15.2,10.8,50000,298,6.3,3.9
2018,8,6,23:10,UTC,7,1008.2,77,,,14.8,10.8,50000,304,5.7,3.6
2018,8,6,23:20,UTC,7,1008.3,77,,,14.8,10.9,50000,305,6.1,3.7
2018,8,6,23:30,UTC,7,1008.2,78,,,14.7,10.9,50000,307,5.9,3.5
2018,8,6,23:40,UTC,7,1008.3,78,,,14.7,10.9,50000,304,5.1,3.2
2018,8,6,23:50,UTC,7,1008.4,79,,,14.6,10.9,50000,302,5.4,4
2018,8,7,00:00,UTC,4,1008.6,80,,,14.4,10.9,50000,301,5.8,3.6
2018,8,7,00:10,UTC,2,1008.7,81,,,14.1,10.9,50000,300,5.1,2.9
2018,8,7,00:20,UTC,4,1008.7,80,,,14.3,10.9,50000,296,4.3,3
2018,8,7,00:30,UTC,6,1008.7,81,,,14.2,11,50000,295,4.4,2.9
2018,8,7,00:40,UTC,7,1008.8,81,,,14,10.9,50000,294,3.9,2.5
2018,8,7,00:50,UTC,7,1008.9,82,,,14,10.9,50000,292,3.3,2.5
2018,8,7,01:00,UTC,7,1009,82,,,13.9,11,50000,291,3.7,2.5
2018,8,7,01:10,UTC,7,1009,84,,,13.7,10.9,50000,295,3.8,2.6
2018,8,7,01:20,UTC,7,1009.2,84,,,13.6,10.9,50000,298,3.4,2.2
2018,8,7,01:30,UTC,7,1009.3,84,,,13.5,10.9,50000,296,3.5,2.4
2018,8,7,01:40,UTC,7,1009.3,84,,,13.4,10.9,50000,294,3.3,2.2
2018,8,7,01:50,UTC,7,1009.4,84,,,13.6,10.9,50000,284,3,2
2018,8,7,02:00,UTC,7,1009.5,84,,,13.6,10.9,50000,283,3.4,2.3
2018,8,7,02:10,UTC,7,1009.6,84,,,13.5,10.9,50000,291,4,2.3
2018,8,7,02:20,UTC,7,1009.8,84,,,13.6,11,50000,288,3.5,2.2
2018,8,7,02:30,UTC,7,1009.9,85,,,13.4,11,50000,294,3.1,1.7
2018,8,7,02:40,UTC,7,1009.9,85,,,13.3,10.9,50000,300,2.7,1.3
2018,8,7,02:50,UTC,7,1010.1,86,,,13.3,11,50000,298,2.2,1.2
2018,8,7,03:00,UTC,7,1010.1,86,,,13.4,11,50000,293,2.3,1.4
2018,8,7,03:10,UTC,7,1010.2,86,,,13.6,11.2,50000,293,2.7,1.4
2018,8,7,03:20,UTC,7,1010.3,85,,,13.6,11.2,50000,305,2.4,1.4
2018,8,7,03:30,UTC,7,1010.3,85,,,13.8,11.3,50000,291,2.5,1.5
2018,8,7,03:40,UTC,7,1010.3,84,,,14,11.3,50000,285,2.6,1.7
2018,8,7,03:50,UTC,7,1010.3,84,,,14.1,11.4,50000,289,2.3,1.5
2018,8,7,04:00,UTC,7,1010.4,83,,,14.3,11.4,50000,279,2.4,1.5
2018,8,7,04:10,UTC,7,1010.5,82,,,14.5,11.4,44417,276,3,1.8
2018,8,7,04:20,UTC,7,1010.6,81,,,14.9,11.6,46009,281,2.9,2.1
2018,8,7,04:30,UTC,7,1010.7,79,,,15.3,11.6,46632,288,3.3,2.2
2018,8,7,04:40,UTC,7,1010.8,77,,,15.4,11.3,45884,286,4.2,2.9
2018,8,7,04:50,UTC,7,1010.9,77,,,15.7,11.7,50000,288,3.2,2.2
2018,8,7,05:00,UTC,7,1011,76,,,16.1,11.8,50000,292,3.6,2.3
2018,8,7,05:10,UTC,7,1011,75,,,16.3,11.9,50000,291,3.9,2.4
2018,8,7,05:20,UTC,7,1011.2,74,,,16.4,11.9,42811,295,3.8,2.3
2018,8,7,05:30,UTC,7,1011.2,74,,,16.6,11.9,47724,299,4.1,2.8
2018,8,7,05:40,UTC,7,1011.2,72,,,16.9,11.9,47429,282,4.3,2.6
2018,8,7,05:50,UTC,7,1011.3,72,,,17.3,12.1,47924,288,4.8,3
2018,8,7,06:00,UTC,7,1011.4,69,,,17.8,12.1,40785,321,5.5,3.2
2018,8,7,06:10,UTC,8,1011.4,68,,,17.8,11.8,48572,304,5.6,3.6
2018,8,7,06:20,UTC,8,1011.4,68,,,17.6,11.6,44157,292,6,3.9
2018,8,7,06:30,UTC,8,1011.6,68,,,17.9,11.8,45255,312,5.1,3.3
2018,8,7,06:40,UTC,8,1011.8,68,,,18,12,50000,321,5.1,3.6
2018,8,7,06:50,UTC,7,1011.9,66,,,18.3,11.9,43857,310,5.7,3.7
2018,8,7,07:00,UTC,6,1011.9,63,,,18.7,11.5,44567,298,5.1,3.4
2018,8,7,07:10,UTC,3,1011.8,63,,,19,11.8,40630,287,7.1,4.5
2018,8,7,07:20,UTC,1,1011.8,60,,,19.7,11.6,40199,314,7.6,4.6
2018,8,7,07:30,UTC,0,1011.8,57,,,19.7,11.1,37430,301,9,5.2
2018,8,7,07:40,UTC,0,1011.9,55,,,20.2,10.9,39245,300,8.1,5.5
2018,8,7,07:50,UTC,0,1011.9,53,,,20,10.1,35328,297,7.6,5.2
2018,8,7,08:00,UTC,1,1011.9,50,,,20.1,9.2,38546,306,8.2,5.5
2018,8,7,08:10,UTC,1,1011.9,50,,,20.6,9.7,46237,305,8.3,5
2018,8,7,08:20,UTC,1,1011.8,49,,,20.6,9.5,43871,306,7.6,4.7
2018,8,7,08:30,UTC,0,1011.9,48,,,20.6,9.1,41578,321,8.7,4.8
2018,8,7,08:40,UTC,1,1011.9,47,,,21.3,9.5,42564,311,6.7,4.2
2018,8,7,08:50,UTC,4,1011.9,48,,,20.4,9.1,43744,322,7.2,4.5
2018,8,7,09:00,UTC,6,1012,51,,,20.6,9.9,47705,314,6.4,4.4
2018,8,7,09:10,UTC,7,1012.1,52,,,19.9,9.6,50000,304,7.5,4.5
2018,8,7,09:20,UTC,5,1012.1,50,,,21.2,10.4,40624,314,6.4,4.1
2018,8,7,09:30,UTC,2,1012,48,,,21.2,9.7,37327,304,6.4,3.8
2018,8,7,09:40,UTC,1,1012.1,44,,,21.9,9.1,46068,304,4.8,2.9
2018,8,7,09:50,UTC,0,1012.1,43,,,21.5,8.2,43558,303,5.7,3.2
2018,8,7,10:00,UTC,0,1012,44,,,21.7,9,37866,302,6.1,3.1
2018,8,7,10:10,UTC,2,1012,43,,,22.5,9.5,37212,282,5.5,2.8
2018,8,7,10:20,UTC,4,1011.9,43,,,21.2,8,50000,336,8,4.3
2018,8,7,10:30,UTC,4,1012,39,,,22,7.4,41241,286,5.8,3.6
2018,8,7,10:40,UTC,4,1012,36,,,22.5,6.8,38409,269,7.1,4.6
2018,8,7,10:50,UTC,1,1012.1,37,,,21.8,6.6,41381,272,7.9,5.2
2018,8,7,11:00,UTC,1,1012.1,35,,,23.2,6.7,41200,297,8.2,5.2
2018,8,7,11:10,UTC,0,1012.1,36,,,22.8,6.8,39145,283,6.5,3.7
2018,8,7,11:20,UTC,2,1012,35,,,22.9,6.5,44575,305,7.4,4.4
2018,8,7,11:30,UTC,2,1012.1,38,,,22.6,7.6,33421,326,8,4.6
2018,8,7,11:40,UTC,3,1012.2,41,,,22.7,8.7,44636,310,6.8,4
2018,8,7,11:50,UTC,4,1012.1,38,,,23.5,8.4,45672,319,5.3,3.1
2018,8,7,12:00,UTC,5,1012.1,36,,,23.2,7.2,45021,297,8.1,4.8
2018,8,7,12:10,UTC,3,1012.2,36,,,22.3,6.6,39825,301,7.2,4.5
2018,8,7,12:20,UTC,1,1012.2,37,,,22.1,6.7,50000,287,8.2,4.1
2018,8,7,12:30,UTC,1,1012.3,37,,,22.4,6.9,48582,295,7.2,4
2018,8,7,12:40,UTC,1,1012.3,37,,,22.2,6.7,47039,302,5.1,2.9
2018,8,7,12:50,UTC,1,1012.2,44,,,22,9.3,46224,266,6.7,3.1
2018,8,7,13:00,UTC,1,1012.3,48,,,21.7,10.2,45247,210,6.8,4.1
2018,8,7,13:10,UTC,0,1012.3,48,,,21.7,10.2,50000,206,7,4.3
2018,8,7,13:20,UTC,2,1012.2,47,,,22.8,11,42453,207,7.1,4.5
2018,8,7,13:30,UTC,5,1012.2,46,,,22.8,10.6,43773,204,8.5,5.4
2018,8,7,13:40,UTC,7,1012.3,42,,,23.4,9.8,48655,220,5.9,3.7
2018,8,7,13:50,UTC,4,1012.4,44,,,22.3,9.5,46202,243,4.4,2.4
2018,8,7,14:00,UTC,3,1012.4,34,,,23.5,6.6,42556,242,5.6,2.8
2018,8,7,14:10,UTC,1,1012.5,39,,,22.4,7.8,46351,222,5.5,2.7
2018,8,7,14:20,UTC,1,1012.5,43,,,23.3,9.8,33353,241,5.9,3.6
2018,8,7,14:30,UTC,0,1012.5,31,,,23.2,5,39351,267,5.2,2.4
2018,8,7,14:40,UTC,1,1012.5,31,,,23.9,5.9,41700,305,6,3.5
2018,8,7,14:50,UTC,1,1012.6,34,,,22.7,5.9,42210,306,6.3,4
2018,8,7,15:00,UTC,2,1012.6,34,,,23.3,6.4,47595,290,4.6,2.4
2018,8,7,15:10,UTC,2,1012.5,31,,,23,4.8,50000,276,5.9,4.2
2018,8,7,15:20,UTC,1,1012.6,31,,,24.1,5.9,40127,299,5.5,3.2
2018,8,7,15:30,UTC,2,1012.7,32,,,23.6,6,45131,321,7.3,4.5
2018,8,7,15:40,UTC,1,1012.7,34,,,22.4,5.6,49614,323,6.2,4.3
2018,8,7,15:50,UTC,1,1012.8,33,,,23.4,6.1,44991,324,5.3,3.5
2018,8,7,16:00,UTC,0,1012.7,32,,,23.6,5.9,37994,322,5.6,3.9
2018,8,7,16:10,UTC,0,1012.7,33,,,23.3,6.1,46670,326,7,4.5
2018,8,7,16:20,UTC,0,1012.8,33,,,23.3,6.2,44307,328,6.8,4.4
2018,8,7,16:30,UTC,3,1012.9,32,,,23.2,5.6,45653,313,6.1,4.4
2018,8,7,16:40,UTC,1,1012.9,32,,,23.2,5.6,50000,289,6,4.1
2018,8,7,16:50,UTC,1,1013,33,,,23.3,6.2,45893,294,5.1,2.5
2018,8,7,17:00,UTC,0,1013,34,,,22.8,6,49377,313,5.2,3.5
2018,8,7,17:10,UTC,0,1013.1,34,,,22.6,5.9,50000,320,5.2,3.6
2018,8,7,17:20,UTC,0,1013.1,33,,,22.6,5.7,50000,317,4.6,3.3
2018,8,7,17:30,UTC,0,1013.2,34,,,22.4,5.8,50000,316,4.5,3.4
2018,8,7,17:40,UTC,0,1013.3,35,,,22.1,6.1,50000,317,4.9,3
2018,8,7,17:50,UTC,0,1013.4,36,,,21.7,6.1,50000,302,3.9,2.6
2018,8,7,18:00,UTC,0,1013.5,37,,,21.4,6.2,50000,314,3.6,2.2
2018,8,7,18:10,UTC,0,1013.6,38,,,21.1,6.2,50000,314,3.2,2
2018,8,7,18:20,UTC,0,1013.7,41,,,19.9,6.3,50000,312,3.5,2
2018,8,7,18:30,UTC,0,1013.8,45,,,18.9,6.7,50000,304,2,1.4
2018,8,7,18:40,UTC,0,1014,48,,,18.2,7,50000,313,1.3,0.8
2018,8,7,18:50,UTC,0,1014.1,51,,,17.5,7.3,50000,0,0,0
2018,8,7,19:00,UTC,0,1014.2,54,,,17.1,7.7,36287,282,1.7,0.9
2018,8,7,19:10,UTC,0,1014.3,56,,,16.6,7.6,16976,282,1.4,0.8
2018,8,7,19:20,UTC,0,1014.4,56,,,16.2,7.4,8098,291,1.5,0.9
2018,8,7,19:30,UTC,0,1014.4,60,,,15.7,8.1,6463,348,1.1,0.5
2018,8,7,19:40,UTC,0,1014.5,63,,,14.7,7.6,4014,0,0,0
2018,8,7,19:50,UTC,0,1014.6,64,,,14.4,7.8,50000,0,0,0
2018,8,7,20:00,UTC,0,1014.8,66,,,14,7.8,50000,0,0,0
2018,8,7,20:10,UTC,0,1014.8,68,,,13.8,8,50000,0,0,0
2018,8,7,20:20,UTC,0,1014.9,68,,,13.9,8.1,50000,121,0.9,0.7
2018,8,7,20:30,UTC,0,1015,71,,,13.5,8.3,50000,118,0.9,0.6
2018,8,7,20:40,UTC,0,1015.1,74,,,12.9,8.3,50000,100,0.7,0.5
2018,8,7,20:50,UTC,0,1015.2,75,,,12.6,8.3,50000,108,0.7,0.6
2018,8,7,21:00,UTC,0,1015.3,74,,,12.5,8,50000,85,0.7,0.5
2018,8,7,21:10,UTC,0,1015.4,75,,,12.2,7.9,50000,0,0,0
2018,8,7,21:20,UTC,0,1015.4,75,,,11.9,7.7,50000,56,0.7,0.6
2018,8,7,21:30,UTC,0,1015.5,75,,,11.9,7.7,48535,0,0,0
2018,8,7,21:40,UTC,0,1015.5,77,,,11.4,7.6,50000,0,0,0
2018,8,7,21:50,UTC,0,1015.6,79,,,11.4,7.8,43976,0,0,0
2018,8,7,22:00,UTC,0,1015.7,78,,,11.6,8,50000,127,0.7,0.5
2018,8,7,22:10,UTC,0,1015.7,79,,,11.2,7.7,50000,100,0.8,0.6
2018,8,7,22:20,UTC,0,1015.8,82,,,10.8,8,50000,0,0,0
2018,8,7,22:30,UTC,0,1015.8,80,,,10.8,7.5,49987,0,0,0
2018,8,7,22:40,UTC,0,1015.9,85,,,10.6,8.2,50000,0,0,0
2018,8,7,22:50,UTC,0,1016,86,,,10.1,8,50000,0,0,0
2018,8,7,23:00,UTC,0,1016,87,,,10,8,50000,0,0,0
2018,8,7,23:10,UTC,0,1016.1,84,,,10.2,7.6,50000,141,1.2,0.6
2018,8,7,23:20,UTC,0,1016,84,,,9.8,7.3,50000,0,0,0
2018,8,7,23:30,UTC,0,1016.1,88,,,9.8,7.9,50000,0,0,0
2018,8,7,23:40,UTC,0,1016.1,88,,,9.9,7.9,50000,0,0,0
2018,8,7,23:50,UTC,0,1016.2,86,,,9.9,7.6,50000,0,0,0
2018,8,8,00:00,UTC,0,1016.3,88,,,9.7,7.8,50000,0,0,0
2018,8,8,00:10,UTC,0,1016.2,91,,,9.3,7.8,50000,0,0,0
2018,8,8,00:20,UTC,0,1016.3,91,,,9.1,7.7,48872,65,0.8,0.5
2018,8,8,00:30,UTC,0,1016.4,90,,,8.8,7.3,50000,0,0,0
2018,8,8,00:40,UTC,0,1016.5,91,,,8.6,7.3,50000,0,0,0
2018,8,8,00:50,UTC,0,1016.6,94,,,8.7,7.8,50000,0,0,0
2018,8,8,01:00,UTC,0,1016.6,93,,,8.9,7.9,50000,0,0,0
2018,8,8,01:10,UTC,0,1016.6,90,,,8.9,7.3,50000,0,0,0
2018,8,8,01:20,UTC,0,1016.7,90,,,8.3,6.6,48311,0,0,0
2018,8,8,01:30,UTC,0,1016.7,93,,,8.4,7.4,50000,0,0,0
2018,8,8,01:40,UTC,0,1016.7,94,,,8.3,7.5,49365,0,0,0
2018,8,8,01:50,UTC,0,1016.7,95,,,8.4,7.7,45848,0,0,0
2018,8,8,02:00,UTC,0,1016.7,92,,,8.1,6.9,49337,0,0,0
2018,8,8,02:10,UTC,0,1016.7,96,,,8.2,7.5,42091,0,0,0
2018,8,8,02:20,UTC,0,1016.8,95,,,8.1,7.4,45113,0,0,0
2018,8,8,02:30,UTC,0,1016.8,97,,,8,7.6,40976,0,0,0
2018,8,8,02:40,UTC,0,1017,97,,,8.1,7.8,47285,0,0,0
2018,8,8,02:50,UTC,0,1017,96,,,8,7.4,46087,0,0,0
2018,8,8,03:00,UTC,0,1017,96,,,8.2,7.7,45568,0,0,0
2018,8,8,03:10,UTC,0,1017.1,95,,,8.4,7.7,48393,0,0,0
2018,8,8,03:20,UTC,0,1017.2,91,,,8.9,7.5,50000,0,0,0
2018,8,8,03:30,UTC,0,1017.2,90,,,9.5,8,50000,0,0,0
2018,8,8,03:40,UTC,0,1017.3,88,,,9.8,7.9,48636,0,0,0
2018,8,8,03:50,UTC,0,1017.4,87,,,10.4,8.3,41622,318,0.9,0.8
2018,8,8,04:00,UTC,0,1017.5,84,,,11.3,8.7,43191,295,0.8,0.7
2018,8,8,04:10,UTC,0,1017.5,80,,,12.5,9.2,46425,0,0,0
2018,8,8,04:20,UTC,0,1017.6,78,,,13.5,9.6,42682,0,0,0
2018,8,8,04:30,UTC,0,1017.6,73,,,14.6,9.8,44892,0,0,0
2018,8,8,04:40,UTC,0,1017.6,66,,,15.7,9.4,44115,0,0,0
2018,8,8,04:50,UTC,0,1017.6,66,,,15.5,9.2,42882,0,0,0
2018,8,8,05:00,UTC,0,1017.7,61,,,16.8,9.2,38504,0,0,0
2018,8,8,05:10,UTC,0,1017.7,59,,,17.4,9.3,46592,0,0,0
2018,8,8,05:20,UTC,0,1017.7,55,,,18.3,9.2,40251,0,0,0
2018,8,8,05:30,UTC,0,1017.7,54,,,18.4,9,44626,0,0,0
2018,8,8,05:40,UTC,0,1017.7,50,,,19.6,9,42191,0,0,0
2018,8,8,05:50,UTC,0,1017.7,45,,,19.9,7.5,34506,139,2.5,0.8
2018,8,8,06:00,UTC,0,1017.7,48,,,19.9,8.6,46715,208,2.6,1.8
2018,8,8,06:10,UTC,0,1017.7,44,,,20.1,7.4,42326,172,3.5,2
2018,8,8,06:20,UTC,0,1017.7,42,,,20.3,6.8,48054,178,3.4,2.5
2018,8,8,06:30,UTC,0,1017.8,44,,,20.6,7.8,50000,195,3.3,2.3
2018,8,8,06:40,UTC,0,1017.7,47,,,20.7,8.8,50000,189,3.6,2.1
2018,8,8,06:50,UTC,0,1017.8,46,,,21.2,9.3,36899,179,3.3,2.1
2018,8,8,07:00,UTC,0,1017.8,46,,,21.1,9,39971,198,3.8,2.5
2018,8,8,07:10,UTC,0,1017.8,45,,,21.4,8.9,38042,177,4.3,2.6
2018,8,8,07:20,UTC,0,1017.8,46,,,21.3,9,37278,187,4.1,2.4
2018,8,8,07:30,UTC,0,1017.8,45,,,21.4,9,49330,207,5.1,2.8
2018,8,8,07:40,UTC,0,1017.9,43,,,22,8.9,42792,186,4,2.4
2018,8,8,07:50,UTC,0,1017.9,44,,,21.8,8.9,48935,192,5.9,3.3
2018,8,8,08:00,UTC,0,1018,42,,,21.8,8.4,38734,172,5.4,3.3
2018,8,8,08:10,UTC,0,1018.1,42,,,21.9,8.3,50000,172,6.5,4.1
2018,8,8,08:20,UTC,0,1018.2,39,,,21.9,7.4,46947,192,7,4.3
2018,8,8,08:30,UTC,0,1018.2,40,,,21.9,7.9,36385,188,6.4,4.6
2018,8,8,08:40,UTC,0,1018.3,40,,,21.8,7.5,43790,184,6.3,4.9
2018,8,8,08:50,UTC,0,1018.3,38,,,22.1,7.2,47542,176,6.4,4.8
2018,8,8,09:00,UTC,0,1018.3,33,,,22.3,5.1,36986,190,5.8,4.5
2018,8,8,09:10,UTC,0,1018.4,40,,,22.2,7.8,43408,179,7,4.7
2018,8,8,09:20,UTC,0,1018.4,37,,,22.6,7.1,40433,188,6.5,4.7
2018,8,8,09:30,UTC,0,1018.5,41,,,22.3,8.5,45444,199,7.2,5.3
2018,8,8,09:40,UTC,0,1018.4,39,,,22.5,7.8,44060,192,6.5,4.9
2018,8,8,09:50,UTC,0,1018.5,51,,,22.2,11.5,46543,206,7,5.3
2018,8,8,10:00,UTC,0,1018.4,42,,,22.5,8.9,45492,195,6.6,4.5
2018,8,8,10:10,UTC,0,1018.4,47,,,22.3,10.3,44729,193,7.6,5
2018,8,8,10:20,UTC,0,1018.6,43,,,22.2,8.9,44921,197,7.9,4.6
2018,8,8,10:30,UTC,0,1018.6,43,,,22.2,9,41918,201,6.5,4.7
2018,8,8,10:40,UTC,0,1018.6,41,,,22.3,8.3,41321,191,6.3,4.3
2018,8,8,10:50,UTC,0,1018.6,44,,,22.1,9.4,39707,206,6.9,4.8
2018,8,8,11:00,UTC,0,1018.6,39,,,23.1,8.2,41195,180,6.9,4.8
2018,8,8,11:10,UTC,0,1018.6,45,,,22.5,9.8,44121,187,6.2,4.6
2018,8,8,11:20,UTC,0,1018.6,39,,,22.5,8,49558,197,6.5,4.8
2018,8,8,11:30,UTC,0,1018.5,43,,,22.5,9.4,43832,175,7.4,4.9
2018,8,8,11:40,UTC,0,1018.6,45,,,22.6,10.1,40152,188,6.8,5
2018,8,8,11:50,UTC,0,1018.6,45,,,22.6,10,44006,203,7,5.1
2018,8,8,12:00,UTC,0,1018.5,43,,,22.6,9.3,44777,204,6.5,4.8
2018,8,8,12:10,UTC,0,1018.6,40,,,22.7,8.5,40544,182,6.6,4.9
2018,8,8,12:20,UTC,0,1018.5,42,,,22.7,9.1,41065,183,6.4,4.6
2018,8,8,12:30,UTC,0,1018.5,42,,,22.8,9.1,41556,179,6.5,4.9
2018,8,8,12:40,UTC,0,1018.4,43,,,23.3,10.1,44644,177,6.5,4.7
2018,8,8,12:50,UTC,0,1018.3,41,,,23.1,9,42229,182,6.3,4.5
2018,8,8,13:00,UTC,0,1018.4,40,,,23.1,8.7,40273,203,7.3,5.1
2018,8,8,13:10,UTC,0,1018.3,42,,,23.2,9.4,31909,190,6.2,4.5
2018,8,8,13:20,UTC,0,1018.2,38,,,23.7,8.3,42243,171,5.8,4.3
2018,8,8,13:30,UTC,0,1018.1,34,,,24,7,39685,180,5.3,3.5
2018,8,8,13:40,UTC,0,1018.1,33,,,23.7,6.3,42386,197,5.5,3.7
2018,8,8,13:50,UTC,0,1018,30,,,24.3,5.4,45277,199,6.3,3.6
2018,8,8,14:00,UTC,0,1017.9,36,,,23.6,7.5,39819,186,5.7,4.2
2018,8,8,14:10,UTC,0,1017.8,35,,,23.9,7.5,44680,196,5.5,3.6
2018,8,8,14:20,UTC,0,1017.8,36,,,23.9,7.8,49973,206,6.2,4.1
2018,8,8,14:30,UTC,0,1017.8,37,,,24.2,8.4,42837,203,6,3.6
2018,8,8,14:40,UTC,0,1017.8,33,,,24.2,6.7,45712,196,5.3,3.4
2018,8,8,14:50,UTC,0,1017.9,34,,,24.4,7.7,42032,197,5.9,3.6
2018,8,8,15:00,UTC,0,1017.9,34,,,24.1,7.1,39671,203,5.5,3.9
2018,8,8,15:10,UTC,0,1017.9,39,,,24,9.2,46582,188,6.2,3.8
2018,8,8,15:20,UTC,0,1017.9,38,,,23.7,8.6,41023,187,4.7,3.2
2018,8,8,15:30,UTC,0,1018,43,,,23.4,10,49658,189,5.5,3.9
2018,8,8,15:40,UTC,0,1017.8,48,,,23,11.3,46697,171,4.9,2.9
2018,8,8,15:50,UTC,0,1017.8,52,,,22.6,12.2,46663,150,5,3.7
2018,8,8,16:00,UTC,0,1017.9,54,,,22.3,12.6,46030,140,6,4
2018,8,8,16:10,UTC,0,1017.8,56,,,21.9,12.7,43595,140,6.2,4.1
2018,8,8,16:20,UTC,0,1017.7,57,,,21.9,13,44090,135,5.9,4.3
2018,8,8,16:30,UTC,0,1017.8,57,,,21.6,12.8,43486,145,5.7,4.1
2018,8,8,16:40,UTC,0,1017.7,57,,,21.4,12.6,45276,143,5.6,4.4
2018,8,8,16:50,UTC,0,1017.7,57,,,21.5,12.7,45426,152,4.8,3.3
2018,8,8,17:00,UTC,0,1017.7,60,,,21.3,13.3,45510,151,4.7,3.4
2018,8,8,17:10,UTC,0,1017.6,62,,,21.1,13.5,45312,142,4.7,3.4
2018,8,8,17:20,UTC,0,1017.5,62,,,20.6,13.2,49415,133,5.5,4.1
2018,8,8,17:30,UTC,0,1017.6,62,,,20.5,13,50000,133,5.6,3.9
2018,8,8,17:40,UTC,0,1017.6,61,,,20.6,12.9,50000,143,5.4,3.8
2018,8,8,17:50,UTC,0,1017.7,63,,,20.3,13,50000,136,5.1,3.3
2018,8,8,18:00,UTC,0,1017.8,64,,,20,13.1,50000,144,5.4,2.9
2018,8,8,18:10,UTC,0,1017.8,65,,,19.9,13.1,50000,140,4.6,3.1
2018,8,8,18:20,UTC,0,1017.8,67,,,19.7,13.3,50000,139,3.8,2.7
2018,8,8,18:30,UTC,0,1017.8,68,,,19.4,13.4,50000,135,3.4,2.3
2018,8,8,18:40,UTC,0,1017.9,69,,,19.4,13.5,50000,144,2.9,2
2018,8,8,18:50,UTC,0,1017.9,71,,,18.5,13.2,50000,116,3.1,1.9
2018,8,8,19:00,UTC,0,1017.9,72,,,18.3,13.2,50000,124,2.8,2.1
2018,8,8,19:10,UTC,0,1018,74,,,18.2,13.5,29807,124,3,2
2018,8,8,19:20,UTC,0,1018.1,75,,,18.1,13.7,25288,128,3.3,1.9
2018,8,8,19:30,UTC,0,1018.2,76,,,18.2,13.9,50000,122,3.2,1.9
2018,8,8,19:40,UTC,0,1018.2,78,,,17.9,13.9,27361,113,2.8,1.9
2018,8,8,19:50,UTC,0,1018.3,80,,,17.4,13.8,50000,121,3,2.2
2018,8,8,20:00,UTC,0,1018.3,80,,,17.6,14.1,50000,125,3,2.2
2018,8,8,20:10,UTC,0,1018.2,80,,,17.5,14,50000,123,3.3,2.3
2018,8,8,20:20,UTC,0,1018.2,79,,,17.5,13.9,50000,121,3.6,2.6
2018,8,8,20:30,UTC,0,1018.1,78,,,17.6,13.8,50000,118,3.6,2.7
2018,8,8,20:40,UTC,0,1018.1,76,,,18,13.7,50000,120,4,2.5
2018,8,8,20:50,UTC,0,1018.1,76,,,17.9,13.6,50000,121,2.8,2.1
2018,8,8,21:00,UTC,0,1018.1,76,,,18,13.7,50000,113,2.5,1.8
2018,8,8,21:10,UTC,0,1018.1,77,,,17.9,13.7,50000,119,2.4,1.4
2018,8,8,21:20,UTC,0,1018.1,82,,,16.8,13.8,50000,122,1.5,1
2018,8,8,21:30,UTC,0,1018.1,80,,,16.8,13.3,36344,116,1.4,1
2018,8,8,21:40,UTC,0,1018.1,86,,,15.8,13.4,50000,112,1.3,0.8
2018,8,8,21:50,UTC,0,1018.1,86,,,15.7,13.3,50000,112,1.5,1.1
2018,8,8,22:00,UTC,0,1018,85,,,16.8,14.2,50000,127,2.9,1.7
2018,8,8,22:10,UTC,0,1018,80,,,17.4,13.8,50000,127,3.2,2.2
2018,8,8,22:20,UTC,0,1018,81,,,17.1,13.9,50000,134,2.6,1.9
2018,8,8,22:30,UTC,0,1018,85,,,16.2,13.7,50000,133,3.4,2
2018,8,8,22:40,UTC,0,1018,82,,,17.5,14.5,50000,129,3,2.1
2018,8,8,22:50,UTC,0,1018,84,,,16,13.3,50000,108,2.6,1.5
2018,8,8,23:00,UTC,0,1018.1,89,,,15.3,13.5,50000,77,1.3,0.7
2018,8,8,23:10,UTC,0,1017.9,89,,,15.4,13.6,50000,95,1.7,1.3
2018,8,8,23:20,UTC,0,1018,91,,,15,13.5,50000,106,2,1.5
2018,8,8,23:30,UTC,0,1018,93,,,14.9,13.7,50000,107,1.6,0.8
2018,8,8,23:40,UTC,0,1017.9,92,,,15.5,14.2,48379,105,1.7,1.1
2018,8,8,23:50,UTC,0,1018,91,,,15.3,13.8,50000,113,1.5,0.9
2018,8,9,00:00,UTC,0,1018,93,,,14.6,13.6,43787,109,1.8,1.4
2018,8,9,00:10,UTC,0,1018.1,93,,,14.8,13.7,50000,110,1.6,0.7
2018,8,9,00:20,UTC,0,1018.2,93,,,15.1,14,50000,114,1.7,1.1
2018,8,9,00:30,UTC,0,1018.3,94,,,14.6,13.6,48349,122,2.4,1.8
2018,8,9,00:40,UTC,0,1018.3,90,,,16.4,14.7,50000,140,3,2.2
2018,8,9,00:50,UTC,0,1018.3,88,,,17.1,15.1,49603,144,3.5,2.6
2018,8,9,01:00,UTC,0,1018.3,88,,,17.6,15.6,50000,141,3.3,2.7
2018,8,9,01:10,UTC,0,1018.2,87,,,18.3,16.1,48654,144,3.6,2.8
2018,8,9,01:20,UTC,0,1018.3,88,,,18.3,16.3,42801,139,3.4,2.7
2018,8,9,01:30,UTC,0,1018.2,88,,,17.9,16,47259,139,3.5,2.7
2018,8,9,01:40,UTC,0,1018.2,88,,,18.4,16.3,43798,141,3.6,2.9
2018,8,9,01:50,UTC,0,1018.1,88,,,18.2,16.1,48161,141,3.4,2.8
2018,8,9,02:00,UTC,0,1018,88,,,18.1,16.2,48850,141,3.4,2.6
2018,8,9,02:10,UTC,0,1018,87,,,18.4,16.2,45302,144,3.9,2.6
2018,8,9,02:20,UTC,0,1017.9,84,,,18.7,16,46065,147,3.7,2.6
2018,8,9,02:30,UTC,0,1017.9,82,,,19.1,15.9,50000,145,4.1,2.9
2018,8,9,02:40,UTC,0,1017.8,81,,,19.2,15.8,44810,145,3.4,2.7
2018,8,9,02:50,UTC,0,1017.7,82,,,18.8,15.7,50000,131,3.7,2.8
2018,8,9,03:00,UTC,0,1017.7,81,,,19,15.7,50000,136,3.7,2.7
2018,8,9,03:10,UTC,0,1017.7,81,,,19.1,15.7,47249,135,3.6,2.8
2018,8,9,03:20,UTC,0,1017.8,81,,,19.2,15.9,47179,131,4.1,3
2018,8,9,03:30,UTC,0,1017.7,80,,,19.3,15.7,47628,132,3.6,2.8
2018,8,9,03:40,UTC,0,1017.8,79,,,19.4,15.7,48733,133,3.8,2.5
2018,8,9,03:50,UTC,0,1017.7,78,,,19.9,15.8,48164,130,3.7,2.7
2018,8,9,04:00,UTC,0,1017.8,74,,,20.7,15.8,43123,137,4.2,3.1
2018,8,9,04:10,UTC,0,1017.8,70,,,21.2,15.6,40915,143,4.4,2.9
2018,8,9,04:20,UTC,0,1017.8,66,,,21.9,15.3,40033,153,6.3,3.5
2018,8,9,04:30,UTC,0,1018,64,,,22.3,15.1,39863,171,6,3.8
2018,8,9,04:40,UTC,0,1017.9,62,,,22.5,14.9,41418,174,6.8,4.4
2018,8,9,04:50,UTC,0,1018,62,,,22.5,14.8,40197,178,8.5,5.2
2018,8,9,05:00,UTC,0,1018.1,64,,,22.4,15.3,46836,188,7.9,4.7
2018,8,9,05:10,UTC,0,1018,65,,,22.4,15.5,38492,185,8,4.8
2018,8,9,05:20,UTC,0,1018,66,,,22,15.4,42402,184,9.3,5.8
2018,8,9,05:30,UTC,0,1018,67,,,21.8,15.4,36153,182,9.1,5.7
2018,8,9,05:40,UTC,0,1018.1,67,,,21.9,15.5,37459,183,7.9,5.4
2018,8,9,05:50,UTC,0,1018.1,66,,,22,15.5,32711,186,7.7,5.4
2018,8,9,06:00,UTC,0,1018.2,66,,,22,15.4,35923,185,6.8,4.9
2018,8,9,06:10,UTC,0,1018.1,66,,,22.3,15.7,41609,191,7.4,4.9
2018,8,9,06:20,UTC,0,1018,67,,,22,15.6,32225,186,7.2,5.4
2018,8,9,06:30,UTC,0,1017.9,67,,,22.1,15.5,38229,179,7.6,5.3
2018,8,9,06:40,UTC,0,1018,66,,,22.3,15.6,39562,182,8.1,5.8
2018,8,9,06:50,UTC,0,1017.9,66,,,22.3,15.6,38648,186,9.1,6.4
2018,8,9,07:00,UTC,0,1017.9,64,,,22.5,15.4,35924,189,8.6,6.5
2018,8,9,07:10,UTC,0,1018,64,,,22.7,15.6,36841,188,8.8,5.6
2018,8,9,07:20,UTC,0,1017.9,64,,,23.3,16.1,35681,187,7.9,5.5
2018,8,9,07:30,UTC,0,1018,62,,,23.4,15.8,34772,185,8.2,5.6
2018,8,9,07:40,UTC,0,1018.1,63,,,23.1,15.8,35789,183,7.2,5.3
2018,8,9,07:50,UTC,0,1018.1,62,,,23.7,15.8,30158,179,6.6,4.6
2018,8,9,08:00,UTC,0,1018,59,,,24,15.6,37713,182,8.6,5.5
2018,8,9,08:10,UTC,0,1018,58,,,24.4,15.5,42798,178,8.4,6.3
2018,8,9,08:20,UTC,0,1018,57,,,24.7,15.6,29066,187,8.8,6
2018,8,9,08:30,UTC,0,1017.9,56,,,25.6,16.2,32067,195,8.5,5.1
2018,8,9,08:40,UTC,0,1017.8,55,,,25.5,15.8,37469,193,8.6,5.3
2018,8,9,08:50,UTC,0,1017.8,56,,,25.1,15.8,41984,196,8.2,5
2018,8,9,09:00,UTC,0,1017.8,54,,,26.1,16.1,39954,193,6.9,3.9
2018,8,9,09:10,UTC,0,1017.7,52,,,26.4,15.9,46124,184,10,6.8
2018,8,9,09:20,UTC,0,1017.7,49,,,26.9,15.4,41596,197,10.5,7.3
2018,8,9,09:30,UTC,0,1017.7,47,,,27.8,15.4,34507,198,10.8,6.6
2018,8,9,09:40,UTC,0,1017.6,47,,,27.3,15.1,33128,193,11,6.6
2018,8,9,09:50,UTC,1,1017.6,49,,,27.2,15.5,33817,198,9.4,6.5
2018,8,9,10:00,UTC,3,1017.5,48,,,27.3,15.2,31274,177,9.3,6
2018,8,9,10:10,UTC,1,1017.5,46,,,28.1,15.3,37620,172,9.3,6.2
2018,8,9,10:20,UTC,3,1017.5,45,,,28.5,15.5,36131,180,8.4,5
2018,8,9,10:30,UTC,3,1017.4,45,,,28.1,15,32534,182,9.6,6.1
2018,8,9,10:40,UTC,3,1017.4,45,,,28.3,15.2,30757,170,9.8,5.9
2018,8,9,10:50,UTC,2,1017.4,44,,,28.7,15.1,37492,172,10.6,6.2
2018,8,9,11:00,UTC,1,1017.4,43,,,29.1,15.2,35014,183,9.7,5.8
2018,8,9,11:10,UTC,0,1017.4,42,,,28.9,14.8,36582,178,11.4,7
2018,8,9,11:20,UTC,0,1017.4,42,,,29.2,15,38652,179,10.8,6.8
2018,8,9,11:30,UTC,0,1017.4,43,,,28.9,15,32847,202,10.4,6.5
2018,8,9,11:40,UTC,0,1017.4,43,,,28.6,14.9,32930,193,10.7,6.6
2018,8,9,11:50,UTC,0,1017.4,45,,,28.4,15.4,40339,184,9.7,6.4
2018,8,9,12:00,UTC,0,1017.4,43,,,28.6,15,34627,194,9.4,6.5
2018,8,9,12:10,UTC,0,1017.5,44,,,28.2,14.7,28367,191,11,6.5
2018,8,9,12:20,UTC,0,1017.5,46,,,28,15.2,35732,192,8.7,6.1
2018,8,9,12:30,UTC,2,1017.6,46,,,28.2,15.4,38978,187,7.4,5.4
2018,8,9,12:40,UTC,1,1017.6,45,,,28.3,15.2,35317,190,8.7,5.8
2018,8,9,12:50,UTC,1,1017.6,44,,,28.3,15,34672,192,8.7,5
2018,8,9,13:00,UTC,0,1017.7,44,,,28.2,14.9,40915,188,8.5,5.1
2018,8,9,13:10,UTC,0,1017.6,44,,,28.3,14.9,34998,186,8.5,5.4
2018,8,9,13:20,UTC,1,1017.6,44,,,28.5,15,33631,189,8.6,5.8
2018,8,9,13:30,UTC,1,1017.7,44,,,28.4,15,43917,182,6.8,4.9
2018,8,9,13:40,UTC,2,1017.5,44,,,28.2,14.8,34768,184,7.1,5
2018,8,9,13:50,UTC,2,1017.4,44,,,28.4,14.8,35808,190,7.6,4.9
2018,8,9,14:00,UTC,1,1017.2,44,,,28.1,14.6,43436,183,7.7,4.9
2018,8,9,14:10,UTC,1,1017.2,43,,,28.4,14.6,44771,183,7.2,4.9
2018,8,9,14:20,UTC,0,1017.2,44,,,28.4,14.8,40251,184,7.3,5.3
2018,8,9,14:30,UTC,0,1017.3,44,,,28,14.7,40746,188,8.1,5.3
2018,8,9,14:40,UTC,0,1017.2,45,,,27.9,15.1,40271,186,7.1,4.6
2018,8,9,14:50,UTC,0,1017.2,46,,,27.6,15,33432,177,6.2,4.5
2018,8,9,15:00,UTC,1,1017.3,46,,,27.9,15.3,37553,180,5.8,4.1
2018,8,9,15:10,UTC,1,1017.3,47,,,27.9,15.4,39413,183,7.2,4.2
2018,8,9,15:20,UTC,1,1017.2,47,,,27.7,15.2,42685,171,5.9,4.2
2018,8,9,15:30,UTC,1,1017.1,45,,,28.2,15.1,41397,189,7.8,5.1
2018,8,9,15:40,UTC,0,1017.1,46,,,28.2,15.4,41017,191,6,4.2
2018,8,9,15:50,UTC,0,1017.1,46,,,28,15.4,37879,189,6.4,4.3
2018,8,9,16:00,UTC,0,1017.1,47,,,27.9,15.6,40559,185,6.1,3.7
2018,8,9,16:10,UTC,0,1017.1,47,,,27.8,15.4,37665,198,7.6,4.4
2018,8,9,16:20,UTC,0,1017.1,48,,,27.6,15.5,37537,187,6.8,4.5
2018,8,9,16:30,UTC,0,1017.1,48,,,27.4,15.4,41484,194,7.9,4.5
2018,8,9,16:40,UTC,0,1017.1,49,,,27.3,15.6,46800,200,7,4.7
2018,8,9,16:50,UTC,0,1017.1,50,,,27,15.7,34967,197,6.9,4.7
2018,8,9,17:00,UTC,0,1017.1,51,,,26.8,15.8,38441,194,6.7,4.8
2018,8,9,17:10,UTC,0,1017.2,52,,,26.7,16,44536,192,6.7,4.2
2018,8,9,17:20,UTC,0,1017.1,54,,,26.2,16.3,40440,181,5.2,3.4
2018,8,9,17:30,UTC,0,1017,56,,,26,16.4,38241,186,5.7,3.5
2018,8,9,17:40,UTC,0,1017.2,58,,,25.4,16.5,46492,186,5.2,3.2
2018,8,9,17:50,UTC,0,1017.2,59,,,25.2,16.7,45327,178,6.3,3.7
2018,8,9,18:00,UTC,0,1017.1,61,,,24.9,16.8,41640,180,4.8,3.4
2018,8,9,18:10,UTC,0,1017.2,63,,,24.6,17,40262,174,4.7,3.1
2018,8,9,18:20,UTC,0,1017.2,64,,,24.5,17.1,34907,176,4.4,3
2018,8,9,18:30,UTC,0,1017.2,65,,,24.2,17.3,35657,172,3.9,2.9
2018,8,9,18:40,UTC,0,1017.2,66,,,24.1,17.3,41087,171,3.7,2.7
2018,8,9,18:50,UTC,0,1017.3,67,,,24,17.4,39590,169,3.2,2.5
2018,8,9,19:00,UTC,0,1017.3,67,,,23.9,17.4,34414,172,3.2,2.4
2018,8,9,19:10,UTC,0,1017.4,68,,,23.6,17.4,40649,181,3.1,2.3
2018,8,9,19:20,UTC,0,1017.4,69,,,23.3,17.4,36889,195,3,2.3
2018,8,9,19:30,UTC,0,1017.5,69,,,23.5,17.5,39172,191,2.7,2.1
2018,8,9,19:40,UTC,2,1017.6,69,,,23.5,17.4,39137,172,3.3,2.3
2018,8,9,19:50,UTC,1,1017.6,70,,,23.2,17.4,35430,185,2.9,2.1
2018,8,9,20:00,UTC,1,1017.5,69,,,23.2,17.3,36216,188,3.1,1.8
2018,8,9,20:10,UTC,0,1017.6,68,,,23.5,17.2,34851,177,2.7,2
2018,8,9,20:20,UTC,0,1017.7,68,,,23.4,17.1,39502,173,2.9,2
2018,8,9,20:30,UTC,1,1017.7,68,,,23.4,17.1,36202,170,3.6,2.2
2018,8,9,20:40,UTC,4,1017.8,69,,,23.1,17.1,31342,188,2.8,1.9
2018,8,9,20:50,UTC,6,1017.8,71,,,22.6,17.1,37936,198,1.8,1.2
2018,8,9,21:00,UTC,7,1017.8,69,,,23.3,17.2,38063,174,2.4,1.7
2018,8,9,21:10,UTC,7,1017.8,70,,,23,17.2,34984,189,2.3,1.7
2018,8,9,21:20,UTC,7,1017.8,70,,,23.1,17.3,35221,184,2.2,1.6
2018,8,9,21:30,UTC,7,1017.8,70,,,23.1,17.4,27129,178,2,1.5
2018,8,9,21:40,UTC,5,1017.8,72,,,22.6,17.2,32752,173,1.8,1.1
2018,8,9,21:50,UTC,6,1017.8,77,,,21.7,17.5,34617,143,1.3,0.9
2018,8,9,22:00,UTC,6,1017.8,78,,,21.2,17.2,30322,113,1.6,0.9
2018,8,9,22:10,UTC,8,1017.7,82,,,20.6,17.4,34052,102,0.9,0.6
2018,8,9,22:20,UTC,5,1017.8,82,,,20.3,17.2,30079,118,1.3,1
2018,8,9,22:30,UTC,2,1017.7,83,,,20,17.1,30996,137,1,0.6
2018,8,9,22:40,UTC,1,1017.7,86,,,19.7,17.3,28881,138,1.1,0.5
2018,8,9,22:50,UTC,0,1017.7,86,,,19.4,17,27756,168,1.7,0.9
2018,8,9,23:00,UTC,0,1017.7,77,,,21.9,17.7,31263,160,3.8,2.4
2018,8,9,23:10,UTC,0,1017.8,76,,,22,17.6,34104,161,4.6,3.1
2018,8,9,23:20,UTC,0,1017.8,77,,,21.8,17.7,35923,167,3.4,2.4
2018,8,9,23:30,UTC,0,1017.8,79,,,21.6,17.7,33217,168,2.4,1.7
2018,8,9,23:40,UTC,0,1017.7,81,,,20.7,17.3,28766,178,1.8,0.9
2018,8,9,23:50,UTC,0,1017.7,87,,,19.8,17.6,25637,0,0,0
2018,8,10,00:00,UTC,0,1017.7,87,,,18.7,16.5,26331,110,1.3,0.6
2018,8,10,00:10,UTC,0,1017.7,91,,,18.2,16.7,23557,119,2.8,2
2018,8,10,00:20,UTC,0,1017.5,88,,,19,17,26524,135,2.8,2.1
2018,8,10,00:30,UTC,0,1017.5,91,,,18.1,16.7,24930,87,1.7,0.8
2018,8,10,00:40,UTC,0,1017.5,92,,,18.2,16.9,22884,95,1.1,0.6
2018,8,10,00:50,UTC,0,1017.5,93,,,16.9,15.9,20030,0,0,0
2018,8,10,01:00,UTC,0,1017.5,97,,,17.1,16.6,16877,22,0.7,0.5
2018,8,10,01:10,UTC,0,1017.5,94,,,17.2,16.3,20215,107,1.3,0.9
2018,8,10,01:20,UTC,0,1017.5,92,,,17.6,16.2,24441,114,1.9,1.3
2018,8,10,01:30,UTC,0,1017.5,95,,,16.7,15.8,10145,90,1.7,1
2018,8,10,01:40,UTC,0,1017.5,98,,,16.8,16.4,4852,103,1.2,0.9
2018,8,10,01:50,UTC,0,1017.5,96,,,16.4,15.7,14447,112,2.1,1.5
2018,8,10,02:00,UTC,0,1017.4,94,,,16.8,15.9,28143,137,2.3,1.8
2018,8,10,02:10,UTC,0,1017.3,87,,,19,16.8,32568,142,3.4,2.6
2018,8,10,02:20,UTC,0,1017.3,84,,,19.6,16.8,34902,146,3.2,2.6
2018,8,10,02:30,UTC,0,1017.3,82,,,20,16.7,35665,154,3.7,2.6
2018,8,10,02:40,UTC,0,1017.3,79,,,20.3,16.5,32860,160,4,2.7
2018,8,10,02:50,UTC,0,1017.3,77,,,20.5,16.4,37976,159,4.7,2.9
2018,8,10,03:00,UTC,0,1017.3,77,,,20.6,16.3,38173,168,4.5,3
2018,8,10,03:10,UTC,0,1017.2,77,,,20.6,16.3,41769,166,5,3.2
2018,8,10,03:20,UTC,0,1017.2,76,,,20.7,16.4,43529,164,4.9,3
2018,8,10,03:30,UTC,0,1017.3,76,,,20.9,16.4,42750,168,4.7,3.2
2018,8,10,03:40,UTC,0,1017.2,75,,,21,16.4,41252,166,4.8,3.2
2018,8,10,03:50,UTC,0,1017.2,74,,,21.1,16.4,40570,165,5.2,3.4
2018,8,10,04:00,UTC,0,1017.1,73,,,21.4,16.3,36923,162,5.2,3.3
2018,8,10,04:10,UTC,0,1017.1,71,,,21.7,16.3,41429,170,5.1,3.5
2018,8,10,04:20,UTC,0,1017.1,71,,,21.9,16.4,37853,177,4.6,3.2
2018,8,10,04:30,UTC,0,1017,71,,,22,16.4,41666,176,4.9,3.4
2018,8,10,04:40,UTC,0,1017,70,,,22.2,16.4,30439,169,6,3.7
2018,8,10,04:50,UTC,0,1017,69,,,22.5,16.5,38043,174,5.5,3.7
2018,8,10,05:00,UTC,0,1017,68,,,22.7,16.3,38185,173,6.6,4
2018,8,10,05:10,UTC,0,1017,67,,,22.9,16.4,33283,173,6.6,4.8
2018,8,10,05:20,UTC,0,1016.9,66,,,22.9,16.2,33673,179,8.4,5.5
2018,8,10,05:30,UTC,1,1017,65,,,22.9,16,42153,175,7.7,5.4
2018,8,10,05:40,UTC,3,1017,66,,,22.9,16.2,37833,178,8.1,5.4
2018,8,10,05:50,UTC,3,1016.9,64,,,23.3,16.1,32851,177,6.1,4.1
2018,8,10,06:00,UTC,2,1016.8,64,,,23.3,16,38261,179,5.9,4.2
2018,8,10,06:10,UTC,1,1016.9,63,,,23.2,15.9,33803,178,7.7,5.1
2018,8,10,06:20,UTC,0,1016.9,64,,,23.2,16.1,39421,186,7.7,5.4
2018,8,10,06:30,UTC,0,1016.8,63,,,23.6,16,39929,190,6.8,4.9
2018,8,10,06:40,UTC,2,1016.7,61,,,23.8,16,43822,174,6.7,4.6
2018,8,10,06:50,UTC,1,1016.6,59,,,24.1,15.6,37464,173,6.3,4.5
2018,8,10,07:00,UTC,1,1016.6,58,,,24.6,15.9,38982,181,7.2,5
2018,8,10,07:10,UTC,0,1016.5,58,,,24.6,15.6,36252,184,8.8,5.1
2018,8,10,07:20,UTC,0,1016.4,56,,,25.1,15.7,32589,187,8,5.2
2018,8,10,07:30,UTC,0,1016.4,56,,,25.2,15.9,27307,195,6.9,4.9
2018,8,10,07:40,UTC,0,1016.3,54,,,26.2,16.1,34281,186,6.2,3.6
2018,8,10,07:50,UTC,0,1016.2,53,,,26.2,15.9,36396,137,7.4,4.5
2018,8,10,08:00,UTC,0,1016.2,53,,,26.5,16,33332,135,8,5.2
2018,8,10,08:10,UTC,0,1016.3,52,,,26.4,15.7,34883,142,8,5.1
2018,8,10,08:20,UTC,0,1016.2,50,,,26.7,15.5,31135,153,8.5,5.2
2018,8,10,08:30,UTC,0,1016.1,48,,,27,15.1,36294,154,8.6,5.9
2018,8,10,08:40,UTC,0,1016,47,,,27.5,15.2,33765,150,9,5.9
2018,8,10,08:50,UTC,0,1016.1,47,,,27.9,15.4,34969,150,11.4,6.8
2018,8,10,09:00,UTC,0,1016.1,45,,,27.9,15,42363,157,9.6,6.4
2018,8,10,09:10,UTC,0,1016,45,,,28.2,15,29964,154,11.2,7
2018,8,10,09:20,UTC,0,1015.9,44,,,28.4,15,31477,150,10.7,7.3
2018,8,10,09:30,UTC,0,1015.8,43,,,28.6,14.9,31200,154,9.6,6.2
2018,8,10,09:40,UTC,0,1015.8,42,,,28.8,14.7,33197,160,9.7,6.7
2018,8,10,09:50,UTC,0,1015.8,41,,,29.3,14.8,35566,161,12.1,6.2
2018,8,10,10:00,UTC,0,1015.7,42,,,29,14.9,31568,170,9.2,6.4
2018,8,10,10:10,UTC,1,1015.5,43,,,28.2,14.5,40024,172,10.4,6.5
2018,8,10,10:20,UTC,2,1015.6,44,,,28.2,14.8,39961,171,9.4,6
2018,8,10,10:30,UTC,4,1015.4,45,,,28,14.8,34788,165,9,5.7
2018,8,10,10:40,UTC,6,1015.3,45,,,27.8,14.7,39022,165,9.8,6
2018,8,10,10:50,UTC,7,1015.4,44,,,28,14.6,39537,169,10.2,5.7
2018,8,10,11:00,UTC,7,1015.3,42,,,28.9,14.6,34080,168,8.8,5.1
2018,8,10,11:10,UTC,7,1015.1,40,,,28.8,13.8,32141,183,12.6,6.8
2018,8,10,11:20,UTC,4,1015,39,,,29.4,14,29517,190,12.8,7.9
2018,8,10,11:30,UTC,2,1015.2,41,,,28.5,14,26986,190,16,8.3
2018,8,10,11:40,UTC,1,1015.2,48,,,27.7,15.6,27793,183,10.6,6.9
2018,8,10,11:50,UTC,0,1015.2,49,,,27.7,16.1,34801,186,10.3,5.9
2018,8,10,12:00,UTC,0,1015.1,51,,,27.8,16.7,39057,199,12.1,7.6
2018,8,10,12:10,UTC,0,1015,49,,,27.9,16.2,30299,203,11.5,6.7
2018,8,10,12:20,UTC,0,1014.8,50,,,27.8,16.4,31121,196,9.3,6.4
2018,8,10,12:30,UTC,0,1014.7,50,,,27.8,16.4,31477,191,9.7,6.4
2018,8,10,12:40,UTC,2,1014.9,53,,,26.9,16.4,28411,203,9.2,6.7
2018,8,10,12:50,UTC,4,1015,53,,,26.8,16.4,40165,196,10.4,6.3
2018,8,10,13:00,UTC,7,1015.3,54,,,26.5,16.4,31790,206,10.1,5.9
2018,8,10,13:10,UTC,7,1015.4,56,,,26.1,16.5,30165,202,10.6,5.7
2018,8,10,13:20,UTC,8,1015.3,55,,,26.7,16.8,32551,213,8.8,5.3
2018,8,10,13:30,UTC,6,1015.3,54,,,26.6,16.5,38261,210,10.3,6
2018,8,10,13:40,UTC,5,1015.4,55,,,26.3,16.4,34910,211,11.1,6.4
2018,8,10,13:50,UTC,6,1015.5,55,,,26,16.3,34736,208,10.1,6.3
2018,8,10,14:00,UTC,6,1015.5,54,,,26.1,16.1,32268,214,9.9,5.8
2018,8,10,14:10,UTC,7,1015.5,54,,,26,15.9,36320,205,7.9,5.2
2018,8,10,14:20,UTC,7,1015.5,54,,,25.9,15.9,35410,206,10.3,5.1
2018,8,10,14:30,UTC,7,1015.5,54,,,25.9,16,36452,209,8,5.3
2018,8,10,14:40,UTC,7,1015.5,55,,,25.8,16,42330,209,5.7,3.9
2018,8,10,14:50,UTC,7,1015.5,56,,,25.6,16.1,31214,209,9.7,4.7
2018,8,10,15:00,UTC,5,1015.5,56,,,25.6,16.2,38546,205,6.7,4.1
2018,8,10,15:10,UTC,6,1015.4,60,,,25,16.7,25900,203,7.3,4.7
2018,8,10,15:20,UTC,7,1015.3,60,,,24.7,16.4,33297,206,7.3,4.6
2018,8,10,15:30,UTC,7,1015.3,60,,,24.7,16.4,30024,195,5.9,3.9
2018,8,10,15:40,UTC,7,1015.2,69,,,23.4,17.3,11732,196,5.7,3.6
2018,8,10,15:50,UTC,7,1015.3,73,,,23.1,18.1,34178,190,6.9,3
2018,8,10,16:00,UTC,7,1015.5,73,,,22.8,17.7,37082,181,9,5.8
2018,8,10,16:10,UTC,7,1015.5,76,,,22.3,17.9,30894,177,7.3,5.2
2018,8,10,16:20,UTC,8,1015.3,76,,,22.2,17.9,29597,170,9.7,5.7
2018,8,10,16:30,UTC,8,1015.2,81,,,21.3,17.9,15259,173,10.2,7.2
2018,8,10,16:40,UTC,8,1015.2,85,,,20.7,18.1,18895,174,8.9,5.5
2018,8,10,16:50,UTC,8,1015,86,,,20.7,18.2,25247,174,5.9,3.6
2018,8,10,17:00,UTC,8,1014.9,86,,,20.6,18.2,20432,172,3.1,2
2018,8,10,17:10,UTC,8,1014.8,87,,,20.6,18.4,24429,173,3.2,1.9
2018,8,10,17:20,UTC,7,1014.6,84,,,20.8,18.1,28520,163,3.4,2
2018,8,10,17:30,UTC,6,1014.7,85,,,20.9,18.3,32290,154,2.8,1.9
2018,8,10,17:40,UTC,7,1014.7,84,,,21,18.2,29843,155,3.2,2.2
2018,8,10,17:50,UTC,7,1014.6,85,,,21,18.4,28265,159,2.8,2
2018,8,10,18:00,UTC,7,1014.4,83,,,21.1,18,31447,142,3.7,2.3
2018,8,10,18:10,UTC,7,1014.4,83,,,21.1,18.2,36714,150,3.3,2.1
2018,8,10,18:20,UTC,7,1014.3,83,,,21.2,18.1,33601,154,3.8,2.5
2018,8,10,18:30,UTC,8,1014.1,83,,,21.2,18.1,31461,166,3.2,2.1
2018,8,10,18:40,UTC,8,1014,82,,,21.2,18.1,31758,148,3.3,2.3
2018,8,10,18:50,UTC,7,1013.9,80,,,21.5,17.8,36623,155,5,2.8
2018,8,10,19:00,UTC,5,1013.9,79,,,21.4,17.7,32228,165,4.3,2.7
2018,8,10,19:10,UTC,2,1013.8,79,,,21.5,17.6,30790,158,3.9,2.4
2018,8,10,19:20,UTC,2,1013.8,77,,,21.7,17.6,36325,163,4,2.8
2018,8,10,19:30,UTC,2,1013.7,76,,,21.9,17.4,36948,166,5,3.2
2018,8,10,19:40,UTC,2,1013.7,75,,,21.9,17.3,36707,168,5.1,3.5
2018,8,10,19:50,UTC,1,1013.6,77,,,21.7,17.4,40721,164,5,3.2
2018,8,10,20:00,UTC,0,1013.6,77,,,21.6,17.5,39320,167,5,3.2
2018,8,10,20:10,UTC,3,1013.5,78,,,21.6,17.5,39734,176,4.8,3.1
2018,8,10,20:20,UTC,2,1013.5,78,,,21.5,17.5,44244,174,3.7,2.8
2018,8,10,20:30,UTC,1,1013.6,77,,,21.8,17.5,38057,185,6.5,4
2018,8,10,20:40,UTC,0,1013.6,78,,,21.7,17.6,37114,193,6.4,4.3
2018,8,10,20:50,UTC,0,1013.6,79,,,21.6,17.8,37776,192,5.6,3.8
2018,8,10,21:00,UTC,4,1013.6,80,,,21.6,17.9,36410,195,5.3,3.6
2018,8,10,21:10,UTC,6,1013.7,81,,,21.5,18.1,35720,193,4.9,3.2
2018,8,10,21:20,UTC,7,1013.8,83,,,21.4,18.4,33260,197,4.9,3.6
2018,8,10,21:30,UTC,7,1013.8,84,,,21.3,18.6,32219,199,5,3.4
2018,8,10,21:40,UTC,7,1013.8,86,,,21.1,18.6,27146,198,5.6,3.9
2018,8,10,21:50,UTC,5,1013.9,86,,,21,18.6,28055,208,6.7,3.4
2018,8,10,22:00,UTC,6,1013.9,85,,,21.1,18.5,28466,206,7.1,4.1
2018,8,10,22:10,UTC,3,1013.9,85,,,21,18.3,30027,215,7,4.3
2018,8,10,22:20,UTC,4,1013.9,85,,,20.8,18.2,33671,216,6.5,3.7
2018,8,10,22:30,UTC,4,1014,85,,,20.8,18.2,32707,219,6.4,3.9
2018,8,10,22:40,UTC,6,1014,85,,,20.8,18.1,33173,219,5.2,3.6
2018,8,10,22:50,UTC,7,1014,85,,,20.8,18.2,35589,213,5.5,3.2
2018,8,10,23:00,UTC,7,1013.8,85,,,20.7,18.1,36382,217,6.3,3.7
2018,8,10,23:10,UTC,7,1013.7,85,,,20.7,18.1,32292,219,6,3.8
2018,8,10,23:20,UTC,7,1013.6,85,,,20.7,18,37030,214,4.8,3.2
2018,8,10,23:30,UTC,6,1013.7,86,,,20.5,18.1,30769,213,5.1,3.5
2018,8,10,23:40,UTC,6,1013.7,86,,,20.5,18.2,30923,201,4.6,3.1
2018,8,10,23:50,UTC,7,1013.7,87,,,20.5,18.2,34343,207,4.9,3
2018,8,11,00:00,UTC,7,1013.5,87,,,20.6,18.3,33690,206,7.5,3.8
2018,8,11,00:10,UTC,7,1013.4,87,,,20.5,18.3,32552,206,6.2,4
2018,8,11,00:20,UTC,7,1013.7,88,,,20.2,18.3,32526,205,6.4,3.5
2018,8,11,00:30,UTC,7,1013.7,90,,,20.1,18.4,29809,203,6.6,4
2018,8,11,00:40,UTC,7,1013.8,90,,,20.1,18.5,28336,207,6.4,4.3
2018,8,11,00:50,UTC,8,1013.8,91,,,20,18.5,25491,200,6.8,4.3
2018,8,11,01:00,UTC,8,1013.9,91,,,19.9,18.5,30112,201,8.3,4.3
2018,8,11,01:10,UTC,7,1013.8,91,,,19.9,18.4,32073,214,7.1,4.6
2018,8,11,01:20,UTC,4,1013.7,91,,,19.7,18.3,31149,219,6.3,4.4
2018,8,11,01:30,UTC,2,1013.6,91,,,19.6,18.2,27556,218,5.7,4
2018,8,11,01:40,UTC,1,1013.6,92,,,19.5,18.1,27345,211,6,3.5
2018,8,11,01:50,UTC,2,1013.8,92,,,19.4,18.2,29193,212,4.7,3.2
2018,8,11,02:00,UTC,1,1013.8,92,,,19.5,18.1,28608,213,4.8,3.1
2018,8,11,02:10,UTC,2,1013.8,92,,,19.2,17.9,29406,203,5.2,3.2
2018,8,11,02:20,UTC,1,1013.9,91,,,19.4,17.9,33159,209,5.3,3.1
2018,8,11,02:30,UTC,1,1014,91,,,19.4,17.9,29950,205,4.6,3
2018,8,11,02:40,UTC,0,1014,91,,,19.3,17.7,29288,202,5.5,3.1
2018,8,11,02:50,UTC,0,1013.9,91,,,19.2,17.7,32128,202,4.4,2.8
2018,8,11,03:00,UTC,0,1014,91,,,19.1,17.7,32978,203,4.6,2.8
2018,8,11,03:10,UTC,0,1014.1,91,,,19.3,17.8,28701,205,4.7,3
2018,8,11,03:20,UTC,1,1014,90,,,19.4,17.8,28973,206,4.8,2.8
2018,8,11,03:30,UTC,5,1013.9,89,,,19.4,17.5,28067,209,4.6,2.7
2018,8,11,03:40,UTC,6,1014,86,,,19.4,17,31490,215,4.4,2.7
2018,8,11,03:50,UTC,4,1014.1,85,,,19.4,16.9,35913,210,4.6,3
2018,8,11,04:00,UTC,4,1014.1,85,,,19.5,16.9,45025,202,5.2,3.4
2018,8,11,04:10,UTC,3,1014.3,83,,,19.4,16.3,41242,208,5.3,3.2
2018,8,11,04:20,UTC,2,1014.4,73,,,19.6,14.6,40079,217,7.7,4.3
2018,8,11,04:30,UTC,1,1014.5,70,,,19.8,14.2,37989,226,7.7,5
2018,8,11,04:40,UTC,0,1014.5,68,,,19.9,13.7,40492,228,7.3,4.4
2018,8,11,04:50,UTC,0,1014.7,68,,,19.7,13.7,41201,233,10.6,5.8
2018,8,11,05:00,UTC,0,1014.7,66,,,19.8,13.2,43187,238,9,5
2018,8,11,05:10,UTC,0,1014.7,63,,,19.8,12.6,36138,245,8.5,5.8
2018,8,11,05:20,UTC,0,1014.8,65,,,19.7,13,45953,245,9,5.9
2018,8,11,05:30,UTC,0,1014.9,64,,,19.9,12.9,41186,232,7.6,4.8
2018,8,11,05:40,UTC,0,1014.9,62,,,20.1,12.7,34605,233,7.2,4.2
2018,8,11,05:50,UTC,0,1014.9,59,,,20,11.7,44035,230,9.1,5.7
2018,8,11,06:00,UTC,0,1015.1,58,,,20.4,11.9,38446,236,9.6,5.6
2018,8,11,06:10,UTC,0,1015,57,,,20.4,11.5,38316,246,9.6,5.8
2018,8,11,06:20,UTC,0,1015.1,51,,,20.6,10.2,36530,221,8,5
2018,8,11,06:30,UTC,0,1015.2,50,,,20.5,9.7,42738,221,9.6,6.1
2018,8,11,06:40,UTC,0,1015.1,50,,,20.6,9.7,38693,223,9.3,6.5
2018,8,11,06:50,UTC,0,1015.1,48,,,20.7,9.4,48446,224,9.9,6.1
2018,8,11,07:00,UTC,0,1015.1,49,,,20.7,9.6,32377,226,9.8,5.9
2018,8,11,07:10,UTC,0,1015.1,49,,,21.1,9.9,37932,234,9,5.7
2018,8,11,07:20,UTC,0,1015.1,47,,,21.5,9.6,34176,232,8,5.1
2018,8,11,07:30,UTC,0,1015.2,47,,,21.4,9.7,34117,221,9.4,6.3
2018,8,11,07:40,UTC,0,1015.1,46,,,21.8,9.7,34248,238,10.1,6.5
2018,8,11,07:50,UTC,0,1015.1,47,,,21.5,9.9,39636,230,9.9,6.5
2018,8,11,08:00,UTC,0,1015.1,53,,,21.5,11.4,38942,223,11.4,6.9
2018,8,11,08:10,UTC,0,1015.1,51,,,21.5,11,37629,215,10.6,7.4
2018,8,11,08:20,UTC,0,1015.2,52,,,21.8,11.4,33306,222,10,6.7
2018,8,11,08:30,UTC,0,1015.1,51,,,21.6,11,42493,224,10.1,6.2
2018,8,11,08:40,UTC,1,1015.2,51,,,21.7,11,34397,211,10.4,7.5
2018,8,11,08:50,UTC,0,1015.2,52,,,21.9,11.5,38696,199,12.4,8.1
2018,8,11,09:00,UTC,0,1015.2,50,,,21.9,10.9,41247,217,10.7,7.1
2018,8,11,09:10,UTC,0,1015.1,51,,,21.9,11.1,39297,210,11.2,7.4
2018,8,11,09:20,UTC,0,1015.2,51,,,22,11.3,35691,214,11.2,7.4
2018,8,11,09:30,UTC,0,1015.2,50,,,21.9,11,35069,225,11,7.5
2018,8,11,09:40,UTC,0,1015.2,50,,,22,11.2,34100,208,14.3,8.1
2018,8,11,09:50,UTC,0,1015,48,,,22.1,10.7,35722,207,12.9,7.5
2018,8,11,10:00,UTC,0,1015,50,,,22.4,11.4,38939,205,10.9,7.2
2018,8,11,10:10,UTC,0,1015,50,,,22.6,11.5,34437,205,12.5,7.6
2018,8,11,10:20,UTC,0,1015.1,49,,,22,10.8,34735,221,11.6,7.8
2018,8,11,10:30,UTC,0,1015.1,49,,,22.2,10.9,39932,220,11.6,7.7
2018,8,11,10:40,UTC,0,1015.1,48,,,22.1,10.6,33108,205,12.2,7.7
2018,8,11,10:50,UTC,0,1015.1,46,,,22.3,10.3,30421,206,11.2,7.5
2018,8,11,11:00,UTC,0,1015,46,,,22.6,10.4,35388,203,11,7.6
2018,8,11,11:10,UTC,0,1015,46,,,23,10.8,36062,210,11.9,6.5
2018,8,11,11:20,UTC,0,1014.9,44,,,22.8,9.9,27717,200,12.9,8
2018,8,11,11:30,UTC,0,1014.9,46,,,22.5,10.2,37510,199,12.2,8.9
2018,8,11,11:40,UTC,0,1015,45,,,22.4,9.9,38987,201,11.9,8.2
2018,8,11,11:50,UTC,0,1014.9,46,,,22.4,10.1,39441,202,11.3,8
2018,8,11,12:00,UTC,0,1015,45,,,22.5,10,37363,208,13.2,7.5
2018,8,11,12:10,UTC,0,1014.9,46,,,22.1,9.9,33647,209,12.4,8.7
2018,8,11,12:20,UTC,0,1014.8,44,,,22.4,9.7,43367,197,12,8.4
2018,8,11,12:30,UTC,1,1015.1,45,,,22.7,10.3,40329,206,12.4,7.1
2018,8,11,12:40,UTC,4,1015,46,,,21.8,9.5,40305,216,10.5,6.3
2018,8,11,12:50,UTC,5,1014.9,44,,,21.7,8.8,43596,210,9.9,6.9
2018,8,11,13:00,UTC,7,1014.9,44,,,22,9.2,35899,214,9.6,5.5
2018,8,11,13:10,UTC,7,1015,45,,,21.9,9.4,36882,218,9.8,6.5
2018,8,11,13:20,UTC,6,1015.1,45,,,21.8,9.3,40368,209,10.8,6
2018,8,11,13:30,UTC,7,1015,46,,,21.3,9.3,44332,211,10.8,6.5
2018,8,11,13:40,UTC,6,1015,50,,,21.3,10.3,46141,203,10.1,6.3
2018,8,11,13:50,UTC,4,1014.9,49,,,21.4,10.3,49311,203,9.6,5.8
2018,8,11,14:00,UTC,6,1014.8,50,,,21.1,10.2,43123,198,10.6,6.8
2018,8,11,14:10,UTC,6,1014.6,49,,,21.1,9.8,43201,196,11.2,7.7
2018,8,11,14:20,UTC,5,1014.7,49,,,21.4,10.1,47870,207,8.1,5.6
2018,8,11,14:30,UTC,6,1014.7,50,,,20.8,10.1,44607,218,10,6
2018,8,11,14:40,UTC,6,1014.7,51,,,20.8,10.4,47956,213,10.2,6.1
2018,8,11,14:50,UTC,5,1014.5,51,,,20.6,10.2,50000,209,8,5.4
2018,8,11,15:00,UTC,7,1014.7,50,,,20.5,9.8,39837,222,8.3,6
2018,8,11,15:10,UTC,6,1014.6,51,,,20.4,10,45941,231,7.7,5.3
2018,8,11,15:20,UTC,7,1014.6,52,,,20.5,10.2,39706,227,6.4,3.9
2018,8,11,15:30,UTC,7,1014.5,52,,,20.3,10.1,48130,216,8,4.8
2018,8,11,15:40,UTC,7,1014.5,51,,,20.1,9.7,50000,211,7.6,4.7
2018,8,11,15:50,UTC,7,1014.4,51,,,20.1,9.7,45872,208,6.8,4.6
2018,8,11,16:00,UTC,7,1014.2,52,,,19.9,9.8,50000,219,6.3,4.3
2018,8,11,16:10,UTC,7,1014.2,53,,,19.8,9.9,50000,225,6.6,4.4
2018,8,11,16:20,UTC,6,1014,53,,,19.7,9.9,49175,224,6.9,4.3
2018,8,11,16:30,UTC,7,1013.9,54,,,19.6,10.1,49870,225,6,3.9
2018,8,11,16:40,UTC,7,1013.8,56,,,19.6,10.5,50000,221,6.1,3.9
2018,8,11,16:50,UTC,7,1013.8,57,,,19.5,10.7,50000,233,5.4,3.1
2018,8,11,17:00,UTC,7,1013.6,57,,,19.5,10.8,49218,240,5.6,3.4
2018,8,11,17:10,UTC,7,1013.6,57,,,19.5,10.7,46475,240,4.6,3.3
2018,8,11,17:20,UTC,7,1013.6,57,,,19.4,10.8,49004,231,4.6,2.8
2018,8,11,17:30,UTC,4,1013.6,57,,,19.3,10.6,50000,237,3.7,2.6
2018,8,11,17:40,UTC,5,1013.5,55,,,19.4,10.2,50000,245,4.1,2.6
2018,8,11,17:50,UTC,6,1013.4,52,,,19.4,9.3,50000,237,5.2,3.5
2018,8,11,18:00,UTC,7,1013.5,52,,,19.3,9.2,50000,241,6.2,3.4
2018,8,11,18:10,UTC,7,1013.4,53,,,19.1,9.3,50000,250,5,3.5
2018,8,11,18:20,UTC,7,1013.4,54,,,19.1,9.4,50000,242,4.9,2.9
2018,8,11,18:30,UTC,7,1013.4,54,,,18.9,9.5,50000,233,4.8,2.8
2018,8,11,18:40,UTC,7,1013.4,56,,,18.8,9.7,50000,225,4.4,2.8
2018,8,11,18:50,UTC,7,1013.3,58,,,18.5,9.9,50000,223,3.2,2
2018,8,11,19:00,UTC,5,1013.2,60,,,18.3,10.3,49750,221,3.6,2.2
2018,8,11,19:10,UTC,4,1013.3,62,,,18,10.5,48285,230,3.4,2.2
2018,8,11,19:20,UTC,5,1013.2,63,,,18,10.7,49494,227,2.7,2
2018,8,11,19:30,UTC,6,1013.1,63,,,18,10.9,45290,222,2.6,1.8
2018,8,11,19:40,UTC,7,1013,64,,,17.9,11.1,47647,214,2.3,1.4
2018,8,11,19:50,UTC,7,1012.9,66,,,17.6,11.2,50000,219,2.3,1.6
2018,8,11,20:00,UTC,7,1012.8,67,,,17.4,11.2,44982,213,1.9,1.2
2018,8,11,20:10,UTC,7,1012.8,69,,,17.1,11.3,50000,199,2.2,1.9
2018,8,11,20:20,UTC,5,1012.6,69,,,17.1,11.5,48389,209,2.2,1.4
2018,8,11,20:30,UTC,3,1012.6,70,,,16.9,11.4,45354,222,1.6,1
2018,8,11,20:40,UTC,1,1012.5,73,,,16.2,11.3,49316,228,1.3,0.8
2018,8,11,20:50,UTC,1,1012.5,78,,,15.5,11.6,50000,166,1.2,0.6
2018,8,11,21:00,UTC,1,1012.4,78,,,15.3,11.6,47206,160,1.2,0.8
2018,8,11,21:10,UTC,1,1012.3,75,,,16.3,11.9,46342,127,1.3,0.6
2018,8,11,21:20,UTC,1,1012.2,81,,,14.2,11,49317,114,1.1,0.8
2018,8,11,21:30,UTC,1,1012.1,83,,,13.9,11.1,43180,114,1.2,1
2018,8,11,21:40,UTC,0,1012,84,,,13.7,11,45361,107,1.1,0.9
2018,8,11,21:50,UTC,0,1011.9,89,,,13.6,11.7,40043,98,1.2,0.9
2018,8,11,22:00,UTC,0,1011.9,87,,,13.5,11.4,43335,110,1.1,0.8
2018,8,11,22:10,UTC,3,1011.7,88,,,13.2,11.2,50000,57,0.9,0.6
2018,8,11,22:20,UTC,2,1011.5,91,,,13.2,11.7,37127,55,0.7,0.6
2018,8,11,22:30,UTC,6,1011.4,91,,,13,11.5,35967,0,0,0
2018,8,11,22:40,UTC,2,1011.3,93,,,13.1,12,40140,0,0,0
2018,8,11,22:50,UTC,3,1011,93,,,13,11.9,39098,0,0,0
2018,8,11,23:00,UTC,5,1011,93,,,13,12,39669,113,1.3,0.6
2018,8,11,23:10,UTC,6,1010.9,94,,,13.1,12.1,35722,135,1.2,0.8
2018,8,11,23:20,UTC,7,1010.7,94,,,13.4,12.5,28575,0,0,0
2018,8,11,23:30,UTC,7,1010.5,96,,,13,12.3,30703,0,0,0
2018,8,11,23:40,UTC,7,1010.3,95,,,13,12.2,32696,0,0,0
2018,8,11,23:50,UTC,7,1010.2,94,,,12.8,11.8,35183,0,0,0
2018,8,12,00:00,UTC,7,1010.1,95,,,13,12.2,37733,102,1.2,0.9
2018,8,12,00:10,UTC,7,1009.9,94,,,12.8,11.9,35406,7,0.8,0.5
2018,8,12,00:20,UTC,7,1009.7,98,,,13,12.6,24243,42,0.8,0.6
2018,8,12,00:30,UTC,7,1009.5,98,,,12.8,12.5,22537,0,0,0
2018,8,12,00:40,UTC,7,1009.4,97,,,12.7,12.3,25731,116,0.9,0.6
2018,8,12,00:50,UTC,7,1009.4,97,,,12.6,12.1,25585,89,0.8,0.6
2018,8,12,01:00,UTC,8,1009.2,98,,,13,12.7,27525,113,1.3,1
2018,8,12,01:10,UTC,8,1009.2,98,,,13.5,13.1,31543,107,1.8,1.4
2018,8,12,01:20,UTC,7,1009.1,96,,,13.3,12.7,30122,119,1.1,0.8
2018,8,12,01:30,UTC,7,1008.8,97,,,13.7,13.2,30235,110,1.2,0.8
2018,8,12,01:40,UTC,7,1008.6,95,,,12.9,12.2,37639,57,0.9,0.6
2018,8,12,01:50,UTC,7,1008.5,97,,,13.4,13,23470,72,1,0.7
2018,8,12,02:00,UTC,7,1008.5,97,,,13.4,12.9,25352,82,1.2,0.8
2018,8,12,02:10,UTC,7,1008.4,97,,,13,12.5,27694,162,0.9,0.5
2018,8,12,02:20,UTC,7,1008.3,97,,,13.4,12.9,29160,115,1.1,0.9
2018,8,12,02:30,UTC,7,1008.2,98,,,14,13.6,16636,148,1.2,0.7
2018,8,12,02:40,UTC,7,1008.1,97,,,14,13.6,19334,97,1.4,0.9
2018,8,12,02:50,UTC,8,1007.8,98,,,13.9,13.5,16582,77,1,0.7
2018,8,12,03:00,UTC,8,1007.6,97,,,13.9,13.5,24501,0,0,0
2018,8,12,03:10,UTC,8,1007.5,98,,,14.1,13.8,19754,0,0,0
2018,8,12,03:20,UTC,8,1007.3,99,,,14.4,14.1,21234,105,2,0.9
2018,8,12,03:30,UTC,7,1007.3,98,,,14.9,14.6,27830,149,1.8,1.1
2018,8,12,03:40,UTC,6,1007.1,98,,,14.9,14.6,23392,129,2.2,1
2018,8,12,03:50,UTC,4,1006.9,93,,,16.1,15,35309,120,2.7,2.1
2018,8,12,04:00,UTC,3,1006.8,90,,,16.7,15.1,36880,130,3.1,2
2018,8,12,04:10,UTC,4,1006.7,90,,,16.9,15.3,35502,133,3.6,2.4
2018,8,12,04:20,UTC,5,1006.5,89,,,17.2,15.5,35947,140,3.9,2.4
2018,8,12,04:30,UTC,5,1006.4,88,,,17.3,15.3,34555,158,5.1,3.3
2018,8,12,04:40,UTC,6,1006.3,89,,,16.9,15.2,38738,182,6.9,4.6
2018,8,12,04:50,UTC,4,1006.2,87,,,16.8,14.7,39125,201,5,3.7
2018,8,12,05:00,UTC,6,1006.2,86,,,16.7,14.4,39284,199,5.4,3.4
2018,8,12,05:10,UTC,6,1006.2,87,,,16.7,14.5,41538,200,4.7,3.2
2018,8,12,05:20,UTC,7,1006.1,88,,,16.4,14.4,37230,202,6.5,4.2
2018,8,12,05:30,UTC,7,1006,87,,,16.2,14.1,25789,207,5.8,4.1
2018,8,12,05:40,UTC,7,1005.9,88,,,16,14,28510,203,5.2,3.6
2018,8,12,05:50,UTC,8,1006,90,,,15.9,14.3,15738,190,4.1,3.1
2018,8,12,06:00,UTC,8,1005.9,91,,,15.4,13.9,8628,208,4.1,2.9
2018,8,12,06:10,UTC,8,1005.8,94,,,15.4,14.4,8465,173,3.9,2.5
2018,8,12,06:20,UTC,8,1005.7,90,,,15.5,13.9,11981,197,4.8,3.3
2018,8,12,06:30,UTC,8,1005.7,92,,,15.3,13.9,14659,205,6.1,3.9
2018,8,12,06:40,UTC,8,1005.6,92,,,15.1,13.8,13763,204,4.5,3
2018,8,12,06:50,UTC,8,1005.4,93,,,14.8,13.6,9534,208,3.4,2.3
2018,8,12,07:00,UTC,8,1005.3,93,,,14.8,13.6,9971,187,3.3,2.2
2018,8,12,07:10,UTC,8,1005.2,94,,,14.7,13.8,7983,169,2.8,1.7
2018,8,12,07:20,UTC,8,1005,93,,,14.7,13.7,10023,160,3.2,1.8
2018,8,12,07:30,UTC,8,1004.9,94,,,14.8,13.8,12893,158,2.9,1.8
2018,8,12,07:40,UTC,8,1004.8,95,,,14.7,13.9,24072,127,2,1.4
2018,8,12,07:50,UTC,8,1004.6,95,,,14.8,13.9,35697,107,2.5,1.7
2018,8,12,08:00,UTC,8,1004.6,95,,,15,14.1,32605,107,3.1,1.7
2018,8,12,08:10,UTC,7,1004.5,94,,,15.4,14.3,34325,120,3,2.1
2018,8,12,08:20,UTC,7,1004.4,91,,,15.4,14,36629,120,3.4,2.3
2018,8,12,08:30,UTC,7,1004.3,93,,,15.5,14.4,35672,120,2.9,2
2018,8,12,08:40,UTC,7,1004.1,92,,,15.7,14.4,30439,101,2.5,1.7
2018,8,12,08:50,UTC,7,1003.8,91,,,16.5,15.1,35269,117,3.1,2
2018,8,12,09:00,UTC,7,1003.7,85,,,16.8,14.2,39191,124,4.5,2.5
2018,8,12,09:10,UTC,7,1003.6,84,,,17.4,14.7,43288,149,4.1,2.8
2018,8,12,09:20,UTC,7,1003.6,80,,,17.2,13.8,41887,147,4.7,3.3
2018,8,12,09:30,UTC,7,1003.6,84,,,17,14.2,45785,159,5.4,3.5
2018,8,12,09:40,UTC,7,1003.4,83,,,17,14.1,46728,146,4.6,2.8
2018,8,12,09:50,UTC,7,1003.1,81,,,17.4,14.1,40418,152,4.9,3.1
2018,8,12,10:00,UTC,7,1002.9,81,,,18.1,14.9,44636,128,6,3.9
2018,8,12,10:10,UTC,7,1002.9,76,,,18.6,14.2,41797,149,5.2,3.1
2018,8,12,10:20,UTC,5,1003,75,,,18.6,14.1,48407,169,6.4,4.1
2018,8,12,10:30,UTC,6,1002.8,79,,,18,14.3,45561,145,6.7,4.8
2018,8,12,10:40,UTC,7,1002.6,74,,,18.1,13.4,39725,146,6,4.4
2018,8,12,10:50,UTC,6,1002.5,77,,,17.6,13.5,48459,145,6.7,4.8
2018,8,12,11:00,UTC,7,1002.5,87,,,16.9,14.7,22231,138,5.4,4.1
2018,8,12,11:10,UTC,7,1002.4,91,,,16.5,15,12179,129,4.6,3.3
2018,8,12,11:20,UTC,7,1002,87,,,16.9,14.6,42703,110,3,2.2
2018,8,12,11:30,UTC,7,1002.1,87,,,17.1,14.8,42826,137,4.2,2.3
2018,8,12,11:40,UTC,7,1001.9,90,,,16.3,14.8,1811,144,6.5,3.3
2018,8,12,11:50,UTC,7,1001.8,86,,,16.4,14.1,14167,164,4.2,2.7
2018,8,12,12:00,UTC,6,1001.6,90,,,16.7,15,37690,152,2.7,1.7
2018,8,12,12:10,UTC,5,1001.5,89,,,17.5,15.6,41468,129,2.7,1.6
2018,8,12,12:20,UTC,6,1001.3,83,,,17.7,14.8,38990,179,2.5,1.4
2018,8,12,12:30,UTC,7,1001.1,85,,,18.6,16,39495,144,6,2.8
2018,8,12,12:40,UTC,7,1000.8,78,,,18,14.1,35163,163,5.6,3.9
2018,8,12,12:50,UTC,7,1000.7,76,,,17.9,13.7,40778,153,6.7,3.7
2018,8,12,13:00,UTC,7,1000.6,76,,,18,13.7,50000,155,8,4.6
2018,8,12,13:10,UTC,7,1000.4,77,,,17.6,13.6,43061,167,8.5,4.7
2018,8,12,13:20,UTC,7,1000.3,71,,,18.2,12.9,39383,155,7.7,5.5
2018,8,12,13:30,UTC,6,1000.2,72,,,18.3,13.2,46588,160,7.2,4.4
2018,8,12,13:40,UTC,4,1000.2,75,,,18.3,13.8,38855,150,9,6.1
2018,8,12,13:50,UTC,5,999.9,72,,,18.3,13.1,42412,155,7,4.5
2018,8,12,14:00,UTC,6,999.7,69,,,18.4,12.5,42219,170,9.8,5.6
2018,8,12,14:10,UTC,7,1000,71,,,18.9,13.5,35322,174,8.2,5.4
2018,8,12,14:20,UTC,7,999.8,72,,,18.3,13.1,32298,169,8.5,5.8
2018,8,12,14:30,UTC,7,999.7,72,,,18,12.9,49220,169,7.6,5.2
2018,8,12,14:40,UTC,6,999.7,74,,,17.7,13.1,44627,169,7.1,5.2
2018,8,12,14:50,UTC,5,999.6,75,,,17.7,13.2,50000,194,7.2,4.7
2018,8,12,15:00,UTC,5,999.6,77,,,17.4,13.2,47911,198,6.6,4.6
2018,8,12,15:10,UTC,5,999.6,77,,,17.2,13.3,47791,185,6.6,4.9
2018,8,12,15:20,UTC,4,999.5,75,,,17.2,12.8,50000,183,6.1,4.4
2018,8,12,15:30,UTC,5,999.3,77,,,17.2,13.1,50000,180,5.7,4.2
2018,8,12,15:40,UTC,4,999.4,76,,,17.1,12.8,50000,186,4.5,3
2018,8,12,15:50,UTC,5,999.3,72,,,17,11.8,49576,196,4.1,2.5
2018,8,12,16:00,UTC,3,999.3,71,,,16.9,11.6,49690,197,3.8,2.5
2018,8,12,16:10,UTC,4,999.4,72,,,16.9,11.8,50000,246,2.7,1.5
2018,8,12,16:20,UTC,6,999.5,78,,,15.5,11.7,50000,6,8.2,3.9
2018,8,12,16:30,UTC,7,999.4,78,,,15.1,11.3,50000,358,5.3,3.3
2018,8,12,16:40,UTC,8,999.2,79,,,14.7,11.2,50000,358,4.4,2.8
2018,8,12,16:50,UTC,8,999.1,82,,,14.5,11.5,50000,357,4.2,2.8
2018,8,12,17:00,UTC,8,999.1,83,,,14.5,11.6,50000,4,4.2,1.8
2018,8,12,17:10,UTC,8,999,85,,,14.3,11.8,48919,353,3,1.9
2018,8,12,17:20,UTC,8,998.9,86,,,14.2,12,50000,23,4.1,2
2018,8,12,17:30,UTC,7,999,89,,,14.2,12.5,48655,10,3.3,1.6
2018,8,12,17:40,UTC,7,999.2,91,,,14,12.6,40635,356,4.9,3
2018,8,12,17:50,UTC,7,999.3,93,,,13.5,12.4,42432,344,6.6,4.6
2018,8,12,18:00,UTC,7,999.4,94,,,13.4,12.5,38988,360,6.4,3.5
2018,8,12,18:10,UTC,7,999.5,96,,,13.5,12.8,30727,348,4.9,3.4
2018,8,12,18:20,UTC,7,999.5,97,,,13.6,13.1,26457,343,4.3,3
2018,8,12,18:30,UTC,7,999.6,97,,,13.7,13.3,32722,330,5.9,3.2
2018,8,12,18:40,UTC,7,999.6,98,,,13.7,13.3,32460,337,5.4,4.2
2018,8,12,18:50,UTC,7,999.6,97,,,13.4,13,37698,345,5,3.2
2018,8,12,19:00,UTC,5,999.7,98,,,13.2,12.8,34715,342,4.1,2.6
2018,8,12,19:10,UTC,3,999.7,98,,,12.9,12.6,33975,333,3,2.1
2018,8,12,19:20,UTC,2,999.8,98,,,13,12.7,42391,322,3.5,2.2
2018,8,12,19:30,UTC,1,999.9,98,,,13,12.7,32531,324,3.6,2.7
2018,8,12,19:40,UTC,4,999.9,98,,,13.1,12.8,40281,326,3.6,2.6
2018,8,12,19:50,UTC,6,1000,96,,,13.3,12.6,48645,321,4.2,3.2
2018,8,12,20:00,UTC,7,1000.2,95,,,13.4,12.6,50000,318,5.3,3.8
2018,8,12,20:10,UTC,7,1000.3,92,,,13.4,12.1,50000,323,7,4.2
2018,8,12,20:20,UTC,7,1000.4,92,,,13.3,12,50000,330,5.2,3.3
2018,8,12,20:30,UTC,7,1000.5,91,,,13.1,11.7,50000,324,4.9,3.6
2018,8,12,20:40,UTC,5,1000.5,92,,,12.9,11.7,50000,316,3.8,2.7
2018,8,12,20:50,UTC,7,1000.6,92,,,12.8,11.6,50000,320,3.4,2.5
2018,8,12,21:00,UTC,7,1000.7,93,,,12.8,11.7,50000,307,3.3,1.9
2018,8,12,21:10,UTC,7,1000.7,93,,,12.9,11.8,50000,301,4.1,2.5
2018,8,12,21:20,UTC,7,1000.7,93,,,12.8,11.6,50000,303,4.3,2.9
2018,8,12,21:30,UTC,7,1000.8,94,,,12.6,11.6,50000,301,3.5,2.3
2018,8,12,21:40,UTC,4,1000.9,94,,,12.5,11.5,50000,312,2.8,2
2018,8,12,21:50,UTC,3,1001,96,,,12.4,11.7,50000,311,3,1.9
2018,8,12,22:00,UTC,4,1001.1,96,,,12.5,11.9,50000,301,2.9,2.1
2018,8,12,22:10,UTC,6,1001.2,95,,,12.7,12,50000,295,3.3,2.3
2018,8,12,22:20,UTC,7,1001.3,95,,,12.8,12,50000,290,3.3,2.1
2018,8,12,22:30,UTC,8,1001.3,95,,,12.7,11.9,49903,303,3.5,2.3
2018,8,12,22:40,UTC,7,1001.4,95,,,12.6,11.8,50000,300,3.8,2.4
2018,8,12,22:50,UTC,7,1001.4,96,,,12.6,11.9,46430,307,3.6,2.2
2018,8,12,23:00,UTC,7,1001.4,95,,,12.7,12,49558,305,4.2,2.7
2018,8,12,23:10,UTC,6,1001.4,95,,,12.6,11.8,50000,312,4.7,2.4
2018,8,12,23:20,UTC,6,1001.5,95,,,12.4,11.6,50000,320,3.3,2.1
2018,8,12,23:30,UTC,3,1001.5,96,,,12.3,11.7,48738,312,2.4,1.9
2018,8,12,23:40,UTC,1,1001.5,95,,,12.2,11.4,50000,310,2.7,1.9
2018,8,12,23:50,UTC,0,1001.5,95,,,12.1,11.3,50000,309,2.8,2.1
2018,8,13,00:00,UTC,1,1001.5,95,,,12.1,11.3,48004,307,2.6,1.8
2018,8,13,00:10,UTC,1,1001.6,95,,,12,11.3,50000,308,3.5,2.1
2018,8,13,00:20,UTC,1,1001.7,95,,,12.1,11.3,47869,301,4,2.8
2018,8,13,00:30,UTC,0,1001.8,94,,,12.1,11.1,49561,298,4.2,2.7
2018,8,13,00:40,UTC,0,1001.9,95,,,12.1,11.3,49759,302,5.1,2.7
2018,8,13,00:50,UTC,1,1001.9,94,,,12.1,11.2,50000,299,4.8,3
2018,8,13,01:00,UTC,1,1002,93,,,12.1,11,47912,304,5.2,3.1
2018,8,13,01:10,UTC,5,1002.1,93,,,11.9,10.7,50000,300,4.3,2.6
2018,8,13,01:20,UTC,6,1002.2,92,,,11.8,10.6,50000,300,3.8,2.5
2018,8,13,01:30,UTC,7,1002.3,92,,,11.7,10.5,50000,297,4.2,2.7
2018,8,13,01:40,UTC,7,1002.4,92,,,11.7,10.3,50000,301,4,2.6
2018,8,13,01:50,UTC,7,1002.5,91,,,11.4,10,50000,311,4.2,2.7
2018,8,13,02:00,UTC,7,1002.5,91,,,11.2,9.8,50000,313,3.4,2.3
2018,8,13,02:10,UTC,4,1002.7,91,,,11.1,9.7,50000,310,3.5,2.3
2018,8,13,02:20,UTC,2,1002.8,92,,,11,9.8,50000,293,3.5,2.5
2018,8,13,02:30,UTC,0,1002.8,92,,,11,9.8,50000,289,4.6,3.1
2018,8,13,02:40,UTC,0,1002.9,93,,,10.8,9.7,49689,290,3.5,2.4
2018,8,13,02:50,UTC,1,1003,93,,,10.8,9.8,49527,287,3.5,2.4
2018,8,13,03:00,UTC,4,1003.1,93,,,10.9,9.7,50000,286,3.4,2.3
2018,8,13,03:10,UTC,2,1003.1,94,,,10.6,9.7,48120,295,2.4,1.7
2018,8,13,03:20,UTC,2,1003.3,94,,,10.8,9.8,50000,288,2.5,1.6
2018,8,13,03:30,UTC,0,1003.2,93,,,10.7,9.7,50000,285,2.3,1.4
2018,8,13,03:40,UTC,0,1003.3,94,,,10.5,9.5,48575,295,2.2,1.3
2018,8,13,03:50,UTC,0,1003.3,93,,,10.9,9.8,43587,290,2.9,1.4
2018,8,13,04:00,UTC,1,1003.4,92,,,11.1,9.9,44192,298,2.7,1.4
2018,8,13,04:10,UTC,0,1003.5,92,,,11.3,9.9,36939,308,2.5,1.5
2018,8,13,04:20,UTC,0,1003.6,90,,,11.7,10,39340,294,2.5,1.7
2018,8,13,04:30,UTC,0,1003.7,88,,,12.2,10.2,41657,287,2.8,1.6
2018,8,13,04:40,UTC,0,1003.7,86,,,12.6,10.4,48974,281,3.8,2
2018,8,13,04:50,UTC,0,1003.8,84,,,13,10.4,40178,294,3.5,2.3
2018,8,13,05:00,UTC,0,1003.8,83,,,13.3,10.5,35259,298,4.9,2.8
2018,8,13,05:10,UTC,0,1003.9,81,,,13.7,10.5,43347,285,6.4,3.4
2018,8,13,05:20,UTC,0,1003.9,80,,,14,10.5,42004,281,5.4,3.7
2018,8,13,05:30,UTC,0,1004,78,,,14.3,10.4,43665,279,5.8,4
2018,8,13,05:40,UTC,0,1004,76,,,14.5,10.4,38417,282,5.5,3.9
2018,8,13,05:50,UTC,0,1004.1,76,,,14.6,10.5,43276,303,4.7,2.9
2018,8,13,06:00,UTC,3,1004.1,72,,,15.4,10.4,40952,289,6.1,2.6
2018,8,13,06:10,UTC,4,1004.2,69,,,15.8,10.2,42088,280,6,3.9
2018,8,13,06:20,UTC,3,1004.2,67,,,16.2,10,37321,277,6.1,3.9
2018,8,13,06:30,UTC,5,1004.3,64,,,16.5,9.8,43011,287,6.4,4.2
2018,8,13,06:40,UTC,3,1004.3,63,,,16.9,9.8,45045,286,7.9,5.3
2018,8,13,06:50,UTC,2,1004.4,64,,,16.9,10,41329,294,7.7,5.5
2018,8,13,07:00,UTC,4,1004.4,63,,,16.5,9.4,42120,295,8.7,5.7
2018,8,13,07:10,UTC,5,1004.5,64,,,17.1,10.3,44267,296,8.8,5.2
2018,8,13,07:20,UTC,7,1004.6,63,,,16.7,9.7,41324,289,8.1,5.1
2018,8,13,07:30,UTC,7,1004.7,60,,,17,9.1,43570,276,10.7,5.4
2018,8,13,07:40,UTC,6,1004.8,61,,,16.7,9,42477,276,10.1,6.5
2018,8,13,07:50,UTC,5,1005,60,,,16.4,8.8,41965,285,10.8,7.5
2018,8,13,08:00,UTC,5,1005.1,62,,,16.4,9.1,43342,271,10.9,6.4
2018,8,13,08:10,UTC,2,1005.3,60,,,16.4,8.7,41104,278,9.5,6.2
2018,8,13,08:20,UTC,1,1005.3,58,,,17,8.6,47025,290,9.6,5.9
2018,8,13,08:30,UTC,1,1005.3,52,,,17.1,7.2,44668,293,12.3,7.2
2018,8,13,08:40,UTC,1,1005.3,54,,,17.7,8.2,43637,275,10.4,6.1
2018,8,13,08:50,UTC,2,1005.5,51,,,17.8,7.5,31573,259,12.1,7.5
2018,8,13,09:00,UTC,4,1005.5,51,,,17.3,7.2,42449,279,11.5,7.4
2018,8,13,09:10,UTC,3,1005.4,53,,,17.8,8.2,41507,279,7.7,4.7
2018,8,13,09:20,UTC,4,1005.3,54,,,17.7,8.3,50000,293,7.6,4.9
2018,8,13,09:30,UTC,4,1005.3,54,,,18.6,9.1,37573,286,7.5,4.5
2018,8,13,09:40,UTC,6,1005.3,49,,,18.5,7.7,43919,295,9.8,5.3
2018,8,13,09:50,UTC,7,1005.4,52,,,18.4,8.5,42376,306,8.6,6.1
2018,8,13,10:00,UTC,7,1005.2,49,,,19.1,8.2,42318,266,7.8,5.5
2018,8,13,10:10,UTC,7,1005.3,49,,,18.8,7.8,37825,251,8.7,6.2
2018,8,13,10:20,UTC,7,1005.3,48,,,19.5,8.2,39461,268,10,5.8
2018,8,13,10:30,UTC,7,1005.2,49,,,20,8.8,33811,282,8.4,5
2018,8,13,10:40,UTC,7,1005.3,50,,,18.8,8.1,46813,300,8.1,5.4
2018,8,13,10:50,UTC,7,1005.2,50,,,18.8,8.3,50000,297,8.4,5.4
2018,8,13,11:00,UTC,7,1005.3,51,,,18.6,8.3,50000,294,7.3,5
2018,8,13,11:10,UTC,7,1005.4,51,,,18.7,8.4,37120,304,9,5.4
2018,8,13,11:20,UTC,7,1005.5,51,,,18.8,8.5,45238,301,8.9,5.5
2018,8,13,11:30,UTC,6,1005.5,49,,,20,8.9,41727,294,8,5.2
2018,8,13,11:40,UTC,3,1005.5,46,,,19.8,7.7,43291,288,9.6,4.9
2018,8,13,11:50,UTC,1,1005.4,46,,,19.4,7.6,43271,283,6.8,4.5
2018,8,13,12:00,UTC,3,1005.4,43,,,21.2,8.1,45920,269,7.3,4.6
2018,8,13,12:10,UTC,4,1005.4,42,,,20.6,7.2,34127,273,8.9,5.9
2018,8,13,12:20,UTC,5,1005.4,42,,,20.5,7.1,49814,286,9.7,6.3
2018,8,13,12:30,UTC,5,1005.6,43,,,20.3,7.4,43147,292,9,6.3
2018,8,13,12:40,UTC,6,1005.7,44,,,20.3,7.6,34689,266,8.8,5.9
2018,8,13,12:50,UTC,6,1005.7,45,,,20.8,8.5,40892,263,9.8,5.5
2018,8,13,13:00,UTC,7,1005.6,44,,,20,7.4,47046,275,9.2,5.3
2018,8,13,13:10,UTC,6,1005.8,52,,,19.1,8.9,49722,295,7.3,4.7
2018,8,13,13:20,UTC,7,1005.8,51,,,19.4,9,46908,313,8.8,5.5
2018,8,13,13:30,UTC,4,1005.9,51,,,18.8,8.4,50000,313,8.3,5.6
2018,8,13,13:40,UTC,4,1005.9,50,,,19.2,8.5,49907,290,7.8,5.2
2018,8,13,13:50,UTC,4,1006,50,,,19.3,8.6,50000,292,6.6,4.4
2018,8,13,14:00,UTC,6,1006,50,,,18.9,8.1,42671,296,8.1,5.9
2018,8,13,14:10,UTC,7,1006.1,54,,,18.5,9,30730,287,7.5,5.5
2018,8,13,14:20,UTC,7,1006.2,54,,,18.4,9.1,50000,292,6.9,4.3
2018,8,13,14:30,UTC,7,1006.3,56,,,18.2,9.1,50000,304,9,5.4
2018,8,13,14:40,UTC,8,1006.3,52,,,18.4,8.4,50000,293,8,4.1
2018,8,13,14:50,UTC,7,1006.4,50,,,18.3,7.7,50000,295,9.8,5.7
2018,8,13,15:00,UTC,7,1006.5,51,,,18.3,8,49246,287,7.6,5
2018,8,13,15:10,UTC,7,1006.5,51,,,18.3,7.9,45249,284,5.8,3.7
2018,8,13,15:20,UTC,8,1006.4,52,,,18.3,8.1,46014,289,6.6,4.2
2018,8,13,15:30,UTC,7,1006.5,47,,,19.2,7.6,43795,293,7.7,4.2
2018,8,13,15:40,UTC,5,1006.5,44,,,18.9,6.3,46827,311,10.8,5.4
2018,8,13,15:50,UTC,2,1006.6,48,,,18,6.8,45057,304,9,5.1
2018,8,13,16:00,UTC,2,1006.7,48,,,18,7,50000,299,8.2,5.1
2018,8,13,16:10,UTC,5,1006.8,48,,,18.2,7,49393,295,9,4.9
2018,8,13,16:20,UTC,6,1006.9,50,,,17.8,7.4,47935,303,7.6,4.6
2018,8,13,16:30,UTC,7,1007,51,,,17.8,7.5,50000,294,7.1,4.2
2018,8,13,16:40,UTC,7,1007.1,51,,,17.7,7.5,50000,299,6.2,3.8
2018,8,13,16:50,UTC,7,1007.1,52,,,17.6,7.5,47977,299,7.9,5.1
2018,8,13,17:00,UTC,8,1007.2,51,,,17.4,7.3,50000,296,7.5,5
2018,8,13,17:10,UTC,7,1007.4,51,,,17.4,7,48442,306,9.1,5.3
2018,8,13,17:20,UTC,7,1007.5,51,,,17.3,7.1,50000,302,7.7,5.4
2018,8,13,17:30,UTC,5,1007.6,54,,,16.5,7.3,50000,311,7.1,4.4
2018,8,13,17:40,UTC,2,1007.8,56,,,16.3,7.4,50000,312,5.5,3.9
2018,8,13,17:50,UTC,1,1007.8,57,,,16.1,7.6,50000,296,5.6,3.3
2018,8,13,18:00,UTC,1,1007.9,54,,,16.2,6.9,50000,290,7.9,4.3
2018,8,13,18:10,UTC,2,1008,54,,,15.9,6.7,50000,284,6.3,4.2
2018,8,13,18:20,UTC,1,1008.2,55,,,15.7,6.8,50000,282,5.4,3.5
2018,8,13,18:30,UTC,1,1008.3,56,,,15.6,6.9,50000,282,6.1,3.5
2018,8,13,18:40,UTC,0,1008.3,58,,,15.3,7,50000,291,5.4,3.1
2018,8,13,18:50,UTC,4,1008.5,59,,,15.2,7.3,50000,298,4.9,2.9
2018,8,13,19:00,UTC,6,1008.6,59,,,15.4,7.4,50000,294,3.5,2.4
2018,8,13,19:10,UTC,7,1008.7,60,,,15.4,7.6,50000,289,3.5,2.2
2018,8,13,19:20,UTC,7,1008.7,60,,,15.4,7.6,50000,292,3.4,2.4
2018,8,13,19:30,UTC,8,1008.8,61,,,15.4,7.8,48698,290,3.4,2.3
2018,8,13,19:40,UTC,8,1008.9,61,,,15.4,8,50000,287,4.3,2.5
2018,8,13,19:50,UTC,8,1008.9,63,,,15,8.1,50000,288,3.8,2.1
2018,8,13,20:00,UTC,8,1009,63,,,15,8.1,50000,270,3.2,2
2018,8,13,20:10,UTC,8,1008.9,64,,,15,8.2,50000,269,2.9,2
2018,8,13,20:20,UTC,8,1008.9,64,,,15.1,8.2,50000,281,3.5,2.2
2018,8,13,20:30,UTC,8,1008.9,65,,,14.8,8.3,50000,282,3.3,2.1
2018,8,13,20:40,UTC,8,1008.9,66,,,14.6,8.4,50000,281,3.1,2.1
2018,8,13,20:50,UTC,7,1009.1,67,,,14.5,8.5,50000,264,2.8,1.7
2018,8,13,21:00,UTC,7,1009.1,68,,,14.2,8.5,50000,249,3.2,1.8
2018,8,13,21:10,UTC,7,1009.1,68,,,14.2,8.5,50000,255,3.1,1.8
2018,8,13,21:20,UTC,8,1009.2,67,,,14.4,8.4,50000,265,3.6,2.2
2018,8,13,21:30,UTC,8,1009.2,67,,,14.4,8.4,50000,262,3.3,2.2
2018,8,13,21:40,UTC,8,1009.3,67,,,14.4,8.4,50000,251,3.3,2
2018,8,13,21:50,UTC,8,1009.4,68,,,14.4,8.6,50000,261,3.2,2
2018,8,13,22:00,UTC,8,1009.4,67,,,14.5,8.5,50000,265,3.7,2.5
2018,8,13,22:10,UTC,7,1009.4,67,,,14.4,8.5,50000,282,3.5,2.4
2018,8,13,22:20,UTC,7,1009.4,68,,,14.3,8.5,50000,272,4.9,2.5
2018,8,13,22:30,UTC,7,1009.5,68,,,14.3,8.5,50000,268,4.3,2.6
2018,8,13,22:40,UTC,7,1009.7,69,,,14.1,8.6,50000,271,4.1,2.1
2018,8,13,22:50,UTC,8,1009.8,70,,,14,8.6,50000,276,3,1.8
2018,8,13,23:00,UTC,8,1009.8,71,,,13.9,8.7,50000,258,3.4,2.1
2018,8,13,23:10,UTC,8,1009.8,70,,,14.1,8.7,50000,268,3.6,2.3
2018,8,13,23:20,UTC,8,1009.9,71,,,13.9,8.8,50000,268,2.8,1.6
2018,8,13,23:30,UTC,8,1009.9,73,,,13.6,8.8,50000,270,2.8,1.5
2018,8,13,23:40,UTC,7,1009.9,73,,,13.5,8.7,50000,275,2.7,1.6
2018,8,13,23:50,UTC,5,1010,75,,,13.3,8.8,50000,268,2.8,1.6
2018,8,14,00:00,UTC,2,1010.1,75,,,13,8.8,50000,267,2.6,1.5
2018,8,14,00:10,UTC,1,1010.3,79,,,12.6,9,50000,256,2.1,1.3
2018,8,14,00:20,UTC,0,1010.3,80,,,12.3,8.9,50000,252,2.6,1.7
2018,8,14,00:30,UTC,0,1010.3,82,,,11.7,8.7,50000,252,1.8,1.2
2018,8,14,00:40,UTC,0,1010.4,81,,,11.9,8.8,50000,291,2.1,1.3
2018,8,14,00:50,UTC,0,1010.5,81,,,11.6,8.5,50000,284,2,1.3
2018,8,14,01:00,UTC,0,1010.5,88,,,10.3,8.4,49885,271,2,0.7
2018,8,14,01:10,UTC,0,1010.5,89,,,10.5,8.8,50000,0,0,0
2018,8,14,01:20,UTC,0,1010.5,93,,,10.1,8.9,50000,117,0.9,0.5
2018,8,14,01:30,UTC,0,1010.6,93,,,9.1,8,48763,97,0.9,0.6
2018,8,14,01:40,UTC,0,1010.6,96,,,8.8,8.2,46983,87,0.8,0.6
2018,8,14,01:50,UTC,0,1010.7,97,,,8.8,8.4,49822,94,0.8,0.6
2018,8,14,02:00,UTC,0,1010.7,95,,,8.6,7.8,50000,0,0,0
2018,8,14,02:10,UTC,0,1010.7,96,,,8.5,7.9,50000,0,0,0
2018,8,14,02:20,UTC,0,1010.9,98,,,8.4,8.1,25081,127,0.8,0.6
2018,8,14,02:30,UTC,0,1010.8,98,,,8.4,8,14500,123,1,0.6
2018,8,14,02:40,UTC,0,1010.9,98,,,8.2,7.9,20939,86,0.9,0.5
2018,8,14,02:50,UTC,0,1010.8,97,,,7.5,7,40137,57,0.7,0.5
2018,8,14,03:00,UTC,0,1010.9,97,,,7.7,7.3,3628,0,0,0
2018,8,14,03:10,UTC,0,1010.9,98,,,8,7.7,25527,48,0.7,0.6
2018,8,14,03:20,UTC,0,1011.1,99,,,8.1,7.9,1327,0,0,0
2018,8,14,03:30,UTC,0,1011.2,97,,,8,7.6,50000,141,0.6,0.5
2018,8,14,03:40,UTC,0,1011.3,94,,,9.3,8.4,44681,125,0.8,0.5
2018,8,14,03:50,UTC,0,1011.2,88,,,10.7,8.7,42766,0,0,0
2018,8,14,04:00,UTC,0,1011.3,92,,,10.2,8.9,44494,0,0,0
2018,8,14,04:10,UTC,0,1011.3,90,,,11.2,9.6,38937,0,0,0
2018,8,14,04:20,UTC,0,1011.3,85,,,12.4,9.8,42622,0,0,0
2018,8,14,04:30,UTC,0,1011.3,81,,,12.7,9.6,44687,0,0,0
2018,8,14,04:40,UTC,0,1011.3,77,,,13.6,9.7,44380,0,0,0
2018,8,14,04:50,UTC,0,1011.3,76,,,14,9.7,46442,303,2.9,1.1
2018,8,14,05:00,UTC,0,1011.4,75,,,14.3,9.8,48518,331,2.2,0.9
2018,8,14,05:10,UTC,0,1011.3,73,,,14.8,9.9,44752,294,2.3,1.2
2018,8,14,05:20,UTC,0,1011.3,70,,,15,9.5,42334,303,2.8,1.5
2018,8,14,05:30,UTC,0,1011.3,71,,,15.5,10.2,50000,288,2.4,1.6
2018,8,14,05:40,UTC,0,1011.3,68,,,15.8,9.9,39686,287,3.3,2
2018,8,14,05:50,UTC,0,1011.4,67,,,16.1,9.9,45515,291,3.3,2.3
2018,8,14,06:00,UTC,0,1011.4,65,,,16.3,9.7,39355,296,4.1,2.9
2018,8,14,06:10,UTC,0,1011.5,64,,,17,10.2,50000,304,3.8,2.3
2018,8,14,06:20,UTC,0,1011.5,62,,,16.7,9.3,41995,288,4.3,2.3
2018,8,14,06:30,UTC,0,1011.5,59,,,17.4,9.3,38106,284,3.4,1.9
2018,8,14,06:40,UTC,0,1011.5,58,,,17.3,9,49035,295,4.3,2.8
2018,8,14,06:50,UTC,0,1011.4,54,,,17.8,8.4,50000,250,3.4,1.5
2018,8,14,07:00,UTC,0,1011.6,55,,,17.8,8.6,38061,230,6.4,2.9
2018,8,14,07:10,UTC,0,1011.6,53,,,17.8,8,41889,259,4.4,2.2
2018,8,14,07:20,UTC,0,1011.6,51,,,17.9,7.5,44549,211,5,2.5
2018,8,14,07:30,UTC,0,1011.6,51,,,17.8,7.6,40672,241,4.6,2.6
2018,8,14,07:40,UTC,3,1011.6,60,,,17.7,9.7,47372,213,4.7,2.3
2018,8,14,07:50,UTC,5,1011.6,57,,,18.1,9.5,41434,186,6.5,4.4
2018,8,14,08:00,UTC,7,1011.5,57,,,17.8,9.1,45761,172,6.9,5.1
2018,8,14,08:10,UTC,6,1011.5,55,,,18.1,8.9,38363,176,7.4,5.1
2018,8,14,08:20,UTC,4,1011.5,54,,,18.1,8.8,44470,186,7.7,5.2
2018,8,14,08:30,UTC,2,1011.5,55,,,18,8.7,44992,182,7.4,5.3
2018,8,14,08:40,UTC,1,1011.5,58,,,18.3,9.8,35719,183,7.4,5.4
2018,8,14,08:50,UTC,2,1011.6,56,,,18,9.1,44462,179,7.5,5.5
2018,8,14,09:00,UTC,4,1011.6,54,,,18.4,9,41755,192,7.7,5.5
2018,8,14,09:10,UTC,4,1011.5,54,,,18.8,9.3,40433,176,6.2,4.7
2018,8,14,09:20,UTC,4,1011.5,55,,,18.4,9.2,40357,186,7.4,5.8
2018,8,14,09:30,UTC,5,1011.5,56,,,18.2,9.2,47331,182,7.6,5.1
2018,8,14,09:40,UTC,5,1011.5,55,,,18.6,9.2,36463,192,8.1,5.1
2018,8,14,09:50,UTC,6,1011.5,55,,,18.9,9.8,41643,183,7.7,5.7
2018,8,14,10:00,UTC,7,1011.6,58,,,18.3,9.9,43032,179,7.7,5.2
2018,8,14,10:10,UTC,6,1011.6,59,,,18.9,10.6,44328,170,7.5,4.6
2018,8,14,10:20,UTC,7,1011.4,58,,,19.3,10.7,45309,185,7.4,5.6
2018,8,14,10:30,UTC,4,1011.5,58,,,19.1,10.7,35448,183,7.7,5.8
2018,8,14,10:40,UTC,6,1011.5,60,,,18.8,10.7,45283,187,8.3,5.7
2018,8,14,10:50,UTC,4,1011.5,58,,,18.2,9.8,43702,182,7.9,6.1
2018,8,14,11:00,UTC,3,1011.5,57,,,19.2,10.5,36460,182,8.8,6.1
2018,8,14,11:10,UTC,1,1011.5,57,,,19.1,10.5,41597,184,8.1,6.2
2018,8,14,11:20,UTC,1,1011.5,58,,,18.9,10.3,36096,184,8.3,6.2
2018,8,14,11:30,UTC,1,1011.6,60,,,18.4,10.4,50000,178,7.4,5.2
2018,8,14,11:40,UTC,1,1011.6,60,,,19.1,11,41279,175,7.5,5.5
2018,8,14,11:50,UTC,0,1011.6,57,,,19.1,10.4,44183,186,8.2,5.6
2018,8,14,12:00,UTC,1,1011.5,57,,,19.4,10.7,32959,177,8.3,5.6
2018,8,14,12:10,UTC,4,1011.6,59,,,18.8,10.6,48319,180,8.9,6.2
2018,8,14,12:20,UTC,6,1011.5,59,,,19.1,10.9,38417,177,9.3,6.5
2018,8,14,12:30,UTC,5,1011.5,58,,,18.9,10.4,50000,173,9.8,6.3
2018,8,14,12:40,UTC,3,1011.5,56,,,19.7,10.8,44040,175,9.1,6.7
2018,8,14,12:50,UTC,2,1011.5,57,,,19.1,10.3,43410,179,8.8,6.3
2018,8,14,13:00,UTC,1,1011.4,58,,,19.3,10.8,45351,172,8.2,6.2
2018,8,14,13:10,UTC,2,1011.4,58,,,19.5,11,45504,179,8.1,5
2018,8,14,13:20,UTC,2,1011.4,57,,,19.2,10.4,44410,175,8.7,5.6
2018,8,14,13:30,UTC,5,1011.3,57,,,19.6,10.8,35670,176,7.4,5.2
2018,8,14,13:40,UTC,4,1011.3,58,,,19.2,10.8,42350,178,7.8,5.5
2018,8,14,13:50,UTC,3,1011.2,60,,,19.3,11.2,50000,193,8.3,5.3
2018,8,14,14:00,UTC,1,1011.3,60,,,19.1,11.2,45215,177,7.4,5.3
2018,8,14,14:10,UTC,3,1011.3,60,,,19.2,11.2,50000,191,7,4.6
2018,8,14,14:20,UTC,3,1011.3,59,,,19.3,11.2,50000,192,6.4,4.7
2018,8,14,14:30,UTC,6,1011.2,58,,,19.4,11.1,43339,189,6.3,4.5
2018,8,14,14:40,UTC,4,1011.1,58,,,19.3,10.8,49386,183,6.8,5
2018,8,14,14:50,UTC,3,1011.1,58,,,19.1,10.6,42694,177,7.1,4.8
2018,8,14,15:00,UTC,1,1011,59,,,19.1,10.8,50000,173,5.7,4.2
2018,8,14,15:10,UTC,1,1011,61,,,19.2,11.4,49146,172,5.7,3.5
2018,8,14,15:20,UTC,0,1010.9,62,,,19,11.5,44880,173,6,3.9
2018,8,14,15:30,UTC,0,1010.9,60,,,18.9,11.1,48451,172,4.5,3.2
2018,8,14,15:40,UTC,0,1010.8,59,,,18.8,10.6,50000,168,5.9,3.6
2018,8,14,15:50,UTC,0,1010.8,60,,,18.6,10.7,50000,166,5.1,3.7
2018,8,14,16:00,UTC,2,1010.8,60,,,18.5,10.5,43905,173,5.2,4
2018,8,14,16:10,UTC,3,1010.6,60,,,18.5,10.7,50000,178,5.1,3.9
2018,8,14,16:20,UTC,4,1010.6,59,,,18.4,10.2,50000,173,4.8,3.3
2018,8,14,16:30,UTC,6,1010.5,56,,,18.5,9.5,50000,167,4.4,3
2018,8,14,16:40,UTC,6,1010.5,57,,,18.4,9.8,50000,163,3.7,2.8
2018,8,14,16:50,UTC,3,1010.5,60,,,18.3,10.4,50000,168,3.9,2.5
2018,8,14,17:00,UTC,4,1010.5,63,,,18.1,10.9,50000,166,3.2,2
2018,8,14,17:10,UTC,4,1010.5,63,,,18.1,10.9,50000,165,3.1,1.9
2018,8,14,17:20,UTC,7,1010.5,66,,,17.6,11.1,50000,133,2.7,1.6
2018,8,14,17:30,UTC,7,1010.6,67,,,17.3,11.1,50000,110,1.7,1.4
2018,8,14,17:40,UTC,8,1010.7,67,,,17.4,11.1,50000,139,2.1,1.6
2018,8,14,17:50,UTC,8,1010.7,64,,,18,11,50000,152,2.5,1.8
2018,8,14,18:00,UTC,8,1010.7,70,,,16.9,11.5,50000,128,2.2,1.2
2018,8,14,18:10,UTC,8,1010.6,71,,,16.8,11.6,50000,97,2,1.3
2018,8,14,18:20,UTC,8,1010.7,70,,,16.8,11.3,24079,104,1.9,1.3
2018,8,14,18:30,UTC,7,1010.6,69,,,16.7,10.9,50000,103,1.8,1.2
2018,8,14,18:40,UTC,7,1010.7,67,,,16.7,10.6,14978,99,1.5,1.1
2018,8,14,18:50,UTC,7,1010.7,69,,,16.5,10.9,5699,90,1.2,0.9
2018,8,14,19:00,UTC,8,1010.7,71,,,16.5,11.3,12521,94,1.5,1.1
2018,8,14,19:10,UTC,8,1010.6,76,,,15.9,11.5,45189,102,1.9,1.3
2018,8,14,19:20,UTC,8,1010.7,75,,,15.9,11.5,50000,90,1.3,1
2018,8,14,19:30,UTC,7,1010.6,76,,,16.1,11.8,50000,91,1.3,0.8
2018,8,14,19:40,UTC,7,1010.7,78,,,15.8,12.1,50000,99,1.3,0.7
2018,8,14,19:50,UTC,7,1010.5,82,,,15.4,12.4,50000,81,1,0.7
2018,8,14,20:00,UTC,8,1010.5,84,,,15.2,12.5,50000,70,1.2,0.8
2018,8,14,20:10,UTC,8,1010.6,85,,,15.1,12.5,50000,49,1,0.6
2018,8,14,20:20,UTC,8,1010.4,86,,,15,12.6,50000,57,1,0.7
2018,8,14,20:30,UTC,8,1010.4,85,,,15,12.5,50000,95,1.7,1.3
2018,8,14,20:40,UTC,7,1010.5,85,,,15.1,12.6,50000,121,1.7,1.2
2018,8,14,20:50,UTC,6,1010.5,81,,,15.3,12.1,50000,115,1.9,1.4
2018,8,14,21:00,UTC,7,1010.4,82,,,15.4,12.2,50000,113,2.3,1.5
2018,8,14,21:10,UTC,7,1010.5,82,,,15.3,12.3,50000,117,2,1.5
2018,8,14,21:20,UTC,7,1010.4,81,,,15.5,12.4,50000,113,1.6,1.3
2018,8,14,21:30,UTC,7,1010.4,82,,,15.5,12.3,50000,104,1.6,1
2018,8,14,21:40,UTC,7,1010.3,84,,,15.2,12.5,50000,76,1.3,0.7
2018,8,14,21:50,UTC,7,1010.2,85,,,14.8,12.4,50000,95,1.3,0.8
2018,8,14,22:00,UTC,7,1010.1,88,,,14.3,12.3,50000,74,1.6,0.8
2018,8,14,22:10,UTC,7,1010,88,,,14.2,12.3,50000,72,1.4,0.6
2018,8,14,22:20,UTC,7,1009.9,88,,,14.3,12.3,50000,23,1.4,0.9
2018,8,14,22:30,UTC,7,1009.8,88,,,14.5,12.5,44316,360,1.2,0.7
2018,8,14,22:40,UTC,7,1009.8,88,,,14.6,12.7,50000,19,1.4,0.8
2018,8,14,22:50,UTC,7,1009.7,90,,,14.6,12.9,50000,108,1.8,0.9
2018,8,14,23:00,UTC,7,1009.7,90,,,14.5,12.9,50000,107,2.3,1.8
2018,8,14,23:10,UTC,7,1009.6,89,,,15,13.2,50000,94,3.1,1.9
2018,8,14,23:20,UTC,7,1009.6,87,,,15.4,13.2,49850,92,2.9,1.6
2018,8,14,23:30,UTC,7,1009.4,86,,,15.4,13.1,50000,89,2.8,1.8
2018,8,14,23:40,UTC,7,1009.4,88,,,15,13.1,50000,96,2.9,1.9
2018,8,14,23:50,UTC,7,1009.3,88,,,15.3,13.4,50000,91,2.6,1.9
2018,8,15,00:00,UTC,7,1009.4,88,,,15.4,13.4,50000,94,3,1.9
2018,8,15,00:10,UTC,7,1009.3,87,,,15.6,13.4,43366,92,2.6,1.9
2018,8,15,00:20,UTC,7,1009.3,87,,,15.5,13.3,27079,80,2.3,1.5
2018,8,15,00:30,UTC,7,1009.2,87,,,15.5,13.3,43264,74,2.1,1.4
2018,8,15,00:40,UTC,7,1009.2,91,,,14.4,12.9,47667,55,2,0.9
2018,8,15,00:50,UTC,7,1009.1,94,,,14.1,13.2,50000,65,1.5,0.9
2018,8,15,01:00,UTC,7,1009,93,,,14.5,13.4,50000,69,2.2,1.6
2018,8,15,01:10,UTC,7,1009,92,,,14.4,13,49510,80,2,1.3
2018,8,15,01:20,UTC,7,1008.9,92,,,14.5,13.3,24857,81,1.8,1.3
2018,8,15,01:30,UTC,7,1008.8,91,,,14.5,13,26424,95,2.5,1.5
2018,8,15,01:40,UTC,5,1008.7,93,,,14.3,13.1,29340,94,2,1.4
2018,8,15,01:50,UTC,3,1008.8,92,,,13.9,12.6,25979,94,1.9,1.2
2018,8,15,02:00,UTC,5,1008.8,94,,,13.2,12.2,28193,80,1.1,0.7
2018,8,15,02:10,UTC,5,1008.7,95,,,13.2,12.4,22168,76,1.5,0.7
2018,8,15,02:20,UTC,5,1008.7,96,,,13,12.3,31161,0,0,0
2018,8,15,02:30,UTC,6,1008.7,97,,,12.8,12.3,37983,104,1.3,0.8
2018,8,15,02:40,UTC,7,1008.7,97,,,12.8,12.2,39791,95,1.6,1
2018,8,15,02:50,UTC,7,1008.8,97,,,12.9,12.4,32295,20,1.3,0.5
2018,8,15,03:00,UTC,7,1008.8,97,,,13.4,12.9,39821,344,1.9,1.2
2018,8,15,03:10,UTC,7,1008.8,97,,,13.6,13.1,44336,346,3,2.3
2018,8,15,03:20,UTC,8,1008.8,95,,,13.8,13.1,46374,1,3,2.3
2018,8,15,03:30,UTC,7,1008.9,94,,,14,13.1,38812,21,2.3,1.1
2018,8,15,03:40,UTC,7,1008.9,95,,,13.6,12.9,40697,1,1.5,0.9
2018,8,15,03:50,UTC,7,1009,96,,,13.4,12.8,41281,359,2.2,1.4
2018,8,15,04:00,UTC,7,1009,96,,,13.8,13.1,36272,2,2.3,1.7
2018,8,15,04:10,UTC,7,1008.9,95,,,13.9,13.2,42895,39,1.6,1
2018,8,15,04:20,UTC,7,1008.9,94,,,14.3,13.3,47052,53,1.9,0.9
2018,8,15,04:30,UTC,7,1008.9,93,,,14.4,13.3,44685,22,1.8,1
2018,8,15,04:40,UTC,7,1008.9,93,,,14.6,13.5,44338,9,2,0.9
2018,8,15,04:50,UTC,7,1008.9,93,,,14.6,13.5,45654,350,1.6,0.9
2018,8,15,05:00,UTC,7,1008.8,92,,,15,13.7,36142,6,1.4,0.8
2018,8,15,05:10,UTC,7,1008.8,87,,,15.9,13.8,41779,1,1.6,0.8
2018,8,15,05:20,UTC,3,1008.8,83,,,16.8,13.8,34649,50,2.4,0.9
2018,8,15,05:30,UTC,4,1008.7,81,,,17.3,14,39945,68,3,1.5
2018,8,15,05:40,UTC,3,1008.7,78,,,17.6,13.8,40692,80,3.4,1.7
2018,8,15,05:50,UTC,6,1008.7,77,,,18.2,14.2,43389,86,3,1.9
2018,8,15,06:00,UTC,6,1008.7,77,,,18.3,14.1,42582,79,3.9,2.3
2018,8,15,06:10,UTC,7,1008.7,74,,,18.6,14,49406,115,4.3,3
2018,8,15,06:20,UTC,7,1008.7,74,,,19.1,14.2,35136,112,4.8,2.8
2018,8,15,06:30,UTC,7,1008.7,70,,,19.2,13.7,42786,99,4.2,2.3
2018,8,15,06:40,UTC,6,1008.7,70,,,19.1,13.5,37917,99,4.2,2.2
2018,8,15,06:50,UTC,7,1008.7,65,,,19.8,13,50000,96,4.8,2.7
2018,8,15,07:00,UTC,7,1008.6,65,,,19.2,12.4,44248,105,5.8,3.8
2018,8,15,07:10,UTC,7,1008.7,65,,,19.2,12.5,48193,85,6.2,3.3
2018,8,15,07:20,UTC,7,1008.7,65,,,19.2,12.5,43051,97,6,3.4
2018,8,15,07:30,UTC,7,1008.7,64,,,19.3,12.2,43988,74,4,2.3
2018,8,15,07:40,UTC,6,1008.7,62,,,19.8,12.3,46787,93,5.4,2.2
2018,8,15,07:50,UTC,7,1008.7,58,,,20.5,11.9,37956,92,6.4,3.2
2018,8,15,08:00,UTC,7,1008.8,58,,,20.3,11.8,42749,91,5.3,2.8
2018,8,15,08:10,UTC,7,1008.7,57,,,20.3,11.7,41076,79,5.7,3.2
2018,8,15,08:20,UTC,7,1008.8,59,,,20.9,12.7,36885,99,5,3.2
2018,8,15,08:30,UTC,7,1008.8,56,,,21.2,12.1,45462,130,6.2,4.1
2018,8,15,08:40,UTC,7,1008.8,60,,,20.5,12.4,35682,111,5.8,3.8
2018,8,15,08:50,UTC,7,1008.9,54,,,21.5,11.9,41880,117,7.5,4.5
2018,8,15,09:00,UTC,7,1009,61,,,20.3,12.6,42570,101,6.3,4.1
2018,8,15,09:10,UTC,7,1009.1,58,,,20.2,11.7,42242,109,6.6,3.9
2018,8,15,09:20,UTC,8,1009.2,61,,,20,12.2,44536,114,5.7,3.1
2018,8,15,09:30,UTC,8,1009.2,60,,,19.8,11.7,49004,120,6.2,3.8
2018,8,15,09:40,UTC,8,1009.3,63,,,19.7,12.3,45975,125,5.7,4.1
2018,8,15,09:50,UTC,8,1009.4,64,,,19.5,12.4,46396,143,6,4
2018,8,15,10:00,UTC,8,1009.4,68,,,19.2,13,48604,137,5.6,4
2018,8,15,10:10,UTC,8,1009.3,68,,,19,13,50000,120,5.1,3.2
2018,8,15,10:20,UTC,8,1009.5,70,,,18.9,13.4,46522,119,5.2,3
2018,8,15,10:30,UTC,8,1009.6,71,,,18.8,13.4,50000,126,4.3,2.8
2018,8,15,10:40,UTC,8,1009.7,72,,,18.9,13.7,50000,133,4.8,3
2018,8,15,10:50,UTC,8,1009.8,70,,,19,13.5,47035,139,3.9,2.8
2018,8,15,11:00,UTC,8,1009.9,70,,,19,13.5,47397,126,3.4,2.2
2018,8,15,11:10,UTC,8,1010,68,,,19,12.9,50000,110,3.8,2.6
2018,8,15,11:20,UTC,8,1010.1,68,,,19,13,47405,125,3.5,2.4
2018,8,15,11:30,UTC,8,1010.1,69,,,19,13.3,49495,99,3.2,1.8
2018,8,15,11:40,UTC,8,1010.2,69,,,19,13.2,46478,119,3.7,2.7
2018,8,15,11:50,UTC,8,1010.3,68,,,19,13,50000,114,3.2,2.3
2018,8,15,12:00,UTC,8,1010.4,68,,,19,13,43081,99,2.5,1.7
2018,8,15,12:10,UTC,8,1010.5,70,,,19,13.4,50000,82,2,1.1
2018,8,15,12:20,UTC,8,1010.6,74,,,18.3,13.5,46742,322,3.9,2.2
2018,8,15,12:30,UTC,8,1010.7,75,,,17.8,13.2,47357,322,5,3.5
2018,8,15,12:40,UTC,8,1010.8,75,,,17.6,13,47488,321,5.1,3.5
2018,8,15,12:50,UTC,8,1010.9,76,,,17.5,13.2,42903,328,4.7,3.6
2018,8,15,13:00,UTC,8,1010.8,77,,,17.4,13.3,41887,327,5.1,3.8
2018,8,15,13:10,UTC,8,1011,76,,,17.4,13.2,43064,331,4.4,3.3
2018,8,15,13:20,UTC,8,1011.1,77,,,17.4,13.3,43878,329,4.3,3.1
2018,8,15,13:30,UTC,8,1011.2,76,,,17.5,13.2,43895,338,4.2,2.7
2018,8,15,13:40,UTC,8,1011.2,75,,,17.7,13.2,48638,347,3.4,2.3
2018,8,15,13:50,UTC,8,1011.3,73,,,18.2,13.2,45483,345,2,1.5
2018,8,15,14:00,UTC,8,1011.4,70,,,18.7,13.1,40212,334,2.9,1.9
2018,8,15,14:10,UTC,8,1011.4,67,,,18.9,12.6,41939,341,3.9,2.2
2018,8,15,14:20,UTC,8,1011.6,65,,,19.2,12.5,40722,337,3.6,2.8
2018,8,15,14:30,UTC,8,1011.6,64,,,18.9,12,47216,336,4.6,3.2
2018,8,15,14:40,UTC,8,1011.7,65,,,18.8,11.9,50000,340,4.2,3.2
2018,8,15,14:50,UTC,8,1011.7,67,,,18.5,12.2,50000,356,4.3,2.8
2018,8,15,15:00,UTC,8,1011.8,69,,,18.3,12.4,50000,341,4.7,3
2018,8,15,15:10,UTC,8,1011.8,68,,,18.4,12.2,45959,341,3.7,2.7
2018,8,15,15:20,UTC,8,1011.8,67,,,18.6,12.3,47552,330,4.4,2.5
2018,8,15,15:30,UTC,8,1011.9,68,,,18.5,12.5,43834,328,4.4,3.3
2018,8,15,15:40,UTC,7,1011.9,69,,,18.3,12.4,41622,330,5,3.5
2018,8,15,15:50,UTC,7,1012,69,,,18.2,12.5,36366,329,5.6,3.8
2018,8,15,16:00,UTC,7,1011.9,70,,,18.1,12.6,44540,330,4.7,3.4
2018,8,15,16:10,UTC,8,1011.9,70,,,18,12.5,50000,342,4.9,3.6
2018,8,15,16:20,UTC,8,1012,69,,,18,12.2,50000,340,3.9,2.9
2018,8,15,16:30,UTC,8,1012,69,,,18,12.2,50000,339,3.7,2.6
2018,8,15,16:40,UTC,8,1012.1,70,,,17.9,12.2,40577,344,3.1,2
2018,8,15,16:50,UTC,8,1012.2,69,,,17.7,11.9,49464,357,2.9,1.8
2018,8,15,17:00,UTC,8,1012.3,70,,,17.6,12.1,50000,354,3,2
2018,8,15,17:10,UTC,8,1012.4,71,,,17.5,12.1,50000,342,2.9,1.9
2018,8,15,17:20,UTC,8,1012.4,71,,,17.5,12.2,50000,315,2.3,1.3
2018,8,15,17:30,UTC,8,1012.4,72,,,17.3,12.1,47765,313,2.3,1.6
2018,8,15,17:40,UTC,8,1012.5,73,,,17.1,12.3,50000,334,1.9,1
2018,8,15,17:50,UTC,8,1012.6,75,,,16.8,12.3,50000,330,1.2,0.7
2018,8,15,18:00,UTC,8,1012.7,76,,,16.7,12.4,50000,342,1.3,0.9
2018,8,15,18:10,UTC,8,1012.7,78,,,16.4,12.5,50000,322,1.3,1
2018,8,15,18:20,UTC,8,1012.8,78,,,16.3,12.5,47594,334,1.3,0.9
2018,8,15,18:30,UTC,8,1012.9,79,,,16.1,12.5,21270,0,0,0
2018,8,15,18:40,UTC,8,1012.9,79,,,16,12.5,13027,0,0,0
2018,8,15,18:50,UTC,8,1013,81,,,15.9,12.6,21971,0,0,0
2018,8,15,19:00,UTC,8,1013.1,82,,,15.8,12.7,5160,0,0,0
2018,8,15,19:10,UTC,8,1013.2,81,,,15.8,12.6,16423,0,0,0
2018,8,15,19:20,UTC,8,1013.3,83,,,15.7,12.8,49953,270,0.9,0.5
2018,8,15,19:30,UTC,8,1013.3,82,,,15.6,12.6,44108,0,0,0
2018,8,15,19:40,UTC,8,1013.4,83,,,15.5,12.6,40144,0,0,0
2018,8,15,19:50,UTC,8,1013.5,86,,,14.9,12.6,48852,0,0,0
2018,8,15,20:00,UTC,8,1013.5,88,,,14.8,12.8,43301,0,0,0
2018,8,15,20:10,UTC,8,1013.6,86,,,15,12.7,44358,128,1,0.7
2018,8,15,20:20,UTC,8,1013.6,88,,,14.8,12.8,46074,111,1.2,1
2018,8,15,20:30,UTC,7,1013.8,90,,,14.4,12.7,39805,116,1.2,0.8
2018,8,15,20:40,UTC,5,1013.8,91,,,13.9,12.5,41998,0,0,0
2018,8,15,20:50,UTC,3,1013.9,92,,,13.9,12.7,41524,0,0,0
2018,8,15,21:00,UTC,1,1014.1,92,,,13.7,12.5,37935,0,0,0
2018,8,15,21:10,UTC,4,1014.2,92,,,13.6,12.2,44836,0,0,0
2018,8,15,21:20,UTC,5,1014.3,94,,,13.5,12.6,37759,0,0,0
2018,8,15,21:30,UTC,4,1014.4,94,,,13,12.1,32902,5,0.9,0.5
2018,8,15,21:40,UTC,2,1014.5,97,,,13,12.5,33755,359,1,0.7
2018,8,15,21:50,UTC,0,1014.6,98,,,12.9,12.5,28649,0,0,0
2018,8,15,22:00,UTC,4,1014.7,97,,,12.7,12.3,30249,0,0,0
2018,8,15,22:10,UTC,6,1014.8,98,,,12.6,12.3,32066,0,0,0
2018,8,15,22:20,UTC,7,1015,98,,,12.6,12.3,19134,0,0,0
2018,8,15,22:30,UTC,8,1015,96,,,12.1,11.5,39294,0,0,0
2018,8,15,22:40,UTC,8,1015.2,99,,,12.7,12.4,11159,47,1,0.6
2018,8,15,22:50,UTC,7,1015.3,99,,,12.6,12.4,27951,57,1.2,0.7
2018,8,15,23:00,UTC,4,1015.4,98,,,11.6,11.3,13808,0,0,0
2018,8,15,23:10,UTC,2,1015.3,99,,,11.6,11.5,2046,0,0,0
2018,8,15,23:20,UTC,0,1015.4,99,,,11.5,11.4,401,0,0,0
2018,8,15,23:30,UTC,0,1015.5,100,,,11.2,11.1,994,0,0,0
2018,8,15,23:40,UTC,0,1015.4,100,,,11.2,11.1,296,0,0,0
2018,8,15,23:50,UTC,0,1015.4,100,,,10.5,10.5,502,0,0,0
2018,8,16,00:00,UTC,1,1015.4,100,,,10.3,10.2,201,0,0,0
2018,8,16,00:10,UTC,2,1015.5,100,,,10.9,10.9,300,0,0,0
2018,8,16,00:20,UTC,1,1015.4,100,,,10.7,10.7,744,0,0,0
2018,8,16,00:30,UTC,1,1015.4,100,,,9.6,9.5,386,0,0,0
2018,8,16,00:40,UTC,1,1015.5,100,,,10.6,10.6,183,338,0.7,0.5
2018,8,16,00:50,UTC,1,1015.5,100,,,10.2,10.2,723,66,1.2,0.8
2018,8,16,01:00,UTC,1,1015.5,100,,,9.9,9.9,763,0,0,0
2018,8,16,01:10,UTC,1,1015.6,100,,,9.5,9.5,1106,0,0,0
2018,8,16,01:20,UTC,9,1015.7,100,,,9.7,9.7,213,0,0,0
2018,8,16,01:30,UTC,1,1015.8,100,,,9.7,9.7,262,49,0.6,0.5
2018,8,16,01:40,UTC,1,1015.8,100,,,9.7,9.7,700,0,0,0
2018,8,16,01:50,UTC,0,1015.9,100,,,8.7,8.7,359,0,0,0
2018,8,16,02:00,UTC,0,1015.9,100,,,8.8,8.8,379,0,0,0
2018,8,16,02:10,UTC,0,1016,100,,,8.8,8.8,178,0,0,0
2018,8,16,02:20,UTC,0,1016.1,100,,,9.2,9.2,275,46,0.7,0.6
2018,8,16,02:30,UTC,0,1016.2,100,,,8.8,8.8,688,0,0,0
2018,8,16,02:40,UTC,0,1016.3,100,,,8.7,8.7,248,0,0,0
2018,8,16,02:50,UTC,0,1016.3,100,,,9.1,9.1,1059,88,0.9,0.6
2018,8,16,03:00,UTC,0,1016.3,100,,,8.2,8.2,899,0,0,0
2018,8,16,03:10,UTC,0,1016.4,100,,,9.1,9.1,340,0,0,0
2018,8,16,03:20,UTC,0,1016.5,100,,,9.2,9.2,236,0,0,0
2018,8,16,03:30,UTC,0,1016.5,100,,,9.3,9.3,302,0,0,0
2018,8,16,03:40,UTC,0,1016.6,100,,,9.4,9.4,365,0,0,0
2018,8,16,03:50,UTC,0,1016.7,100,,,9.4,9.4,826,0,0,0
2018,8,16,04:00,UTC,0,1016.7,100,,,10.3,10.3,11096,0,0,0
2018,8,16,04:10,UTC,0,1016.7,100,,,11.2,11.2,16055,0,0,0
2018,8,16,04:20,UTC,0,1016.8,100,,,11.4,11.4,15668,0,0,0
2018,8,16,04:30,UTC,0,1016.9,99,,,12.7,12.6,23388,0,0,0
2018,8,16,04:40,UTC,0,1017,94,,,13.7,12.7,27568,0,0,0
2018,8,16,04:50,UTC,0,1017,88,,,14.3,12.4,30631,0,0,0
2018,8,16,05:00,UTC,0,1017.1,87,,,14.2,12,29115,0,0,0
2018,8,16,05:10,UTC,0,1017.1,83,,,14.9,12.1,29933,0,0,0
2018,8,16,05:20,UTC,0,1017.2,80,,,15.8,12.3,31457,0,0,0
2018,8,16,05:30,UTC,0,1017.3,76,,,16.6,12.3,33758,0,0,0
2018,8,16,05:40,UTC,0,1017.3,77,,,17.4,13.3,29630,0,0,0
2018,8,16,05:50,UTC,0,1017.4,74,,,18,13.2,32309,223,1.6,0.6
2018,8,16,06:00,UTC,0,1017.4,74,,,18.3,13.5,41272,237,2,1.1
2018,8,16,06:10,UTC,0,1017.5,71,,,18.5,13.1,37630,212,2.7,1.6
2018,8,16,06:20,UTC,0,1017.6,71,,,18.7,13.2,34793,188,3.8,2.7
2018,8,16,06:30,UTC,0,1017.6,69,,,19.2,13.3,34582,195,3.5,1.7
2018,8,16,06:40,UTC,0,1017.7,69,,,19.1,13.2,35537,181,3.3,2.5
2018,8,16,06:50,UTC,0,1017.7,70,,,19.2,13.6,32008,197,3.6,2.1
2018,8,16,07:00,UTC,0,1017.7,70,,,19.2,13.6,39302,164,4.3,3
2018,8,16,07:10,UTC,0,1017.9,67,,,19.2,12.9,37596,178,4.6,3.2
2018,8,16,07:20,UTC,0,1018,66,,,19.8,13.2,38392,184,5.2,3.3
2018,8,16,07:30,UTC,0,1018,65,,,19.4,12.6,47124,172,5.3,3.9
2018,8,16,07:40,UTC,0,1018.1,65,,,19.7,12.9,39327,163,5.5,4
2018,8,16,07:50,UTC,0,1018.1,66,,,19.8,13.3,43611,191,5,3.5
2018,8,16,08:00,UTC,0,1018.1,65,,,19.9,13,39333,189,4.2,2.9
2018,8,16,08:10,UTC,0,1018.1,65,,,19.9,13.2,35275,183,5.3,3.4
2018,8,16,08:20,UTC,1,1018.2,64,,,20,12.9,41175,192,6,3.7
2018,8,16,08:30,UTC,0,1018.3,62,,,20.1,12.7,36448,180,5.5,3.2
2018,8,16,08:40,UTC,0,1018.2,62,,,20.3,12.7,38252,205,5.8,3.5
2018,8,16,08:50,UTC,0,1018.2,65,,,20.6,13.7,48539,200,6.1,3.7
2018,8,16,09:00,UTC,0,1018.3,64,,,20.5,13.6,40115,198,6.2,4.1
2018,8,16,09:10,UTC,2,1018.4,66,,,20.2,13.6,42763,206,7,4.3
2018,8,16,09:20,UTC,2,1018.4,66,,,19.9,13.3,38090,197,6,4.2
2018,8,16,09:30,UTC,2,1018.4,60,,,20.2,12.2,40154,197,6,4.3
2018,8,16,09:40,UTC,1,1018.4,65,,,20,13.2,36277,213,6,4.5
2018,8,16,09:50,UTC,3,1018.4,67,,,20.1,13.7,49359,196,6.3,4.7
2018,8,16,10:00,UTC,3,1018.5,65,,,20.8,13.9,36345,201,7.5,5
2018,8,16,10:10,UTC,3,1018.5,63,,,20.2,13,40345,195,5.9,4.5
2018,8,16,10:20,UTC,4,1018.6,67,,,20,13.6,44062,196,6.7,4.8
2018,8,16,10:30,UTC,2,1018.6,63,,,21,13.6,33687,192,6.9,4.8
2018,8,16,10:40,UTC,2,1018.6,64,,,20.8,13.8,31369,190,6.8,4.7
2018,8,16,10:50,UTC,2,1018.6,66,,,20.5,14,39222,192,7.1,4.5
2018,8,16,11:00,UTC,2,1018.7,66,,,20.1,13.6,45588,199,6.4,4.5
2018,8,16,11:10,UTC,2,1018.8,67,,,20,13.7,39143,193,6.9,4.9
2018,8,16,11:20,UTC,1,1018.8,65,,,20.7,14,36095,212,6.6,4.6
2018,8,16,11:30,UTC,2,1018.7,63,,,21.1,13.8,37775,177,5.6,3.6
2018,8,16,11:40,UTC,2,1018.8,65,,,20.6,13.8,39480,181,6.9,4.4
2018,8,16,11:50,UTC,2,1018.8,65,,,20.9,14,39900,204,7,5.2
2018,8,16,12:00,UTC,1,1018.9,62,,,20.5,13.1,42915,186,7.5,4.6
2018,8,16,12:10,UTC,1,1018.8,62,,,20.9,13.3,35643,199,7.3,4.9
2018,8,16,12:20,UTC,0,1018.8,55,,,20.8,11.5,45618,191,7.9,5.5
2018,8,16,12:30,UTC,0,1018.8,59,,,21.1,12.9,42443,189,7.3,5.3
2018,8,16,12:40,UTC,0,1018.8,60,,,20.5,12.5,45004,194,7.3,5.4
2018,8,16,12:50,UTC,0,1018.9,63,,,20.8,13.5,46528,185,6.7,5.1
2018,8,16,13:00,UTC,0,1019,66,,,20.9,14.3,40458,189,6.9,5
2018,8,16,13:10,UTC,0,1018.9,67,,,20.4,14,48783,182,6.7,4.6
2018,8,16,13:20,UTC,0,1018.8,65,,,20.7,13.8,49070,194,6.3,4.7
2018,8,16,13:30,UTC,0,1018.9,64,,,20.9,13.7,40115,180,6.5,5
2018,8,16,13:40,UTC,0,1018.9,65,,,20.8,14,37445,182,6.9,4.9
2018,8,16,13:50,UTC,0,1019,64,,,21,13.8,46054,172,6.8,5.2
2018,8,16,14:00,UTC,0,1019,66,,,20.6,13.9,41986,177,6.9,5.1
2018,8,16,14:10,UTC,0,1019,62,,,20.8,13.3,37155,180,6.6,4.9
2018,8,16,14:20,UTC,0,1019.1,66,,,20.5,14.1,45267,186,7.4,4.9
2018,8,16,14:30,UTC,0,1019.1,65,,,20.1,13.4,43085,178,7.1,4.9
2018,8,16,14:40,UTC,0,1019,64,,,20.1,13.1,38962,182,7.4,5.4
2018,8,16,14:50,UTC,0,1019,66,,,20.4,13.8,35279,191,6.3,4.6
2018,8,16,15:00,UTC,0,1019,70,,,20.3,14.7,41802,194,6.4,4.5
2018,8,16,15:10,UTC,0,1019,68,,,20,13.8,40297,181,6.5,4.8
2018,8,16,15:20,UTC,0,1019,71,,,19.8,14.3,47868,178,7.1,4.9
2018,8,16,15:30,UTC,0,1019,71,,,19.9,14.5,48232,195,6,4.2
2018,8,16,15:40,UTC,0,1019.1,69,,,19.5,13.7,50000,190,6.8,4.9
2018,8,16,15:50,UTC,0,1019.1,68,,,19.5,13.4,48438,187,6.5,4.6
2018,8,16,16:00,UTC,0,1019.1,67,,,19.3,13,45737,184,6.6,4.7
2018,8,16,16:10,UTC,0,1019.1,65,,,19.2,12.4,47446,192,6.4,4.9
2018,8,16,16:20,UTC,0,1019,56,,,19.2,10.1,49666,184,6.5,4.7
2018,8,16,16:30,UTC,0,1019,58,,,19,10.6,50000,177,6.3,4.5
2018,8,16,16:40,UTC,0,1019,64,,,18.8,11.8,50000,179,6.2,4.4
2018,8,16,16:50,UTC,0,1019,65,,,18.7,12,50000,181,5.5,3.5
2018,8,16,17:00,UTC,0,1019,66,,,18.5,12.1,50000,171,6.5,3.9
2018,8,16,17:10,UTC,0,1019,66,,,18.5,12.1,50000,173,4.9,3.4
2018,8,16,17:20,UTC,0,1019,67,,,18.5,12.2,50000,174,4.7,3.2
2018,8,16,17:30,UTC,0,1019,68,,,18.4,12.4,50000,172,4.7,3
2018,8,16,17:40,UTC,0,1019.1,69,,,18.3,12.5,50000,163,4.1,3
2018,8,16,17:50,UTC,0,1019.2,70,,,18.2,12.6,50000,163,4.1,2.8
2018,8,16,18:00,UTC,0,1019.2,71,,,18,12.6,50000,163,3.7,2.7
2018,8,16,18:10,UTC,0,1019.2,73,,,17.7,12.7,50000,157,3.4,2.5
2018,8,16,18:20,UTC,0,1019.3,74,,,17.5,12.9,50000,153,3.8,2.5
2018,8,16,18:30,UTC,0,1019.3,78,,,17.1,13.2,50000,144,3.5,2.5
2018,8,16,18:40,UTC,0,1019.3,78,,,17,13.1,50000,151,3.3,2.2
2018,8,16,18:50,UTC,0,1019.3,79,,,17.1,13.3,28851,158,2.8,2
2018,8,16,19:00,UTC,0,1019.3,78,,,17,13.2,31584,154,3.4,2.4
2018,8,16,19:10,UTC,0,1019.3,76,,,17.2,12.9,50000,157,3.4,2.5
2018,8,16,19:20,UTC,0,1019.4,76,,,16.5,12.3,50000,154,2.9,2
2018,8,16,19:30,UTC,0,1019.4,78,,,16,12.2,50000,148,2.5,1.9
2018,8,16,19:40,UTC,0,1019.5,80,,,15.6,12.1,50000,150,2.7,2
2018,8,16,19:50,UTC,0,1019.4,82,,,14.6,11.5,50000,149,2.6,1.6
2018,8,16,20:00,UTC,0,1019.5,90,,,13.8,12.2,49211,107,1.1,0.6
2018,8,16,20:10,UTC,0,1019.4,92,,,13.6,12.4,50000,80,1.5,0.7
2018,8,16,20:20,UTC,0,1019.4,94,,,13.3,12.3,50000,0,0,0
2018,8,16,20:30,UTC,0,1019.4,92,,,13.4,12.1,50000,0,0,0
2018,8,16,20:40,UTC,0,1019.4,91,,,12.9,11.4,50000,0,0,0
2018,8,16,20:50,UTC,0,1019.5,93,,,12.3,11.1,48688,0,0,0
2018,8,16,21:00,UTC,0,1019.5,95,,,12.2,11.5,50000,0,0,0
2018,8,16,21:10,UTC,0,1019.5,98,,,12.4,12.1,47956,0,0,0
2018,8,16,21:20,UTC,0,1019.5,97,,,12.4,11.8,50000,0,0,0
2018,8,16,21:30,UTC,0,1019.6,97,,,11.9,11.5,30363,0,0,0
2018,8,16,21:40,UTC,0,1019.7,97,,,12,11.4,24516,0,0,0
2018,8,16,21:50,UTC,0,1019.7,99,,,12.1,11.9,13849,0,0,0
2018,8,16,22:00,UTC,0,1019.8,98,,,11.7,11.4,29020,100,0.9,0.5
2018,8,16,22:10,UTC,0,1019.8,99,,,11.5,11.4,769,0,0,0
2018,8,16,22:20,UTC,0,1019.8,99,,,11.1,11,929,0,0,0
2018,8,16,22:30,UTC,0,1019.9,99,,,11.5,11.4,2354,0,0,0
2018,8,16,22:40,UTC,0,1019.9,100,,,11.8,11.7,1362,0,0,0
2018,8,16,22:50,UTC,0,1019.9,100,,,11.7,11.6,278,0,0,0
2018,8,16,23:00,UTC,0,1019.9,100,,,11.3,11.3,519,0,0,0
2018,8,16,23:10,UTC,0,1019.9,100,,,10.9,10.9,866,0,0,0
2018,8,16,23:20,UTC,0,1019.9,100,,,11.4,11.4,226,0,0,0
2018,8,16,23:30,UTC,0,1019.9,100,,,11.2,11.2,180,86,1.2,0.5
2018,8,16,23:40,UTC,1,1019.8,100,,,11.4,11.4,210,109,1.5,1.1
2018,8,16,23:50,UTC,1,1019.9,100,,,10.4,10.4,184,114,1.1,0.7
2018,8,17,00:00,UTC,1,1019.9,100,,,11.1,11.1,567,0,0,0
2018,8,17,00:10,UTC,0,1019.9,100,,,11.7,11.7,263,99,1,0.6
2018,8,17,00:20,UTC,0,1019.8,100,,,11.4,11.3,359,0,0,0
2018,8,17,00:30,UTC,0,1019.8,100,,,10.7,10.7,256,0,0,0
2018,8,17,00:40,UTC,0,1019.8,100,,,10.7,10.7,226,0,0,0
2018,8,17,00:50,UTC,0,1019.8,100,,,11.1,11.1,744,99,0.9,0.6
2018,8,17,01:00,UTC,0,1019.8,100,,,11.3,11.3,251,96,1,0.6
2018,8,17,01:10,UTC,1,1019.9,100,,,10.8,10.7,381,106,1.5,1.2
2018,8,17,01:20,UTC,1,1019.8,100,,,10.6,10.6,486,107,1.1,0.8
2018,8,17,01:30,UTC,1,1019.8,100,,,10.8,10.8,280,104,1.6,1.2
2018,8,17,01:40,UTC,1,1019.8,100,,,10.9,10.9,376,91,1.4,0.8
2018,8,17,01:50,UTC,0,1019.8,100,,,10.1,10.1,330,0,0,0
2018,8,17,02:00,UTC,0,1019.8,100,,,10.8,10.8,236,0,0,0
2018,8,17,02:10,UTC,1,1019.8,100,,,11.1,11.1,657,117,1.2,0.6
2018,8,17,02:20,UTC,0,1019.8,100,,,10.5,10.5,4647,105,1.4,1
2018,8,17,02:30,UTC,0,1019.8,100,,,10.2,10.2,829,0,0,0
2018,8,17,02:40,UTC,0,1019.8,100,,,11,11,355,0,0,0
2018,8,17,02:50,UTC,0,1019.8,100,,,11.1,11.1,293,0,0,0
2018,8,17,03:00,UTC,0,1019.8,100,,,10.9,10.9,296,112,1.4,0.5
2018,8,17,03:10,UTC,0,1019.8,100,,,10.3,10.3,339,128,1.4,0.8
2018,8,17,03:20,UTC,0,1019.8,100,,,11.1,11.1,418,131,1.2,0.8
2018,8,17,03:30,UTC,0,1019.8,100,,,11.1,11,1553,122,1.9,1.3
2018,8,17,03:40,UTC,1,1019.7,100,,,11,11,28181,127,2.1,1.5
2018,8,17,03:50,UTC,0,1019.8,100,,,11.1,11.1,43610,141,2.1,1.6
2018,8,17,04:00,UTC,0,1019.8,100,,,14.9,14.9,39713,151,3.1,2
2018,8,17,04:10,UTC,0,1019.7,100,,,16.4,16.4,33021,162,3.3,2.3
2018,8,17,04:20,UTC,0,1019.7,97,,,17.1,16.6,40084,174,3.6,2.3
2018,8,17,04:30,UTC,0,1019.8,92,,,17.3,16,39886,175,4,2.6
2018,8,17,04:40,UTC,0,1019.7,90,,,17.6,15.9,39181,176,4.2,3.2
2018,8,17,04:50,UTC,0,1019.7,89,,,17.8,16,41651,167,4.7,3.1
2018,8,17,05:00,UTC,0,1019.7,88,,,18,15.9,40654,172,5.4,3.5
2018,8,17,05:10,UTC,0,1019.7,86,,,18.3,15.9,46094,175,5.1,3.5
2018,8,17,05:20,UTC,0,1019.7,83,,,18.4,15.6,50000,177,5.4,3.8
2018,8,17,05:30,UTC,0,1019.7,81,,,18.7,15.4,44250,180,5.3,4
2018,8,17,05:40,UTC,0,1019.7,78,,,18.7,14.9,42814,188,6.8,4.4
2018,8,17,05:50,UTC,0,1019.8,80,,,18.9,15.3,45665,194,6.4,4.7
2018,8,17,06:00,UTC,0,1019.9,80,,,19,15.4,46677,190,6.6,4.5
2018,8,17,06:10,UTC,0,1019.8,79,,,18.9,15.2,50000,183,7,4.9
2018,8,17,06:20,UTC,0,1019.8,78,,,19.1,15.3,47354,175,6.9,4.8
2018,8,17,06:30,UTC,0,1019.8,79,,,19.1,15.4,50000,178,7.2,5.1
2018,8,17,06:40,UTC,0,1019.8,77,,,19.3,15.1,43982,180,7.4,5.3
2018,8,17,06:50,UTC,0,1019.8,76,,,19.7,15.2,43981,186,7.5,5.2
2018,8,17,07:00,UTC,0,1019.9,75,,,19.6,15,42907,177,7.4,5.2
2018,8,17,07:10,UTC,0,1019.9,76,,,19.8,15.5,37492,173,7.5,5.6
2018,8,17,07:20,UTC,0,1019.8,73,,,19.8,14.8,41838,169,7.4,5.3
2018,8,17,07:30,UTC,0,1019.8,69,,,20.1,14.2,46005,179,7.3,5.3
2018,8,17,07:40,UTC,0,1019.8,70,,,20.1,14.4,34879,180,7,5
2018,8,17,07:50,UTC,0,1019.8,68,,,20.4,14.3,39460,180,7.2,5.3
2018,8,17,08:00,UTC,0,1019.8,66,,,20.1,13.6,40548,180,7.3,5.6
2018,8,17,08:10,UTC,0,1019.9,67,,,20.7,14.4,45887,181,7.4,5.2
2018,8,17,08:20,UTC,0,1019.8,68,,,20.7,14.5,46345,186,6.9,4.9
2018,8,17,08:30,UTC,0,1019.8,68,,,20.6,14.5,36799,177,6.6,5
2018,8,17,08:40,UTC,0,1019.9,68,,,20.8,14.7,34245,182,6.9,4.7
2018,8,17,08:50,UTC,0,1019.8,67,,,21.2,14.9,42456,183,7,4.7
2018,8,17,09:00,UTC,0,1019.8,66,,,21.6,15,40120,188,6.6,4.9
2018,8,17,09:10,UTC,0,1019.8,66,,,21.3,14.6,46850,180,6.9,5.2
2018,8,17,09:20,UTC,0,1019.7,64,,,21.8,14.6,50000,179,6.6,4.8
2018,8,17,09:30,UTC,0,1019.7,65,,,21.9,15,41481,184,7.1,5.2
2018,8,17,09:40,UTC,0,1019.6,65,,,22,15,38380,192,7.7,5.2
2018,8,17,09:50,UTC,0,1019.5,65,,,21.8,15,37518,191,7.6,5.6
2018,8,17,10:00,UTC,0,1019.5,64,,,22.4,15.2,32755,194,7.3,5.1
2018,8,17,10:10,UTC,0,1019.6,65,,,21.7,14.9,41784,192,8.1,5.8
2018,8,17,10:20,UTC,0,1019.5,64,,,22.5,15.2,46729,186,7.4,5
2018,8,17,10:30,UTC,0,1019.4,64,,,22.1,15,38213,185,7.5,5.4
2018,8,17,10:40,UTC,0,1019.5,65,,,22.3,15.4,38755,194,7.4,5.5
2018,8,17,10:50,UTC,0,1019.4,63,,,22,14.7,35216,199,8.2,5.2
2018,8,17,11:00,UTC,0,1019.4,62,,,22.3,14.8,38884,190,7.9,5.8
2018,8,17,11:10,UTC,0,1019.4,62,,,22.6,15,36796,191,7.5,5.8
2018,8,17,11:20,UTC,0,1019.4,59,,,22.7,14.4,46846,187,8.7,5.7
2018,8,17,11:30,UTC,0,1019.3,58,,,23,14.2,44164,184,7.3,5.8
2018,8,17,11:40,UTC,0,1019.4,57,,,23.1,14,36595,176,7.5,5.5
2018,8,17,11:50,UTC,0,1019.3,57,,,22.8,13.9,34501,185,7.3,5
2018,8,17,12:00,UTC,0,1019.3,56,,,22.9,13.6,39304,184,7.2,5
2018,8,17,12:10,UTC,0,1019.2,55,,,23.2,13.7,38017,176,6.8,4.7
2018,8,17,12:20,UTC,0,1019.1,53,,,23.4,13.1,43306,168,7.7,4.4
2018,8,17,12:30,UTC,0,1019,50,,,23.5,12.5,34907,176,7,4.9
2018,8,17,12:40,UTC,0,1019,47,,,24,12.1,44537,169,8.1,4.9
2018,8,17,12:50,UTC,0,1018.9,50,,,23.6,12.6,43427,181,7.2,4.6
2018,8,17,13:00,UTC,0,1018.7,51,,,23.9,13.1,46479,183,7.1,4.9
2018,8,17,13:10,UTC,0,1018.7,51,,,23.9,13.3,36122,177,6.9,4.5
2018,8,17,13:20,UTC,0,1018.6,53,,,23.6,13.4,40517,179,6.7,4.5
2018,8,17,13:30,UTC,0,1018.5,55,,,23.9,14.2,41677,176,6.5,4.9
2018,8,17,13:40,UTC,0,1018.4,55,,,24.1,14.5,37245,185,7.2,4.8
2018,8,17,13:50,UTC,0,1018.3,55,,,23.8,14.1,43318,198,7,4.9
2018,8,17,14:00,UTC,0,1018.2,56,,,24.2,14.8,44143,195,6.7,4.6
2018,8,17,14:10,UTC,0,1018.1,58,,,23.8,15,41520,147,7,4.2
2018,8,17,14:20,UTC,0,1018,61,,,23.1,15.2,38985,136,7,4.5
2018,8,17,14:30,UTC,0,1018,60,,,23.2,14.9,47553,144,6.3,4.5
2018,8,17,14:40,UTC,0,1018.1,60,,,23.1,14.9,42061,146,6.1,4.5
2018,8,17,14:50,UTC,0,1018.1,59,,,23.4,15,44012,157,5.9,4
2018,8,17,15:00,UTC,2,1018,59,,,23,14.7,45421,155,5.8,4.1
2018,8,17,15:10,UTC,1,1018,61,,,23,15,46483,139,5.3,3.8
2018,8,17,15:20,UTC,2,1017.9,61,,,22.8,14.9,49527,140,5.5,4
2018,8,17,15:30,UTC,1,1017.8,62,,,22.7,15,43969,145,4.9,3.9
2018,8,17,15:40,UTC,1,1017.7,62,,,22.5,14.9,40081,149,5.4,4.1
2018,8,17,15:50,UTC,0,1017.7,63,,,22.4,15,41245,138,4.9,3.7
2018,8,17,16:00,UTC,0,1017.6,63,,,22.5,15.2,49765,131,5.4,4
2018,8,17,16:10,UTC,0,1017.6,62,,,22.3,14.7,39794,136,5.1,3.5
2018,8,17,16:20,UTC,0,1017.5,62,,,22.2,14.7,42814,138,5.2,3.4
2018,8,17,16:30,UTC,0,1017.4,63,,,22.3,14.9,44907,135,4.6,3.5
2018,8,17,16:40,UTC,0,1017.3,63,,,22.2,14.8,49272,140,4.2,3.2
2018,8,17,16:50,UTC,0,1017.2,64,,,22.1,14.8,50000,140,3.9,2.8
2018,8,17,17:00,UTC,0,1017.2,64,,,22,14.8,50000,144,3.8,2.8
2018,8,17,17:10,UTC,0,1017.2,64,,,22.1,14.9,50000,149,3.2,2.4
2018,8,17,17:20,UTC,0,1017.2,65,,,21.8,14.9,49388,151,4,2.7
2018,8,17,17:30,UTC,0,1017.1,68,,,21.4,15.2,50000,146,3,2.3
2018,8,17,17:40,UTC,0,1017.1,72,,,20.9,15.7,50000,142,3.2,2.2
2018,8,17,17:50,UTC,0,1016.9,75,,,20.5,15.8,50000,142,2.8,2.1
2018,8,17,18:00,UTC,0,1016.9,80,,,19.5,15.9,50000,125,2.5,1.9
2018,8,17,18:10,UTC,0,1016.9,82,,,19.2,16,48893,131,2.1,1.7
2018,8,17,18:20,UTC,0,1016.9,84,,,18.7,15.9,50000,114,1.8,1.2
2018,8,17,18:30,UTC,0,1016.9,86,,,18.6,16.3,16428,119,1,0.6
2018,8,17,18:40,UTC,1,1017,88,,,17.7,15.7,3992,0,0,0
2018,8,17,18:50,UTC,1,1016.9,90,,,17.2,15.6,2576,0,0,0
2018,8,17,19:00,UTC,1,1017,95,,,16.9,16.1,1887,0,0,0
2018,8,17,19:10,UTC,4,1017,96,,,16.8,16.2,8158,0,0,0
2018,8,17,19:20,UTC,3,1017.1,96,,,16.4,15.8,29217,0,0,0
2018,8,17,19:30,UTC,5,1017,98,,,16.2,15.8,38328,95,0.8,0.5
2018,8,17,19:40,UTC,2,1017.1,98,,,16,15.7,34682,0,0,0
2018,8,17,19:50,UTC,1,1017.1,99,,,15.7,15.6,26233,0,0,0
2018,8,17,20:00,UTC,1,1017.2,98,,,15.4,15.1,26992,0,0,0
2018,8,17,20:10,UTC,0,1017.1,98,,,15.5,15.2,34956,107,1.1,0.6
2018,8,17,20:20,UTC,0,1017.1,98,,,15.8,15.5,38561,104,1.3,1
2018,8,17,20:30,UTC,0,1017.1,97,,,15.4,15,19580,110,1.2,1.1
2018,8,17,20:40,UTC,0,1017.1,97,,,15.1,14.8,26978,121,1.5,1.1
2018,8,17,20:50,UTC,0,1017.1,99,,,15.1,14.9,30013,119,1.8,1.3
2018,8,17,21:00,UTC,0,1017.1,95,,,14.9,14.1,38864,133,2.9,1.8
2018,8,17,21:10,UTC,0,1017.1,93,,,15.2,14.1,47815,168,1.4,0.8
2018,8,17,21:20,UTC,0,1017,94,,,15.2,14.3,36383,120,1.4,0.8
2018,8,17,21:30,UTC,0,1017,98,,,15,14.8,29284,116,1.4,0.8
2018,8,17,21:40,UTC,1,1016.9,96,,,14.8,14.2,46077,140,1.7,1
2018,8,17,21:50,UTC,4,1016.9,94,,,15.6,14.6,47589,136,2,1.5
2018,8,17,22:00,UTC,3,1016.9,92,,,16.1,14.7,50000,146,3,2
2018,8,17,22:10,UTC,6,1016.8,86,,,17.4,15.1,50000,146,2.9,2
2018,8,17,22:20,UTC,2,1016.7,85,,,17.8,15.3,47302,142,3.3,2.6
2018,8,17,22:30,UTC,2,1016.8,85,,,18,15.5,50000,147,2.9,2.2
2018,8,17,22:40,UTC,1,1016.7,88,,,17.2,15.1,50000,143,3.5,2.5
2018,8,17,22:50,UTC,4,1016.6,88,,,17.3,15.3,48997,141,3.1,2.4
2018,8,17,23:00,UTC,3,1016.6,87,,,17.5,15.3,50000,152,3.5,2.4
2018,8,17,23:10,UTC,5,1016.6,88,,,17.1,15.1,49598,145,3.2,2.5
2018,8,17,23:20,UTC,2,1016.5,89,,,17.4,15.5,50000,144,3.4,2.5
2018,8,17,23:30,UTC,5,1016.4,89,,,17.5,15.6,49638,147,3.3,2.4
2018,8,17,23:40,UTC,6,1016.3,85,,,18.5,16,48298,154,3.4,2.3
2018,8,17,23:50,UTC,5,1016.3,87,,,17.6,15.4,50000,148,3.2,2.3
2018,8,18,00:00,UTC,6,1016.3,87,,,17.7,15.4,50000,148,3,2
2018,8,18,00:10,UTC,6,1016.2,86,,,17.7,15.3,48630,137,2.6,1.9
2018,8,18,00:20,UTC,6,1016.2,84,,,17.8,15.1,50000,136,3.1,2.2
2018,8,18,00:30,UTC,6,1016.2,84,,,17.7,14.9,50000,146,2.8,2.1
2018,8,18,00:40,UTC,5,1016,82,,,18.2,15,50000,140,3.3,2.5
2018,8,18,00:50,UTC,4,1016.1,78,,,18.9,14.9,50000,152,3.7,2.5
2018,8,18,01:00,UTC,5,1015.9,76,,,19.4,15.1,50000,156,4,2.3
2018,8,18,01:10,UTC,7,1015.9,79,,,19,15.3,48686,146,3.2,2.4
2018,8,18,01:20,UTC,6,1015.8,80,,,18.9,15.3,50000,155,3.2,2.1
2018,8,18,01:30,UTC,6,1015.8,80,,,19.3,15.7,50000,161,3.8,2.2
2018,8,18,01:40,UTC,6,1015.8,80,,,19.2,15.8,50000,175,3.6,2.5
2018,8,18,01:50,UTC,6,1015.7,82,,,19.2,16,50000,170,4.8,2.8
2018,8,18,02:00,UTC,3,1015.7,84,,,19,16.2,50000,176,4.9,3.4
2018,8,18,02:10,UTC,4,1015.7,84,,,19.1,16.4,50000,177,5.4,3.7
2018,8,18,02:20,UTC,2,1015.8,85,,,19,16.4,45069,178,6.3,3.8
2018,8,18,02:30,UTC,3,1015.8,86,,,18.8,16.5,45447,181,5.9,3.7
2018,8,18,02:40,UTC,2,1015.8,86,,,18.9,16.6,50000,181,4.3,3.2
2018,8,18,02:50,UTC,3,1015.7,86,,,18.9,16.5,47483,184,4.8,3.3
2018,8,18,03:00,UTC,2,1015.7,87,,,18.7,16.5,49806,185,5,3.1
2018,8,18,03:10,UTC,1,1015.7,87,,,18.7,16.6,45589,191,4.3,3
2018,8,18,03:20,UTC,0,1015.7,88,,,18.7,16.7,47684,180,4.1,2.7
2018,8,18,03:30,UTC,0,1015.7,89,,,18.5,16.6,49270,186,3.9,2.6
2018,8,18,03:40,UTC,0,1015.7,89,,,18.7,16.8,41111,187,4.5,3
2018,8,18,03:50,UTC,0,1015.7,89,,,18.8,16.9,46928,187,4.2,3
2018,8,18,04:00,UTC,0,1015.7,88,,,18.9,16.9,41507,176,4.6,3
2018,8,18,04:10,UTC,0,1015.7,88,,,19,17.1,44595,169,4.1,2.9
2018,8,18,04:20,UTC,0,1015.7,88,,,19.1,17.1,41270,169,4.5,2.8
2018,8,18,04:30,UTC,0,1015.7,88,,,19.3,17.1,41015,173,5.3,3.3
2018,8,18,04:40,UTC,0,1015.6,87,,,19.4,17.2,37678,173,5.6,3.8
2018,8,18,04:50,UTC,0,1015.5,87,,,19.5,17.2,48625,166,5.8,3.8
2018,8,18,05:00,UTC,0,1015.6,86,,,19.5,17.2,43433,178,6.4,4.3
2018,8,18,05:10,UTC,0,1015.6,86,,,19.7,17.3,36717,180,6.4,4.1
2018,8,18,05:20,UTC,0,1015.6,85,,,19.9,17.3,42750,187,6.3,4.2
2018,8,18,05:30,UTC,0,1015.7,85,,,20,17.3,34967,185,5.7,4.1
2018,8,18,05:40,UTC,0,1015.7,82,,,20.3,17,43035,189,5,3.5
2018,8,18,05:50,UTC,0,1015.7,77,,,20.6,16.3,42528,203,7.2,4.7
2018,8,18,06:00,UTC,0,1015.6,77,,,20.9,16.7,41440,200,6.4,4.1
2018,8,18,06:10,UTC,0,1015.6,78,,,20.8,16.8,36703,195,6.6,4.6
2018,8,18,06:20,UTC,0,1015.6,77,,,21.1,16.8,38651,187,7.6,4.8
2018,8,18,06:30,UTC,0,1015.6,75,,,21,16.5,41779,196,8.3,5.5
2018,8,18,06:40,UTC,0,1015.5,75,,,21.2,16.6,40537,188,6.8,5
2018,8,18,06:50,UTC,0,1015.6,75,,,21.4,16.7,40298,184,7.1,4.9
2018,8,18,07:00,UTC,0,1015.6,74,,,21.5,16.8,30413,180,6.7,4.8
2018,8,18,07:10,UTC,0,1015.6,75,,,21.1,16.6,41816,179,6.9,5
2018,8,18,07:20,UTC,0,1015.6,76,,,21.1,16.7,47518,175,6.2,4.4
2018,8,18,07:30,UTC,0,1015.6,75,,,21.4,16.9,44984,176,6.3,4.8
2018,8,18,07:40,UTC,2,1015.6,74,,,21.2,16.4,44825,191,7.3,4.9
2018,8,18,07:50,UTC,2,1015.6,76,,,21,16.6,45917,203,7,4.7
2018,8,18,08:00,UTC,3,1015.6,75,,,21.9,17.2,35036,196,5.7,3.9
2018,8,18,08:10,UTC,3,1015.6,72,,,22.3,17,45486,209,7.1,4.3
2018,8,18,08:20,UTC,5,1015.5,72,,,22.1,16.9,37175,181,6.6,4.2
2018,8,18,08:30,UTC,2,1015.4,71,,,21.9,16.5,44995,189,7.7,5.3
2018,8,18,08:40,UTC,1,1015.4,73,,,22.1,17,37110,194,7.3,4.6
2018,8,18,08:50,UTC,0,1015.3,73,,,22.2,17.2,30318,170,6.8,4.6
2018,8,18,09:00,UTC,0,1015.3,73,,,22.3,17.2,35704,187,8.4,5.4
2018,8,18,09:10,UTC,0,1015.4,74,,,22,17.1,39003,178,7.5,5
2018,8,18,09:20,UTC,0,1015.4,75,,,21.7,17.2,36239,174,8.1,5.9
2018,8,18,09:30,UTC,1,1015.4,73,,,22.3,17.3,35998,173,8.7,5.3
2018,8,18,09:40,UTC,1,1015.4,72,,,22.9,17.5,33139,174,7.9,5.1
2018,8,18,09:50,UTC,1,1015.4,73,,,22.3,17.1,38955,176,7.8,5.9
2018,8,18,10:00,UTC,1,1015.2,72,,,22.3,17,32365,176,8.6,6.3
2018,8,18,10:10,UTC,1,1015.2,73,,,22.6,17.5,34332,181,8.2,5.9
2018,8,18,10:20,UTC,1,1015.1,70,,,23.1,17.4,37564,181,8.7,5.6
2018,8,18,10:30,UTC,1,1015.2,73,,,22.4,17.3,35067,184,8.6,6.1
2018,8,18,10:40,UTC,1,1015.1,71,,,22.9,17.4,38740,186,8.1,5.7
2018,8,18,10:50,UTC,1,1015.2,70,,,23.2,17.4,39321,176,8.6,5.5
2018,8,18,11:00,UTC,0,1015.2,69,,,23.1,17.2,32817,167,8.9,6
2018,8,18,11:10,UTC,1,1015.2,66,,,23.5,16.8,32647,182,8.2,5.6
2018,8,18,11:20,UTC,4,1015.2,68,,,23.4,17.1,37685,200,10.2,5.9
2018,8,18,11:30,UTC,6,1015.1,67,,,23.4,16.8,33033,198,8.6,5.7
2018,8,18,11:40,UTC,7,1015.1,65,,,23.6,16.6,36075,195,9.1,5.8
2018,8,18,11:50,UTC,4,1015.1,61,,,23.8,15.8,44833,215,8.8,5.6
2018,8,18,12:00,UTC,4,1015.1,62,,,23.4,15.6,40440,225,9.2,5.9
2018,8,18,12:10,UTC,5,1015,62,,,23.3,15.6,42878,223,9.4,5.9
2018,8,18,12:20,UTC,6,1015,60,,,23.6,15.3,47281,228,7.7,5.3
2018,8,18,12:30,UTC,7,1014.8,60,,,24,15.8,36735,214,7.8,4.6
2018,8,18,12:40,UTC,7,1014.6,59,,,24.4,15.9,42855,223,6.3,4.1
2018,8,18,12:50,UTC,6,1014.5,58,,,24,15.2,34908,213,7.7,5.4
2018,8,18,13:00,UTC,3,1014.3,58,,,24.1,15.2,44524,212,7.8,5
2018,8,18,13:10,UTC,4,1014.2,59,,,23.7,15.3,45565,196,7,4.8
2018,8,18,13:20,UTC,5,1014.1,60,,,23.7,15.4,42803,212,7.6,4.8
2018,8,18,13:30,UTC,7,1014.1,61,,,23.7,15.8,37150,196,7.1,5.1
2018,8,18,13:40,UTC,7,1014,60,,,23.3,15.2,44465,210,7.5,5
2018,8,18,13:50,UTC,7,1014.1,62,,,23.1,15.6,40748,215,6.5,4.3
2018,8,18,14:00,UTC,7,1014,62,,,23.2,15.5,46683,219,5.9,3.7
2018,8,18,14:10,UTC,8,1014,61,,,23.3,15.4,42134,212,5.9,3
2018,8,18,14:20,UTC,8,1013.8,62,,,23.5,15.8,50000,203,6.7,4
2018,8,18,14:30,UTC,8,1013.9,63,,,23.3,15.8,44989,202,6.3,3.7
2018,8,18,14:40,UTC,8,1013.9,65,,,23.1,16.1,45070,189,5.2,3.6
2018,8,18,14:50,UTC,8,1013.8,66,,,22.7,16.1,50000,177,5.2,3.4
2018,8,18,15:00,UTC,8,1013.7,70,,,21.9,16.2,47653,179,5.6,4
2018,8,18,15:10,UTC,7,1013.7,72,,,21.8,16.5,47435,184,5.2,4
2018,8,18,15:20,UTC,7,1013.7,74,,,21.1,16.2,45003,186,6,4.4
2018,8,18,15:30,UTC,7,1013.6,76,,,20.9,16.5,40913,180,6.3,4.4
2018,8,18,15:40,UTC,7,1013.6,76,,,21,16.5,41877,170,5.8,3.9
2018,8,18,15:50,UTC,7,1013.5,75,,,20.9,16.4,45950,172,4.9,3.5
2018,8,18,16:00,UTC,7,1013.5,75,,,20.9,16.4,43626,169,4.6,3.3
2018,8,18,16:10,UTC,7,1013.4,75,,,20.6,16,45832,174,5.6,4.1
2018,8,18,16:20,UTC,7,1013.3,75,,,20.4,15.9,50000,167,5.6,4.1
2018,8,18,16:30,UTC,7,1013.4,75,,,20.4,15.8,46093,173,4.7,3.6
2018,8,18,16:40,UTC,7,1013.6,83,,,19.4,16.5,15221,188,5.9,4.4
2018,8,18,16:50,UTC,7,1013.5,87,,,19.1,16.9,16877,180,4.8,3.5
2018,8,18,17:00,UTC,7,1013.4,87,,,19.2,17,42736,180,4.9,3.1
2018,8,18,17:10,UTC,7,1013.4,88,,,19.2,17.2,15348,178,4.2,2.8
2018,8,18,17:20,UTC,7,1013.3,86,,,19.4,17,35048,175,3.8,2.6
2018,8,18,17:30,UTC,7,1013.3,81,,,19.5,16.2,36175,170,5.8,3.4
2018,8,18,17:40,UTC,7,1013.2,82,,,19.2,16,50000,183,5.5,3.8
2018,8,18,17:50,UTC,4,1013.2,80,,,19.1,15.5,45132,174,6.2,4.6
2018,8,18,18:00,UTC,2,1013.2,80,,,18.8,15.2,50000,177,7.2,5
2018,8,18,18:10,UTC,1,1013.1,80,,,18.6,15.1,41695,182,8,5.1
2018,8,18,18:20,UTC,1,1013.1,81,,,18.3,14.9,50000,184,6,4.2
2018,8,18,18:30,UTC,1,1013.1,80,,,18.3,14.8,44625,181,6.2,4.1
2018,8,18,18:40,UTC,0,1013.1,81,,,18.1,14.8,37745,187,5.8,3.6
2018,8,18,18:50,UTC,0,1013.2,83,,,17.8,14.9,46676,194,5.3,3.3
2018,8,18,19:00,UTC,0,1013.2,83,,,17.8,14.8,50000,194,4.7,3.3
2018,8,18,19:10,UTC,0,1013.1,82,,,17.7,14.5,38316,196,5.1,3.4
2018,8,18,19:20,UTC,0,1013.2,82,,,17.4,14.3,46230,196,4,2.7
2018,8,18,19:30,UTC,0,1013.2,80,,,17.5,14,41684,195,4.1,3.1
2018,8,18,19:40,UTC,2,1013.2,81,,,17.3,14,44305,202,4,2.7
2018,8,18,19:50,UTC,5,1013.2,78,,,17.5,13.7,45477,213,3.6,2.5
2018,8,18,20:00,UTC,5,1013.1,78,,,17.4,13.4,47031,217,4,2.4
2018,8,18,20:10,UTC,3,1013,80,,,17.2,13.6,45017,210,3.3,2.1
2018,8,18,20:20,UTC,1,1013.1,79,,,17.4,13.7,41413,214,4.7,3
2018,8,18,20:30,UTC,0,1013,79,,,17.1,13.5,43775,212,4.3,2.7
2018,8,18,20:40,UTC,0,1013,78,,,17,13.2,49231,209,3.9,2.5
2018,8,18,20:50,UTC,0,1013,79,,,16.8,13.1,46707,209,3.3,2.3
2018,8,18,21:00,UTC,0,1012.9,79,,,16.8,13.1,46349,201,3.4,2.4
2018,8,18,21:10,UTC,0,1012.9,79,,,16.7,13,49114,186,3.2,2.4
2018,8,18,21:20,UTC,0,1012.9,82,,,16.3,13.1,41788,198,4.2,2.7
2018,8,18,21:30,UTC,0,1012.8,82,,,16.4,13.4,43012,196,3.8,2.6
2018,8,18,21:40,UTC,0,1012.8,83,,,16.5,13.5,29598,201,4.9,2.9
2018,8,18,21:50,UTC,0,1012.7,83,,,16.7,13.7,32289,201,3.8,2.7
2018,8,18,22:00,UTC,0,1012.7,83,,,16.7,13.8,36018,199,4.4,2.8
2018,8,18,22:10,UTC,0,1012.7,82,,,16.7,13.7,44412,202,4.3,3
2018,8,18,22:20,UTC,1,1012.6,82,,,16.8,13.7,44533,199,4.5,3
2018,8,18,22:30,UTC,2,1012.5,82,,,16.9,13.8,42880,196,4.6,3.3
2018,8,18,22:40,UTC,1,1012.4,81,,,17.1,13.8,47780,196,5,3.7
2018,8,18,22:50,UTC,1,1012.3,81,,,17,13.7,45762,201,4.8,3.3
2018,8,18,23:00,UTC,0,1012.3,79,,,17.2,13.5,42142,205,6.5,3.7
2018,8,18,23:10,UTC,0,1012.2,78,,,17.4,13.5,43980,207,6,4
2018,8,18,23:20,UTC,0,1012.1,79,,,17.2,13.5,49483,202,5.8,3.6
2018,8,18,23:30,UTC,0,1011.9,78,,,17.3,13.5,46255,200,4.7,3.4
2018,8,18,23:40,UTC,0,1011.8,78,,,17.4,13.6,49164,202,5.8,3.8
2018,8,18,23:50,UTC,0,1011.8,78,,,17.4,13.5,47127,204,7.3,3.9
2018,8,19,00:00,UTC,0,1011.8,79,,,17.3,13.6,43807,206,5.6,3.7
2018,8,19,00:10,UTC,0,1011.7,80,,,17.6,14.2,45043,203,8,4.3
2018,8,19,00:20,UTC,2,1011.7,82,,,17.6,14.4,38919,202,7.5,4.9
2018,8,19,00:30,UTC,5,1011.5,82,,,17.7,14.6,42318,202,7.7,4.9
2018,8,19,00:40,UTC,6,1011.4,82,,,17.8,14.7,40091,201,8.3,5.4
2018,8,19,00:50,UTC,7,1011.3,83,,,18,15,42099,203,8.8,5.6
2018,8,19,01:00,UTC,7,1011.3,85,,,18,15.4,37324,202,8.4,5.4
2018,8,19,01:10,UTC,7,1011.2,86,,,18,15.5,37135,200,7.9,5.5
2018,8,19,01:20,UTC,7,1011,87,,,18,15.8,35323,200,8.1,5.2
2018,8,19,01:30,UTC,7,1010.9,88,,,18,16,36128,208,8.4,4.5
2018,8,19,01:40,UTC,7,1010.8,88,,,18.1,16.1,35529,202,8.5,5.7
2018,8,19,01:50,UTC,7,1010.7,88,,,18.1,16.2,26573,199,9.9,6.5
2018,8,19,02:00,UTC,8,1010.5,91,,,17.9,16.5,16213,198,10.6,6.4
2018,8,19,02:10,UTC,8,1010.6,92,,,17.8,16.5,20164,199,10.9,7.2
2018,8,19,02:20,UTC,8,1010.5,93,,,17.7,16.7,17062,207,9.5,5.8
2018,8,19,02:30,UTC,8,1010.4,94,,,17.7,16.7,13164,203,11.3,5.3
2018,8,19,02:40,UTC,8,1010.3,95,,,17.6,16.7,12996,202,7.7,5.5
2018,8,19,02:50,UTC,8,1010.2,96,,,17.4,16.8,9615,204,9.1,5.1
2018,8,19,03:00,UTC,8,1010.2,96,,,17.4,16.8,10140,201,9.7,5.8
2018,8,19,03:10,UTC,8,1010.4,97,,,17.1,16.6,5024,216,9.1,5.8
2018,8,19,03:20,UTC,8,1010.3,98,,,17,16.6,7054,221,6.3,4.2
2018,8,19,03:30,UTC,8,1010.3,96,,,17,16.4,16351,214,7,4.2
2018,8,19,03:40,UTC,8,1010.2,94,,,17.1,16.1,19847,208,7.3,4.6
2018,8,19,03:50,UTC,8,1010.2,94,,,17,16.1,21066,204,6.1,3.8
2018,8,19,04:00,UTC,8,1010.1,94,,,16.9,16,19760,197,6.1,4
2018,8,19,04:10,UTC,8,1010.1,95,,,16.8,16,18696,198,6.2,4.1
2018,8,19,04:20,UTC,8,1009.9,96,,,16.9,16.3,18295,199,5.9,3.8
2018,8,19,04:30,UTC,8,1009.8,97,,,17,16.5,15601,189,5.8,3.4
2018,8,19,04:40,UTC,8,1009.8,98,,,17,16.6,5350,198,6,3.8
2018,8,19,04:50,UTC,8,1009.8,98,,,16.9,16.7,4926,205,8.2,4.5
2018,8,19,05:00,UTC,8,1009.6,98,,,17,16.7,4575,215,9,5
2018,8,19,05:10,UTC,8,1009.6,99,,,16.9,16.8,4405,221,8.4,5.5
2018,8,19,05:20,UTC,8,1009.6,99,,,17.1,16.9,13761,216,6.9,4.9
2018,8,19,05:30,UTC,8,1009.5,98,,,17.2,16.9,21735,206,7.5,4
2018,8,19,05:40,UTC,7,1009.5,97,,,17.3,16.8,20465,200,6.6,4
2018,8,19,05:50,UTC,7,1009.5,97,,,17.3,16.8,25534,207,6.3,3.8
2018,8,19,06:00,UTC,7,1009.4,96,,,17.3,16.7,36748,207,7,4.1
2018,8,19,06:10,UTC,8,1009.2,96,,,17.5,16.8,26994,211,6,3.9
2018,8,19,06:20,UTC,8,1009.2,96,,,17.6,16.9,22740,207,6.6,4
2018,8,19,06:30,UTC,8,1009.1,97,,,17.7,17.2,20395,198,6.1,4.2
2018,8,19,06:40,UTC,8,1009.2,94,,,17.8,16.9,31736,213,8.1,4.6
2018,8,19,06:50,UTC,8,1009.2,93,,,17.8,16.7,36031,218,7.7,4.9
2018,8,19,07:00,UTC,7,1009,93,,,17.9,16.8,34162,214,8.7,5.1
2018,8,19,07:10,UTC,7,1009,94,,,18.2,17.2,35914,209,8.6,4.3
2018,8,19,07:20,UTC,7,1008.9,92,,,18.2,16.8,36698,207,7.9,4.9
2018,8,19,07:30,UTC,7,1008.9,91,,,18.2,16.7,34245,219,11.6,6
2018,8,19,07:40,UTC,7,1008.9,91,,,18.3,16.8,38307,213,7.9,5.1
2018,8,19,07:50,UTC,8,1008.9,90,,,18.4,16.8,43996,220,7.2,4.5
2018,8,19,08:00,UTC,8,1008.9,88,,,18.7,16.7,40068,223,9.7,5.2
2018,8,19,08:10,UTC,7,1008.9,87,,,18.6,16.4,32543,234,8.1,5.3
2018,8,19,08:20,UTC,7,1009,87,,,18.7,16.5,42225,230,8.7,5.4
2018,8,19,08:30,UTC,7,1009,83,,,19.4,16.5,35417,229,9.6,5.3
2018,8,19,08:40,UTC,7,1008.9,82,,,19.3,16.1,43678,234,9.9,5.7
2018,8,19,08:50,UTC,7,1008.9,80,,,19.7,16.1,40635,242,10.5,5.7
2018,8,19,09:00,UTC,7,1008.9,78,,,19.9,16,37812,237,9.8,6
2018,8,19,09:10,UTC,6,1008.8,74,,,20.6,15.8,36652,249,7.2,4.5
2018,8,19,09:20,UTC,6,1008.8,73,,,20.2,15.1,38847,229,9.2,5.6
2018,8,19,09:30,UTC,7,1008.8,70,,,20.4,14.7,43141,244,8.7,4.9
2018,8,19,09:40,UTC,7,1008.9,70,,,19.6,14.1,40934,262,7.6,5
2018,8,19,09:50,UTC,7,1008.9,69,,,19.8,13.9,45888,268,7.6,4.7
2018,8,19,10:00,UTC,7,1008.9,70,,,19.7,14.1,43645,264,7,4.4
2018,8,19,10:10,UTC,6,1008.8,70,,,20.4,14.8,34843,256,6.8,4.1
2018,8,19,10:20,UTC,4,1008.7,67,,,20.6,14.4,39585,241,7.1,5.1
2018,8,19,10:30,UTC,4,1008.8,57,,,20.6,11.8,43886,224,10.2,6.4
2018,8,19,10:40,UTC,2,1008.6,60,,,21,12.8,38438,227,10.2,5.3
2018,8,19,10:50,UTC,4,1008.7,66,,,20.9,14.2,42927,215,7.3,4.8
2018,8,19,11:00,UTC,4,1008.7,57,,,22.1,13.1,42963,233,10.2,5.6
2018,8,19,11:10,UTC,6,1008.8,55,,,21.5,12.1,40857,228,10.2,6.1
2018,8,19,11:20,UTC,7,1008.8,57,,,20.7,11.8,43451,263,9.9,5.8
2018,8,19,11:30,UTC,4,1008.6,50,,,22,11.2,38266,235,9.7,6.1
2018,8,19,11:40,UTC,2,1008.5,45,,,22.2,9.7,37014,218,10.1,6.5
2018,8,19,11:50,UTC,1,1008.4,46,,,22.2,10,44500,245,12,6.9
2018,8,19,12:00,UTC,3,1008.4,46,,,22.4,10.1,36843,249,10.7,7.2
2018,8,19,12:10,UTC,5,1008.4,48,,,22,10.5,42426,254,10.2,6.2
2018,8,19,12:20,UTC,5,1008.5,48,,,22,10.4,40586,250,9.3,6
2018,8,19,12:30,UTC,3,1008.5,48,,,22.3,10.7,42629,240,10.4,6.4
2018,8,19,12:40,UTC,1,1008.4,48,,,22.6,11.1,43355,229,11.5,6.2
2018,8,19,12:50,UTC,1,1008.4,48,,,22.2,10.8,42088,216,12.2,7.8
2018,8,19,13:00,UTC,4,1008.5,58,,,21.8,13.1,36244,212,9.5,6.6
2018,8,19,13:10,UTC,6,1008.5,58,,,21.3,12.6,47933,214,8.7,5.8
2018,8,19,13:20,UTC,7,1008.5,56,,,21.4,12.4,40799,235,7.9,4.8
2018,8,19,13:30,UTC,5,1008.6,55,,,21.3,11.9,37915,221,9.3,5.7
2018,8,19,13:40,UTC,4,1008.5,57,,,21.2,12.2,39335,202,8.9,5.9
2018,8,19,13:50,UTC,2,1008.6,45,,,21.9,9.5,34572,234,9.5,5.6
2018,8,19,14:00,UTC,1,1008.5,46,,,22,9.8,45291,261,10.5,6.1
2018,8,19,14:10,UTC,1,1008.7,45,,,22.2,9.8,32899,257,10.2,6
2018,8,19,14:20,UTC,2,1008.8,49,,,21.5,10.2,43585,249,9.4,5.5
2018,8,19,14:30,UTC,3,1008.8,46,,,22.3,10.1,46520,260,9.5,5.1
2018,8,19,14:40,UTC,2,1008.9,50,,,21.4,10.6,43325,275,9.6,6
2018,8,19,14:50,UTC,2,1009,46,,,21.6,9.5,43638,265,10,6.3
2018,8,19,15:00,UTC,1,1009,45,,,21.6,9.1,47155,275,10.1,6.2
2018,8,19,15:10,UTC,1,1009,48,,,21,9.4,45566,264,8.1,5.6
2018,8,19,15:20,UTC,0,1009.1,47,,,21.2,9.4,44291,261,8.3,5
2018,8,19,15:30,UTC,0,1009.2,47,,,21.3,9.4,38885,272,8.9,5.5
2018,8,19,15:40,UTC,0,1009.1,45,,,21.7,9.2,43875,255,8.4,5
2018,8,19,15:50,UTC,0,1009.2,45,,,21.4,9,42826,262,8.4,5.5
2018,8,19,16:00,UTC,0,1009.2,46,,,21.2,9.3,48966,261,9.3,5.2
2018,8,19,16:10,UTC,0,1009.4,48,,,20.9,9.4,46934,254,8.6,6
2018,8,19,16:20,UTC,0,1009.4,49,,,20.5,9.4,50000,271,9,5.2
2018,8,19,16:30,UTC,0,1009.5,48,,,20.7,9.3,44963,272,7.5,4.7
2018,8,19,16:40,UTC,1,1009.6,48,,,20.4,8.9,48893,274,7.7,4.8
2018,8,19,16:50,UTC,0,1009.7,48,,,20.4,8.9,50000,268,8.8,4.7
2018,8,19,17:00,UTC,0,1009.8,48,,,20.2,8.8,47671,268,8.8,5.1
2018,8,19,17:10,UTC,0,1010,50,,,19.9,9,50000,265,7.1,4.6
2018,8,19,17:20,UTC,0,1010,50,,,19.7,8.9,50000,258,8.3,5.2
2018,8,19,17:30,UTC,0,1010.2,51,,,19.4,9,47540,260,7.2,4.6
2018,8,19,17:40,UTC,0,1010.3,51,,,19.3,8.9,50000,261,7.3,4.3
2018,8,19,17:50,UTC,0,1010.4,52,,,19,8.9,50000,262,5.7,3.8
2018,8,19,18:00,UTC,0,1010.5,53,,,18.7,8.8,50000,266,5.1,3.1
2018,8,19,18:10,UTC,0,1010.5,54,,,18.2,8.9,50000,263,3.8,2.7
2018,8,19,18:20,UTC,0,1010.6,55,,,18.2,9.1,50000,260,5.3,2.8
2018,8,19,18:30,UTC,0,1010.7,58,,,17.6,9.2,50000,258,3.2,2.3
2018,8,19,18:40,UTC,0,1010.7,58,,,17.7,9.4,50000,258,4.2,2.6
2018,8,19,18:50,UTC,0,1010.8,59,,,17.5,9.3,50000,269,4.3,2.7
2018,8,19,19:00,UTC,0,1010.9,60,,,17.2,9.3,50000,272,3.2,2
2018,8,19,19:10,UTC,0,1010.9,61,,,17.2,9.5,50000,263,4.2,2.8
2018,8,19,19:20,UTC,0,1010.9,62,,,16.9,9.5,50000,266,3.5,2.4
2018,8,19,19:30,UTC,0,1011,64,,,16.4,9.6,50000,244,2.2,1.3
2018,8,19,19:40,UTC,0,1011.1,68,,,15.6,9.8,50000,256,2.6,1.6
2018,8,19,19:50,UTC,0,1011.1,67,,,16,9.8,40330,270,3.5,1.8
2018,8,19,20:00,UTC,0,1011.1,67,,,15.9,9.9,50000,261,2.8,1.6
2018,8,19,20:10,UTC,0,1011.2,68,,,15.6,9.8,50000,260,2.8,2
2018,8,19,20:20,UTC,0,1011.2,71,,,14.9,9.7,50000,225,2.3,1.7
2018,8,19,20:30,UTC,0,1011.2,74,,,14.4,9.8,50000,207,1.7,1.3
2018,8,19,20:40,UTC,0,1011.2,75,,,14.3,9.9,49680,214,2.2,1.5
2018,8,19,20:50,UTC,0,1011.3,74,,,14.6,9.9,50000,219,2.4,1.6
2018,8,19,21:00,UTC,0,1011.3,74,,,14.3,9.7,50000,223,2.4,1.6
2018,8,19,21:10,UTC,2,1011.3,75,,,14.4,9.9,50000,239,1.8,1
2018,8,19,21:20,UTC,4,1011.3,80,,,13.2,9.8,50000,240,1.2,0.9
2018,8,19,21:30,UTC,2,1011.3,85,,,12.7,10.2,50000,223,1.6,0.7
2018,8,19,21:40,UTC,1,1011.3,80,,,13.3,10,50000,244,1.4,0.8
2018,8,19,21:50,UTC,0,1011.4,83,,,12.2,9.4,50000,0,0,0
2018,8,19,22:00,UTC,0,1011.4,90,,,11.3,9.8,50000,0,0,0
2018,8,19,22:10,UTC,0,1011.4,92,,,10.5,9.3,50000,0,0,0
2018,8,19,22:20,UTC,0,1011.5,96,,,10.4,9.7,50000,0,0,0
2018,8,19,22:30,UTC,0,1011.5,95,,,10.6,9.9,49438,0,0,0
2018,8,19,22:40,UTC,0,1011.5,96,,,10.3,9.7,50000,0,0,0
2018,8,19,22:50,UTC,0,1011.5,97,,,10.1,9.7,49459,94,1.2,0.8
2018,8,19,23:00,UTC,0,1011.4,97,,,10.1,9.7,47177,0,0,0
2018,8,19,23:10,UTC,0,1011.4,95,,,9.9,9.1,50000,0,0,0
2018,8,19,23:20,UTC,0,1011.4,97,,,9.7,9.3,47050,0,0,0
2018,8,19,23:30,UTC,0,1011.4,99,,,9.7,9.5,21708,0,0,0
2018,8,19,23:40,UTC,1,1011.2,100,,,9.9,9.9,10646,67,0.8,0.6
2018,8,19,23:50,UTC,0,1011.3,100,,,9.3,9.2,35842,0,0,0
2018,8,20,00:00,UTC,0,1011.2,100,,,9.3,9.2,47311,0,0,0
2018,8,20,00:10,UTC,1,1011.4,100,,,9.5,9.5,50000,143,0.9,0.6
2018,8,20,00:20,UTC,4,1011.3,100,,,10,10,32808,113,0.8,0.5
2018,8,20,00:30,UTC,6,1011.2,100,,,9.4,9.4,22887,0,0,0
2018,8,20,00:40,UTC,7,1011.2,100,,,9.7,9.7,19048,0,0,0
2018,8,20,00:50,UTC,7,1011.2,99,,,9.4,9.3,43733,104,0.8,0.6
2018,8,20,01:00,UTC,7,1011.3,100,,,9.8,9.8,26390,98,0.9,0.7
2018,8,20,01:10,UTC,7,1011.3,100,,,9.3,9.3,28787,85,0.8,0.5
2018,8,20,01:20,UTC,7,1011.2,100,,,9.7,9.7,28731,58,0.9,0.8
2018,8,20,01:30,UTC,7,1011.3,99,,,9.2,9.1,5574,152,0.9,0.5
2018,8,20,01:40,UTC,7,1011.2,99,,,9.5,9.5,40263,0,0,0
2018,8,20,01:50,UTC,7,1011.1,100,,,9.6,9.6,13415,0,0,0
2018,8,20,02:00,UTC,7,1011,100,,,9.9,9.9,8493,0,0,0
2018,8,20,02:10,UTC,7,1011.1,100,,,9,9,3749,0,0,0
2018,8,20,02:20,UTC,7,1011.1,100,,,9.5,9.5,31658,0,0,0
2018,8,20,02:30,UTC,6,1011,100,,,9.8,9.8,1812,0,0,0
2018,8,20,02:40,UTC,6,1010.9,100,,,9.4,9.4,8825,0,0,0
2018,8,20,02:50,UTC,6,1010.9,100,,,9.9,9.9,7682,96,1,0.7
2018,8,20,03:00,UTC,7,1010.7,100,,,9.1,9.1,5771,0,0,0
2018,8,20,03:10,UTC,7,1010.6,100,,,9.3,9.3,4469,110,1.2,0.7
2018,8,20,03:20,UTC,7,1010.6,100,,,9.4,9.4,8171,101,1.1,0.8
2018,8,20,03:30,UTC,6,1010.6,100,,,9.6,9.6,40015,0,0,0
2018,8,20,03:40,UTC,3,1010.5,100,,,9.6,9.6,49152,0,0,0
2018,8,20,03:50,UTC,2,1010.5,100,,,10,10,28031,358,0.9,0.6
2018,8,20,04:00,UTC,4,1010.5,100,,,10.2,10.2,24457,0,0,0
2018,8,20,04:10,UTC,6,1010.5,100,,,10.4,10.4,30958,0,0,0
2018,8,20,04:20,UTC,7,1010.4,100,,,10.7,10.7,37202,0,0,0
2018,8,20,04:30,UTC,8,1010.4,100,,,11.1,11.1,28830,0,0,0
2018,8,20,04:40,UTC,7,1010.4,100,,,11.4,11.4,28743,0,0,0
2018,8,20,04:50,UTC,7,1010.2,100,,,11.9,11.9,26871,124,0.9,0.6
2018,8,20,05:00,UTC,7,1010,99,,,12.1,11.9,34215,72,1.1,0.7
2018,8,20,05:10,UTC,4,1010,99,,,12.3,12.1,28994,58,1.5,0.8
2018,8,20,05:20,UTC,2,1010,88,,,14.5,12.7,33166,80,2.7,1.7
2018,8,20,05:30,UTC,0,1010,84,,,15.4,12.6,36132,102,2.2,1.7
2018,8,20,05:40,UTC,0,1009.8,79,,,16.3,12.6,33229,129,2.9,1.8
2018,8,20,05:50,UTC,0,1009.7,75,,,16.7,12.2,37508,129,3.5,2.4
2018,8,20,06:00,UTC,0,1009.6,77,,,17.1,13.1,40665,135,4,2.5
2018,8,20,06:10,UTC,0,1009.5,77,,,17.4,13.3,38135,135,4.5,3.3
2018,8,20,06:20,UTC,0,1009.4,76,,,17.8,13.5,36171,143,4.5,3
2018,8,20,06:30,UTC,0,1009.3,76,,,18.2,13.9,35063,134,4.5,3
2018,8,20,06:40,UTC,1,1009.2,76,,,18.1,13.9,36208,151,4,2.7
2018,8,20,06:50,UTC,1,1009.2,77,,,18.5,14.3,31073,153,4.5,2.7
2018,8,20,07:00,UTC,1,1009.1,77,,,18.4,14.3,32323,156,5.8,3.5
2018,8,20,07:10,UTC,3,1009,78,,,18.9,14.9,,148,5.1,3.5
2018,8,20,07:20,UTC,,,,,,,,,,,
2018,8,20,07:30,UTC,7,1008.8,73,,,18.4,13.4,,162,6.8,4
2018,8,20,07:40,UTC,7,1008.8,75,,,18.7,14.1,35776,180,5.2,3.4
2018,8,20,07:50,UTC,7,1008.7,76,,,18.6,14.2,,177,5.8,3.9
2018,8,20,08:00,UTC,7,1008.6,76,,,18.3,14.1,28885,190,5.9,4.2
2018,8,20,08:10,UTC,8,1008.5,75,,,18.3,13.8,27258,191,6.1,4.6
2018,8,20,08:20,UTC,8,1008.5,72,,,18.2,13.1,31630,187,6.1,4.6
2018,8,20,08:30,UTC,7,1008.5,69,,,18.2,12.5,35498,178,6,4.2
2018,8,20,08:40,UTC,7,1008.6,70,,,18.4,12.7,38918,183,5.2,3.4
2018,8,20,08:50,UTC,7,1008.5,68,,,18.4,12.4,33566,192,5.4,3.8
2018,8,20,09:00,UTC,8,1008.4,72,,,18.3,13.2,31485,178,6.7,3.8
2018,8,20,09:10,UTC,7,1008.2,82,,,17.8,14.8,27198,179,7.2,5.2
2018,8,20,09:20,UTC,7,1008.2,83,,,17.9,14.9,29626,190,6.8,5.1
2018,8,20,09:30,UTC,7,1008.2,82,,,18.2,15,26776,183,5.5,3.7
2018,8,20,09:40,UTC,7,1008,80,,,18,14.5,28155,186,7.1,5.5
2018,8,20,09:50,UTC,7,1008,81,,,18.1,14.7,30628,179,6.3,4.5
2018,8,20,10:00,UTC,7,1007.9,81,,,17.8,14.4,33140,196,7.5,5.2
2018,8,20,10:10,UTC,7,1007.8,83,,,17.6,14.6,27527,191,8.5,5.6
2018,8,20,10:20,UTC,7,1007.8,80,,,17.6,14.2,33428,181,6.4,4.9
2018,8,20,10:30,UTC,,,,,,,,,,,
2018,8,20,10:40,UTC,7,1007.6,80,,,17.7,14.2,27595,185,7,5.2
2018,8,20,10:50,UTC,7,1007.5,82,,,17.7,14.7,28197,179,7,4.8
2018,8,20,11:00,UTC,7,1007.5,78,,,17,13.1,26618,176,8.4,5.5
2018,8,20,11:10,UTC,8,1007.6,86,,,16.3,13.9,23382,180,8.5,5.5
2018,8,20,11:20,UTC,8,1007.4,92,,,15.9,14.6,15592,198,6.4,4.1
2018,8,20,11:30,UTC,8,1007.2,92,,,15.9,14.6,13709,191,5,3
2018,8,20,11:40,UTC,8,1007.1,94,,,15.9,15,15613,176,4.5,2.7
2018,8,20,11:50,UTC,8,1007,94,,,16.1,15.1,17230,152,3.5,1.7
2018,8,20,12:00,UTC,8,1006.7,87,,,16,13.8,17946,144,5.5,3.3
2018,8,20,12:10,UTC,8,1006.6,90,,,16,14.4,18775,150,5.5,3.9
2018,8,20,12:20,UTC,8,1006.5,93,,,15.8,14.7,24438,150,5.8,3.8
2018,8,20,12:30,UTC,8,1006.3,89,,,15.8,14,25206,154,5.5,3.6
2018,8,20,12:40,UTC,8,1006.3,90,,,15.7,14.1,25394,149,5.3,3.4
2018,8,20,12:50,UTC,8,1006.1,88,,,15.5,13.4,14885,150,3.9,2.9
2018,8,20,13:00,UTC,8,1006,88,,,15.4,13.4,14589,158,3.2,2.1
2018,8,20,13:10,UTC,8,1006,87,,,15.4,13.2,14841,164,2.8,1.9
2018,8,20,13:20,UTC,8,1005.8,89,,,15.2,13.4,10094,207,2.8,1.5
2018,8,20,13:30,UTC,8,1005.5,95,,,14.8,14,7200,113,1.7,1.2
2018,8,20,13:40,UTC,8,1005.4,95,,,14.7,14,12953,22,2,1.2
2018,8,20,13:50,UTC,8,1005.4,97,,,14.8,14.3,15069,339,2.1,1.5
2018,8,20,14:00,UTC,8,1005.3,97,,,14.7,14.3,13440,345,2,1.5
2018,8,20,14:10,UTC,8,1005.3,97,,,14.5,14.1,4980,6,2.3,1.6
2018,8,20,14:20,UTC,8,1005,97,,,14.4,14,3792,44,2.8,1.3
2018,8,20,14:30,UTC,8,1004.8,97,,,14.3,13.8,8729,43,2.5,1.3
2018,8,20,14:40,UTC,8,1004.6,98,,,14.4,14,8601,53,2.1,1
2018,8,20,14:50,UTC,8,1004.4,98,,,14.4,14.2,8686,67,2.6,1.4
2018,8,20,15:00,UTC,8,1004.1,98,,,14.3,14.1,7392,73,3.3,2.2
2018,8,20,15:10,UTC,8,1004.1,98,,,14.4,14.1,9297,67,3.4,1.7
2018,8,20,15:20,UTC,8,1003.9,97,,,14.3,13.9,10945,61,3.3,1.6
2018,8,20,15:30,UTC,8,1003.7,98,,,14.3,13.9,10982,72,2.5,1.4
2018,8,20,15:40,UTC,8,1003.5,98,,,14.3,14,10908,86,3.2,1.7
2018,8,20,15:50,UTC,8,1003.5,98,,,14.4,14.2,12532,82,2.6,1.3
2018,8,20,16:00,UTC,8,1003.4,98,,,14.5,14.2,11743,30,2.2,1
2018,8,20,16:10,UTC,8,1003.3,99,,,14.4,14.2,14816,345,3.1,2.1
2018,8,20,16:20,UTC,8,1003.1,99,,,14.3,14.1,13038,350,2.9,2
2018,8,20,16:30,UTC,8,1002.8,99,,,14.1,14,13278,349,4.4,3.2
2018,8,20,16:40,UTC,8,1002.4,100,,,14,14,12535,22,4.4,2.6
2018,8,20,16:50,UTC,8,1002.6,99,,,14.2,14.1,8968,57,5.6,3.3
2018,8,20,17:00,UTC,8,1002.6,99,,,14.3,14.1,10960,326,5.3,3.7
2018,8,20,17:10,UTC,8,1002.6,100,,,14.1,14,12269,317,4.8,3.3
2018,8,20,17:20,UTC,8,1002.6,100,,,14,14,8516,338,4.1,2.8
2018,8,20,17:30,UTC,8,1002.5,100,,,14,14,9615,340,3.1,2.4
2018,8,20,17:40,UTC,8,1002.3,100,,,14,14,8970,344,3.3,2.2
2018,8,20,17:50,UTC,8,1002.2,100,,,14,14,8767,339,3.8,2.7
2018,8,20,18:00,UTC,8,1002.3,100,,,13.9,13.9,8814,335,3.8,2.4
2018,8,20,18:10,UTC,8,1002.3,100,,,13.9,13.9,8165,311,3.7,2.6
2018,8,20,18:20,UTC,8,1002.2,100,,,13.8,13.8,7294,306,3.4,2.5
2018,8,20,18:30,UTC,8,1002.2,100,,,13.7,13.7,7356,320,3.3,2.4
2018,8,20,18:40,UTC,8,1002,100,,,13.7,13.7,5755,351,3.1,2.1
2018,8,20,18:50,UTC,8,1001.7,100,,,13.7,13.7,4507,6,2,1.4
2018,8,20,19:00,UTC,8,1001.4,100,,,13.7,13.7,5114,5,2.2,1.5
2018,8,20,19:10,UTC,8,1001.2,100,,,13.7,13.7,7857,5,3.4,2.1
2018,8,20,19:20,UTC,8,1001.1,100,,,13.6,13.6,12555,360,4.4,2.6
2018,8,20,19:30,UTC,8,1001.1,100,,,13.6,13.6,12548,356,4.8,3.3
2018,8,20,19:40,UTC,8,1001.1,100,,,13.6,13.6,13921,356,4.9,2.7
2018,8,20,19:50,UTC,7,1001,100,,,13.6,13.6,15717,354,4.7,2.8
2018,8,20,20:00,UTC,7,1001.4,100,,,13.7,13.7,18095,332,3.5,2.2
2018,8,20,20:10,UTC,7,1001.5,100,,,13.8,13.8,19669,309,4.2,2.7
2018,8,20,20:20,UTC,7,1001.6,100,,,13.8,13.8,20741,309,3.8,2.7
2018,8,20,20:30,UTC,8,1001.5,100,,,13.8,13.8,23676,313,5.3,3.3
2018,8,20,20:40,UTC,8,1001.6,99,,,13.7,13.5,10672,310,6.4,4.1
2018,8,20,20:50,UTC,8,1001.7,99,,,13.5,13.4,6375,319,5.7,4.2
2018,8,20,21:00,UTC,8,1001.7,100,,,13.4,13.4,6743,322,5.5,3.4
2018,8,20,21:10,UTC,8,1001.6,99,,,13.4,13.4,10559,320,6.2,3.2
2018,8,20,21:20,UTC,8,1001.6,99,,,13.4,13.2,19156,340,4.6,3.2
2018,8,20,21:30,UTC,8,1001.6,98,,,13.3,13.1,36326,334,4.2,2.5
2018,8,20,21:40,UTC,8,1001.5,97,,,13.4,13,50000,324,4.5,2.6
2018,8,20,21:50,UTC,8,1001.6,97,,,13.3,12.9,28733,323,5.6,3.3
2018,8,20,22:00,UTC,8,1001.6,97,,,13.2,12.8,25893,325,5.3,3.8
2018,8,20,22:10,UTC,8,1001.9,98,,,13.1,12.8,50000,316,6.1,4.2
2018,8,20,22:20,UTC,8,1002,98,,,13.1,12.8,48278,311,6.8,4.4
2018,8,20,22:30,UTC,8,1002.2,97,,,13.1,12.6,50000,314,7.2,4.7
2018,8,20,22:40,UTC,8,1002.2,97,,,13,12.5,49095,313,7.1,4.8
2018,8,20,22:50,UTC,7,1002.1,96,,,12.7,12.2,48204,316,7.3,4.7
2018,8,20,23:00,UTC,7,1002.2,97,,,12.6,12.1,43752,320,6.1,4.1
2018,8,20,23:10,UTC,4,1002.2,97,,,12.5,12,50000,314,6.4,4.4
2018,8,20,23:20,UTC,3,1002.3,97,,,12.4,11.9,50000,315,6.4,4.1
2018,8,20,23:30,UTC,4,1002.2,97,,,12.2,11.8,50000,313,5.8,4
2018,8,20,23:40,UTC,3,1002.3,98,,,12.1,11.8,49910,303,5.8,3.7
2018,8,20,23:50,UTC,4,1002.5,98,,,12,11.7,50000,304,4.8,3.1
2018,8,21,00:00,UTC,3,1002.5,99,,,12,11.8,43357,303,4.9,3.3
2018,8,21,00:10,UTC,2,1002.6,99,,,11.8,11.6,49675,301,4,2.8
2018,8,21,00:20,UTC,2,1002.7,99,,,11.7,11.5,48704,308,5.1,3
2018,8,21,00:30,UTC,2,1002.8,98,,,12,11.7,49749,315,5.4,3.7
2018,8,21,00:40,UTC,4,1002.9,98,,,12.1,11.8,50000,306,5.5,3.6
2018,8,21,00:50,UTC,2,1003.1,98,,,11.9,11.6,50000,298,5,3.5
2018,8,21,01:00,UTC,3,1003.2,98,,,11.9,11.6,48668,300,5.2,3.2
2018,8,21,01:10,UTC,5,1003.3,98,,,12.2,11.9,49187,299,5,3.1
2018,8,21,01:20,UTC,6,1003.4,98,,,12.1,11.7,49644,296,4.5,3
2018,8,21,01:30,UTC,5,1003.4,98,,,11.9,11.6,50000,292,4.8,3.2
2018,8,21,01:40,UTC,6,1003.5,98,,,11.8,11.5,47648,293,5.1,3.1
2018,8,21,01:50,UTC,3,1003.6,98,,,11.7,11.4,45671,293,5,3.2
2018,8,21,02:00,UTC,2,1003.8,98,,,11.7,11.4,45099,299,4.8,3.4
2018,8,21,02:10,UTC,1,1003.9,98,,,11.6,11.3,42775,292,5.1,3.3
2018,8,21,02:20,UTC,4,1004,98,,,11.6,11.3,43514,294,5.7,3.4
2018,8,21,02:30,UTC,6,1004.2,98,,,11.6,11.2,42762,294,6.4,3.6
2018,8,21,02:40,UTC,7,1004.4,97,,,11.6,11.1,49263,298,7.2,4.3
2018,8,21,02:50,UTC,7,1004.4,97,,,11.6,11.1,42497,299,5.4,3.5
2018,8,21,03:00,UTC,8,1004.5,97,,,11.3,10.8,46842,297,4.6,3
2018,8,21,03:10,UTC,8,1004.6,97,,,11.1,10.6,40369,301,4.5,3.1
2018,8,21,03:20,UTC,7,1004.6,97,,,10.8,10.3,42534,309,4.6,3.1
2018,8,21,03:30,UTC,5,1004.7,97,,,10.6,10.2,41248,300,4.5,3
2018,8,21,03:40,UTC,5,1004.8,97,,,10.6,10.2,46652,300,4.8,2.8
2018,8,21,03:50,UTC,3,1004.8,96,,,10.6,10.1,50000,300,4.8,3.4
2018,8,21,04:00,UTC,2,1004.9,96,,,10.6,9.9,43937,304,4.2,2.7
2018,8,21,04:10,UTC,1,1005,96,,,10.7,10,40152,301,4.1,2.7
2018,8,21,04:20,UTC,0,1005.1,94,,,10.8,10,39702,305,4.7,3.2
2018,8,21,04:30,UTC,0,1005.2,94,,,11,10,37527,296,4.6,2.6
2018,8,21,04:40,UTC,0,1005.3,93,,,11.2,10.1,39519,301,3.7,2.5
2018,8,21,04:50,UTC,0,1005.4,91,,,11.3,9.9,43333,304,5.2,3.2
2018,8,21,05:00,UTC,0,1005.6,91,,,11.6,10.1,41546,302,6,3.4
2018,8,21,05:10,UTC,0,1005.6,88,,,11.7,9.8,38626,298,6.2,3.8
2018,8,21,05:20,UTC,0,1005.7,88,,,12,10.1,39698,300,5,3.2
2018,8,21,05:30,UTC,0,1005.7,87,,,12.1,10,44073,307,5.8,3.6
2018,8,21,05:40,UTC,0,1005.8,84,,,12.4,9.8,36460,306,5.6,3.5
2018,8,21,05:50,UTC,0,1006,85,,,12.8,10.2,46361,305,5.5,3.7
2018,8,21,06:00,UTC,0,1006.1,83,,,12.9,10.2,43344,295,6.1,3.8
2018,8,21,06:10,UTC,0,1006.2,82,,,12.9,9.9,42511,291,5.8,4
2018,8,21,06:20,UTC,0,1006.3,82,,,13.2,10.2,40882,285,6.8,4.4
2018,8,21,06:30,UTC,0,1006.4,81,,,13.6,10.4,48792,286,6.7,4.2
2018,8,21,06:40,UTC,0,1006.5,79,,,14,10.3,38569,284,6,4
2018,8,21,06:50,UTC,0,1006.6,76,,,14.1,9.9,46472,296,6.9,4.8
2018,8,21,07:00,UTC,0,1006.7,75,,,14.4,10,42537,291,7,4.6
2018,8,21,07:10,UTC,1,1006.8,73,,,14.9,10.1,39595,291,8.3,4.9
2018,8,21,07:20,UTC,3,1006.9,73,,,15.3,10.5,44176,277,7.3,4.9
2018,8,21,07:30,UTC,3,1007,73,,,14.7,10,43737,289,8.9,5.8
2018,8,21,07:40,UTC,2,1007.1,75,,,15.4,11,43269,304,8.3,5.7
2018,8,21,07:50,UTC,1,1007.3,72,,,15.5,10.6,49041,302,7.6,4.4
2018,8,21,08:00,UTC,0,1007.4,72,,,15.7,10.8,39257,292,9.2,5.2
2018,8,21,08:10,UTC,0,1007.5,70,,,16.4,10.8,36854,307,7.4,4.8
2018,8,21,08:20,UTC,0,1007.6,67,,,16.2,10.2,35661,309,10.1,5.6
2018,8,21,08:30,UTC,0,1007.7,64,,,16.7,9.8,34579,315,9.5,6.8
2018,8,21,08:40,UTC,0,1007.8,61,,,16.7,9.1,38332,318,10.6,6.7
2018,8,21,08:50,UTC,1,1007.8,61,,,16.9,9.3,47970,305,10.9,6.6
2018,8,21,09:00,UTC,2,1008,57,,,16.9,8.4,44379,297,11.3,7.4
2018,8,21,09:10,UTC,1,1008,56,,,17.3,8.5,43136,311,11,6.9
2018,8,21,09:20,UTC,1,1008.1,58,,,16.9,8.5,36544,314,11,6.8
2018,8,21,09:30,UTC,2,1008.1,55,,,17.2,8.2,44089,301,11.1,7
2018,8,21,09:40,UTC,2,1008.3,55,,,16.7,7.5,45906,313,12,7
2018,8,21,09:50,UTC,2,1008.3,52,,,17.6,7.8,40394,311,11.9,7.2
2018,8,21,10:00,UTC,1,1008.4,52,,,17.9,7.7,41303,308,12.3,7.6
2018,8,21,10:10,UTC,4,1008.4,54,,,17.4,8.1,47182,313,10.8,7.1
2018,8,21,10:20,UTC,5,1008.6,51,,,17.6,7.4,46430,311,9.5,6.1
2018,8,21,10:30,UTC,7,1008.7,51,,,17.9,7.5,46715,312,9.3,5.8
2018,8,21,10:40,UTC,7,1008.7,50,,,16.8,6.2,50000,301,11.1,7.2
2018,8,21,10:50,UTC,3,1008.8,50,,,17.5,7,35625,312,10.7,7.4
2018,8,21,11:00,UTC,2,1008.8,48,,,17.9,6.8,40043,302,11,6.3
2018,8,21,11:10,UTC,3,1008.9,46,,,17.3,5.7,44632,319,12.7,6.9
2018,8,21,11:20,UTC,3,1008.8,44,,,18.4,6,40680,321,11.3,6.9
2018,8,21,11:30,UTC,5,1008.9,45,,,17.9,5.9,50000,295,10.5,7.4
2018,8,21,11:40,UTC,2,1009.1,44,,,18.5,5.9,45360,311,12,7.1
2018,8,21,11:50,UTC,1,1009.1,44,,,17.5,5.3,48223,299,13.8,7.8
2018,8,21,12:00,UTC,2,1009.1,45,,,18.6,6.3,40271,303,10.8,6.5
2018,8,21,12:10,UTC,4,1009.3,43,,,18.7,6,39703,294,11.8,7.2
2018,8,21,12:20,UTC,3,1009.3,45,,,18.3,6.3,44483,286,10.7,6.7
2018,8,21,12:30,UTC,4,1009.3,43,,,19.1,6.1,40431,302,10.7,6.5
2018,8,21,12:40,UTC,5,1009.3,43,,,18.9,6,38095,296,13.9,8.2
2018,8,21,12:50,UTC,4,1009.4,43,,,18.7,5.8,43723,290,11,7.5
2018,8,21,13:00,UTC,3,1009.3,41,,,18.8,5.2,33433,296,12.1,7.3
2018,8,21,13:10,UTC,2,1009.3,41,,,18.9,5.4,49084,306,11.1,6.8
2018,8,21,13:20,UTC,1,1009.4,40,,,19.2,5.4,41440,302,11.3,6.8
2018,8,21,13:30,UTC,4,1009.5,40,,,19,5.2,47432,306,10.9,6.8
2018,8,21,13:40,UTC,3,1009.7,43,,,17.9,5.2,43844,313,12,6.5
2018,8,21,13:50,UTC,4,1009.8,41,,,18.9,5.5,44519,312,11.5,6.5
2018,8,21,14:00,UTC,3,1009.8,41,,,18.2,4.9,46757,286,14.6,8
2018,8,21,14:10,UTC,3,1010,41,,,18.5,5.1,39624,296,13.2,7.1
2018,8,21,14:20,UTC,2,1010.1,41,,,18.2,4.7,48967,287,12.2,7.3
2018,8,21,14:30,UTC,2,1010.3,40,,,18.4,4.5,50000,287,11.5,6.9
2018,8,21,14:40,UTC,4,1010.3,41,,,18.2,4.7,44459,291,10.8,7.3
2018,8,21,14:50,UTC,3,1010.4,39,,,18,3.9,40815,294,11.7,7
2018,8,21,15:00,UTC,2,1010.6,40,,,17.7,4.1,45857,294,12.8,7.6
2018,8,21,15:10,UTC,1,1010.6,40,,,17.4,3.5,45676,297,13.3,8.6
2018,8,21,15:20,UTC,0,1010.8,40,,,17.3,3.6,39969,295,10.1,7.1
2018,8,21,15:30,UTC,0,1010.9,40,,,17.3,3.4,47679,297,10.9,6.9
2018,8,21,15:40,UTC,0,1011,41,,,17.1,3.8,45038,290,11.6,7
2018,8,21,15:50,UTC,0,1011.2,42,,,16.7,3.8,50000,291,12.1,8.2
2018,8,21,16:00,UTC,0,1011.3,43,,,16.5,3.7,45450,292,11.7,7.4
2018,8,21,16:10,UTC,0,1011.4,44,,,16.3,3.9,50000,295,11.9,6.7
2018,8,21,16:20,UTC,0,1011.5,44,,,16.2,3.9,46982,291,10,6.1
2018,8,21,16:30,UTC,0,1011.7,45,,,15.9,4.1,46690,289,11.4,7.8
2018,8,21,16:40,UTC,0,1011.8,45,,,15.7,3.8,47823,288,12.7,8.1
2018,8,21,16:50,UTC,0,1011.9,46,,,15.5,3.9,49049,291,11.3,6.8
2018,8,21,17:00,UTC,0,1012,46,,,15.3,3.9,47980,291,11.2,6.3
2018,8,21,17:10,UTC,0,1012.1,47,,,15,4,50000,296,10.7,5.9
2018,8,21,17:20,UTC,0,1012.3,48,,,14.9,3.8,50000,298,10,6.3
2018,8,21,17:30,UTC,0,1012.5,49,,,14.6,3.9,49535,304,8.5,5.6
2018,8,21,17:40,UTC,0,1012.6,50,,,14.4,4,50000,303,8.6,5.3
2018,8,21,17:50,UTC,0,1012.8,50,,,14.2,4,50000,292,9.8,4.6
2018,8,21,18:00,UTC,0,1012.9,51,,,14,4,50000,301,11.9,6.7
2018,8,21,18:10,UTC,0,1013.1,52,,,13.8,4,50000,299,9.2,6.1
2018,8,21,18:20,UTC,0,1013.3,53,,,13.5,4,50000,304,8.7,5.5
2018,8,21,18:30,UTC,0,1013.4,53,,,13.4,4.1,50000,304,9.7,5.8
2018,8,21,18:40,UTC,0,1013.5,55,,,13.1,4.2,50000,303,8.3,5.3
2018,8,21,18:50,UTC,0,1013.6,56,,,12.8,4.3,50000,295,8.1,4.9
2018,8,21,19:00,UTC,0,1013.7,57,,,12.9,4.4,50000,298,8.4,5.3
2018,8,21,19:10,UTC,0,1013.8,58,,,12.6,4.6,50000,302,6.7,4.7
2018,8,21,19:20,UTC,0,1013.9,59,,,12.5,4.7,50000,299,7.5,4.6
2018,8,21,19:30,UTC,0,1014,60,,,12.2,4.7,50000,296,6.8,3.9
2018,8,21,19:40,UTC,0,1014,60,,,12.2,4.8,50000,289,6.3,3.8
2018,8,21,19:50,UTC,0,1014.2,62,,,11.9,4.9,50000,289,5.3,3.6
2018,8,21,20:00,UTC,0,1014.3,64,,,11.7,5,50000,289,5.3,3.6
2018,8,21,20:10,UTC,0,1014.4,65,,,11.6,5.2,50000,290,6.1,3.9
2018,8,21,20:20,UTC,0,1014.5,66,,,11.5,5.3,50000,293,6.2,3.8
2018,8,21,20:30,UTC,0,1014.6,66,,,11.3,5.3,50000,293,6,3.8
2018,8,21,20:40,UTC,0,1014.7,67,,,11.3,5.3,50000,293,5.9,3.6
2018,8,21,20:50,UTC,0,1014.8,67,,,11.2,5.3,50000,296,6.6,4
2018,8,21,21:00,UTC,0,1014.9,68,,,11.1,5.3,50000,298,5.9,3.4
2018,8,21,21:10,UTC,0,1015.1,68,,,11.1,5.4,50000,297,4.4,3
2018,8,21,21:20,UTC,0,1015.2,68,,,10.9,5.3,50000,292,5.4,3.4
2018,8,21,21:30,UTC,0,1015.3,69,,,10.8,5.3,50000,293,4.3,2.9
2018,8,21,21:40,UTC,0,1015.5,69,,,10.7,5.3,50000,287,4.2,2.9
2018,8,21,21:50,UTC,0,1015.6,70,,,10.5,5.2,50000,287,4.3,2.6
2018,8,21,22:00,UTC,0,1015.6,71,,,10.5,5.4,50000,283,4.4,2.8
2018,8,21,22:10,UTC,0,1015.7,72,,,10.3,5.5,50000,288,4.4,2.7
2018,8,21,22:20,UTC,0,1015.8,72,,,10.3,5.5,50000,291,5.3,3
2018,8,21,22:30,UTC,0,1015.9,72,,,10.3,5.5,50000,288,4.4,3
2018,8,21,22:40,UTC,0,1016,72,,,10.2,5.4,50000,288,4.4,2.8
2018,8,21,22:50,UTC,0,1016.1,73,,,10.2,5.5,50000,289,4.1,2.3
2018,8,21,23:00,UTC,0,1016.2,73,,,10.2,5.6,50000,291,3.9,2.6
2018,8,21,23:10,UTC,0,1016.1,74,,,10,5.7,50000,289,3.9,2.5
2018,8,21,23:20,UTC,0,1016.2,74,,,10,5.6,50000,291,4.9,2.5
2018,8,21,23:30,UTC,0,1016.3,75,,,10,5.7,50000,290,4.6,2.6
2018,8,21,23:40,UTC,0,1016.3,75,,,10,5.8,50000,287,4,2.2
2018,8,21,23:50,UTC,0,1016.3,76,,,9.8,5.7,50000,293,4,2.4
2018,8,22,00:00,UTC,0,1016.4,76,,,9.6,5.6,50000,285,3.4,2.1
2018,8,22,00:10,UTC,0,1016.5,77,,,9.6,5.7,50000,293,3.6,1.8
2018,8,22,00:20,UTC,0,1016.6,77,,,9.5,5.6,50000,297,3.3,1.9
2018,8,22,00:30,UTC,0,1016.6,77,,,9.4,5.6,50000,291,3.4,2
2018,8,22,00:40,UTC,0,1016.7,78,,,9.3,5.6,50000,283,2.9,1.9
2018,8,22,00:50,UTC,0,1016.8,78,,,9.3,5.6,50000,281,3.4,2
2018,8,22,01:00,UTC,0,1016.8,79,,,9.2,5.7,50000,279,2.8,1.6
2018,8,22,01:10,UTC,0,1016.8,80,,,9.1,5.8,50000,279,2.9,2
2018,8,22,01:20,UTC,0,1016.9,80,,,8.9,5.6,50000,280,2.9,1.7
2018,8,22,01:30,UTC,0,1017.1,80,,,9,5.7,50000,277,2.5,1.6
2018,8,22,01:40,UTC,0,1017.1,82,,,8.4,5.5,50000,277,2.5,1.3
2018,8,22,01:50,UTC,0,1017.2,83,,,8.2,5.5,50000,299,2.5,1.2
2018,8,22,02:00,UTC,0,1017.3,83,,,8.4,5.7,50000,285,2,1.4
2018,8,22,02:10,UTC,0,1017.3,85,,,7.8,5.4,50000,287,1.9,1.1
2018,8,22,02:20,UTC,0,1017.4,89,,,6.9,5.1,50000,299,1.8,1.1
2018,8,22,02:30,UTC,0,1017.4,93,,,6.6,5.6,50000,291,1.7,1.1
2018,8,22,02:40,UTC,0,1017.5,94,,,6.6,5.7,50000,311,1.7,0.8
2018,8,22,02:50,UTC,0,1017.6,93,,,6.7,5.7,50000,316,1.2,0.6
2018,8,22,03:00,UTC,0,1017.7,95,,,6.4,5.7,50000,316,1.8,0.9
2018,8,22,03:10,UTC,0,1017.8,94,,,5.9,5,50000,328,1.7,1.1
2018,8,22,03:20,UTC,0,1017.9,98,,,5.9,5.5,50000,0,0,0
2018,8,22,03:30,UTC,0,1018,97,,,6.1,5.7,50000,0,0,0
2018,8,22,03:40,UTC,0,1018.1,97,,,6.2,5.7,50000,0,0,0
2018,8,22,03:50,UTC,0,1018.1,95,,,6.7,5.9,50000,0,0,0
2018,8,22,04:00,UTC,0,1018.2,89,,,7.5,5.9,48556,0,0,0
2018,8,22,04:10,UTC,0,1018.3,85,,,8.4,6.1,47163,0,0,0
2018,8,22,04:20,UTC,0,1018.4,84,,,9.1,6.5,42288,303,1.1,0.6
2018,8,22,04:30,UTC,0,1018.4,82,,,10.2,7.3,47515,291,1.5,0.6
2018,8,22,04:40,UTC,0,1018.5,77,,,10.3,6.5,49320,275,3.7,1.8
2018,8,22,04:50,UTC,0,1018.5,75,,,10.7,6.5,48467,276,3.5,2.3
2018,8,22,05:00,UTC,0,1018.6,75,,,11.1,6.8,43204,282,3.6,2.2
2018,8,22,05:10,UTC,0,1018.7,73,,,11.6,7,44508,283,4.1,2.4
2018,8,22,05:20,UTC,0,1018.7,71,,,11.8,6.8,46078,281,3.7,2.5
2018,8,22,05:30,UTC,0,1018.8,71,,,12.3,7.1,43844,279,4.6,2.5
2018,8,22,05:40,UTC,0,1018.8,68,,,12.5,6.6,40099,284,4.9,3.5
2018,8,22,05:50,UTC,0,1018.8,66,,,13,6.7,45678,284,4.6,2.9
2018,8,22,06:00,UTC,0,1018.9,64,,,13.4,6.6,42023,283,5.4,3.5
2018,8,22,06:10,UTC,0,1018.9,62,,,13.6,6.4,48189,279,5.2,3.3
2018,8,22,06:20,UTC,0,1019,61,,,14.1,6.8,47624,283,5.8,3.6
2018,8,22,06:30,UTC,0,1019,59,,,14.4,6.4,44875,278,6.1,3.5
2018,8,22,06:40,UTC,0,1019,58,,,14.8,6.6,48792,277,5.4,3.6
2018,8,22,06:50,UTC,0,1019,56,,,15.3,6.7,40448,288,5.7,3.5
2018,8,22,07:00,UTC,0,1019.1,56,,,15.5,6.7,46890,286,6,4.2
2018,8,22,07:10,UTC,0,1019.1,55,,,15.9,6.8,47723,284,6.5,4
2018,8,22,07:20,UTC,0,1019,52,,,15.8,6,50000,276,7.3,4.9
2018,8,22,07:30,UTC,0,1019.2,53,,,16.1,6.5,38949,272,7.5,5
2018,8,22,07:40,UTC,2,1019.1,51,,,16.3,6.3,36384,277,7.7,4.9
2018,8,22,07:50,UTC,1,1019.1,51,,,16.9,6.6,44644,293,8.3,5.2
2018,8,22,08:00,UTC,4,1019.1,48,,,16.6,5.4,42930,298,9,5.8
2018,8,22,08:10,UTC,3,1019,49,,,16.4,5.6,43546,277,8.9,5.4
2018,8,22,08:20,UTC,4,1019.2,48,,,16.7,5.5,42073,266,9.1,5.4
2018,8,22,08:30,UTC,3,1019.1,45,,,17.1,4.9,34190,280,9,5.8
2018,8,22,08:40,UTC,3,1019.1,45,,,16.6,4.6,39069,283,9.4,5.9
2018,8,22,08:50,UTC,2,1019,47,,,16.5,5.2,46467,301,8.1,5.3
2018,8,22,09:00,UTC,3,1019,43,,,17.1,4.3,41938,288,8.7,4.9
2018,8,22,09:10,UTC,1,1018.9,44,,,17.3,5,37438,288,7.9,5.1
2018,8,22,09:20,UTC,1,1018.8,45,,,17.7,5.7,50000,282,7.8,4.6
2018,8,22,09:30,UTC,1,1018.8,44,,,17.6,5.2,42661,253,9.1,5.6
2018,8,22,09:40,UTC,4,1018.8,45,,,17.4,5.2,43511,261,7.4,5
2018,8,22,09:50,UTC,5,1018.7,43,,,17.8,5.1,45023,264,8.4,4.7
2018,8,22,10:00,UTC,7,1018.7,42,,,18,4.8,47317,290,8,4.7
2018,8,22,10:10,UTC,6,1018.5,43,,,18.4,5.6,44557,301,8.1,5.1
2018,8,22,10:20,UTC,7,1018.5,42,,,18.5,5.2,35398,305,9.8,5.6
2018,8,22,10:30,UTC,5,1018.5,45,,,17.6,5.5,44126,290,7.4,4.9
2018,8,22,10:40,UTC,3,1018.5,42,,,18.2,5,41846,293,6.1,4.1
2018,8,22,10:50,UTC,1,1018.4,43,,,17.3,4.7,49607,295,7.6,5.2
2018,8,22,11:00,UTC,2,1018.3,40,,,18.2,4.3,35892,284,7.4,4.6
2018,8,22,11:10,UTC,5,1018.2,41,,,18.2,4.8,50000,285,8.6,5.2
2018,8,22,11:20,UTC,3,1018.2,42,,,17.9,4.7,48946,270,7.3,4.3
2018,8,22,11:30,UTC,3,1018.2,41,,,18.9,5.2,40208,275,6.3,3.9
2018,8,22,11:40,UTC,4,1018.1,41,,,18.2,4.7,41593,271,6.8,4.3
2018,8,22,11:50,UTC,6,1018,41,,,18.4,4.9,48305,272,6.2,3.7
2018,8,22,12:00,UTC,7,1017.9,42,,,18.2,5.2,44487,279,5.4,2.6
2018,8,22,12:10,UTC,7,1017.9,47,,,18.3,7,47532,233,6.5,4
2018,8,22,12:20,UTC,6,1017.9,49,,,18.8,7.9,45417,247,6.9,3.6
2018,8,22,12:30,UTC,6,1017.6,46,,,19.2,7.4,46045,215,8.5,6.1
2018,8,22,12:40,UTC,5,1017.7,49,,,18.3,7.3,50000,212,8.3,5.9
2018,8,22,12:50,UTC,3,1017.6,49,,,18.3,7.4,42264,204,7.8,5.6
2018,8,22,13:00,UTC,2,1017.4,47,,,18.3,6.9,48058,209,9,5.3
2018,8,22,13:10,UTC,3,1017.4,46,,,18.6,6.7,50000,216,9.9,6.9
2018,8,22,13:20,UTC,5,1017.3,45,,,18.9,6.7,41994,208,9.9,6.8
2018,8,22,13:30,UTC,5,1017.2,45,,,19,6.7,43199,212,8.6,6.1
2018,8,22,13:40,UTC,4,1017.1,45,,,19,6.8,34864,206,11,7.3
2018,8,22,13:50,UTC,3,1017.2,44,,,18.7,6.3,36117,208,11.2,6.8
2018,8,22,14:00,UTC,2,1017.1,45,,,18.7,6.5,44851,198,10.9,6.8
2018,8,22,14:10,UTC,1,1017.1,46,,,18.9,7,46425,201,9.5,6.5
2018,8,22,14:20,UTC,1,1017.1,46,,,18.8,6.9,38414,201,10.7,7.1
2018,8,22,14:30,UTC,0,1017.1,46,,,18.8,6.9,38563,203,10,7.3
2018,8,22,14:40,UTC,0,1017,46,,,18.3,6.4,39015,211,10.1,7.4
2018,8,22,14:50,UTC,0,1017,48,,,18.2,7,47012,206,10,6.5
2018,8,22,15:00,UTC,0,1017,49,,,18.2,7.2,43665,208,9.7,5.6
2018,8,22,15:10,UTC,0,1017,51,,,18,7.5,45898,206,11,6
2018,8,22,15:20,UTC,0,1016.9,50,,,18,7.4,49724,210,9.7,6.5
2018,8,22,15:30,UTC,0,1016.8,49,,,18.1,7.3,42463,213,10.1,6.2
2018,8,22,15:40,UTC,0,1016.8,51,,,18,7.8,48328,216,10.7,6.7
2018,8,22,15:50,UTC,0,1016.7,54,,,18,8.4,49197,209,9.7,6.2
2018,8,22,16:00,UTC,0,1016.7,56,,,17.9,8.9,47573,217,9.5,6.1
2018,8,22,16:10,UTC,0,1016.7,57,,,17.8,9.1,48151,221,9.5,5.8
2018,8,22,16:20,UTC,1,1016.6,58,,,17.5,9.1,49374,201,7.7,4.7
2018,8,22,16:30,UTC,1,1016.5,58,,,17.5,9.2,49365,201,7.1,4.7
2018,8,22,16:40,UTC,1,1016.5,58,,,17.2,9,50000,195,6.6,4.5
2018,8,22,16:50,UTC,1,1016.4,59,,,17,8.9,50000,196,7.9,4.1
2018,8,22,17:00,UTC,1,1016.3,60,,,16.8,8.9,50000,203,5.9,3.9
2018,8,22,17:10,UTC,1,1016.1,61,,,16.7,9.1,50000,195,7.1,3.9
2018,8,22,17:20,UTC,3,1015.9,62,,,16.6,9.3,50000,191,5.5,3.9
2018,8,22,17:30,UTC,6,1015.8,63,,,16.6,9.6,50000,190,4.9,3.7
2018,8,22,17:40,UTC,6,1015.7,66,,,16.5,10,50000,175,4.8,3.2
2018,8,22,17:50,UTC,6,1015.7,68,,,16.2,10.4,50000,174,5.4,3.8
2018,8,22,18:00,UTC,7,1015.6,70,,,16.2,10.7,50000,176,5.3,3.3
2018,8,22,18:10,UTC,7,1015.6,72,,,16.1,11,50000,178,4.4,3.1
2018,8,22,18:20,UTC,7,1015.6,76,,,16.1,11.8,50000,188,5,3
2018,8,22,18:30,UTC,7,1015.4,79,,,16.6,13,50000,197,8,3.9
2018,8,22,18:40,UTC,7,1015.3,81,,,16.8,13.5,46045,201,7.7,4.6
2018,8,22,18:50,UTC,7,1015.2,82,,,16.7,13.6,44970,201,8.2,5.6
2018,8,22,19:00,UTC,6,1015.1,83,,,16.5,13.7,41629,196,7.8,5
2018,8,22,19:10,UTC,6,1015.1,85,,,16.5,13.9,30053,194,7.4,5
2018,8,22,19:20,UTC,7,1015,85,,,16.6,14,27862,198,7,5
2018,8,22,19:30,UTC,6,1014.8,85,,,16.6,14,31950,198,8.4,4.9
2018,8,22,19:40,UTC,5,1014.7,83,,,16.7,13.9,41560,207,9,5.5
2018,8,22,19:50,UTC,6,1014.7,82,,,16.7,13.6,45026,206,8.4,5.5
2018,8,22,20:00,UTC,7,1014.5,81,,,16.7,13.4,44446,204,8.7,5.1
2018,8,22,20:10,UTC,7,1014.4,79,,,16.9,13.2,48295,206,9.1,5.8
2018,8,22,20:20,UTC,7,1014.4,78,,,17,13.1,48037,208,10.4,6.6
2018,8,22,20:30,UTC,7,1014.2,79,,,16.9,13.2,47523,209,9.5,5.8
2018,8,22,20:40,UTC,7,1014.2,78,,,17,13.2,45636,209,9.9,6.2
2018,8,22,20:50,UTC,7,1014.2,78,,,17,13.1,46538,211,9.1,5.6
2018,8,22,21:00,UTC,7,1014.1,77,,,17.1,13,45798,207,9.2,4.9
2018,8,22,21:10,UTC,7,1014,77,,,17,12.9,48298,207,8.7,5.4
2018,8,22,21:20,UTC,7,1013.9,77,,,17.1,13.1,50000,210,9,5.6
2018,8,22,21:30,UTC,7,1013.8,77,,,17.1,13.1,47826,205,10.2,5.8
2018,8,22,21:40,UTC,7,1013.8,77,,,17.1,13.1,35654,207,9.5,5.7
2018,8,22,21:50,UTC,7,1013.8,76,,,17.3,13,38935,209,10.2,6.1
2018,8,22,22:00,UTC,7,1013.7,75,,,17.3,12.9,38095,208,10.7,6.7
2018,8,22,22:10,UTC,7,1013.6,75,,,17.3,12.9,40347,208,9.9,5.5
2018,8,22,22:20,UTC,8,1013.5,77,,,17.2,13.1,22183,212,11.9,6.7
2018,8,22,22:30,UTC,8,1013.4,79,,,16.9,13.4,24769,207,8.6,5.1
2018,8,22,22:40,UTC,7,1013.3,77,,,17.3,13.2,40338,210,8.6,5.6
2018,8,22,22:50,UTC,7,1013.2,77,,,17.3,13.2,43983,212,9.9,5.6
2018,8,22,23:00,UTC,7,1013.1,77,,,17.2,13.1,43420,210,11,5.6
2018,8,22,23:10,UTC,7,1013.1,76,,,17.2,13,36010,213,9.7,5.9
2018,8,22,23:20,UTC,7,1013.1,76,,,17.2,12.8,39053,212,12.2,6.5
2018,8,22,23:30,UTC,7,1013.1,76,,,17,12.9,37036,214,9.8,6.3
2018,8,22,23:40,UTC,7,1013.1,79,,,16.7,13.1,19235,209,10,5.9
2018,8,22,23:50,UTC,8,1013,78,,,16.7,12.8,40264,205,8.9,5.8
2018,8,23,00:00,UTC,8,1013,77,,,16.8,12.7,38689,207,10.2,6.2
2018,8,23,00:10,UTC,8,1012.9,78,,,16.8,13.1,37376,208,8.9,5.5
2018,8,23,00:20,UTC,8,1012.9,80,,,16.8,13.3,41547,211,10.2,6.4
2018,8,23,00:30,UTC,7,1012.7,80,,,16.8,13.4,40114,207,10.3,6.5
2018,8,23,00:40,UTC,7,1012.6,81,,,16.7,13.4,44499,206,11.2,6.8
2018,8,23,00:50,UTC,7,1012.6,81,,,16.7,13.5,46073,209,13,7.4
2018,8,23,01:00,UTC,7,1012.6,82,,,16.6,13.6,37303,208,11.3,6.7
2018,8,23,01:10,UTC,5,1012.6,83,,,16.5,13.6,40233,207,10.1,6.5
2018,8,23,01:20,UTC,4,1012.5,84,,,16.3,13.7,43018,207,9.7,6.1
2018,8,23,01:30,UTC,5,1012.5,85,,,16.3,13.7,42248,209,10.1,6.2
2018,8,23,01:40,UTC,7,1012.4,84,,,16.5,13.8,40148,209,8.9,6
2018,8,23,01:50,UTC,7,1012.3,85,,,16.6,14,43468,209,10.6,6.5
2018,8,23,02:00,UTC,8,1012.3,84,,,16.6,13.9,49439,213,10,5.6
2018,8,23,02:10,UTC,7,1012.3,85,,,16.6,14,41517,208,8.8,5.6
2018,8,23,02:20,UTC,7,1012.2,85,,,16.6,14,48431,208,9.9,5.5
2018,8,23,02:30,UTC,7,1012,85,,,16.6,14.1,43295,208,10.2,6.9
2018,8,23,02:40,UTC,7,1012,84,,,16.7,14,47292,205,12.3,7.2
2018,8,23,02:50,UTC,8,1011.9,84,,,16.7,14,48329,207,10.4,7.4
2018,8,23,03:00,UTC,8,1011.8,84,,,16.6,14,40573,207,11.4,7.3
2018,8,23,03:10,UTC,7,1011.7,84,,,16.6,13.9,40729,205,11.3,6.9
2018,8,23,03:20,UTC,7,1011.6,85,,,16.5,13.9,47484,202,11.3,6.8
2018,8,23,03:30,UTC,7,1011.4,85,,,16.6,14,40750,201,11.8,7.1
2018,8,23,03:40,UTC,7,1011.5,85,,,16.6,14.1,44161,207,9.5,6.2
2018,8,23,03:50,UTC,7,1011.4,85,,,16.6,14.2,42067,205,9.2,6.4
2018,8,23,04:00,UTC,7,1011.3,86,,,16.7,14.3,45256,200,11,7.4
2018,8,23,04:10,UTC,7,1011.2,86,,,16.7,14.4,43933,200,11,6.8
2018,8,23,04:20,UTC,7,1011.2,87,,,16.7,14.5,41733,206,11.4,6.8
2018,8,23,04:30,UTC,7,1011,87,,,16.8,14.6,35076,205,14.3,7.1
2018,8,23,04:40,UTC,7,1011.1,88,,,16.8,14.7,38599,205,10.5,6.9
2018,8,23,04:50,UTC,7,1011,88,,,16.9,14.8,35864,208,10.8,6.8
2018,8,23,05:00,UTC,8,1010.9,88,,,16.9,14.9,38199,207,11.8,6.5
2018,8,23,05:10,UTC,7,1010.8,89,,,16.9,15,38688,203,11.6,7.7
2018,8,23,05:20,UTC,7,1010.9,88,,,16.9,15,38053,206,10.6,7.2
2018,8,23,05:30,UTC,7,1010.9,88,,,17,15,36324,208,10.2,6.5
2018,8,23,05:40,UTC,7,1010.9,88,,,17.1,15,33254,207,9.2,5.5
2018,8,23,05:50,UTC,7,1010.9,87,,,17.2,15.1,40113,207,9.4,6.2
2018,8,23,06:00,UTC,7,1010.8,86,,,17.3,15,36251,205,8.4,5.6
2018,8,23,06:10,UTC,7,1010.8,86,,,17.4,15,34862,206,9.5,6.2
2018,8,23,06:20,UTC,7,1010.8,86,,,17.4,15.1,31491,204,8.7,5.4
2018,8,23,06:30,UTC,7,1010.7,85,,,17.5,15,33886,208,8.8,5.7
2018,8,23,06:40,UTC,8,1010.7,86,,,17.3,15,38604,204,9.6,6.1
2018,8,23,06:50,UTC,8,1010.6,86,,,17.5,15.1,41731,205,8.7,5.7
2018,8,23,07:00,UTC,7,1010.6,84,,,17.7,15.1,40375,206,10.6,5.9
2018,8,23,07:10,UTC,7,1010.6,84,,,17.9,15.2,33154,206,8.7,5.8
2018,8,23,07:20,UTC,7,1010.6,84,,,17.9,15.2,34175,203,10.5,6.6
2018,8,23,07:30,UTC,7,1010.5,83,,,18.1,15.1,30922,202,9.7,6.6
2018,8,23,07:40,UTC,7,1010.7,80,,,18.4,14.9,35268,203,10.8,6.7
2018,8,23,07:50,UTC,7,1010.8,80,,,18.7,15.1,31195,211,9.8,6.2
2018,8,23,08:00,UTC,7,1010.8,81,,,18.4,15,35312,211,9.9,6.6
2018,8,23,08:10,UTC,7,1010.8,80,,,18.6,15.1,43810,206,10.6,6.5
2018,8,23,08:20,UTC,7,1010.7,77,,,19.4,15.4,35387,207,10.1,6.9
2018,8,23,08:30,UTC,7,1010.7,74,,,19.7,15,34306,209,10.6,6.9
2018,8,23,08:40,UTC,7,1010.7,74,,,20,15.2,32240,213,12.7,7
2018,8,23,08:50,UTC,7,1010.7,75,,,19.8,15.2,32787,216,10.2,6.6
2018,8,23,09:00,UTC,7,1010.8,73,,,19.9,14.9,34194,217,9.8,6.7
2018,8,23,09:10,UTC,7,1010.7,75,,,19.6,14.9,36627,220,12.4,7.3
2018,8,23,09:20,UTC,7,1010.7,74,,,19.5,14.8,39434,213,12.1,6
2018,8,23,09:30,UTC,7,1010.7,75,,,19.3,14.8,37820,212,10.9,7.3
2018,8,23,09:40,UTC,6,1010.6,74,,,19.7,14.9,35797,219,13.2,8
2018,8,23,09:50,UTC,6,1010.5,72,,,20,14.8,39854,218,13.8,8.3
2018,8,23,10:00,UTC,6,1010.5,72,,,20.4,15.1,32843,218,16.8,8.9
2018,8,23,10:10,UTC,6,1010.4,71,,,20.5,15,30691,215,15.2,8.8
2018,8,23,10:20,UTC,5,1010.4,71,,,20.8,15.3,32714,217,13.4,8.1
2018,8,23,10:30,UTC,4,1010.4,71,,,20.5,15,35200,220,14.5,9.3
2018,8,23,10:40,UTC,3,1010.5,69,,,20.9,15.1,36687,211,11.7,7.6
2018,8,23,10:50,UTC,2,1010.6,70,,,21.2,15.5,34786,218,13.4,6.9
2018,8,23,11:00,UTC,2,1010.6,70,,,21.1,15.5,35674,216,12.1,6.7
2018,8,23,11:10,UTC,2,1010.6,70,,,21.3,15.6,34217,226,12.1,7.4
2018,8,23,11:20,UTC,2,1010.7,69,,,21.2,15.3,29208,232,13.1,7.6
2018,8,23,11:30,UTC,1,1010.7,70,,,21.4,15.8,43867,225,14.5,8.7
2018,8,23,11:40,UTC,1,1010.7,68,,,21.5,15.4,36410,228,11,6.9
2018,8,23,11:50,UTC,3,1010.7,70,,,21.3,15.6,39267,236,13.3,8.2
2018,8,23,12:00,UTC,6,1010.7,69,,,21.2,15.3,31961,233,11.7,8.1
2018,8,23,12:10,UTC,7,1010.7,70,,,21.2,15.4,34422,229,12,7.3
2018,8,23,12:20,UTC,7,1010.8,72,,,21.3,16.1,35176,220,10.6,6.8
2018,8,23,12:30,UTC,7,1011,72,,,20.6,15.3,38572,223,12.5,7.3
2018,8,23,12:40,UTC,7,1011,73,,,20.4,15.4,35889,237,12.1,7.3
2018,8,23,12:50,UTC,7,1011,73,,,20.5,15.5,37070,233,11.5,6.3
2018,8,23,13:00,UTC,7,1011.2,75,,,20.2,15.7,32953,229,11.2,7.4
2018,8,23,13:10,UTC,6,1011.1,74,,,20.3,15.6,32232,234,10.4,7
2018,8,23,13:20,UTC,7,1011.1,74,,,20.3,15.6,36859,225,9.9,5.9
2018,8,23,13:30,UTC,6,1011.2,76,,,20.3,16,24002,233,10,6.8
2018,8,23,13:40,UTC,7,1011.3,76,,,20.3,15.9,36877,225,8.5,5.4
2018,8,23,13:50,UTC,7,1011.2,75,,,20.2,15.7,33379,223,9.2,4.8
2018,8,23,14:00,UTC,7,1011.2,76,,,20.1,15.7,32900,209,9,4.8
2018,8,23,14:10,UTC,7,1011.3,77,,,20.1,15.9,34944,216,7.2,4.9
2018,8,23,14:20,UTC,7,1011.2,76,,,20,15.7,35836,214,8.1,5
2018,8,23,14:30,UTC,7,1011.2,76,,,19.9,15.6,39567,215,8.3,4.9
2018,8,23,14:40,UTC,7,1011.2,76,,,19.9,15.6,35306,218,7.5,5.2
2018,8,23,14:50,UTC,7,1011.3,76,,,19.9,15.5,36256,222,6.9,4.7
2018,8,23,15:00,UTC,7,1011.3,76,,,20.1,15.7,30037,227,7.4,4.1
2018,8,23,15:10,UTC,7,1011.3,75,,,20.1,15.6,39234,224,7.5,4.6
2018,8,23,15:20,UTC,7,1011.3,76,,,20,15.6,36338,232,7.1,4.7
2018,8,23,15:30,UTC,7,1011.3,76,,,19.8,15.5,33501,223,7.5,5.3
2018,8,23,15:40,UTC,7,1011.4,77,,,19.7,15.5,36020,222,7.1,4.9
2018,8,23,15:50,UTC,7,1011.4,78,,,19.6,15.6,36782,227,6.6,4.5
2018,8,23,16:00,UTC,7,1011.3,78,,,19.7,15.7,31311,217,5.7,4
2018,8,23,16:10,UTC,7,1011.4,78,,,19.8,15.8,35208,212,5.1,3.2
2018,8,23,16:20,UTC,5,1011.5,80,,,19.4,15.8,34010,218,5.2,3.3
2018,8,23,16:30,UTC,4,1011.4,82,,,19,15.8,36199,196,5,3.2
2018,8,23,16:40,UTC,5,1011.4,83,,,18.8,15.8,36883,192,4.9,3.6
2018,8,23,16:50,UTC,7,1011.5,82,,,18.8,15.7,35355,207,5.2,3.4
2018,8,23,17:00,UTC,7,1011.5,82,,,18.8,15.7,34641,213,4.9,3
2018,8,23,17:10,UTC,8,1011.6,83,,,18.7,15.8,34766,213,4.7,2.8
2018,8,23,17:20,UTC,7,1011.6,83,,,18.7,15.7,40253,223,3.8,2.5
2018,8,23,17:30,UTC,6,1011.7,83,,,18.6,15.7,38412,209,3.9,2.5
2018,8,23,17:40,UTC,6,1011.7,82,,,18.7,15.6,37368,216,5.5,3.4
2018,8,23,17:50,UTC,4,1011.6,83,,,18.6,15.5,35150,230,6.7,3.2
2018,8,23,18:00,UTC,5,1011.6,82,,,18.6,15.5,40086,242,6.6,3.7
2018,8,23,18:10,UTC,6,1011.7,81,,,18.7,15.4,40170,241,5.2,2.7
2018,8,23,18:20,UTC,7,1011.7,80,,,18.8,15.3,41567,245,4.7,2.8
2018,8,23,18:30,UTC,7,1011.8,80,,,18.6,15.1,36862,224,3.9,2.2
2018,8,23,18:40,UTC,4,1011.8,81,,,18.3,14.9,39662,223,3.3,2.3
2018,8,23,18:50,UTC,3,1011.8,81,,,18.2,14.9,40461,226,2.9,1.8
2018,8,23,19:00,UTC,5,1011.8,81,,,18.3,14.9,39672,226,2.9,1.7
2018,8,23,19:10,UTC,5,1011.8,81,,,18.1,14.8,40372,207,2.6,1.7
2018,8,23,19:20,UTC,4,1011.7,82,,,17.9,14.8,38249,165,2.9,2.2
2018,8,23,19:30,UTC,2,1011.7,83,,,17.8,14.9,35426,173,2.5,1.6
2018,8,23,19:40,UTC,1,1011.7,85,,,17.2,14.6,34536,164,2,1.3
2018,8,23,19:50,UTC,1,1011.7,88,,,16.5,14.5,30821,160,2,1.4
2018,8,23,20:00,UTC,1,1011.7,88,,,16.7,14.7,31561,164,2.1,1.5
2018,8,23,20:10,UTC,0,1011.8,88,,,16.3,14.4,32172,174,1.6,0.8
2018,8,23,20:20,UTC,0,1011.7,90,,,16,14.3,33032,156,1.6,0.9
2018,8,23,20:30,UTC,1,1011.8,94,,,15.2,14.1,25058,129,1.4,1
2018,8,23,20:40,UTC,1,1011.7,96,,,14.6,14,21721,121,1.3,0.9
2018,8,23,20:50,UTC,1,1011.8,97,,,14.4,13.9,23966,124,1.8,1.1
2018,8,23,21:00,UTC,0,1011.7,95,,,14.8,14,27007,141,2.4,1.7
2018,8,23,21:10,UTC,0,1011.6,94,,,14.7,13.8,27388,137,1.9,1.3
2018,8,23,21:20,UTC,0,1011.5,96,,,14.1,13.4,21437,135,1.9,1.3
2018,8,23,21:30,UTC,0,1011.5,97,,,14.6,14.1,23837,140,3,1.9
2018,8,23,21:40,UTC,0,1011.4,96,,,15.5,15,24051,149,3,2.2
2018,8,23,21:50,UTC,0,1011.4,94,,,16,15,25532,152,3.8,2.6
2018,8,23,22:00,UTC,0,1011.3,93,,,16.1,15.1,28602,150,3.9,2.8
2018,8,23,22:10,UTC,0,1011.3,92,,,16.2,15,27728,155,4.5,2.9
2018,8,23,22:20,UTC,0,1011.2,91,,,16.4,14.9,33382,160,4.6,3
2018,8,23,22:30,UTC,0,1011.1,89,,,16.6,14.7,39789,162,5.3,3.5
2018,8,23,22:40,UTC,0,1011.1,88,,,16.6,14.6,36433,166,4.8,3.4
2018,8,23,22:50,UTC,0,1011.1,87,,,16.6,14.4,40470,169,5.4,3.9
2018,8,23,23:00,UTC,0,1011,87,,,16.4,14.3,34678,168,5.4,3.7
2018,8,23,23:10,UTC,0,1011,87,,,16.5,14.3,37991,165,5.1,3.7
2018,8,23,23:20,UTC,0,1011,87,,,16.4,14.2,33971,160,4.2,3
2018,8,23,23:30,UTC,0,1010.9,87,,,16.3,14.1,37407,163,4,2.7
2018,8,23,23:40,UTC,0,1010.9,86,,,16.4,14.1,38488,165,3.3,2.5
2018,8,23,23:50,UTC,0,1010.8,85,,,16.7,14,38240,164,4.3,2.6
2018,8,24,00:00,UTC,0,1010.7,86,,,16.1,13.8,39847,156,4.9,2.9
2018,8,24,00:10,UTC,0,1010.7,90,,,14.7,13.1,40920,154,3.6,2.5
2018,8,24,00:20,UTC,0,1010.7,91,,,14.7,13.2,38046,158,3.7,2.4
2018,8,24,00:30,UTC,0,1010.7,88,,,14.9,13,42434,160,3.6,2.6
2018,8,24,00:40,UTC,0,1010.6,88,,,16,13.9,35120,164,3.4,2.5
2018,8,24,00:50,UTC,0,1010.5,83,,,16.1,13.2,39095,165,3.7,2.4
2018,8,24,01:00,UTC,0,1010.5,90,,,14.3,12.6,39730,152,3.8,2.3
2018,8,24,01:10,UTC,0,1010.4,93,,,14,12.9,41306,143,3.3,2.5
2018,8,24,01:20,UTC,0,1010.4,94,,,13.3,12.3,34938,133,2.7,1.9
2018,8,24,01:30,UTC,0,1010.2,97,,,12.5,12,27348,114,2.3,2.1
2018,8,24,01:40,UTC,0,1010.2,98,,,12.6,12.4,32879,127,2.1,1
2018,8,24,01:50,UTC,0,1010.1,99,,,12.4,12.2,4779,113,1.8,1.1
2018,8,24,02:00,UTC,0,1010,99,,,12.3,12.2,13223,134,1.4,0.6
2018,8,24,02:10,UTC,0,1009.9,100,,,12.1,12.1,2003,0,0,0
2018,8,24,02:20,UTC,0,1009.8,100,,,12.1,12.1,1700,98,1.9,1.1
2018,8,24,02:30,UTC,0,1009.8,100,,,11.6,11.6,5113,126,1.5,0.9
2018,8,24,02:40,UTC,0,1009.7,100,,,11.8,11.8,19880,128,2.2,1.2
2018,8,24,02:50,UTC,0,1009.6,100,,,11.3,11.3,6909,119,2.7,2
2018,8,24,03:00,UTC,0,1009.5,100,,,12.9,12.9,28326,142,3.4,2.5
2018,8,24,03:10,UTC,0,1009.4,95,,,13.3,12.5,39600,142,3.1,2.4
2018,8,24,03:20,UTC,0,1009.4,94,,,13.6,12.7,38813,137,3,2.5
2018,8,24,03:30,UTC,0,1009.4,93,,,13.7,12.7,43063,133,3,2.5
2018,8,24,03:40,UTC,0,1009.3,93,,,14,12.9,37406,129,3,2.4
2018,8,24,03:50,UTC,0,1009.1,93,,,14,12.9,37903,130,3,2.3
2018,8,24,04:00,UTC,0,1009.1,92,,,14.5,13.2,35558,129,3,2.4
2018,8,24,04:10,UTC,0,1009,90,,,15.1,13.4,34778,135,3.1,2.4
2018,8,24,04:20,UTC,0,1009,87,,,15.5,13.4,33915,134,3.4,2.6
2018,8,24,04:30,UTC,0,1008.9,84,,,15.9,13.3,40686,138,3.7,2.6
2018,8,24,04:40,UTC,0,1008.8,83,,,16.2,13.3,37907,140,4.4,3
2018,8,24,04:50,UTC,0,1008.7,81,,,16.5,13.2,35726,142,4.5,3.4
2018,8,24,05:00,UTC,0,1008.6,80,,,16.9,13.3,35272,146,3.8,2.8
2018,8,24,05:10,UTC,0,1008.6,78,,,17.2,13.3,41965,151,3.7,2.6
2018,8,24,05:20,UTC,0,1008.5,78,,,17.6,13.8,33745,147,3.8,2.3
2018,8,24,05:30,UTC,0,1008.5,75,,,17.8,13.3,40433,154,3.7,2
2018,8,24,05:40,UTC,0,1008.3,73,,,18.1,13.2,40154,174,3.3,2.4
2018,8,24,05:50,UTC,0,1008.3,73,,,18.3,13.3,35142,175,4.2,2.8
2018,8,24,06:00,UTC,0,1008.2,72,,,18.6,13.3,38160,175,4.3,2.8
2018,8,24,06:10,UTC,0,1008.1,73,,,18.7,13.8,33449,145,4,2.7
2018,8,24,06:20,UTC,0,1008.1,68,,,19,13,40443,155,5.4,2.9
2018,8,24,06:30,UTC,0,1008.1,68,,,19.1,13.1,36204,182,5.4,3.7
2018,8,24,06:40,UTC,0,1008,69,,,19.2,13.3,41784,187,4.8,3.2
2018,8,24,06:50,UTC,0,1008,68,,,19.2,13.2,34212,186,4.9,3.6
2018,8,24,07:00,UTC,0,1007.9,67,,,19.6,13.2,34277,181,5.3,3.7
2018,8,24,07:10,UTC,0,1007.9,65,,,19.9,13.2,35963,178,4.9,3.3
2018,8,24,07:20,UTC,0,1007.7,67,,,20,13.8,38266,148,5.1,3.3
2018,8,24,07:30,UTC,0,1007.7,66,,,20.1,13.7,37613,128,5.3,3.9
2018,8,24,07:40,UTC,0,1007.6,67,,,20,13.6,38704,135,5.6,4.1
2018,8,24,07:50,UTC,0,1007.6,67,,,20.2,13.8,35309,138,5.5,4
2018,8,24,08:00,UTC,0,1007.6,67,,,20.4,14.1,35943,138,5.9,4.1
2018,8,24,08:10,UTC,0,1007.6,67,,,20,13.6,39957,138,5.9,4.2
2018,8,24,08:20,UTC,0,1007.6,66,,,20.3,13.7,37497,140,6.4,4.6
2018,8,24,08:30,UTC,0,1007.7,66,,,20.7,14.1,34942,156,6.2,3.9
2018,8,24,08:40,UTC,0,1007.6,63,,,20.8,13.4,35501,153,5.5,4
2018,8,24,08:50,UTC,0,1007.4,65,,,20.5,13.6,35848,138,6.1,4.4
2018,8,24,09:00,UTC,0,1007.4,63,,,20.9,13.5,32083,139,5.7,4.2
2018,8,24,09:10,UTC,0,1007.3,61,,,21,13.2,43686,144,6.7,4.7
2018,8,24,09:20,UTC,0,1007.2,63,,,20.8,13.5,33101,127,6.7,5.1
2018,8,24,09:30,UTC,0,1007.1,61,,,20.9,13,39768,145,6.6,5.1
2018,8,24,09:40,UTC,0,1007.1,60,,,21.1,13,36539,139,6.8,4.6
2018,8,24,09:50,UTC,0,1007.1,61,,,21.2,13.4,37797,146,7.5,5.5
2018,8,24,10:00,UTC,1,1007.1,61,,,21.1,13.3,35066,143,7.3,4.9
2018,8,24,10:10,UTC,2,1007,61,,,21.4,13.6,40367,152,8.2,5.6
2018,8,24,10:20,UTC,2,1007,59,,,21.7,13.4,44519,153,6.5,4.9
2018,8,24,10:30,UTC,1,1007,59,,,21.9,13.6,34248,157,8,5
2018,8,24,10:40,UTC,1,1006.9,57,,,22.1,13.1,31158,150,8.2,4.8
2018,8,24,10:50,UTC,1,1006.9,56,,,23.5,14.3,32978,140,7.2,5
2018,8,24,11:00,UTC,2,1006.9,55,,,22.9,13.4,34444,150,6.8,4.3
2018,8,24,11:10,UTC,2,1006.8,55,,,22.6,13.2,35042,158,8,4.9
2018,8,24,11:20,UTC,4,1006.7,55,,,22.6,13.2,36547,154,7.8,5.6
2018,8,24,11:30,UTC,3,1006.6,56,,,23.1,13.7,26973,144,7.5,4.7
2018,8,24,11:40,UTC,2,1006.6,57,,,22.8,13.8,36570,134,7.3,4.8
2018,8,24,11:50,UTC,2,1006.5,55,,,23.3,13.8,28305,123,7.3,5
2018,8,24,12:00,UTC,4,1006.4,54,,,23.3,13.4,40991,140,7.7,5.1
2018,8,24,12:10,UTC,6,1006.3,55,,,23.2,13.7,36453,141,8.1,5.6
2018,8,24,12:20,UTC,5,1006.2,54,,,23.3,13.6,35125,129,7.2,4.6
2018,8,24,12:30,UTC,4,1006.1,55,,,23.1,13.4,36175,126,7.2,5.1
2018,8,24,12:40,UTC,3,1006,54,,,23.3,13.6,41993,136,6.9,4.6
2018,8,24,12:50,UTC,3,1005.9,53,,,23.5,13.5,33749,135,6.7,4.8
2018,8,24,13:00,UTC,1,1005.8,53,,,24.2,14,31125,139,6.9,4.5
2018,8,24,13:10,UTC,1,1005.8,52,,,23.8,13.4,32042,136,5.8,3.8
2018,8,24,13:20,UTC,2,1005.6,57,,,23.4,14.5,35187,118,5.9,3.8
2018,8,24,13:30,UTC,3,1005.5,57,,,23.3,14.4,42207,109,5,3.6
2018,8,24,13:40,UTC,2,1005.5,60,,,22.9,14.8,39619,119,4.9,3.3
2018,8,24,13:50,UTC,4,1005.4,62,,,22.5,14.7,36630,113,4.7,3.3
2018,8,24,14:00,UTC,5,1005.4,60,,,23,14.7,38360,120,4.7,3.3
2018,8,24,14:10,UTC,7,1005.2,59,,,23.3,14.8,36210,138,6.5,4
2018,8,24,14:20,UTC,7,1005.2,58,,,23.2,14.4,36464,138,6.2,4.1
2018,8,24,14:30,UTC,7,1005.1,59,,,23,14.6,38543,140,6.2,4.1
2018,8,24,14:40,UTC,7,1005.2,60,,,22.5,14.4,38349,131,5.9,4.1
2018,8,24,14:50,UTC,7,1005.2,61,,,22.3,14.4,37173,138,5.9,3.7
2018,8,24,15:00,UTC,7,1005.1,62,,,22.3,14.7,40880,137,5.8,3.8
2018,8,24,15:10,UTC,7,1005,63,,,21.9,14.6,47563,133,5.4,3.9
2018,8,24,15:20,UTC,7,1004.9,63,,,21.9,14.6,38321,127,5.4,3.5
2018,8,24,15:30,UTC,7,1004.8,64,,,21.9,14.8,39367,127,5.3,3.2
2018,8,24,15:40,UTC,7,1004.8,64,,,21.7,14.6,39994,121,5,2.9
2018,8,24,15:50,UTC,7,1004.7,64,,,21.7,14.6,46281,120,3.8,2.5
2018,8,24,16:00,UTC,7,1004.6,65,,,21.5,14.5,36317,121,4.7,2.6
2018,8,24,16:10,UTC,7,1004.5,66,,,21.2,14.6,43466,115,3.2,2
2018,8,24,16:20,UTC,7,1004.5,67,,,21.2,14.7,39172,116,3.7,2.2
2018,8,24,16:30,UTC,8,1004.5,69,,,20.8,14.9,40819,112,3,2.2
2018,8,24,16:40,UTC,8,1004.5,69,,,21,15,40009,124,3.3,2
2018,8,24,16:50,UTC,8,1004.4,68,,,21.3,15.1,43583,154,2.3,1.3
2018,8,24,17:00,UTC,8,1004.5,76,,,20.6,16.2,10319,194,5,3.1
2018,8,24,17:10,UTC,7,1004.3,83,,,20,17,18407,190,6.1,3
2018,8,24,17:20,UTC,7,1004.4,87,,,19.6,17.4,26750,173,3.5,2.4
2018,8,24,17:30,UTC,7,1004.5,87,,,19.5,17.3,21787,163,2.6,1.8
2018,8,24,17:40,UTC,7,1004.4,87,,,19.3,17.2,20671,158,2.5,1.7
2018,8,24,17:50,UTC,8,1004.3,92,,,18.9,17.5,20307,131,2,1.6
2018,8,24,18:00,UTC,8,1004.4,93,,,18.6,17.5,15214,124,1.6,0.9
2018,8,24,18:10,UTC,7,1004.5,93,,,18.5,17.4,13438,227,3.1,2.1
2018,8,24,18:20,UTC,7,1004.5,94,,,18.6,17.6,18532,197,2.1,1.2
2018,8,24,18:30,UTC,7,1004.4,92,,,18.8,17.5,14203,197,2,1.3
2018,8,24,18:40,UTC,8,1004.3,96,,,18.2,17.7,8593,122,2.6,1.6
2018,8,24,18:50,UTC,7,1004.4,96,,,18.4,17.8,15871,177,1.8,0.9
2018,8,24,19:00,UTC,7,1004.3,98,,,18.3,17.9,13430,193,2.9,1.2
2018,8,24,19:10,UTC,7,1004.2,98,,,17.9,17.6,10309,114,3.2,2.2
2018,8,24,19:20,UTC,7,1003.9,98,,,18,17.6,12125,163,2.1,0.9
2018,8,24,19:30,UTC,7,1003.7,99,,,17.7,17.6,7846,302,1.2,0.7
2018,8,24,19:40,UTC,7,1003.5,100,,,17.4,17.4,4855,84,1.7,1.1
2018,8,24,19:50,UTC,8,1003.4,100,,,17.3,17.3,2327,98,0.9,0.6
2018,8,24,20:00,UTC,8,1003.3,100,,,17.3,17.3,1960,0,0,0
2018,8,24,20:10,UTC,7,1003,100,,,17.2,17.2,725,93,1.6,1.2
2018,8,24,20:20,UTC,5,1003,100,,,17.1,17.1,5277,89,1.7,1.2
2018,8,24,20:30,UTC,5,1002.9,100,,,17.1,17.1,4600,96,2.1,1.4
2018,8,24,20:40,UTC,6,1002.8,100,,,17.3,17.2,7831,103,1.6,0.9
2018,8,24,20:50,UTC,7,1002.8,100,,,17.1,17.1,4377,0,0,0
2018,8,24,21:00,UTC,7,1003.1,100,,,17.6,17.6,5100,242,3.4,2.4
2018,8,24,21:10,UTC,7,1002.8,100,,,17.6,17.6,3962,240,3.1,1.6
2018,8,24,21:20,UTC,8,1002.9,100,,,17.7,17.7,9547,172,4.1,2.1
2018,8,24,21:30,UTC,8,1002.9,100,,,17.7,17.7,7646,114,3.9,2.6
2018,8,24,21:40,UTC,8,1003.6,100,,,17.9,17.8,6882,146,3.7,2.5
2018,8,24,21:50,UTC,8,1003.5,99,,,17.6,17.5,6207,206,4.4,2.8
2018,8,24,22:00,UTC,8,1003.3,99,,,17.6,17.5,7556,161,3,2
2018,8,24,22:10,UTC,8,1003.1,99,,,17.6,17.4,7948,149,2.8,1.8
2018,8,24,22:20,UTC,8,1002.8,99,,,17.5,17.3,7724,136,2.8,1.9
2018,8,24,22:30,UTC,8,1002.7,99,,,17.5,17.3,6958,142,2.2,1.5
2018,8,24,22:40,UTC,8,1002.5,99,,,17.6,17.4,6844,147,2.7,1.8
2018,8,24,22:50,UTC,8,1002.4,99,,,17.4,17.3,5791,130,2.3,1.8
2018,8,24,23:00,UTC,8,1002.7,100,,,17.6,17.6,5860,145,3.4,2
2018,8,24,23:10,UTC,8,1002.6,100,,,17.6,17.5,4037,175,4.5,2.6
2018,8,24,23:20,UTC,8,1002.6,99,,,17.5,17.4,6549,199,4.8,3
2018,8,24,23:30,UTC,8,1002.3,99,,,17.4,17.3,7383,198,3.5,2.4
2018,8,24,23:40,UTC,8,1002.3,99,,,17.4,17.2,7446,203,4.8,2.7
2018,8,24,23:50,UTC,8,1002.2,99,,,17.3,17.2,8589,197,4.2,2.7
2018,8,25,00:00,UTC,8,1002.3,99,,,17.3,17.2,13719,196,4.4,3
2018,8,25,00:10,UTC,8,1002.3,99,,,17.3,17.1,15288,194,5.4,3.5
2018,8,25,00:20,UTC,7,1002.3,99,,,17.2,17.1,16036,194,4.6,2.8
2018,8,25,00:30,UTC,7,1002.3,99,,,17.3,17.1,19460,190,5,2.9
2018,8,25,00:40,UTC,7,1002.4,99,,,17.4,17.2,15632,176,4.3,2.8
2018,8,25,00:50,UTC,8,1002.5,99,,,17.4,17.2,10522,179,4.9,3
2018,8,25,01:00,UTC,8,1002.5,99,,,17.4,17.2,7417,175,4.4,2.6
2018,8,25,01:10,UTC,8,1002.6,99,,,17.3,17.2,10375,177,5.5,3.8
2018,8,25,01:20,UTC,8,1002.6,100,,,17.2,17.1,12374,183,6.1,3.7
2018,8,25,01:30,UTC,8,1002.7,100,,,17.1,17.1,10483,188,5.3,3.8
2018,8,25,01:40,UTC,8,1002.7,100,,,17.3,17.3,11874,188,6.5,4.3
2018,8,25,01:50,UTC,8,1002.6,100,,,17.3,17.2,10997,186,7.9,4.2
2018,8,25,02:00,UTC,8,1002.7,100,,,17.3,17.2,11312,183,5.9,4.2
2018,8,25,02:10,UTC,8,1002.6,99,,,17.3,17.2,12763,182,5.9,3.9
2018,8,25,02:20,UTC,8,1002.6,99,,,17.3,17.1,14370,181,6.2,4.1
2018,8,25,02:30,UTC,8,1002.7,99,,,17.3,17.1,13972,197,7,4
2018,8,25,02:40,UTC,8,1002.8,99,,,17.4,17.2,16042,196,6.4,4.4
2018,8,25,02:50,UTC,8,1002.8,99,,,17.4,17.2,16501,200,5.4,3.9
2018,8,25,03:00,UTC,8,1002.8,98,,,17.5,17.3,16120,193,5.3,3.6
2018,8,25,03:10,UTC,8,1002.8,99,,,17.5,17.3,14549,185,4.1,2.5
2018,8,25,03:20,UTC,8,1002.8,99,,,17.3,17.2,13332,181,3.7,2.5
2018,8,25,03:30,UTC,8,1002.7,99,,,17.4,17.3,12820,192,4,2.6
2018,8,25,03:40,UTC,8,1002.8,99,,,17.2,17,12743,173,4.7,3
2018,8,25,03:50,UTC,8,1002.9,100,,,17,16.9,5365,172,5,3.3
2018,8,25,04:00,UTC,8,1003,100,,,17.1,17.1,6988,174,6.5,3.8
2018,8,25,04:10,UTC,7,1003.1,100,,,17.2,17.1,9517,194,6.8,4.7
2018,8,25,04:20,UTC,7,1003.1,99,,,17.2,17,11981,205,7.4,3.8
2018,8,25,04:30,UTC,7,1003.1,99,,,17.2,16.9,12101,207,5.4,3.4
2018,8,25,04:40,UTC,5,1003.2,98,,,17.2,16.9,13565,211,5.2,3.6
2018,8,25,04:50,UTC,2,1003.2,98,,,17.2,16.9,14143,203,4.6,3
2018,8,25,05:00,UTC,3,1003.4,98,,,17.2,16.9,12500,191,3.7,2.3
2018,8,25,05:10,UTC,4,1003.5,98,,,17.3,17,12978,191,3.6,2.6
2018,8,25,05:20,UTC,4,1003.6,98,,,17.2,16.8,13855,186,4.1,3.1
2018,8,25,05:30,UTC,3,1003.6,97,,,17.2,16.7,15270,193,4.5,3.1
2018,8,25,05:40,UTC,4,1003.7,97,,,17.3,16.9,14866,210,4.5,2.8
2018,8,25,05:50,UTC,3,1003.7,95,,,17.8,17,18302,216,3.4,2.2
2018,8,25,06:00,UTC,3,1003.8,89,,,18.2,16.4,27867,232,6.5,3.4
2018,8,25,06:10,UTC,5,1003.8,90,,,18.1,16.5,27802,223,4.8,3.3
2018,8,25,06:20,UTC,5,1003.9,89,,,18,16.1,29624,222,5,3.5
2018,8,25,06:30,UTC,5,1004,89,,,17.8,15.9,31914,236,5.2,3.5
2018,8,25,06:40,UTC,4,1004.1,87,,,18,15.8,31668,222,4.7,3
2018,8,25,06:50,UTC,3,1004.3,86,,,17.9,15.5,38428,220,5.3,3.8
2018,8,25,07:00,UTC,4,1004.4,86,,,18.1,15.7,34172,221,5.3,3.8
2018,8,25,07:10,UTC,5,1004.4,85,,,18.1,15.5,34600,226,5.2,3.3
2018,8,25,07:20,UTC,4,1004.5,84,,,18.3,15.5,35700,216,5,3.4
2018,8,25,07:30,UTC,2,1004.7,79,,,18.4,14.6,30040,222,5.7,3.4
2018,8,25,07:40,UTC,3,1004.7,81,,,18.1,14.8,42425,246,5.5,4
2018,8,25,07:50,UTC,5,1004.8,79,,,17.9,14.2,38991,229,6,3.8
2018,8,25,08:00,UTC,3,1005.1,79,,,18,14.3,45239,221,5.4,3.8
2018,8,25,08:10,UTC,2,1005.3,67,,,18,11.8,43709,236,6.4,4.2
2018,8,25,08:20,UTC,4,1005.5,63,,,18.3,11.2,40886,243,4.9,2.9
2018,8,25,08:30,UTC,5,1005.6,60,,,18.5,10.7,45745,245,6.3,3.8
2018,8,25,08:40,UTC,7,1005.7,64,,,18.4,11.5,47957,247,4.8,2.7
2018,8,25,08:50,UTC,7,1005.8,68,,,18.3,12.3,41243,223,4.8,3.2
2018,8,25,09:00,UTC,7,1005.8,75,,,18,13.5,45296,210,6.1,4.3
2018,8,25,09:10,UTC,7,1006,76,,,18.2,13.8,39963,201,7,4.7
2018,8,25,09:20,UTC,7,1006,72,,,18.6,13.4,38641,206,6.5,4.5
2018,8,25,09:30,UTC,7,1006.2,68,,,18,12,41234,216,7.6,5.2
2018,8,25,09:40,UTC,7,1006.2,64,,,18.2,11.4,41302,220,6.4,4.3
2018,8,25,09:50,UTC,7,1006.2,62,,,18.1,10.7,39779,202,7.6,4.5
2018,8,25,10:00,UTC,7,1006.3,64,,,18,10.9,42978,211,5.6,3.8
2018,8,25,10:10,UTC,7,1006.3,69,,,18,12.1,47098,206,5.6,4
2018,8,25,10:20,UTC,7,1006.3,71,,,18,12.7,40048,202,5.1,3.5
2018,8,25,10:30,UTC,7,1006.3,71,,,17.9,12.6,45731,199,6.4,3.9
2018,8,25,10:40,UTC,7,1006.4,68,,,17.9,11.9,46598,195,7.1,4.7
2018,8,25,10:50,UTC,7,1006.5,65,,,18.1,11.4,36187,203,6.7,4.9
2018,8,25,11:00,UTC,7,1006.3,65,,,18,11.2,50000,205,6.7,4.6
2018,8,25,11:10,UTC,7,1006.4,66,,,17.9,11.6,44338,215,5.9,4.4
2018,8,25,11:20,UTC,4,1006.4,68,,,17.9,11.9,44148,201,6,3.9
2018,8,25,11:30,UTC,3,1006.4,71,,,18,12.6,37563,196,5.5,4.1
2018,8,25,11:40,UTC,2,1006.3,69,,,17.9,12.2,34003,198,5.3,3.8
2018,8,25,11:50,UTC,4,1006.3,68,,,18,11.9,39940,195,5.1,3.7
2018,8,25,12:00,UTC,6,1006.5,66,,,18.1,11.7,44061,204,5.2,3.6
2018,8,25,12:10,UTC,7,1006.6,67,,,18.3,12.1,41225,208,6,3.3
2018,8,25,12:20,UTC,7,1006.7,67,,,18.4,12.1,37667,203,5.4,3.7
2018,8,25,12:30,UTC,6,1006.8,65,,,18.6,12,37561,199,5.7,4.2
2018,8,25,12:40,UTC,7,1006.8,66,,,18.4,11.8,43833,211,7,4.5
2018,8,25,12:50,UTC,7,1006.9,62,,,18,10.7,43685,219,7.6,4.7
2018,8,25,13:00,UTC,7,1006.9,64,,,17.9,11,42541,208,7.1,4.7
2018,8,25,13:10,UTC,7,1006.9,64,,,17.7,10.9,43964,213,8,4.7
2018,8,25,13:20,UTC,7,1007,66,,,17.5,11,43385,223,6.5,4.6
2018,8,25,13:30,UTC,7,1006.8,67,,,17.4,11.3,47779,217,7.1,4.2
2018,8,25,13:40,UTC,8,1006.9,66,,,17.4,11,46878,209,6,3.7
2018,8,25,13:50,UTC,8,1007,66,,,17.3,10.9,48916,215,5.5,4
2018,8,25,14:00,UTC,8,1006.8,66,,,17.3,10.8,48519,220,5.5,3.6
2018,8,25,14:10,UTC,8,1006.8,69,,,17.3,11.4,47499,214,3.9,2.5
2018,8,25,14:20,UTC,8,1006.9,69,,,17.2,11.5,48134,206,3.8,2.4
2018,8,25,14:30,UTC,8,1006.9,70,,,17.1,11.5,45288,215,4.8,3.3
2018,8,25,14:40,UTC,8,1006.8,71,,,17,11.7,50000,221,4.1,2.4
2018,8,25,14:50,UTC,8,1007,72,,,17,11.9,49175,218,4.8,2.9
2018,8,25,15:00,UTC,8,1006.9,72,,,16.9,11.9,48692,219,4.1,2.8
2018,8,25,15:10,UTC,8,1007,73,,,17,12.2,41787,209,4.1,2.8
2018,8,25,15:20,UTC,8,1006.9,74,,,16.8,12.1,42293,197,4.5,2.9
2018,8,25,15:30,UTC,7,1006.9,74,,,16.8,12.2,49348,202,4.1,2.5
2018,8,25,15:40,UTC,7,1006.9,74,,,16.8,12.1,38393,197,4.4,2.9
2018,8,25,15:50,UTC,7,1007,73,,,16.9,12.1,42168,210,5.3,3.5
2018,8,25,16:00,UTC,6,1006.9,74,,,16.8,12.2,43487,217,5.3,3.3
2018,8,25,16:10,UTC,6,1007.1,74,,,16.8,12.1,48975,215,4.5,3.3
2018,8,25,16:20,UTC,7,1007.3,75,,,16.7,12.2,48267,215,4.5,3.2
2018,8,25,16:30,UTC,7,1007.3,76,,,16.5,12.4,48604,222,4.5,2.8
2018,8,25,16:40,UTC,7,1007.4,78,,,16.4,12.5,47451,220,3.1,2
2018,8,25,16:50,UTC,7,1007.2,79,,,16.3,12.7,48635,219,2.9,1.9
2018,8,25,17:00,UTC,7,1007.4,79,,,16.3,12.7,48872,223,3.7,2.3
2018,8,25,17:10,UTC,7,1007.5,80,,,16.2,12.8,44573,225,3.2,2.3
2018,8,25,17:20,UTC,7,1007.5,80,,,16.2,12.7,48142,220,3.1,2.4
2018,8,25,17:30,UTC,5,1007.6,80,,,16.2,12.7,43468,215,3.2,2.1
2018,8,25,17:40,UTC,7,1007.5,80,,,16.1,12.6,50000,221,3.1,1.9
2018,8,25,17:50,UTC,5,1007.5,80,,,16.1,12.6,48773,218,2.7,1.8
2018,8,25,18:00,UTC,7,1007.5,80,,,16.1,12.6,49556,216,2.7,1.7
2018,8,25,18:10,UTC,7,1007.4,80,,,16,12.6,50000,218,2.3,1.6
2018,8,25,18:20,UTC,8,1007.5,81,,,16,12.6,43933,208,2.7,1.4
2018,8,25,18:30,UTC,8,1007.5,82,,,15.9,12.8,45918,193,1.8,1.3
2018,8,25,18:40,UTC,8,1007.6,82,,,15.8,12.8,45296,195,2.2,1.6
2018,8,25,18:50,UTC,8,1007.7,81,,,15.9,12.7,46178,187,2,1.6
2018,8,25,19:00,UTC,8,1007.7,81,,,16,12.7,45289,181,2.4,1.6
2018,8,25,19:10,UTC,8,1007.5,81,,,15.9,12.7,46977,166,2.2,1.3
2018,8,25,19:20,UTC,8,1007.7,84,,,15.5,12.8,42650,156,1.9,1.1
2018,8,25,19:30,UTC,8,1007.7,83,,,15.7,12.9,42473,185,2.1,1.3
2018,8,25,19:40,UTC,8,1007.8,83,,,15.6,12.8,47613,193,1.9,1.4
2018,8,25,19:50,UTC,7,1007.8,82,,,15.8,12.7,43939,187,2,1.4
2018,8,25,20:00,UTC,7,1007.9,82,,,15.8,12.7,39608,174,2.2,1.5
2018,8,25,20:10,UTC,7,1007.9,83,,,15.7,12.8,42025,164,2.3,1.7
2018,8,25,20:20,UTC,8,1008,83,,,15.6,12.8,47089,175,1.9,1.4
2018,8,25,20:30,UTC,7,1008.1,84,,,15.4,12.8,39631,173,1.7,1.1
2018,8,25,20:40,UTC,7,1008,86,,,14.8,12.5,39451,181,1.3,0.9
2018,8,25,20:50,UTC,7,1008.1,93,,,14.1,12.9,38483,0,0,0
2018,8,25,21:00,UTC,7,1008.2,94,,,13.8,12.8,32828,118,1.6,0.8
2018,8,25,21:10,UTC,7,1008.3,88,,,14.9,12.9,33792,172,3.2,1.8
2018,8,25,21:20,UTC,7,1008.3,88,,,14.7,12.7,44306,178,2.3,1.6
2018,8,25,21:30,UTC,7,1008.3,89,,,14.2,12.5,37067,179,1.6,1.1
2018,8,25,21:40,UTC,5,1008.3,94,,,13.3,12.4,29889,141,1.4,1
2018,8,25,21:50,UTC,3,1008.4,97,,,12.9,12.5,23361,120,1.4,1.2
2018,8,25,22:00,UTC,1,1008.4,97,,,12.1,11.6,21294,111,1.2,0.8
2018,8,25,22:10,UTC,3,1008.3,100,,,11.9,11.9,2008,89,0.9,0.6
2018,8,25,22:20,UTC,5,1008.3,100,,,11.7,11.7,1183,117,0.8,0.6
2018,8,25,22:30,UTC,7,1008.4,100,,,11.8,11.8,8422,92,0.9,0.7
2018,8,25,22:40,UTC,7,1008.4,100,,,11.7,11.7,5107,121,1.1,0.8
2018,8,25,22:50,UTC,7,1008.3,100,,,11.3,11.3,14890,0,0,0
2018,8,25,23:00,UTC,8,1008.3,100,,,11.7,11.7,17700,0,0,0
2018,8,25,23:10,UTC,7,1008.3,100,,,11.4,11.4,1550,96,0.9,0.6
2018,8,25,23:20,UTC,7,1008.4,100,,,11.2,11.2,2005,0,0,0
2018,8,25,23:30,UTC,7,1008.3,100,,,10.8,10.8,9851,0,0,0
2018,8,25,23:40,UTC,7,1008.4,100,,,11.5,11.5,15270,77,1,0.8
2018,8,25,23:50,UTC,7,1008.4,100,,,11.6,11.6,19596,0,0,0
2018,8,26,00:00,UTC,7,1008.5,100,,,11.2,11.2,3809,0,0,0
2018,8,26,00:10,UTC,7,1008.5,100,,,11.4,11.4,716,0,0,0
2018,8,26,00:20,UTC,4,1008.6,100,,,11.2,11.2,1027,0,0,0
2018,8,26,00:30,UTC,6,1008.6,100,,,10.9,10.9,726,0,0,0
2018,8,26,00:40,UTC,6,1008.7,100,,,11.1,11.1,537,102,1,0.5
2018,8,26,00:50,UTC,7,1008.6,100,,,11,11,2416,83,1,0.6
2018,8,26,01:00,UTC,7,1008.6,100,,,10.6,10.6,3231,0,0,0
2018,8,26,01:10,UTC,7,1008.4,100,,,11.1,11.1,5215,75,1,0.6
2018,8,26,01:20,UTC,7,1008.6,100,,,11,11,1241,0,0,0
2018,8,26,01:30,UTC,7,1008.6,100,,,10.8,10.8,575,0,0,0
2018,8,26,01:40,UTC,6,1008.5,100,,,10.6,10.6,279,0,0,0
2018,8,26,01:50,UTC,7,1008.6,100,,,10.6,10.6,369,0,0,0
2018,8,26,02:00,UTC,7,1008.6,100,,,10.6,10.6,755,109,1.1,0.6
2018,8,26,02:10,UTC,8,1008.6,100,,,11.2,11.2,5346,102,1.9,1.3
2018,8,26,02:20,UTC,8,1008.7,100,,,10.8,10.8,24808,101,1.6,1
2018,8,26,02:30,UTC,8,1008.8,100,,,10.7,10.7,29759,111,1.3,0.7
2018,8,26,02:40,UTC,8,1009,100,,,11.6,11.6,26633,124,1.3,1
2018,8,26,02:50,UTC,8,1008.8,100,,,11.4,11.4,23199,129,1.9,1.3
2018,8,26,03:00,UTC,8,1008.7,100,,,11.2,11.2,22716,108,2.1,1.6
2018,8,26,03:10,UTC,8,1008.8,100,,,10.9,10.9,29788,95,1.5,0.8
2018,8,26,03:20,UTC,8,1008.9,100,,,11.4,11.4,29634,102,1.7,1.1
2018,8,26,03:30,UTC,8,1009,100,,,11.7,11.7,23921,112,1.9,1.6
2018,8,26,03:40,UTC,8,1009,100,,,11.6,11.6,26684,119,1.8,1.5
2018,8,26,03:50,UTC,7,1008.9,100,,,12.1,12.1,22031,102,2.1,1.6
2018,8,26,04:00,UTC,7,1008.8,100,,,12.2,12.2,24438,107,1.5,1.2
2018,8,26,04:10,UTC,7,1008.9,100,,,12.5,12.5,19206,116,1.9,1.7
2018,8,26,04:20,UTC,7,1008.9,100,,,12.7,12.7,23810,144,1.7,1
2018,8,26,04:30,UTC,7,1008.8,100,,,13.5,13.5,27209,131,2.2,1.7
2018,8,26,04:40,UTC,7,1008.8,100,,,14.6,14.6,27100,128,2.4,1.9
2018,8,26,04:50,UTC,7,1008.8,98,,,15.1,14.8,31633,136,2.9,2.1
2018,8,26,05:00,UTC,7,1008.9,94,,,15.6,14.7,38047,145,2.7,1.8
2018,8,26,05:10,UTC,7,1008.7,92,,,16.1,14.8,38372,163,4.1,2.4
2018,8,26,05:20,UTC,7,1008.9,89,,,16.3,14.6,40902,172,4.1,2.7
2018,8,26,05:30,UTC,7,1009,88,,,16.5,14.6,43264,184,4.5,2.9
2018,8,26,05:40,UTC,7,1009,87,,,16.5,14.4,35243,177,5,3.1
2018,8,26,05:50,UTC,7,1009,84,,,16.6,13.8,38813,186,6.3,3.9
2018,8,26,06:00,UTC,7,1009.1,84,,,16.8,14,35876,180,5.1,3.7
2018,8,26,06:10,UTC,7,1009.1,85,,,16.8,14.2,42927,172,4.8,3.3
2018,8,26,06:20,UTC,7,1009.1,83,,,16.8,14,42104,168,5.6,3.6
2018,8,26,06:30,UTC,7,1009.2,84,,,16.8,14,45560,169,5.9,3.9
2018,8,26,06:40,UTC,7,1009.1,87,,,16.6,14.3,40697,186,6.6,4.1
2018,8,26,06:50,UTC,7,1009.1,86,,,16.5,14.2,40444,178,7.3,4.8
2018,8,26,07:00,UTC,7,1009.2,86,,,16.8,14.4,42142,186,6.8,4.5
2018,8,26,07:10,UTC,7,1009.3,85,,,16.8,14.4,40077,187,7.2,4.5
2018,8,26,07:20,UTC,7,1009.4,86,,,17,14.6,34947,183,7.1,4.1
2018,8,26,07:30,UTC,7,1009.3,86,,,16.8,14.4,38692,184,7.7,4.8
2018,8,26,07:40,UTC,7,1009.2,85,,,17,14.4,48911,166,6.3,4.1
2018,8,26,07:50,UTC,7,1009.2,82,,,17,13.9,37349,165,7.5,4.7
2018,8,26,08:00,UTC,7,1009.3,82,,,17.1,14.1,32384,163,6.1,4.6
2018,8,26,08:10,UTC,7,1009.3,81,,,17.2,13.9,41019,181,7.2,5
2018,8,26,08:20,UTC,7,1009.2,78,,,17.4,13.4,35201,172,6.8,4.9
2018,8,26,08:30,UTC,7,1009.3,80,,,17.3,13.9,37807,168,6.6,4.3
2018,8,26,08:40,UTC,7,1009.2,80,,,17.2,13.8,45274,170,6.1,4.4
2018,8,26,08:50,UTC,7,1009.4,81,,,17.1,13.8,41446,180,6.7,4.8
2018,8,26,09:00,UTC,7,1009.4,81,,,17.2,13.9,35775,177,6.5,4.1
2018,8,26,09:10,UTC,7,1009.4,83,,,17.3,14.4,40669,169,6.9,4.6
2018,8,26,09:20,UTC,7,1009.4,81,,,17.1,13.8,38430,169,7.2,5.1
2018,8,26,09:30,UTC,7,1009.4,83,,,17.5,14.6,36261,185,7,4
2018,8,26,09:40,UTC,7,1009.5,82,,,17.3,14.2,38397,172,7.6,4.5
2018,8,26,09:50,UTC,7,1009.5,80,,,17.3,13.8,39717,187,6.8,4.6
2018,8,26,10:00,UTC,7,1009.5,80,,,17.4,14,37454,182,6,4
2018,8,26,10:10,UTC,7,1009.5,80,,,17.7,14.2,42791,167,6.3,3.5
2018,8,26,10:20,UTC,7,1009.4,77,,,17.9,13.8,39722,174,6.9,4.4
2018,8,26,10:30,UTC,7,1009.4,76,,,17.9,13.7,38386,170,7.3,5
2018,8,26,10:40,UTC,7,1009.4,74,,,17.9,13.3,36646,186,7.6,5.3
2018,8,26,10:50,UTC,7,1009.4,74,,,18.3,13.6,38701,172,7.9,5.9
2018,8,26,11:00,UTC,7,1009.4,76,,,18.3,13.9,35343,171,8,5.5
2018,8,26,11:10,UTC,7,1009.3,74,,,18.2,13.6,42821,171,7.9,4.7
2018,8,26,11:20,UTC,7,1009.3,73,,,18.2,13.2,42920,173,7,4.9
2018,8,26,11:30,UTC,7,1009.4,72,,,18.3,13.1,36578,166,7.3,4.8
2018,8,26,11:40,UTC,7,1009.3,72,,,18,12.9,39667,153,8.3,5.9
2018,8,26,11:50,UTC,7,1009.4,71,,,18.4,13.1,45406,159,7.1,4.8
2018,8,26,12:00,UTC,7,1009.4,71,,,18.6,13.2,42425,166,7.8,5.2
2018,8,26,12:10,UTC,6,1009.3,68,,,18.5,12.4,47586,186,8.1,5.6
2018,8,26,12:20,UTC,5,1009.3,68,,,18.3,12.4,41362,195,8,5.7
2018,8,26,12:30,UTC,6,1009.2,69,,,18.4,12.7,48293,192,7.6,5.2
2018,8,26,12:40,UTC,6,1009.2,70,,,18.3,12.8,47312,184,7,4.1
2018,8,26,12:50,UTC,7,1009.1,69,,,18.3,12.4,48431,165,6.1,3.6
2018,8,26,13:00,UTC,7,1009.1,71,,,18.2,12.8,47601,155,5.5,3.4
2018,8,26,13:10,UTC,7,1009.1,69,,,18.2,12.5,50000,157,6.3,4.4
2018,8,26,13:20,UTC,8,1009.1,72,,,18,12.8,47331,154,6.2,3.9
2018,8,26,13:30,UTC,7,1009,72,,,18,12.9,43424,162,7,3.7
2018,8,26,13:40,UTC,7,1009,72,,,18,13,41486,155,7.1,4.6
2018,8,26,13:50,UTC,7,1008.8,73,,,17.9,13,48496,150,7.4,5
2018,8,26,14:00,UTC,7,1008.9,75,,,17.7,13.2,37046,152,7.8,4.5
2018,8,26,14:10,UTC,7,1009.1,87,,,16.3,14.2,9685,179,7.6,5.3
2018,8,26,14:20,UTC,7,1009.2,91,,,15.2,13.7,8206,197,8,4.7
2018,8,26,14:30,UTC,7,1009.1,93,,,15.3,14.2,26056,192,4.6,2.8
2018,8,26,14:40,UTC,7,1008.9,92,,,15.5,14.2,21375,166,4.5,2.7
2018,8,26,14:50,UTC,7,1008.9,91,,,15.4,14,13770,173,5.8,3.6
2018,8,26,15:00,UTC,7,1008.6,90,,,14.8,13.2,7923,198,6.4,3.7
2018,8,26,15:10,UTC,7,1008.6,92,,,14.9,13.7,42651,166,2.2,1.4
2018,8,26,15:20,UTC,7,1008.7,96,,,14.5,13.8,4372,29,1.8,0.6
2018,8,26,15:30,UTC,8,1009,93,,,14.2,13.1,8999,260,7,3.9
2018,8,26,15:40,UTC,8,1009,92,,,14.3,13,34255,198,4,2
2018,8,26,15:50,UTC,7,1009.1,92,,,14.3,13,44836,231,1.7,0.9
2018,8,26,16:00,UTC,7,1009.1,92,,,14.4,13.1,32754,209,1.4,0.8
2018,8,26,16:10,UTC,7,1009,92,,,14.5,13.2,23944,209,1.5,0.6
2018,8,26,16:20,UTC,7,1009,91,,,14.6,13.3,23809,187,1.6,0.9
2018,8,26,16:30,UTC,7,1008.9,91,,,14.6,13.1,37611,180,1.9,1.2
2018,8,26,16:40,UTC,7,1008.9,90,,,14.7,13,41581,179,2.6,1.6
2018,8,26,16:50,UTC,7,1009,89,,,14.5,12.8,44346,196,2.5,1.6
2018,8,26,17:00,UTC,7,1009.2,89,,,14.3,12.5,30655,232,3.1,1.9
2018,8,26,17:10,UTC,7,1009.1,94,,,13.7,12.6,1931,244,5,2.6
2018,8,26,17:20,UTC,7,1009.1,93,,,13.6,12.5,35810,249,4.1,2.5
2018,8,26,17:30,UTC,8,1009.1,94,,,13.5,12.5,19108,259,2.6,1.5
2018,8,26,17:40,UTC,8,1009.1,94,,,13.4,12.5,9026,264,1.3,0.7
2018,8,26,17:50,UTC,8,1009,95,,,13.5,12.6,3161,172,3,1.5
2018,8,26,18:00,UTC,8,1009,80,,,13.5,10.2,4867,197,7.8,2.7
2018,8,26,18:10,UTC,8,1009,87,,,14,11.8,29698,155,4.4,2.5
2018,8,26,18:20,UTC,8,1009,94,,,13.5,12.5,29889,191,2.6,2
2018,8,26,18:30,UTC,8,1009,98,,,13.3,12.9,10756,144,4.3,2.5
2018,8,26,18:40,UTC,8,1009,93,,,14.1,12.9,14346,163,6.7,3.9
2018,8,26,18:50,UTC,8,1009,91,,,14.1,12.6,19709,193,6.7,4.4
2018,8,26,19:00,UTC,8,1009.2,93,,,13.8,12.7,28481,190,7.2,4.8
2018,8,26,19:10,UTC,8,1009.2,94,,,13.7,12.7,32664,187,4.7,2.8
2018,8,26,19:20,UTC,8,1009.1,94,,,13.7,12.8,24439,174,4.2,2.6
2018,8,26,19:30,UTC,8,1009.2,92,,,13.8,12.5,32026,174,5.1,2.9
2018,8,26,19:40,UTC,8,1009.2,91,,,13.7,12.2,32975,166,6.2,3.5
2018,8,26,19:50,UTC,8,1009.1,90,,,13.7,12.1,38670,175,6.3,4.1
2018,8,26,20:00,UTC,7,1009.1,91,,,13.7,12.2,43605,178,5.5,4
2018,8,26,20:10,UTC,7,1009.2,92,,,13.7,12.4,45092,179,6.2,4.2
2018,8,26,20:20,UTC,7,1009.2,91,,,13.8,12.4,43986,178,5.7,3.8
2018,8,26,20:30,UTC,7,1009.2,92,,,13.7,12.4,44166,174,5.2,3.4
2018,8,26,20:40,UTC,7,1009.2,91,,,13.7,12.2,45546,169,5.1,3.5
2018,8,26,20:50,UTC,7,1009.2,91,,,13.8,12.4,46799,171,5,3.2
2018,8,26,21:00,UTC,8,1009.2,93,,,13.7,12.7,47628,168,5.4,3.2
2018,8,26,21:10,UTC,8,1009.3,95,,,13.8,13,42004,171,4.9,3.2
2018,8,26,21:20,UTC,8,1009.2,96,,,14,13.3,38390,173,4.3,3.1
2018,8,26,21:30,UTC,8,1009.3,95,,,14,13.3,34856,168,4.7,3
2018,8,26,21:40,UTC,7,1009.2,95,,,14.1,13.3,38585,183,4.4,3.2
2018,8,26,21:50,UTC,7,1009.3,95,,,14.1,13.3,36716,179,5.1,3.3
2018,8,26,22:00,UTC,4,1009.3,94,,,14,13.2,37649,178,4.2,2.9
2018,8,26,22:10,UTC,2,1009.5,95,,,14,13.1,34143,176,4.2,2.8
2018,8,26,22:20,UTC,0,1009.6,95,,,13.7,12.9,37667,177,3.2,2.3
2018,8,26,22:30,UTC,0,1009.5,96,,,13.4,12.8,31268,172,2.4,1.7
2018,8,26,22:40,UTC,1,1009.6,97,,,13,12.5,31046,189,2.3,1.3
2018,8,26,22:50,UTC,1,1009.8,98,,,12.8,12.5,29239,192,2.6,1.8
2018,8,26,23:00,UTC,1,1009.8,96,,,12.9,12.3,32633,204,2.7,1.8
2018,8,26,23:10,UTC,0,1009.9,96,,,12.5,11.9,29671,208,2.2,1.6
2018,8,26,23:20,UTC,2,1009.9,98,,,12.7,12.4,30385,209,3,1.9
2018,8,26,23:30,UTC,1,1010,96,,,12.8,12.2,38656,220,3.4,2.3
2018,8,26,23:40,UTC,1,1010.1,97,,,12.6,12.1,39974,233,2.3,1.4
2018,8,26,23:50,UTC,0,1010.1,97,,,12.5,12.1,35814,227,3,1.6
2018,8,27,00:00,UTC,0,1010.2,97,,,12.5,12,44273,224,2.6,2
2018,8,27,00:10,UTC,0,1010.2,97,,,12.5,12.1,42152,220,3,1.9
2018,8,27,00:20,UTC,0,1010.2,97,,,12.4,11.8,48932,216,2.8,1.8
2018,8,27,00:30,UTC,0,1010.3,96,,,12.3,11.7,43923,218,3,1.9
2018,8,27,00:40,UTC,0,1010.3,97,,,12.1,11.6,43027,207,2.4,1.5
2018,8,27,00:50,UTC,0,1010.4,97,,,12,11.6,38944,202,2.5,1.9
2018,8,27,01:00,UTC,0,1010.5,97,,,11.9,11.4,46050,203,3.3,1.7
2018,8,27,01:10,UTC,0,1010.5,98,,,11.5,11.2,35741,199,2.2,1.4
2018,8,27,01:20,UTC,0,1010.6,99,,,11.3,11.2,32670,197,2.5,1.4
2018,8,27,01:30,UTC,0,1010.6,99,,,11.3,11.1,38687,196,2.1,1.6
2018,8,27,01:40,UTC,0,1010.7,99,,,10.9,10.8,34510,187,2.1,1.6
2018,8,27,01:50,UTC,0,1010.7,99,,,10.3,10.2,10625,183,1.9,1.6
2018,8,27,02:00,UTC,0,1010.7,100,,,10.8,10.8,7024,178,2.1,1.5
2018,8,27,02:10,UTC,0,1010.7,100,,,11.6,11.6,37220,181,2.5,2
2018,8,27,02:20,UTC,0,1010.8,100,,,11,10.9,7788,163,2.1,1.3
2018,8,27,02:30,UTC,0,1010.8,99,,,9.5,9.4,424,132,1.6,1.2
2018,8,27,02:40,UTC,0,1010.9,100,,,8.8,8.8,240,127,1.4,0.9
2018,8,27,02:50,UTC,1,1010.9,100,,,9.7,9.7,477,169,2,1
2018,8,27,03:00,UTC,4,1010.9,100,,,11.6,11.6,23286,180,3.4,2.1
2018,8,27,03:10,UTC,4,1010.9,100,,,12.2,12.1,41090,177,3,2.1
2018,8,27,03:20,UTC,3,1010.9,98,,,11.6,11.4,43280,162,1.9,1.3
2018,8,27,03:30,UTC,1,1011,99,,,11.4,11.2,40847,162,2.5,1.4
2018,8,27,03:40,UTC,0,1011.1,98,,,11,10.7,37609,168,2.2,1.2
2018,8,27,03:50,UTC,0,1011.2,99,,,10,9.9,3010,149,1.1,0.5
2018,8,27,04:00,UTC,0,1011.3,100,,,10.5,10.5,1062,150,1.3,0.7
2018,8,27,04:10,UTC,0,1011.3,100,,,10.6,10.6,33752,148,1.5,0.8
2018,8,27,04:20,UTC,0,1011.4,100,,,11.1,11.1,28988,161,1.6,1.2
2018,8,27,04:30,UTC,0,1011.5,92,,,12.5,11.3,46660,173,3.1,1.9
2018,8,27,04:40,UTC,0,1011.6,89,,,12.8,11,45419,186,3.5,2.6
2018,8,27,04:50,UTC,0,1011.7,89,,,13,11.2,42419,187,3.1,2.3
2018,8,27,05:00,UTC,0,1011.7,87,,,13.4,11.2,50000,183,3.2,2
2018,8,27,05:10,UTC,0,1011.8,85,,,13.7,11.2,39914,186,3.9,2.6
2018,8,27,05:20,UTC,0,1011.9,86,,,13.9,11.6,46831,195,3.7,2.3
2018,8,27,05:30,UTC,0,1011.9,85,,,14.3,11.7,41854,195,2.7,1.7
2018,8,27,05:40,UTC,0,1012,86,,,14.7,12.3,45027,216,3.2,1.9
2018,8,27,05:50,UTC,0,1012,81,,,14.8,11.6,44070,214,3.9,2.5
2018,8,27,06:00,UTC,0,1012,82,,,15.1,12.1,47902,206,3.2,2.2
2018,8,27,06:10,UTC,0,1012.1,82,,,15.4,12.3,45579,222,3.6,2.2
2018,8,27,06:20,UTC,0,1012.2,80,,,15.3,11.9,41029,233,4.6,3.4
2018,8,27,06:30,UTC,0,1012.3,80,,,15.6,12.1,40512,219,4.5,3.1
2018,8,27,06:40,UTC,0,1012.3,79,,,15.7,12,35043,225,4.7,3.3
2018,8,27,06:50,UTC,0,1012.4,79,,,16,12.3,40617,218,5.6,3.6
2018,8,27,07:00,UTC,0,1012.5,79,,,16.4,12.7,42338,244,5.2,3.2
2018,8,27,07:10,UTC,1,1012.5,76,,,16.5,12.2,43938,243,4.5,2.9
2018,8,27,07:20,UTC,2,1012.6,74,,,16.5,12,45970,236,4.9,2.9
2018,8,27,07:30,UTC,5,1012.6,70,,,16.9,11.4,41015,206,6.8,4
2018,8,27,07:40,UTC,5,1012.7,67,,,17.2,11.1,33321,209,8.2,5
2018,8,27,07:50,UTC,5,1012.7,71,,,16.8,11.5,41756,207,7.2,4.5
2018,8,27,08:00,UTC,5,1012.8,76,,,16.4,12.1,48485,205,6.5,4.5
2018,8,27,08:10,UTC,2,1012.8,75,,,16.7,12.2,47409,223,5.9,3.9
2018,8,27,08:20,UTC,3,1012.7,71,,,17.4,12,40380,219,8.9,4.4
2018,8,27,08:30,UTC,3,1012.8,68,,,17.4,11.6,38150,202,7.8,5.1
2018,8,27,08:40,UTC,5,1013,68,,,17,11,46377,222,7.8,5
2018,8,27,08:50,UTC,3,1013.1,69,,,17,11.3,40839,229,7.4,5.4
2018,8,27,09:00,UTC,4,1013,69,,,17.8,12.1,39262,207,8,5.4
2018,8,27,09:10,UTC,4,1013.1,69,,,17.3,11.5,40325,202,9.6,6
2018,8,27,09:20,UTC,5,1013.1,61,,,18.3,10.6,37051,205,7.4,5.3
2018,8,27,09:30,UTC,6,1013.1,61,,,17.8,10.1,41830,208,7.9,5.4
2018,8,27,09:40,UTC,4,1013.1,67,,,17.7,11.5,43904,186,8.2,6.2
2018,8,27,09:50,UTC,4,1013.2,65,,,17.8,11.2,41758,177,7.4,5.4
2018,8,27,10:00,UTC,4,1013.3,67,,,17.5,11.2,39800,179,8.2,5.9
2018,8,27,10:10,UTC,6,1013.3,62,,,17.8,10.4,50000,185,7.2,4.9
2018,8,27,10:20,UTC,3,1013.3,60,,,18.8,10.8,35798,203,7.7,4.6
2018,8,27,10:30,UTC,4,1013.3,61,,,17.8,10.2,45477,193,8.9,5.9
2018,8,27,10:40,UTC,2,1013.3,64,,,17.5,10.7,48817,185,8.9,6.1
2018,8,27,10:50,UTC,2,1013.2,64,,,17.7,10.8,41652,183,7.6,5.5
2018,8,27,11:00,UTC,3,1013.2,62,,,17.9,10.6,36896,182,7.2,5.4
2018,8,27,11:10,UTC,3,1013.3,61,,,18,10.3,47096,198,7.8,5.6
2018,8,27,11:20,UTC,4,1013.2,63,,,17.8,10.6,45325,192,8.5,5.5
2018,8,27,11:30,UTC,4,1013.4,64,,,17.8,10.9,37616,184,8.1,5.6
2018,8,27,11:40,UTC,3,1013.5,59,,,17.9,9.7,39686,211,7.5,4.8
2018,8,27,11:50,UTC,5,1013.5,61,,,18.2,10.5,45405,211,8.5,4.6
2018,8,27,12:00,UTC,5,1013.6,59,,,17.5,9.3,48098,203,7.9,5.6
2018,8,27,12:10,UTC,6,1013.6,61,,,17.5,9.8,45843,205,7.3,5.2
2018,8,27,12:20,UTC,7,1013.7,61,,,17.5,10,48161,205,7.2,4.7
2018,8,27,12:30,UTC,7,1013.7,61,,,17.5,9.9,45525,210,8,4.3
2018,8,27,12:40,UTC,7,1013.7,59,,,17.4,9.2,49381,216,8,5.7
2018,8,27,12:50,UTC,7,1013.7,56,,,17.4,8.6,44089,211,7.9,5.6
2018,8,27,13:00,UTC,7,1013.7,56,,,17.5,8.7,45900,215,7,4.5
2018,8,27,13:10,UTC,7,1013.7,55,,,17.3,8.1,43216,203,7.9,4.8
2018,8,27,13:20,UTC,7,1013.7,56,,,17.5,8.6,50000,198,6.9,5
2018,8,27,13:30,UTC,7,1013.6,54,,,17.6,8.2,50000,196,6.6,4.5
2018,8,27,13:40,UTC,7,1013.7,54,,,17.8,8.4,45103,198,5.9,4
2018,8,27,13:50,UTC,7,1013.8,56,,,17.9,9.1,45167,213,5.6,3.8
2018,8,27,14:00,UTC,7,1013.8,58,,,17.6,9.3,42840,207,6.2,4
2018,8,27,14:10,UTC,7,1013.9,60,,,17.6,9.7,42568,200,6.2,4.4
2018,8,27,14:20,UTC,8,1013.9,61,,,17.6,9.9,47725,204,6.1,4.2
2018,8,27,14:30,UTC,8,1013.9,62,,,17.5,10.1,50000,209,5.7,4
2018,8,27,14:40,UTC,7,1014,61,,,17.5,9.8,45701,192,5.7,4.1
2018,8,27,14:50,UTC,7,1014.1,59,,,17.5,9.4,50000,200,6.5,4.4
2018,8,27,15:00,UTC,7,1014.2,59,,,17.3,9.2,43406,213,5.8,3.6
2018,8,27,15:10,UTC,8,1014.2,61,,,17.1,9.6,45909,211,5.6,3.7
2018,8,27,15:20,UTC,8,1014.2,62,,,17,9.7,48532,203,5.3,2.8
2018,8,27,15:30,UTC,8,1014.2,63,,,16.9,9.7,50000,205,3.9,2.7
2018,8,27,15:40,UTC,7,1014.2,63,,,16.8,9.7,50000,203,3.4,2.4
2018,8,27,15:50,UTC,7,1014.2,64,,,16.6,9.8,46059,201,3.8,2.5
2018,8,27,16:00,UTC,7,1014.2,64,,,16.5,9.8,50000,217,3.3,2.2
2018,8,27,16:10,UTC,8,1014.2,64,,,16.5,9.7,50000,213,3.7,2.2
2018,8,27,16:20,UTC,8,1014.3,64,,,16.4,9.5,50000,215,3.2,2.2
2018,8,27,16:30,UTC,8,1014.3,65,,,16.3,9.8,50000,209,3.2,2.2
2018,8,27,16:40,UTC,8,1014.3,66,,,16.1,9.7,50000,195,3.1,2.2
2018,8,27,16:50,UTC,8,1014.3,66,,,16.1,9.7,50000,188,2.9,2.1
2018,8,27,17:00,UTC,8,1014.4,66,,,15.9,9.6,50000,189,3.8,2.9
2018,8,27,17:10,UTC,8,1014.5,67,,,15.6,9.5,50000,191,3.8,3.2
2018,8,27,17:20,UTC,7,1014.6,69,,,15.2,9.5,50000,195,3.4,2.7
2018,8,27,17:30,UTC,4,1014.8,72,,,15,9.9,50000,186,3.5,2.5
2018,8,27,17:40,UTC,2,1014.8,72,,,15,10,50000,180,3,2.3
2018,8,27,17:50,UTC,0,1014.8,74,,,14.5,9.9,50000,182,3,2.1
2018,8,27,18:00,UTC,0,1015,79,,,13.9,10.2,49851,186,2.4,1.9
2018,8,27,18:10,UTC,0,1015.1,81,,,13.2,10.1,39797,190,2.3,1.8
2018,8,27,18:20,UTC,0,1015.1,82,,,13.2,10.2,19657,192,1.9,1.5
2018,8,27,18:30,UTC,0,1015.2,81,,,13.4,10.2,50000,194,1.9,1.5
2018,8,27,18:40,UTC,0,1015.2,83,,,13,10.1,48316,189,1.8,1.5
2018,8,27,18:50,UTC,0,1015.2,89,,,12,10.2,50000,161,1.5,0.9
2018,8,27,19:00,UTC,0,1015.3,94,,,11.1,10.3,48111,0,0,0
2018,8,27,19:10,UTC,0,1015.3,96,,,10.9,10.2,50000,109,1.3,0.8
2018,8,27,19:20,UTC,0,1015.3,96,,,10.9,10.2,46619,120,1.6,1.4
2018,8,27,19:30,UTC,0,1015.4,96,,,11.1,10.4,49647,129,1.3,1.1
2018,8,27,19:40,UTC,0,1015.3,94,,,10.3,9.4,43942,158,1.1,0.6
2018,8,27,19:50,UTC,0,1015.4,98,,,10.2,9.9,49105,0,0,0
2018,8,27,20:00,UTC,0,1015.4,98,,,10,9.6,43801,72,1,0.6
2018,8,27,20:10,UTC,0,1015.6,99,,,10.4,10.3,40471,109,1.5,1
2018,8,27,20:20,UTC,0,1015.7,98,,,9.4,9.1,7965,110,1,0.7
2018,8,27,20:30,UTC,2,1015.7,100,,,10,10,2388,0,0,0
2018,8,27,20:40,UTC,5,1015.7,100,,,9.7,9.7,18020,54,0.9,0.7
2018,8,27,20:50,UTC,4,1015.8,100,,,9.3,9.3,803,0,0,0
2018,8,27,21:00,UTC,3,1015.8,100,,,8.8,8.8,1194,0,0,0
2018,8,27,21:10,UTC,1,1015.8,100,,,9.2,9.2,1190,0,0,0
2018,8,27,21:20,UTC,2,1015.8,100,,,9.2,9.2,1569,96,0.8,0.5
2018,8,27,21:30,UTC,4,1015.9,100,,,9.1,9.1,404,0,0,0
2018,8,27,21:40,UTC,7,1015.9,100,,,9,9,357,0,0,0
2018,8,27,21:50,UTC,7,1015.9,100,,,9.2,9.2,491,0,0,0
2018,8,27,22:00,UTC,7,1015.8,100,,,9.2,9.2,822,0,0,0
2018,8,27,22:10,UTC,8,1015.9,100,,,8.9,8.9,5808,0,0,0
2018,8,27,22:20,UTC,8,1015.9,100,,,9.1,9.1,50000,0,0,0
2018,8,27,22:30,UTC,8,1016,100,,,9.6,9.6,22369,0,0,0
2018,8,27,22:40,UTC,8,1016,100,,,9.8,9.8,22713,0,0,0
2018,8,27,22:50,UTC,8,1016,100,,,9.7,9.7,27313,0,0,0
2018,8,27,23:00,UTC,8,1016,100,,,9.9,9.9,36171,0,0,0
2018,8,27,23:10,UTC,8,1016.1,100,,,9.9,9.9,33086,0,0,0
2018,8,27,23:20,UTC,8,1016.1,100,,,10.1,10.1,29844,0,0,0
2018,8,27,23:30,UTC,8,1016.1,100,,,10.1,10.1,26190,0,0,0
2018,8,27,23:40,UTC,8,1016.1,100,,,10.4,10.4,37354,118,1.1,0.7
2018,8,27,23:50,UTC,8,1016.1,100,,,10.5,10.5,34481,120,1.3,1
2018,8,28,00:00,UTC,8,1016.1,100,,,9.9,9.9,33912,0,0,0
2018,8,28,00:10,UTC,8,1016.1,100,,,10.2,10.2,35286,0,0,0
2018,8,28,00:20,UTC,8,1016.2,100,,,10.3,10.3,36866,0,0,0
2018,8,28,00:30,UTC,8,1016.2,100,,,10.4,10.4,35937,0,0,0
2018,8,28,00:40,UTC,8,1016.2,100,,,10.5,10.5,27575,0,0,0
2018,8,28,00:50,UTC,8,1016.3,100,,,10.3,10.3,32828,0,0,0
2018,8,28,01:00,UTC,7,1016.3,100,,,10.3,10.3,35071,0,0,0
2018,8,28,01:10,UTC,7,1016.3,100,,,10.7,10.7,24904,0,0,0
2018,8,28,01:20,UTC,7,1016.2,100,,,10.9,10.8,29085,0,0,0
2018,8,28,01:30,UTC,7,1016.2,100,,,10.8,10.8,28120,0,0,0
2018,8,28,01:40,UTC,7,1016.2,100,,,10.6,10.6,32501,0,0,0
2018,8,28,01:50,UTC,7,1016.2,100,,,10.6,10.6,43978,0,0,0
2018,8,28,02:00,UTC,7,1016.2,100,,,10.9,10.9,27719,0,0,0
2018,8,28,02:10,UTC,7,1016.3,100,,,11.1,11.1,42637,129,1,0.7
2018,8,28,02:20,UTC,7,1016.3,100,,,11.2,11.2,43872,125,1.1,0.6
2018,8,28,02:30,UTC,7,1016.3,100,,,11,11,36028,0,0,0
2018,8,28,02:40,UTC,7,1016.4,100,,,11.3,11.3,25656,109,0.8,0.5
2018,8,28,02:50,UTC,7,1016.3,100,,,10.9,10.9,17417,0,0,0
2018,8,28,03:00,UTC,7,1016.3,100,,,11.1,11.1,14114,0,0,0
2018,8,28,03:10,UTC,7,1016.3,100,,,11.1,11.1,22509,0,0,0
2018,8,28,03:20,UTC,8,1016.3,100,,,11.4,11.4,21352,97,1.4,0.9
2018,8,28,03:30,UTC,8,1016.3,100,,,11.3,11.3,36715,0,0,0
2018,8,28,03:40,UTC,8,1016.4,100,,,11.1,11.1,35618,0,0,0
2018,8,28,03:50,UTC,8,1016.5,100,,,11.5,11.5,21773,0,0,0
2018,8,28,04:00,UTC,8,1016.5,100,,,11.6,11.6,21116,108,0.8,0.6
2018,8,28,04:10,UTC,8,1016.6,100,,,11.8,11.8,18012,105,1.2,0.7
2018,8,28,04:20,UTC,8,1016.7,100,,,11.9,11.9,28150,115,1.3,0.9
2018,8,28,04:30,UTC,8,1016.8,100,,,12.1,12.1,33709,0,0,0
2018,8,28,04:40,UTC,8,1016.9,100,,,12.3,12.3,31145,95,1.1,0.5
2018,8,28,04:50,UTC,7,1016.8,100,,,13.1,13.1,33131,99,2,1.3
2018,8,28,05:00,UTC,7,1016.8,99,,,14,13.8,36477,97,3.1,2.3
2018,8,28,05:10,UTC,7,1017,96,,,14.3,13.7,35011,102,2.9,2.4
2018,8,28,05:20,UTC,7,1017.1,95,,,14.6,13.7,43243,106,2.4,1.7
2018,8,28,05:30,UTC,7,1017.1,94,,,14.9,13.9,40420,88,1.7,1.1
2018,8,28,05:40,UTC,8,1017,94,,,15.1,14.1,38763,73,1.3,0.9
2018,8,28,05:50,UTC,8,1017.1,92,,,15.4,14.1,35767,83,1.2,0.8
2018,8,28,06:00,UTC,7,1017.1,92,,,15.6,14.2,41479,96,2.3,1.6
2018,8,28,06:10,UTC,7,1017.1,87,,,16.4,14.3,37592,104,2.9,1.8
2018,8,28,06:20,UTC,7,1017.2,84,,,16.3,13.6,42848,131,4.1,2.3
2018,8,28,06:30,UTC,7,1017.3,84,,,16.3,13.6,38540,127,4.5,2.8
2018,8,28,06:40,UTC,7,1017.4,83,,,16.5,13.6,47507,133,4.2,3.1
2018,8,28,06:50,UTC,7,1017.3,81,,,16.6,13.4,46872,137,4.9,3.3
2018,8,28,07:00,UTC,8,1017.3,78,,,16.6,12.7,43962,138,5.5,3.7
2018,8,28,07:10,UTC,8,1017.3,78,,,16.7,12.8,46852,134,5.2,3.9
2018,8,28,07:20,UTC,7,1017.4,78,,,16.8,12.8,41350,132,5.1,3.6
2018,8,28,07:30,UTC,7,1017.5,76,,,16.7,12.5,45190,130,6,4.1
2018,8,28,07:40,UTC,7,1017.5,76,,,16.7,12.4,42577,135,5.8,4.3
2018,8,28,07:50,UTC,7,1017.6,76,,,16.5,12.3,49122,136,6.1,4.1
2018,8,28,08:00,UTC,7,1017.7,77,,,16.6,12.6,50000,133,6.1,3.9
2018,8,28,08:10,UTC,7,1017.7,78,,,16.7,12.8,43453,117,4.7,2.9
2018,8,28,08:20,UTC,7,1017.8,77,,,16.9,12.9,47379,113,4.1,2.8
2018,8,28,08:30,UTC,7,1017.9,75,,,17.1,12.6,50000,123,5,3.5
2018,8,28,08:40,UTC,7,1017.9,74,,,17,12.4,47970,122,5.2,3.6
2018,8,28,08:50,UTC,7,1018,73,,,17.2,12.4,45175,130,5.8,3.9
2018,8,28,09:00,UTC,4,1018,75,,,17.5,13,46050,131,7.3,3.9
2018,8,28,09:10,UTC,3,1018,73,,,17.4,12.6,50000,116,6.4,4.4
2018,8,28,09:20,UTC,4,1018.1,69,,,17.5,11.6,45076,121,5.7,4
2018,8,28,09:30,UTC,6,1018.1,69,,,17.5,11.7,44992,128,5.6,4.1
2018,8,28,09:40,UTC,7,1018.2,68,,,17.6,11.5,47769,140,5.3,3.8
2018,8,28,09:50,UTC,7,1018.2,69,,,17.5,11.7,46423,147,5.9,4.1
2018,8,28,10:00,UTC,7,1018.2,67,,,17.5,11.3,46150,138,5.6,4
2018,8,28,10:10,UTC,7,1018.3,68,,,17.7,11.8,37600,134,5.4,3.1
2018,8,28,10:20,UTC,7,1018.3,69,,,17.6,11.8,42712,146,4.2,3.2
2018,8,28,10:30,UTC,8,1018.2,70,,,17.8,12.2,47407,127,4.5,3.2
2018,8,28,10:40,UTC,8,1018.3,69,,,17.7,11.9,48433,102,5.5,3.8
2018,8,28,10:50,UTC,8,1018.3,70,,,17.7,12,43070,112,5.6,4.1
2018,8,28,11:00,UTC,8,1018.4,72,,,17.6,12.4,44312,117,5.9,4.1
2018,8,28,11:10,UTC,8,1018.4,69,,,17.6,11.9,50000,121,5.9,3.5
2018,8,28,11:20,UTC,8,1018.5,69,,,17.7,11.9,41688,115,5.9,4.3
2018,8,28,11:30,UTC,8,1018.6,67,,,17.5,11.2,50000,115,6,4.5
2018,8,28,11:40,UTC,8,1018.7,68,,,17.6,11.7,49009,108,5.5,4.3
2018,8,28,11:50,UTC,8,1018.7,69,,,17.6,11.7,49271,114,5.2,3.6
2018,8,28,12:00,UTC,8,1018.7,71,,,17.5,12.2,46855,116,6.6,4.5
2018,8,28,12:10,UTC,8,1018.8,71,,,17.4,12.2,47043,119,6.7,5
2018,8,28,12:20,UTC,8,1018.8,74,,,17.5,12.7,48046,121,6.5,4
2018,8,28,12:30,UTC,8,1018.8,71,,,17.4,12,46771,118,6,3.7
2018,8,28,12:40,UTC,8,1018.9,74,,,17.3,12.6,47418,110,5.4,3.8
2018,8,28,12:50,UTC,8,1018.8,75,,,17.1,12.7,50000,106,6.4,4.4
2018,8,28,13:00,UTC,8,1018.8,75,,,17.1,12.7,49200,104,6.7,4.8
2018,8,28,13:10,UTC,8,1018.9,76,,,17.1,12.9,44419,115,6.3,4.1
2018,8,28,13:20,UTC,8,1018.9,77,,,17.1,13,44794,100,5.9,4.1
2018,8,28,13:30,UTC,8,1019,77,,,17,13,46043,98,5.6,3.7
2018,8,28,13:40,UTC,8,1019,77,,,17.1,13.1,48489,95,5,3.5
2018,8,28,13:50,UTC,8,1018.9,76,,,17.3,13,48677,106,5,3.6
2018,8,28,14:00,UTC,8,1019,76,,,17.4,13.1,46250,105,4.9,3.6
2018,8,28,14:10,UTC,8,1019,75,,,17.3,12.8,42249,99,5.3,3.4
2018,8,28,14:20,UTC,8,1019,76,,,17.3,13.1,49424,98,4.5,2.8
2018,8,28,14:30,UTC,8,1019.1,77,,,17.2,13.2,48475,101,4.8,3.1
2018,8,28,14:40,UTC,8,1019.2,75,,,17.4,13,46462,101,4.5,3.1
2018,8,28,14:50,UTC,8,1019.2,75,,,17.4,12.8,49477,104,5.4,3.6
2018,8,28,15:00,UTC,8,1019.2,75,,,17.2,12.7,47846,104,6.1,4.3
2018,8,28,15:10,UTC,8,1019.2,75,,,17.1,12.6,46615,103,5.6,4.1
2018,8,28,15:20,UTC,8,1019.4,75,,,17,12.5,50000,104,6.2,3.9
2018,8,28,15:30,UTC,8,1019.4,76,,,16.9,12.6,50000,102,4.9,3.4
2018,8,28,15:40,UTC,8,1019.5,76,,,16.9,12.6,49584,105,5,3.6
2018,8,28,15:50,UTC,8,1019.5,76,,,16.8,12.6,50000,104,4.6,3.4
2018,8,28,16:00,UTC,8,1019.6,77,,,16.8,12.8,50000,99,4.6,3.1
2018,8,28,16:10,UTC,8,1019.6,79,,,16.7,13,47738,101,4.5,3.1
2018,8,28,16:20,UTC,8,1019.7,80,,,16.6,13.2,48614,100,4.1,2.5
2018,8,28,16:30,UTC,8,1019.8,81,,,16.5,13.2,48878,85,3.6,2.3
2018,8,28,16:40,UTC,8,1019.9,81,,,16.5,13.2,50000,87,3.3,1.9
2018,8,28,16:50,UTC,8,1019.9,81,,,16.4,13.2,50000,91,3.8,2.2
2018,8,28,17:00,UTC,8,1019.9,81,,,16.3,13.1,50000,96,3.7,2.6
2018,8,28,17:10,UTC,8,1020,82,,,16.2,13.1,50000,101,4.6,3.1
2018,8,28,17:20,UTC,8,1020,83,,,16,13.1,50000,105,4.2,3
2018,8,28,17:30,UTC,8,1020.1,83,,,15.9,13.1,50000,100,4.3,3
2018,8,28,17:40,UTC,8,1020.2,84,,,15.9,13.1,50000,100,4.4,2.8
2018,8,28,17:50,UTC,8,1020.2,83,,,16,13.1,49264,94,4,2.8
2018,8,28,18:00,UTC,8,1020.3,83,,,16,13,48691,91,4.2,2.5
2018,8,28,18:10,UTC,8,1020.3,83,,,15.8,13,50000,93,3.6,2.2
2018,8,28,18:20,UTC,8,1020.4,83,,,15.9,13,49803,89,3.6,2.3
2018,8,28,18:30,UTC,8,1020.3,84,,,15.8,13,49695,88,3.2,2.1
2018,8,28,18:40,UTC,8,1020.4,84,,,15.7,13,50000,94,3.5,2.5
2018,8,28,18:50,UTC,7,1020.5,84,,,15.7,13,50000,92,3.5,2.4
2018,8,28,19:00,UTC,7,1020.5,84,,,15.7,13,50000,82,3.1,2
2018,8,28,19:10,UTC,7,1020.6,84,,,15.7,13,50000,90,3.3,2
2018,8,28,19:20,UTC,7,1020.7,85,,,15.6,13,49645,97,3.4,2.1
2018,8,28,19:30,UTC,7,1020.7,86,,,15.4,13.1,50000,98,2.8,1.9
2018,8,28,19:40,UTC,7,1020.7,86,,,15.4,13.1,48160,89,2.3,1.3
2018,8,28,19:50,UTC,7,1020.8,87,,,15.3,13.2,50000,92,2,1.1
2018,8,28,20:00,UTC,8,1020.8,89,,,15.1,13.3,46390,58,1.5,0.8
2018,8,28,20:10,UTC,8,1020.8,89,,,15.1,13.3,50000,58,2.1,0.9
2018,8,28,20:20,UTC,8,1020.7,89,,,15.1,13.3,46364,55,2.1,1
2018,8,28,20:30,UTC,8,1020.7,90,,,15.1,13.4,48802,61,2.1,0.9
2018,8,28,20:40,UTC,8,1020.7,92,,,14.8,13.4,44298,43,1.6,0.7
2018,8,28,20:50,UTC,8,1020.7,90,,,14.9,13.3,44270,69,2.3,1.4
2018,8,28,21:00,UTC,8,1020.8,91,,,14.7,13.3,40814,71,2.6,1.2
2018,8,28,21:10,UTC,8,1020.8,90,,,14.9,13.2,46914,81,2.9,1.3
2018,8,28,21:20,UTC,8,1020.9,90,,,14.8,13.2,36511,91,2.8,1.7
2018,8,28,21:30,UTC,8,1021,90,,,14.8,13.2,42619,95,2.5,1.5
2018,8,28,21:40,UTC,8,1021.1,91,,,14.7,13.2,44302,80,2,1.1
2018,8,28,21:50,UTC,8,1021.1,91,,,14.7,13.2,44409,63,1.3,0.7
2018,8,28,22:00,UTC,8,1021.2,91,,,14.7,13.2,41500,96,1.8,0.8
2018,8,28,22:10,UTC,8,1021.2,92,,,14.4,13.1,45591,110,2.4,1.4
2018,8,28,22:20,UTC,8,1021.2,93,,,14.2,13.1,40327,87,1.9,0.9
2018,8,28,22:30,UTC,7,1021.3,94,,,14.1,13.1,45906,66,1.1,0.6
2018,8,28,22:40,UTC,7,1021.3,94,,,14,13.1,42485,63,1.4,0.9
2018,8,28,22:50,UTC,7,1021.4,95,,,13.4,12.6,32607,16,1.5,0.7
2018,8,28,23:00,UTC,7,1021.4,99,,,13.2,13,32106,19,1.4,0.8
2018,8,28,23:10,UTC,8,1021.5,99,,,13.3,13.1,31458,0,0,0
2018,8,28,23:20,UTC,8,1021.6,98,,,13,12.8,25699,344,1.9,0.9
2018,8,28,23:30,UTC,8,1021.6,97,,,13.7,13.2,29081,29,2,1.2
2018,8,28,23:40,UTC,7,1021.6,97,,,13.1,12.7,36735,78,2.1,1.5
2018,8,28,23:50,UTC,7,1021.6,98,,,13.1,12.8,30674,97,1.6,0.9
2018,8,29,00:00,UTC,7,1021.6,97,,,12.8,12.4,33190,59,1.9,0.7
2018,8,29,00:10,UTC,5,1021.7,99,,,12.5,12.3,28528,332,2,1.4
2018,8,29,00:20,UTC,6,1021.8,99,,,12.4,12.2,22229,356,1.6,1.2
2018,8,29,00:30,UTC,5,1021.7,100,,,12.5,12.4,3854,19,1.2,0.8
2018,8,29,00:40,UTC,3,1021.7,100,,,11.5,11.4,7498,0,0,0
2018,8,29,00:50,UTC,1,1021.8,100,,,11,10.9,618,0,0,0
2018,8,29,01:00,UTC,0,1021.8,100,,,10.8,10.8,459,355,1.5,0.7
2018,8,29,01:10,UTC,0,1021.9,100,,,10.6,10.6,2588,345,1.9,1.6
2018,8,29,01:20,UTC,0,1022,100,,,10.8,10.8,2422,349,1.7,1.5
2018,8,29,01:30,UTC,0,1022,100,,,10.8,10.8,3945,360,1.5,1.1
2018,8,29,01:40,UTC,0,1022,100,,,10.6,10.6,529,329,1.2,0.8
2018,8,29,01:50,UTC,0,1022.1,100,,,10.2,10.2,663,307,0.9,0.6
2018,8,29,02:00,UTC,0,1022.1,100,,,10.1,10.1,268,327,1.3,1
2018,8,29,02:10,UTC,0,1022.1,100,,,10.1,10.1,275,342,1.8,1.4
2018,8,29,02:20,UTC,0,1022.1,100,,,10.4,10.4,654,354,1.7,1.2
2018,8,29,02:30,UTC,0,1022.2,100,,,9.2,9.2,155,347,1.8,1.2
2018,8,29,02:40,UTC,2,1022.2,100,,,10.2,10.2,417,343,1.8,1.6
2018,8,29,02:50,UTC,4,1022.2,100,,,9.8,9.8,344,343,1.5,1.2
2018,8,29,03:00,UTC,2,1022.3,100,,,9.2,9.2,432,16,1.2,0.8
2018,8,29,03:10,UTC,1,1022.4,100,,,9,9,6111,0,0,0
2018,8,29,03:20,UTC,1,1022.4,100,,,8.5,8.5,895,0,0,0
2018,8,29,03:30,UTC,2,1022.5,100,,,8.7,8.7,260,1,1.2,0.9
2018,8,29,03:40,UTC,2,1022.5,100,,,7.7,7.7,222,352,1.2,1.1
2018,8,29,03:50,UTC,1,1022.5,100,,,8.1,8.1,180,332,1.4,1.2
2018,8,29,04:00,UTC,0,1022.5,100,,,8.9,8.9,534,346,1.1,0.8
2018,8,29,04:10,UTC,0,1022.5,100,,,9,9,1317,0,0,0
2018,8,29,04:20,UTC,0,1022.5,100,,,9.5,9.5,2182,335,1.6,1.1
2018,8,29,04:30,UTC,0,1022.5,100,,,10.2,10.2,10868,335,1.5,1.3
2018,8,29,04:40,UTC,0,1022.5,100,,,10.9,10.9,21784,353,1.4,1.1
2018,8,29,04:50,UTC,0,1022.6,100,,,11.3,11.3,26567,9,1.2,0.8
2018,8,29,05:00,UTC,0,1022.6,100,,,11.7,11.7,29198,341,1.5,1.2
2018,8,29,05:10,UTC,0,1022.7,100,,,12.2,12.2,35098,332,1.5,1.4
2018,8,29,05:20,UTC,0,1022.6,99,,,12.9,12.7,33029,336,1.6,1.3
2018,8,29,05:30,UTC,0,1022.6,94,,,13.6,12.6,37712,346,1.7,1.2
2018,8,29,05:40,UTC,0,1022.6,90,,,14.2,12.6,38753,347,1.9,1.5
2018,8,29,05:50,UTC,0,1022.7,86,,,14.7,12.4,37666,345,1.6,1
2018,8,29,06:00,UTC,0,1022.7,83,,,15.5,12.6,38526,345,1.8,1.2
2018,8,29,06:10,UTC,0,1022.6,80,,,16.1,12.6,36699,345,2.3,1.5
2018,8,29,06:20,UTC,0,1022.7,77,,,16.4,12.4,49265,356,3.1,2.1
2018,8,29,06:30,UTC,0,1022.7,75,,,16.7,12.2,47096,2,3.1,1.8
2018,8,29,06:40,UTC,0,1022.8,71,,,17.4,12.1,44766,30,3,1.4
2018,8,29,06:50,UTC,0,1022.7,73,,,17.2,12.3,40017,69,4.1,1.8
2018,8,29,07:00,UTC,0,1022.7,71,,,17.3,12.1,39995,63,3.2,1.9
2018,8,29,07:10,UTC,0,1022.7,67,,,17.6,11.4,45312,51,2.9,1.6
2018,8,29,07:20,UTC,0,1022.8,65,,,18.1,11.4,44207,65,3.6,2
2018,8,29,07:30,UTC,0,1022.9,64,,,18,11.1,39160,66,4.6,2.2
2018,8,29,07:40,UTC,0,1022.9,61,,,18.4,10.9,48317,78,3.8,2.2
2018,8,29,07:50,UTC,0,1022.8,64,,,18.8,11.7,44339,71,3.6,2
2018,8,29,08:00,UTC,0,1022.9,60,,,18.9,11,42975,94,4.9,2.5
2018,8,29,08:10,UTC,0,1022.9,59,,,18.9,10.8,37960,101,4.3,2.8
2018,8,29,08:20,UTC,0,1022.9,58,,,19.2,10.7,44356,81,4.3,1.9
2018,8,29,08:30,UTC,0,1022.9,55,,,19.9,10.6,37439,96,3.8,2.2
2018,8,29,08:40,UTC,0,1022.9,55,,,19.9,10.5,43029,75,4.2,2.3
2018,8,29,08:50,UTC,0,1022.8,54,,,19.8,10.3,48245,92,5.3,3
2018,8,29,09:00,UTC,0,1022.8,57,,,20,11.1,33894,90,4.6,2.5
2018,8,29,09:10,UTC,0,1022.7,55,,,20.3,11.1,41232,108,6.5,3.4
2018,8,29,09:20,UTC,0,1022.7,55,,,19.9,10.6,28742,109,6.6,3.8
2018,8,29,09:30,UTC,0,1022.7,55,,,19.7,10.3,49001,113,6.8,4.4
2018,8,29,09:40,UTC,0,1022.7,56,,,20.2,11,40730,118,7.5,4.3
2018,8,29,09:50,UTC,0,1022.7,54,,,20.3,10.5,39923,107,6.2,4.5
2018,8,29,10:00,UTC,0,1022.7,51,,,20,9.6,42952,131,7.3,4.5
2018,8,29,10:10,UTC,0,1022.7,52,,,20,9.8,46011,123,6.3,4.4
2018,8,29,10:20,UTC,0,1022.6,48,,,20.3,8.9,41513,102,5.4,4
2018,8,29,10:30,UTC,0,1022.6,49,,,20.1,8.9,36816,120,5.9,4.2
2018,8,29,10:40,UTC,0,1022.5,49,,,20.1,9.1,33913,116,5.6,3.5
2018,8,29,10:50,UTC,0,1022.6,50,,,20.3,9.6,42520,102,5.6,3.8
2018,8,29,11:00,UTC,0,1022.5,50,,,20.4,9.5,40593,122,5.5,2.7
2018,8,29,11:10,UTC,0,1022.5,50,,,20.6,9.9,38163,110,5.3,3.1
2018,8,29,11:20,UTC,0,1022.4,50,,,20.9,10,38578,102,4.3,2.7
2018,8,29,11:30,UTC,0,1022.4,48,,,21.1,9.6,35188,124,5.5,3.5
2018,8,29,11:40,UTC,0,1022.4,48,,,20.4,9,37821,115,6.1,3.5
2018,8,29,11:50,UTC,0,1022.4,48,,,20.3,8.8,38442,131,6.4,4.5
2018,8,29,12:00,UTC,0,1022.4,48,,,20.5,9.1,47966,143,6.9,5.1
2018,8,29,12:10,UTC,0,1022.4,48,,,20.5,9.1,36777,136,5.8,3.3
2018,8,29,12:20,UTC,0,1022.3,48,,,20.6,9.1,39212,115,5,3.4
2018,8,29,12:30,UTC,0,1022.2,46,,,20.6,8.7,47122,128,4.9,2.3
2018,8,29,12:40,UTC,0,1022,48,,,20.7,9.4,50000,122,4.6,2.7
2018,8,29,12:50,UTC,0,1022,48,,,20.7,9.3,38371,124,4.3,2.9
2018,8,29,13:00,UTC,0,1021.9,48,,,20.3,8.9,44545,127,5.8,4.1
2018,8,29,13:10,UTC,0,1021.9,50,,,20.4,9.5,39385,138,5.8,3.6
2018,8,29,13:20,UTC,0,1021.8,49,,,20.2,9.2,44742,137,6.1,4.1
2018,8,29,13:30,UTC,0,1021.8,49,,,20.3,9.1,41677,127,4.4,3.1
2018,8,29,13:40,UTC,0,1021.8,49,,,20,8.9,40394,134,5.1,3.5
2018,8,29,13:50,UTC,0,1021.8,51,,,20.1,9.7,50000,134,6.5,4.4
2018,8,29,14:00,UTC,0,1021.8,49,,,19.8,8.8,36993,120,6.7,4.2
2018,8,29,14:10,UTC,0,1021.8,47,,,19.8,8,47786,119,5.2,3.8
2018,8,29,14:20,UTC,0,1021.8,45,,,19.6,7.3,49626,127,5.8,3.9
2018,8,29,14:30,UTC,0,1021.7,44,,,19.6,7,50000,123,6.2,4.4
2018,8,29,14:40,UTC,0,1021.7,45,,,19.5,7.4,40989,119,5.7,3.6
2018,8,29,14:50,UTC,0,1021.7,45,,,19.5,7.3,45495,115,5.1,3.5
2018,8,29,15:00,UTC,0,1021.6,45,,,19.4,7.2,47789,112,4.7,3
2018,8,29,15:10,UTC,0,1021.6,47,,,19.2,7.6,49574,135,4.8,3.6
2018,8,29,15:20,UTC,0,1021.5,47,,,19.2,7.7,48496,139,4.7,3.2
2018,8,29,15:30,UTC,0,1021.5,49,,,19,7.9,50000,128,4.1,2.9
2018,8,29,15:40,UTC,0,1021.4,50,,,18.9,8.3,49111,131,3.3,2.3
2018,8,29,15:50,UTC,0,1021.4,52,,,18.8,8.8,50000,131,3.3,2.4
2018,8,29,16:00,UTC,0,1021.3,53,,,18.6,8.9,49899,132,3.4,2.6
2018,8,29,16:10,UTC,0,1021.3,55,,,18.6,9.3,44896,135,2.7,2
2018,8,29,16:20,UTC,0,1021.3,56,,,18.4,9.5,50000,127,2.6,1.4
2018,8,29,16:30,UTC,0,1021.3,60,,,17.9,10.1,49999,0,0,0
2018,8,29,16:40,UTC,0,1021.2,67,,,17.4,11.2,50000,0,0,0
2018,8,29,16:50,UTC,0,1021.2,64,,,17.2,10.3,50000,0,0,0
2018,8,29,17:00,UTC,0,1021.1,69,,,16.8,10.9,48875,334,2.5,0.7
2018,8,29,17:10,UTC,0,1021.1,68,,,16.1,10.3,50000,0,0,0
2018,8,29,17:20,UTC,0,1021,76,,,15.4,11.1,48848,0,0,0
2018,8,29,17:30,UTC,0,1021.1,79,,,14.9,11.4,50000,0,0,0
2018,8,29,17:40,UTC,0,1021.1,80,,,14.5,11.1,22365,0,0,0
2018,8,29,17:50,UTC,0,1021.1,80,,,14.2,10.8,14431,97,0.9,0.7
2018,8,29,18:00,UTC,0,1021.1,85,,,13.2,10.7,3851,0,0,0
2018,8,29,18:10,UTC,0,1021.1,86,,,12.9,10.6,6854,97,1.1,0.8
2018,8,29,18:20,UTC,0,1021,89,,,12.3,10.5,10366,11,0.8,0.5
2018,8,29,18:30,UTC,0,1020.9,92,,,12.7,11.5,46137,342,1.1,0.9
2018,8,29,18:40,UTC,0,1020.8,94,,,12.4,11.6,41186,11,1.5,1
2018,8,29,18:50,UTC,0,1020.7,95,,,12.2,11.3,38891,84,1,0.5
2018,8,29,19:00,UTC,0,1020.7,93,,,11.6,10.6,34449,3,0.8,0.6
2018,8,29,19:10,UTC,0,1020.6,95,,,11.5,10.8,38081,31,1.1,0.6
2018,8,29,19:20,UTC,0,1020.6,96,,,11.7,11.1,34993,54,1.9,0.8
2018,8,29,19:30,UTC,0,1020.6,93,,,11.2,10.1,35527,343,1,0.5
2018,8,29,19:40,UTC,0,1020.6,96,,,10.8,10.2,38309,332,1.5,1.1
2018,8,29,19:50,UTC,0,1020.5,98,,,10.9,10.5,35416,359,1.5,0.8
2018,8,29,20:00,UTC,0,1020.4,95,,,11.1,10.4,36700,0,0,0
2018,8,29,20:10,UTC,0,1020.4,95,,,10.8,10.1,35435,0,0,0
2018,8,29,20:20,UTC,0,1020.3,94,,,10.5,9.7,41785,0,0,0
2018,8,29,20:30,UTC,0,1020.3,97,,,10.2,9.7,33355,341,0.9,0.5
2018,8,29,20:40,UTC,0,1020.2,96,,,10.1,9.5,37853,360,1.8,0.8
2018,8,29,20:50,UTC,0,1020.2,96,,,10.5,9.9,42837,20,1.8,0.8
2018,8,29,21:00,UTC,0,1020.2,92,,,10.1,8.9,42319,351,2.8,1.6
2018,8,29,21:10,UTC,0,1020.1,93,,,10.7,9.7,38996,359,2.2,1.4
2018,8,29,21:20,UTC,0,1019.9,88,,,11.8,10,41617,347,2.1,1.7
2018,8,29,21:30,UTC,0,1019.9,87,,,11.6,9.5,46356,350,2.4,1.8
2018,8,29,21:40,UTC,0,1019.9,92,,,11.1,9.8,21033,357,2,1.1
2018,8,29,21:50,UTC,0,1019.8,91,,,11.1,9.8,41841,4,1.9,1
2018,8,29,22:00,UTC,0,1019.8,89,,,11.3,9.6,37181,358,1.6,0.9
2018,8,29,22:10,UTC,0,1019.8,93,,,11,10,38858,354,1.6,0.9
2018,8,29,22:20,UTC,0,1019.7,89,,,11.5,9.7,36756,348,2.3,1.5
2018,8,29,22:30,UTC,1,1019.6,87,,,11.8,9.6,37870,350,2.4,2
2018,8,29,22:40,UTC,4,1019.6,85,,,12.1,9.7,44427,349,2.6,2.1
2018,8,29,22:50,UTC,6,1019.6,86,,,12.3,10,43883,350,2.7,2.2
2018,8,29,23:00,UTC,8,1019.5,85,,,12.5,10.1,35622,355,2.5,1.7
2018,8,29,23:10,UTC,8,1019.3,85,,,12.6,10.2,23733,353,2.5,1.8
2018,8,29,23:20,UTC,8,1019.2,83,,,12.9,10.1,22574,356,2.6,1.8
2018,8,29,23:30,UTC,8,1019.1,82,,,13.1,10.1,25005,357,2.5,1.7
2018,8,29,23:40,UTC,8,1019,81,,,13.3,10.1,28250,356,2.8,1.6
2018,8,29,23:50,UTC,8,1018.9,81,,,13.5,10.2,34580,358,3.3,1.7
2018,8,30,00:00,UTC,8,1018.8,81,,,13.4,10.2,43221,353,3,1.9
2018,8,30,00:10,UTC,8,1018.8,79,,,13.8,10.2,50000,5,2.3,1.2
2018,8,30,00:20,UTC,8,1018.7,79,,,13.8,10.4,50000,1,3.2,1.3
2018,8,30,00:30,UTC,8,1018.6,79,,,14,10.3,50000,4,3.6,1.7
2018,8,30,00:40,UTC,8,1018.5,79,,,14,10.4,50000,3,3.1,1.8
2018,8,30,00:50,UTC,8,1018.5,80,,,14,10.5,48564,358,2.9,1.7
2018,8,30,01:00,UTC,8,1018.4,80,,,14,10.6,50000,5,3,1.5
2018,8,30,01:10,UTC,8,1018.3,80,,,13.9,10.6,50000,360,2.9,1.8
2018,8,30,01:20,UTC,8,1018.2,82,,,13.8,10.7,50000,1,3,1.7
2018,8,30,01:30,UTC,8,1018.2,82,,,13.8,10.8,48522,5,3.1,1.6
2018,8,30,01:40,UTC,8,1018.2,82,,,13.8,10.8,50000,22,2.2,1
2018,8,30,01:50,UTC,8,1018.1,82,,,13.9,10.9,50000,29,2.2,1
2018,8,30,02:00,UTC,8,1018,83,,,13.9,11,50000,4,2.4,1
2018,8,30,02:10,UTC,8,1017.9,84,,,13.9,11.2,49149,354,2.2,1.3
2018,8,30,02:20,UTC,8,1017.7,83,,,13.9,11.2,50000,359,2.2,1.1
2018,8,30,02:30,UTC,8,1017.7,84,,,14,11.3,50000,353,2.9,1.5
2018,8,30,02:40,UTC,8,1017.7,85,,,13.9,11.4,49309,352,3.1,1.6
2018,8,30,02:50,UTC,8,1017.6,86,,,13.8,11.4,44375,349,3.4,2.1
2018,8,30,03:00,UTC,8,1017.6,85,,,13.8,11.3,50000,356,3.1,2.1
2018,8,30,03:10,UTC,8,1017.5,85,,,13.7,11.4,50000,354,3.4,2.1
2018,8,30,03:20,UTC,8,1017.3,86,,,13.7,11.4,50000,357,3.1,2
2018,8,30,03:30,UTC,8,1017.2,86,,,13.7,11.5,50000,354,3.1,1.9
2018,8,30,03:40,UTC,8,1017.2,87,,,13.7,11.6,50000,350,2.9,2.1
2018,8,30,03:50,UTC,8,1017.1,88,,,13.7,11.7,50000,348,3.4,2
2018,8,30,04:00,UTC,8,1017.2,87,,,13.8,11.7,50000,1,2.7,1.6
2018,8,30,04:10,UTC,8,1017.1,87,,,14,11.8,49844,22,3.3,1.3
2018,8,30,04:20,UTC,8,1017.1,87,,,14.1,11.9,49296,37,3.1,0.9
2018,8,30,04:30,UTC,8,1017.1,87,,,14.1,12,42866,15,3.8,1.3
2018,8,30,04:40,UTC,8,1017,88,,,14.1,12.1,50000,9,3.2,1.4
2018,8,30,04:50,UTC,8,1016.9,89,,,14.1,12.2,50000,22,3.4,1.6
2018,8,30,05:00,UTC,8,1016.9,89,,,14.2,12.3,45987,25,3.3,1.7
2018,8,30,05:10,UTC,8,1017,89,,,14.2,12.4,43320,22,4.4,1.8
2018,8,30,05:20,UTC,8,1017,89,,,14.2,12.5,44835,48,4.2,1.6
2018,8,30,05:30,UTC,8,1016.9,90,,,14.3,12.6,43130,35,5.2,2.2
2018,8,30,05:40,UTC,8,1016.9,90,,,14.4,12.8,35109,47,4.6,1.6
2018,8,30,05:50,UTC,8,1016.9,89,,,14.5,12.7,43171,47,4.4,1.8
2018,8,30,06:00,UTC,8,1017,89,,,14.6,12.9,42389,19,4.1,1.7
2018,8,30,06:10,UTC,8,1016.9,89,,,14.6,12.8,46360,14,4.4,1.7
2018,8,30,06:20,UTC,8,1016.9,89,,,14.6,12.9,50000,43,3.8,2
2018,8,30,06:30,UTC,8,1016.8,89,,,14.8,13,50000,55,4.7,1.9
2018,8,30,06:40,UTC,8,1016.7,90,,,14.6,13,43586,61,5.7,3.2
2018,8,30,06:50,UTC,8,1016.7,90,,,15,13.3,41518,48,4.7,2.4
2018,8,30,07:00,UTC,8,1016.7,90,,,15.1,13.4,43645,44,4.9,2.2
2018,8,30,07:10,UTC,8,1016.8,90,,,15,13.3,42878,35,4.4,1.8
2018,8,30,07:20,UTC,8,1016.8,89,,,15,13.3,43427,36,3.4,1.7
2018,8,30,07:30,UTC,8,1016.8,91,,,15,13.4,43967,50,4.4,1.8
2018,8,30,07:40,UTC,8,1016.8,90,,,15.1,13.5,39781,41,2.6,1.2
2018,8,30,07:50,UTC,8,1016.8,91,,,15,13.5,46332,11,2.8,1.8
2018,8,30,08:00,UTC,8,1016.8,91,,,15.1,13.6,50000,358,2.6,1.6
2018,8,30,08:10,UTC,8,1016.8,91,,,15.1,13.6,45536,358,2.8,2
2018,8,30,08:20,UTC,8,1016.8,93,,,14.9,13.8,8509,357,3.3,2
2018,8,30,08:30,UTC,8,1016.7,98,,,14.6,14.2,2911,356,2.8,2
2018,8,30,08:40,UTC,8,1016.7,98,,,14.6,14.2,3910,1,2.5,1.6
2018,8,30,08:50,UTC,8,1016.7,99,,,14.6,14.3,3149,10,2.6,1.6
2018,8,30,09:00,UTC,8,1016.7,99,,,14.6,14.4,3789,5,3.2,1.9
2018,8,30,09:10,UTC,8,1016.7,100,,,14.6,14.5,2954,4,3,1.8
2018,8,30,09:20,UTC,8,1016.7,100,,,14.6,14.6,2522,360,2.6,1.5
2018,8,30,09:30,UTC,8,1016.7,100,,,14.6,14.6,2371,350,3.2,2.1
2018,8,30,09:40,UTC,8,1016.7,100,,,14.5,14.5,2880,354,3.4,2.2
2018,8,30,09:50,UTC,8,1016.7,100,,,14.7,14.7,3611,353,3,2
2018,8,30,10:00,UTC,8,1016.8,100,,,14.7,14.6,3497,355,3.3,2.2
2018,8,30,10:10,UTC,8,1016.9,100,,,14.6,14.6,3213,350,3.6,2.4
2018,8,30,10:20,UTC,8,1016.9,100,,,14.6,14.6,3514,355,4.1,2.8
2018,8,30,10:30,UTC,8,1016.9,100,,,14.7,14.7,3984,1,3.6,2.4
2018,8,30,10:40,UTC,8,1016.9,100,,,14.8,14.7,5960,360,3.8,2.2
2018,8,30,10:50,UTC,8,1016.9,99,,,14.9,14.8,7159,349,3.8,2.7
2018,8,30,11:00,UTC,8,1017,99,,,15,14.8,9032,347,3.9,2.8
2018,8,30,11:10,UTC,8,1017,98,,,14.9,14.7,15667,358,3.7,2.4
2018,8,30,11:20,UTC,8,1017,98,,,15.1,14.8,19002,351,4,2.8
2018,8,30,11:30,UTC,8,1017,98,,,15.1,14.8,15636,358,3.6,2.2
2018,8,30,11:40,UTC,8,1016.9,98,,,15.3,15.1,14630,2,3.1,2
2018,8,30,11:50,UTC,8,1017,97,,,15.3,14.9,16938,7,3.1,1.9
2018,8,30,12:00,UTC,8,1017,97,,,15.4,14.9,29388,3,3.5,2
2018,8,30,12:10,UTC,8,1017,97,,,15.3,14.9,39076,358,3.2,2.2
2018,8,30,12:20,UTC,8,1016.9,97,,,15.3,14.9,31876,359,3.7,2.3
2018,8,30,12:30,UTC,8,1016.9,97,,,15.4,14.9,33904,357,3.8,2.6
2018,8,30,12:40,UTC,8,1016.9,96,,,15.4,14.8,31646,356,3.8,2.4
2018,8,30,12:50,UTC,8,1016.9,97,,,15.4,14.9,25255,352,3.9,2.6
2018,8,30,13:00,UTC,8,1016.8,97,,,15.4,14.9,21397,350,4.4,2.8
2018,8,30,13:10,UTC,8,1016.9,97,,,15.4,15,17619,359,4,2.2
2018,8,30,13:20,UTC,8,1016.9,97,,,15.4,14.9,15511,1,3.4,2.2
2018,8,30,13:30,UTC,8,1016.9,98,,,15.4,15.1,8688,355,3.2,2.1
2018,8,30,13:40,UTC,8,1016.8,99,,,15.5,15.3,7757,7,2.3,1.4
2018,8,30,13:50,UTC,8,1016.8,98,,,15.7,15.4,9415,43,3,1.5
2018,8,30,14:00,UTC,8,1016.9,97,,,15.8,15.3,20740,20,2.4,1.3
2018,8,30,14:10,UTC,8,1017,97,,,15.6,15.1,21305,349,3.1,2
2018,8,30,14:20,UTC,8,1017.1,97,,,15.6,15.1,33478,358,3.1,1.9
2018,8,30,14:30,UTC,8,1017.1,96,,,15.7,15.1,42187,9,2,1.2
2018,8,30,14:40,UTC,8,1017.1,97,,,15.8,15.3,43841,352,2.6,1.6
2018,8,30,14:50,UTC,8,1017.1,96,,,15.7,15.1,48669,345,2.7,1.9
2018,8,30,15:00,UTC,8,1017.1,96,,,15.9,15.3,48929,2,2.6,1.5
2018,8,30,15:10,UTC,8,1017.2,96,,,15.8,15.1,50000,14,2.5,1.6
2018,8,30,15:20,UTC,8,1017.2,96,,,15.8,15.1,49487,15,2.6,1.7
2018,8,30,15:30,UTC,8,1017.2,96,,,15.8,15.2,46437,10,2.5,1.6
2018,8,30,15:40,UTC,8,1017.2,95,,,15.9,15.1,50000,17,2.6,1.5
2018,8,30,15:50,UTC,8,1017.2,96,,,15.9,15.2,50000,357,3.1,1.8
2018,8,30,16:00,UTC,7,1017.2,95,,,15.8,15.1,40324,356,3.5,2.2
2018,8,30,16:10,UTC,7,1017.2,96,,,15.7,15,44612,2,3.1,2
2018,8,30,16:20,UTC,7,1017.2,96,,,15.8,15.1,45224,351,2.1,1.4
2018,8,30,16:30,UTC,7,1017.3,96,,,15.7,15.1,46268,7,2.6,1.5
2018,8,30,16:40,UTC,7,1017.3,96,,,15.7,15.1,37576,18,2.1,1.2
2018,8,30,16:50,UTC,8,1017.4,97,,,15.7,15.2,39082,36,1.9,0.8
2018,8,30,17:00,UTC,8,1017.4,97,,,15.6,15.1,43093,347,1.4,0.7
2018,8,30,17:10,UTC,8,1017.5,97,,,15.5,15.1,39167,326,1.6,1.2
2018,8,30,17:20,UTC,8,1017.6,98,,,15.4,15.1,15460,0,0,0
2018,8,30,17:30,UTC,8,1017.7,98,,,15.4,15.1,27377,105,1.3,0.8
2018,8,30,17:40,UTC,8,1017.7,99,,,15.3,15.1,26450,97,1,0.7
2018,8,30,17:50,UTC,8,1017.6,99,,,15.3,15.2,11910,67,2,1.5
2018,8,30,18:00,UTC,8,1017.7,99,,,15.3,15.1,17947,76,2.2,1
2018,8,30,18:10,UTC,8,1017.8,99,,,15.3,15.1,25418,140,1.8,0.8
2018,8,30,18:20,UTC,8,1017.8,99,,,15.3,15.2,30136,270,2.3,1.8
2018,8,30,18:30,UTC,8,1017.8,99,,,15.3,15.1,31671,295,1.4,1.2
2018,8,30,18:40,UTC,8,1017.7,100,,,15.1,15,23696,334,1.4,0.8
2018,8,30,18:50,UTC,8,1017.7,100,,,15.1,15.1,25108,0,0,0
2018,8,30,19:00,UTC,8,1017.7,100,,,15,15,18847,109,1.3,0.8
2018,8,30,19:10,UTC,8,1017.8,100,,,15,15,21544,119,1.2,0.8
2018,8,30,19:20,UTC,8,1017.9,100,,,15,15,22388,127,1.1,0.7
2018,8,30,19:30,UTC,8,1017.8,100,,,15.1,15.1,20047,117,1,0.7
2018,8,30,19:40,UTC,8,1017.9,100,,,15.1,15,24878,0,0,0
2018,8,30,19:50,UTC,8,1018.1,100,,,15.1,15.1,26128,255,0.9,0.6
2018,8,30,20:00,UTC,8,1018.1,100,,,15.1,15.1,29306,256,1.3,0.8
2018,8,30,20:10,UTC,8,1018.1,100,,,15,15,23843,0,0,0
2018,8,30,20:20,UTC,8,1018,100,,,14.9,14.8,23103,0,0,0
2018,8,30,20:30,UTC,7,1018,100,,,14.7,14.7,15035,21,1.5,0.7
2018,8,30,20:40,UTC,3,1018,100,,,13.7,13.7,1793,34,1.5,1.2
2018,8,30,20:50,UTC,2,1018,100,,,13.7,13.7,604,0,0,0
2018,8,30,21:00,UTC,1,1018.1,100,,,13,13,185,300,0.8,0.7
2018,8,30,21:10,UTC,9,1018.2,100,,,13,13,128,0,0,0
2018,8,30,21:20,UTC,9,1018.2,100,,,13,13,142,0,0,0
2018,8,30,21:30,UTC,8,1018.2,100,,,12.3,12.3,137,0,0,0
2018,8,30,21:40,UTC,8,1018.3,100,,,12.4,12.4,229,0,0,0
2018,8,30,21:50,UTC,8,1018.3,100,,,12.9,12.9,394,121,0.9,0.5
2018,8,30,22:00,UTC,8,1018.3,100,,,12.8,12.8,1142,0,0,0
2018,8,30,22:10,UTC,8,1018.4,100,,,13.2,13.1,7480,114,1.2,0.8
2018,8,30,22:20,UTC,8,1018.4,100,,,13.5,13.5,12410,142,0.8,0.6
2018,8,30,22:30,UTC,8,1018.5,100,,,13.2,13.2,10833,0,0,0
2018,8,30,22:40,UTC,8,1018.5,100,,,13.3,13.2,21993,0,0,0
2018,8,30,22:50,UTC,8,1018.3,100,,,13.2,13.2,34631,0,0,0
2018,8,30,23:00,UTC,8,1018.3,100,,,13.2,13.2,28395,0,0,0
2018,8,30,23:10,UTC,8,1018.3,100,,,13.4,13.4,21049,0,0,0
2018,8,30,23:20,UTC,8,1018.3,100,,,13.6,13.6,15493,0,0,0
2018,8,30,23:30,UTC,8,1018.2,100,,,13.5,13.5,24559,293,0.8,0.5
2018,8,30,23:40,UTC,8,1018.2,100,,,13.4,13.4,12566,298,0.9,0.7
2018,8,30,23:50,UTC,7,1018.3,100,,,13.6,13.6,11446,29,1.7,1.2
2018,8,31,00:00,UTC,7,1018.3,100,,,13.4,13.4,15683,325,1.1,0.6
2018,8,31,00:10,UTC,4,1018.3,100,,,12.9,12.9,1458,343,1.1,0.7
2018,8,31,00:20,UTC,9,1018.4,100,,,12.3,12.3,188,0,0,0
2018,8,31,00:30,UTC,9,1018.3,100,,,12.6,12.6,131,0,0,0
2018,8,31,00:40,UTC,9,1018.4,100,,,12.3,12.3,137,0,0,0
2018,8,31,00:50,UTC,9,1018.3,100,,,11.3,11.3,129,0,0,0
2018,8,31,01:00,UTC,9,1018.3,100,,,11.2,11.2,209,0,0,0
2018,8,31,01:10,UTC,9,1018.4,100,,,10.9,10.8,201,158,0.9,0.5
2018,8,31,01:20,UTC,9,1018.4,100,,,10.9,10.9,156,0,0,0
2018,8,31,01:30,UTC,9,1018.4,100,,,11.3,11.3,145,0,0,0
2018,8,31,01:40,UTC,9,1018.6,100,,,11.2,11.2,143,113,0.9,0.7
2018,8,31,01:50,UTC,9,1018.5,100,,,10.7,10.7,119,0,0,0
2018,8,31,02:00,UTC,9,1018.5,100,,,10.6,10.6,203,48,1.4,0.7
2018,8,31,02:10,UTC,9,1018.5,100,,,10.3,10.3,192,29,0.9,0.6
2018,8,31,02:20,UTC,9,1018.6,100,,,10.1,10.1,147,0,0,0
2018,8,31,02:30,UTC,9,1018.5,100,,,10,10,132,0,0,0
2018,8,31,02:40,UTC,9,1018.6,100,,,10.5,10.5,114,0,0,0
2018,8,31,02:50,UTC,9,1018.6,100,,,10.3,10.3,103,0,0,0
2018,8,31,03:00,UTC,9,1018.6,100,,,10.1,10.1,148,0,0,0
2018,8,31,03:10,UTC,7,1018.7,100,,,9.9,9.9,108,0,0,0
2018,8,31,03:20,UTC,9,1018.8,100,,,10.2,10.2,82,0,0,0
2018,8,31,03:30,UTC,9,1018.7,100,,,10.5,10.5,40,0,0,0
2018,8,31,03:40,UTC,9,1018.7,100,,,10.6,10.6,37,0,0,0
2018,8,31,03:50,UTC,9,1018.8,100,,,10.3,10.3,29,0,0,0
2018,8,31,04:00,UTC,9,1018.7,100,,,10.9,10.9,20,0,0,0
2018,8,31,04:10,UTC,9,1018.8,100,,,11.2,11.2,203,68,1.2,0.8
2018,8,31,04:20,UTC,8,1018.8,100,,,11.3,11.3,440,82,1.5,0.9
2018,8,31,04:30,UTC,9,1018.8,100,,,11.5,11.5,118,0,0,0
2018,8,31,04:40,UTC,9,1018.8,100,,,11.8,11.8,209,0,0,0
2018,8,31,04:50,UTC,9,1018.9,100,,,12.1,12.1,125,0,0,0
2018,8,31,05:00,UTC,9,1019,100,,,12.3,12.3,120,0,0,0
2018,8,31,05:10,UTC,9,1019,100,,,12.6,12.6,104,0,0,0
2018,8,31,05:20,UTC,8,1019,100,,,13.1,13.1,96,0,0,0
2018,8,31,05:30,UTC,8,1019.1,100,,,13.1,13.1,110,348,0.9,0.7
2018,8,31,05:40,UTC,8,1019.1,100,,,13.3,13.3,137,315,0.9,0.5
2018,8,31,05:50,UTC,8,1019.1,100,,,13.5,13.5,109,227,1.2,0.6
2018,8,31,06:00,UTC,8,1019.1,100,,,13.7,13.7,3440,220,2.9,1
2018,8,31,06:10,UTC,8,1019.2,100,,,13.9,13.9,6536,249,1,0.6
2018,8,31,06:20,UTC,8,1019.2,100,,,14.1,14.1,5886,0,0,0
2018,8,31,06:30,UTC,8,1019.2,100,,,14.2,14.2,9322,0,0,0
2018,8,31,06:40,UTC,8,1019.3,100,,,14.3,14.3,13119,0,0,0
2018,8,31,06:50,UTC,8,1019.4,100,,,14.5,14.4,15688,306,1.2,0.5
2018,8,31,07:00,UTC,8,1019.4,100,,,14.5,14.5,20155,306,1.2,0.5
2018,8,31,07:10,UTC,8,1019.4,100,,,14.8,14.8,23386,290,1.3,0.6
2018,8,31,07:20,UTC,8,1019.4,100,,,15.2,15.2,24656,0,0,0
2018,8,31,07:30,UTC,8,1019.4,97,,,15.6,15.1,30476,113,1,0.5
2018,8,31,07:40,UTC,8,1019.4,90,,,15.9,14.3,31162,312,1.3,0.6
2018,8,31,07:50,UTC,8,1019.5,89,,,16.2,14.3,32698,308,1.3,0.6
2018,8,31,08:00,UTC,8,1019.6,87,,,16.4,14.3,39302,347,1.2,0.5
2018,8,31,08:10,UTC,8,1019.7,85,,,16.4,14,35327,347,1.8,0.8
2018,8,31,08:20,UTC,8,1019.6,85,,,16.5,14,35508,16,1.7,1.1
2018,8,31,08:30,UTC,8,1019.5,83,,,17.2,14.2,38004,27,1.8,1.1
2018,8,31,08:40,UTC,8,1019.5,80,,,16.9,13.4,36492,25,2.4,1.3
2018,8,31,08:50,UTC,8,1019.6,80,,,17,13.6,39711,40,2.5,1
2018,8,31,09:00,UTC,8,1019.6,77,,,17,13.1,47275,346,2.3,1.5
2018,8,31,09:10,UTC,8,1019.7,78,,,17.1,13.2,48890,341,2.3,1.2
2018,8,31,09:20,UTC,8,1019.7,79,,,17.3,13.6,45333,360,2.1,1
2018,8,31,09:30,UTC,8,1019.7,75,,,17.4,13,44181,344,3.5,1.8
2018,8,31,09:40,UTC,8,1019.7,78,,,17.4,13.7,50000,350,3.2,1.5
2018,8,31,09:50,UTC,8,1019.9,73,,,17.2,12.3,50000,355,3.2,1.9
2018,8,31,10:00,UTC,8,1020,74,,,17.3,12.6,50000,341,2.7,1.6
2018,8,31,10:10,UTC,8,1020.1,75,,,17.4,12.9,49850,322,1.9,1.2
2018,8,31,10:20,UTC,8,1020.1,77,,,17.4,13.3,50000,20,1.4,0.8
2018,8,31,10:30,UTC,8,1020.1,74,,,17.5,12.8,50000,324,1.2,0.7
2018,8,31,10:40,UTC,8,1020.1,74,,,17.6,12.9,44237,316,1.8,0.9
2018,8,31,10:50,UTC,8,1020.1,74,,,17.7,13,46643,317,2.1,0.9
2018,8,31,11:00,UTC,8,1020.2,74,,,17.8,13.2,50000,312,2.4,1.4
2018,8,31,11:10,UTC,8,1020.2,74,,,17.9,13.3,49819,301,2.2,1.3
2018,8,31,11:20,UTC,8,1020.1,74,,,18.3,13.6,44982,338,1.7,0.9
2018,8,31,11:30,UTC,8,1020.1,72,,,18.2,13.1,42406,34,2.4,1.2
2018,8,31,11:40,UTC,7,1020.1,74,,,18.3,13.5,41963,55,3,1.5
2018,8,31,11:50,UTC,7,1020.1,73,,,18.2,13.3,41848,16,2.9,1.5
2018,8,31,12:00,UTC,7,1020.1,72,,,18,12.9,40296,36,2.8,1.5
2018,8,31,12:10,UTC,8,1020.1,71,,,18.1,12.7,50000,26,1.5,0.7
2018,8,31,12:20,UTC,7,1020.1,69,,,18.5,12.6,37837,300,1.1,0.5
2018,8,31,12:30,UTC,7,1020.2,70,,,18.7,13.1,42043,277,1.5,0.7
2018,8,31,12:40,UTC,7,1020.2,67,,,18.8,12.6,47407,221,2.2,1.3
2018,8,31,12:50,UTC,7,1020.2,69,,,18.7,13,39950,210,1.8,1
2018,8,31,13:00,UTC,7,1020.2,67,,,18.7,12.6,49297,106,2.1,1
2018,8,31,13:10,UTC,7,1020.2,68,,,18.6,12.7,47207,93,1.8,1.2
2018,8,31,13:20,UTC,7,1020.2,69,,,18.7,12.8,42402,125,2.5,1.4
2018,8,31,13:30,UTC,6,1020.2,71,,,18.5,13.1,43493,128,2.2,1.6
2018,8,31,13:40,UTC,3,1020.2,70,,,18.5,13,44926,128,2.5,1.5
2018,8,31,13:50,UTC,2,1020.3,69,,,18.8,13,43981,149,2,0.9
2018,8,31,14:00,UTC,2,1020.3,69,,,18.6,12.7,47203,205,2.6,1.6
2018,8,31,14:10,UTC,2,1020.3,67,,,19,12.7,39207,264,1.4,0.7
2018,8,31,14:20,UTC,2,1020.3,68,,,19.4,13.3,45591,294,1.8,0.9
2018,8,31,14:30,UTC,2,1020.3,67,,,19.2,13,43558,323,2.5,0.9
2018,8,31,14:40,UTC,3,1020.3,67,,,19.4,13.2,43814,298,1.6,1
2018,8,31,14:50,UTC,3,1020.3,66,,,19.8,13.2,43492,270,1.4,0.8
2018,8,31,15:00,UTC,5,1020.4,65,,,19.7,13,38248,249,1.8,1.1
2018,8,31,15:10,UTC,6,1020.4,65,,,19.7,12.9,37819,218,2.6,0.9
2018,8,31,15:20,UTC,7,1020.5,66,,,19.4,13,42713,143,2.8,1.5
2018,8,31,15:30,UTC,7,1020.5,67,,,19.4,13.2,46707,155,3.1,1.8
2018,8,31,15:40,UTC,3,1020.6,67,,,19,12.8,43370,154,3.7,2.8
2018,8,31,15:50,UTC,2,1020.6,68,,,18.8,12.8,46581,136,3.3,2.5
2018,8,31,16:00,UTC,0,1020.7,69,,,18.3,12.5,49018,134,3.9,2.9
2018,8,31,16:10,UTC,0,1020.7,69,,,18,12.4,49841,137,4.1,3.1
2018,8,31,16:20,UTC,0,1020.7,71,,,17.7,12.4,48838,130,3.6,2.6
2018,8,31,16:30,UTC,0,1020.8,73,,,17.5,12.5,49161,131,3.3,2.2
2018,8,31,16:40,UTC,4,1020.9,73,,,17.3,12.5,48830,129,3.2,2.3
2018,8,31,16:50,UTC,6,1020.9,75,,,17,12.5,50000,122,3.3,2.3
2018,8,31,17:00,UTC,7,1020.9,79,,,16.6,12.9,50000,108,2.3,1.5
2018,8,31,17:10,UTC,8,1021,79,,,16.5,12.9,50000,118,1.6,1.2
2018,8,31,17:20,UTC,8,1021.1,81,,,16.2,12.9,44004,115,1.5,1.1
2018,8,31,17:30,UTC,7,1021.1,82,,,15.9,12.9,22532,99,1.3,1
2018,8,31,17:40,UTC,7,1021.1,84,,,15.6,12.9,23757,94,1.4,1.1
2018,8,31,17:50,UTC,6,1021.1,90,,,15,13.3,5064,85,1.4,1
2018,8,31,18:00,UTC,6,1021.2,92,,,14.3,13.1,22045,108,1,0.8
2018,8,31,18:10,UTC,5,1021.2,93,,,14,12.8,5478,103,1.2,0.9
2018,8,31,18:20,UTC,7,1021.3,94,,,14,13.1,42919,118,1.3,0.8
2018,8,31,18:30,UTC,7,1021.3,93,,,14.2,13.1,45908,116,0.7,0.6
2018,8,31,18:40,UTC,7,1021.3,95,,,13.8,13.1,37670,55,0.7,0.6
2018,8,31,18:50,UTC,7,1021.4,95,,,13.5,12.8,31825,38,0.9,0.7
2018,8,31,19:00,UTC,7,1021.3,97,,,13.7,13.2,38499,53,1,0.7
2018,8,31,19:10,UTC,7,1021.4,95,,,14.2,13.4,34048,137,1.1,0.6
2018,8,31,19:20,UTC,8,1021.5,95,,,13.8,13,28464,122,1,0.6
2018,8,31,19:30,UTC,8,1021.4,97,,,13.8,13.3,34842,0,0,0
2018,8,31,19:40,UTC,7,1021.5,98,,,13.6,13.2,29763,20,1.2,0.8
2018,8,31,19:50,UTC,7,1021.5,98,,,13.3,13,27812,0,0,0
2018,8,31,20:00,UTC,7,1021.4,98,,,13.3,13,30695,0,0,0
2018,8,31,20:10,UTC,7,1021.5,99,,,13.4,13.2,32013,0,0,0
2018,8,31,20:20,UTC,7,1021.5,99,,,13.6,13.5,29869,0,0,0
2018,8,31,20:30,UTC,7,1021.5,99,,,13.7,13.5,30751,79,1,0.5
2018,8,31,20:40,UTC,7,1021.6,98,,,13.5,13.1,29745,0,0,0
2018,8,31,20:50,UTC,7,1021.6,98,,,13.4,13.1,31775,0,0,0
2018,8,31,21:00,UTC,8,1021.7,99,,,13.5,13.3,29480,0,0,0
2018,8,31,21:10,UTC,8,1021.7,99,,,13.6,13.4,27136,0,0,0
2018,8,31,21:20,UTC,8,1021.6,99,,,13.8,13.7,27070,0,0,0
2018,8,31,21:30,UTC,8,1021.6,100,,,13.8,13.8,23461,23,1.6,0.9
2018,8,31,21:40,UTC,7,1021.7,99,,,13.8,13.6,29338,103,1.3,0.6
2018,8,31,21:50,UTC,7,1021.7,99,,,13.7,13.5,29952,130,0.7,0.5
2018,8,31,22:00,UTC,7,1021.6,99,,,13.7,13.6,26597,343,1.1,0.6
2018,8,31,22:10,UTC,7,1021.7,99,,,13.5,13.4,20080,343,1.7,1.3
2018,8,31,22:20,UTC,7,1021.6,100,,,14,14,17734,10,1.8,1.3
2018,8,31,22:30,UTC,7,1021.6,100,,,14.3,14.3,20213,60,2.2,1.3
2018,8,31,22:40,UTC,7,1021.6,100,,,14.7,14.7,23392,70,2.1,1
2018,8,31,22:50,UTC,7,1021.6,99,,,14.9,14.8,24112,82,2,1
2018,8,31,23:00,UTC,7,1021.5,99,,,14.9,14.7,20532,61,2.1,1.1
2018,8,31,23:10,UTC,7,1021.4,99,,,15.1,14.9,20830,67,2.6,1.4
2018,8,31,23:20,UTC,7,1021.4,98,,,15.2,14.8,19912,62,3.3,1.6
2018,8,31,23:30,UTC,7,1021.4,98,,,15.2,14.9,21473,70,3.5,2
2018,8,31,23:40,UTC,7,1021.5,98,,,15.2,14.9,20148,80,4.2,1.9
2018,8,31,23:50,UTC,7,1021.5,99,,,15,14.8,19195,77,3.4,2
2018,9,1,00:00,UTC,7,1021.5,99,,,15.1,15,18083,81,3.6,2.1