Year,m,d,Time,Time zone,Cloud amount (1/8),Pressure (msl) (hPa),Relative humidity (%),Precipitation intensity (mm/h),Snow depth (cm),Air temperature (degC),Dew-point temperature (degC),Horizontal visibility (m),Wind direction (deg),Gust speed (m/s),Wind speed (m/s)
2018,10,1,00:00,UTC,4,1004.7,98,,,8.2,7.9,21470,215,2.3,1.3
2018,10,1,00:10,UTC,6,1004.7,97,,,8.2,7.8,24205,239,3.1,1.5
2018,10,1,00:20,UTC,7,1004.7,97,,,8.4,8,23429,236,3.3,1.7
2018,10,1,00:30,UTC,7,1004.6,97,,,8.5,8,28033,237,2.7,1.6
2018,10,1,00:40,UTC,7,1004.7,96,,,8.5,8,28328,222,3,1.7
2018,10,1,00:50,UTC,7,1004.7,95,,,8.6,7.9,27184,199,3.2,2
2018,10,1,01:00,UTC,7,1004.7,95,,,8.5,7.7,32779,210,3.2,1.9
2018,10,1,01:10,UTC,6,1004.7,95,,,8.4,7.6,27174,209,3.1,2
2018,10,1,01:20,UTC,3,1004.7,96,,,8.3,7.8,28623,205,3.2,2.3
2018,10,1,01:30,UTC,2,1004.7,95,,,8.3,7.6,30423,221,2.9,2
2018,10,1,01:40,UTC,3,1004.8,96,,,8.3,7.7,26687,210,3.3,2.4
2018,10,1,01:50,UTC,6,1004.8,96,,,8.4,7.9,29233,185,3.2,2.2
2018,10,1,02:00,UTC,7,1004.8,96,,,8.4,7.8,26962,177,2.8,1.9
2018,10,1,02:10,UTC,7,1004.9,96,,,8.3,7.8,27751,189,2.8,2.2
2018,10,1,02:20,UTC,8,1004.9,96,,,8.6,7.9,30158,192,2.9,2.1
2018,10,1,02:30,UTC,8,1004.9,95,,,8.6,7.8,29113,186,3.2,2.1
2018,10,1,02:40,UTC,5,1004.9,95,,,8.3,7.6,27863,185,2.6,1.8
2018,10,1,02:50,UTC,3,1005,98,,,8,7.7,26808,191,3.4,2.5
2018,10,1,03:00,UTC,1,1005,97,,,8,7.6,24597,183,3.1,2.4
2018,10,1,03:10,UTC,0,1005,98,,,7.7,7.4,25110,195,2.6,1.6
2018,10,1,03:20,UTC,0,1005,99,,,7.6,7.4,21863,197,1.7,1.3
2018,10,1,03:30,UTC,0,1005.1,99,,,6.9,6.8,13866,181,2,1.4
2018,10,1,03:40,UTC,0,1005.1,100,,,6.8,6.8,14497,175,2.2,1.7
2018,10,1,03:50,UTC,0,1005.1,100,,,7.2,7.2,15676,174,2.8,1.8
2018,10,1,04:00,UTC,3,1005,100,,,6.8,6.8,11452,178,2.2,1.7
2018,10,1,04:10,UTC,5,1005.1,100,,,6.4,6.4,8640,183,2.1,1.3
2018,10,1,04:20,UTC,7,1005.2,100,,,6.3,6.3,3550,184,2.5,1.9
2018,10,1,04:30,UTC,4,1005.3,100,,,7.4,7.4,14008,174,2.5,2
2018,10,1,04:40,UTC,2,1005.4,100,,,7.3,7.2,16677,171,2.5,1.9
2018,10,1,04:50,UTC,1,1005.3,100,,,6.8,6.8,13053,181,2.2,1.2
2018,10,1,05:00,UTC,0,1005.3,100,,,6.3,6.3,839,189,1,0.7
2018,10,1,05:10,UTC,0,1005.4,100,,,5.7,5.7,382,162,1.5,0.9
2018,10,1,05:20,UTC,0,1005.4,100,,,5.7,5.7,1525,184,2.2,0.8
2018,10,1,05:30,UTC,1,1005.5,100,,,6.6,6.6,12122,188,2.3,1.2
2018,10,1,05:40,UTC,1,1005.6,100,,,7.5,7.5,23996,202,3.3,1.8
2018,10,1,05:50,UTC,1,1005.6,100,,,8.4,8.4,25236,221,3.2,1.8
2018,10,1,06:00,UTC,1,1005.7,97,,,8.8,8.3,26319,234,3.1,1.9
2018,10,1,06:10,UTC,2,1005.8,95,,,9,8.2,27269,226,4.5,2.6
2018,10,1,06:20,UTC,4,1005.8,94,,,9.3,8.3,27893,231,5.3,3.1
2018,10,1,06:30,UTC,2,1005.8,93,,,9.5,8.5,32278,241,4.5,2.6
2018,10,1,06:40,UTC,1,1005.9,89,,,9.7,8,30715,244,5.4,3.4
2018,10,1,06:50,UTC,0,1006,89,,,9.9,8.1,33643,244,5.5,3.6
2018,10,1,07:00,UTC,0,1006,88,,,10.1,8.2,30996,245,6.3,3.7
2018,10,1,07:10,UTC,0,1006,86,,,10.4,8.2,30592,239,5.3,3.2
2018,10,1,07:20,UTC,0,1006,85,,,10.5,8.1,32663,235,5.8,3.4
2018,10,1,07:30,UTC,0,1006.1,85,,,10.9,8.4,35402,227,5.1,3.1
2018,10,1,07:40,UTC,0,1006.1,84,,,10.9,8.3,26662,223,7,3.6
2018,10,1,07:50,UTC,0,1006.2,83,,,11,8.2,32076,234,7.7,4.9
2018,10,1,08:00,UTC,0,1006.2,81,,,11.1,8.1,37906,231,6.4,3.8
2018,10,1,08:10,UTC,0,1006.3,81,,,11.3,8.1,34096,235,6.4,3.9
2018,10,1,08:20,UTC,0,1006.4,80,,,11.6,8.3,38181,227,6.9,4.2
2018,10,1,08:30,UTC,1,1006.4,78,,,11.8,8.1,31973,228,7.7,5.3
2018,10,1,08:40,UTC,1,1006.4,76,,,12.1,8,32999,228,8.9,5.8
2018,10,1,08:50,UTC,1,1006.4,75,,,12.4,8.1,27453,233,6.7,4.7
2018,10,1,09:00,UTC,0,1006.4,75,,,12.3,8,34803,235,8.2,5.3
2018,10,1,09:10,UTC,2,1006.5,73,,,12.9,8.2,29756,216,7.6,4.9
2018,10,1,09:20,UTC,4,1006.5,72,,,12.9,8,28576,218,7.5,5.1
2018,10,1,09:30,UTC,6,1006.5,71,,,13.2,8.1,26859,211,7.8,5.5
2018,10,1,09:40,UTC,6,1006.5,71,,,13,7.8,33813,201,7.5,5.5
2018,10,1,09:50,UTC,7,1006.6,72,,,12.8,7.8,35095,209,7.7,5.1
2018,10,1,10:00,UTC,4,1006.5,70,,,12.9,7.5,37787,210,6.9,4.5
2018,10,1,10:10,UTC,2,1006.6,71,,,12.7,7.7,31778,206,7.4,4.7
2018,10,1,10:20,UTC,2,1006.5,70,,,12.9,7.7,35522,212,6.4,4.2
2018,10,1,10:30,UTC,5,1006.5,71,,,13.1,7.9,34401,204,6,4
2018,10,1,10:40,UTC,5,1006.6,72,,,13.1,8.2,27897,208,6.3,3.6
2018,10,1,10:50,UTC,3,1006.6,70,,,13.1,7.8,31666,219,5.3,3.7
2018,10,1,11:00,UTC,5,1006.6,72,,,13.1,8.1,32826,203,6.5,3.7
2018,10,1,11:10,UTC,6,1006.6,72,,,13.3,8.3,31367,210,5.7,3.4
2018,10,1,11:20,UTC,7,1006.7,71,,,13.3,8.2,35189,230,5.2,3.3
2018,10,1,11:30,UTC,7,1006.6,73,,,12.9,8.1,36150,225,3.6,2.8
2018,10,1,11:40,UTC,5,1006.7,70,,,12.9,7.6,39370,254,3.9,2.4
2018,10,1,11:50,UTC,3,1006.7,68,,,12.8,7.1,36116,241,4.2,2.5
2018,10,1,12:00,UTC,1,1006.8,68,,,12.8,7,42254,242,4.1,2.8
2018,10,1,12:10,UTC,1,1006.8,70,,,12.9,7.5,38425,241,3.6,2.5
2018,10,1,12:20,UTC,0,1006.8,70,,,12.9,7.6,36227,225,4.3,2.8
2018,10,1,12:30,UTC,3,1006.8,67,,,13.7,7.7,35025,228,4.6,2.7
2018,10,1,12:40,UTC,3,1006.8,66,,,12.7,6.4,41819,222,6.5,4.7
2018,10,1,12:50,UTC,2,1006.9,67,,,12.9,6.9,38394,215,6.6,4.3
2018,10,1,13:00,UTC,1,1006.8,66,,,13,6.9,45501,222,5.9,3.5
2018,10,1,13:10,UTC,0,1006.8,65,,,12.6,6.2,42678,237,4.2,2.8
2018,10,1,13:20,UTC,2,1006.7,65,,,12.9,6.5,41397,245,4.4,2.7
2018,10,1,13:30,UTC,5,1006.6,67,,,13.7,7.5,37854,230,7.7,2.9
2018,10,1,13:40,UTC,7,1006.7,66,,,13.5,7.2,39609,211,6.9,4.4
2018,10,1,13:50,UTC,7,1006.9,66,,,13.2,7.1,35380,231,6.8,4.4
2018,10,1,14:00,UTC,7,1006.8,69,,,12.1,6.6,40763,270,4.8,2.7
2018,10,1,14:10,UTC,4,1006.7,70,,,11.9,6.5,43441,232,3.5,2.2
2018,10,1,14:20,UTC,5,1006.7,71,,,11.9,6.8,47201,226,2.8,1.9
2018,10,1,14:30,UTC,5,1006.7,71,,,12.2,7.1,40508,210,2.7,1.5
2018,10,1,14:40,UTC,7,1006.7,69,,,12.2,6.8,35082,190,4,2.8
2018,10,1,14:50,UTC,7,1006.7,69,,,11.8,6.4,36953,196,5,3.1
2018,10,1,15:00,UTC,7,1006.7,71,,,11.6,6.5,36836,209,6.4,3.9
2018,10,1,15:10,UTC,7,1006.8,74,,,11.4,6.8,40136,203,4.7,3.3
2018,10,1,15:20,UTC,7,1006.8,76,,,11.3,7.1,34948,207,4.8,3.2
2018,10,1,15:30,UTC,7,1006.8,78,,,11,7.3,36121,205,5.1,2.8
2018,10,1,15:40,UTC,8,1006.9,78,,,10.9,7.1,33087,200,5,2.9
2018,10,1,15:50,UTC,8,1006.9,77,,,10.7,6.8,29867,189,4.3,3.2
2018,10,1,16:00,UTC,7,1007,77,,,10.5,6.7,33015,192,4.6,2.9
2018,10,1,16:10,UTC,7,1007,77,,,10.5,6.7,36987,186,3.7,2.9
2018,10,1,16:20,UTC,7,1007.1,79,,,10.1,6.6,34402,191,3.7,2.7
2018,10,1,16:30,UTC,7,1007.1,81,,,9.8,6.7,32759,192,3,2.4
2018,10,1,16:40,UTC,7,1007,82,,,10,7,34015,183,2.9,2.2
2018,10,1,16:50,UTC,7,1007.1,82,,,9.9,7,30981,189,3.5,2.4
2018,10,1,17:00,UTC,8,1007,83,,,9.9,7.1,28466,187,3,2.4
2018,10,1,17:10,UTC,8,1007,83,,,9.8,7.1,26243,181,2.9,2
2018,10,1,17:20,UTC,7,1007.1,85,,,9.5,7.1,26613,181,2.2,1.7
2018,10,1,17:30,UTC,7,1007.2,87,,,9,6.9,25685,182,2.6,2
2018,10,1,17:40,UTC,7,1007.2,89,,,9,7.3,22547,185,2.8,2.4
2018,10,1,17:50,UTC,7,1007.4,88,,,9,7.2,22886,183,2.6,2.1
2018,10,1,18:00,UTC,7,1007.4,89,,,9.3,7.6,22976,184,3,2.3
2018,10,1,18:10,UTC,7,1007.4,89,,,9.4,7.6,22269,186,2.5,2.1
2018,10,1,18:20,UTC,7,1007.3,90,,,9.4,7.8,20751,167,3.1,2.2
2018,10,1,18:30,UTC,7,1007.3,91,,,9.3,7.9,20300,178,2.4,1.8
2018,10,1,18:40,UTC,7,1007.3,91,,,9.4,8.1,21113,173,3.1,2.1
2018,10,1,18:50,UTC,7,1007.2,91,,,9.6,8.1,22297,175,3.1,2.4
2018,10,1,19:00,UTC,7,1007.2,90,,,9.6,8.1,21298,179,2.7,2
2018,10,1,19:10,UTC,7,1007.2,91,,,9.6,8.2,20762,180,2.9,2
2018,10,1,19:20,UTC,7,1007.1,92,,,9.4,8.2,20325,186,2.4,1.8
2018,10,1,19:30,UTC,7,1007.1,93,,,9.3,8.2,20531,193,2.1,1.7
2018,10,1,19:40,UTC,7,1007,93,,,9.3,8.2,20660,213,1.8,1.3
2018,10,1,19:50,UTC,7,1007,93,,,9.2,8.1,19956,215,1.8,1.4
2018,10,1,20:00,UTC,7,1006.8,93,,,9,8,19636,208,1.9,1.1
2018,10,1,20:10,UTC,7,1006.8,94,,,8.7,7.8,19524,204,1.5,1.1
2018,10,1,20:20,UTC,7,1006.7,96,,,8.7,8,19452,184,1.4,1
2018,10,1,20:30,UTC,7,1006.5,96,,,8.7,8.1,19505,218,1.3,0.8
2018,10,1,20:40,UTC,8,1006.3,95,,,8.9,8.1,20199,192,1.2,0.7
2018,10,1,20:50,UTC,7,1006.3,97,,,8.5,8,18793,133,1.3,1
2018,10,1,21:00,UTC,7,1006.3,97,,,8,7.5,18075,0,0,0
2018,10,1,21:10,UTC,7,1006.3,99,,,7.9,7.8,17441,0,0,0
2018,10,1,21:20,UTC,7,1006.2,99,,,8,7.9,16842,0,0,0
2018,10,1,21:30,UTC,7,1006.2,99,,,7.9,7.8,15976,336,1.1,0.7
2018,10,1,21:40,UTC,7,1006.2,100,,,8.2,8.2,16422,306,1.3,0.8
2018,10,1,21:50,UTC,7,1006.1,99,,,7.9,7.8,16733,0,0,0
2018,10,1,22:00,UTC,7,1006,100,,,7.9,7.9,13698,116,1,0.9
2018,10,1,22:10,UTC,7,1005.9,100,,,7.9,7.9,13885,91,0.9,0.7
2018,10,1,22:20,UTC,7,1005.9,100,,,7.3,7.3,17787,0,0,0
2018,10,1,22:30,UTC,8,1005.8,100,,,7.5,7.5,18550,101,1,0.7
2018,10,1,22:40,UTC,8,1005.8,100,,,7.3,7.3,11027,360,1,0.7
2018,10,1,22:50,UTC,8,1005.7,100,,,7.5,7.4,12942,0,0,0
2018,10,1,23:00,UTC,8,1005.6,100,,,6.9,6.8,8626,341,1.9,1
2018,10,1,23:10,UTC,8,1005.5,100,,,6.9,6.9,11726,327,2.8,2.3
2018,10,1,23:20,UTC,8,1005.5,100,,,7.6,7.6,15401,318,3.2,2.4
2018,10,1,23:30,UTC,7,1005.4,100,,,7.8,7.8,16245,302,2.8,1.7
2018,10,1,23:40,UTC,7,1005.3,100,,,7.7,7.7,16514,306,2.9,1.8
2018,10,1,23:50,UTC,7,1005.1,99,,,7.7,7.5,16231,303,2.9,2.1
2018,10,2,00:00,UTC,8,1004.9,98,,,7.6,7.3,16744,316,2.8,2.1
2018,10,2,00:10,UTC,8,1004.7,98,,,7.5,7.2,16388,315,3,1.8
2018,10,2,00:20,UTC,8,1004.7,98,,,7.4,7.2,16980,325,1.5,0.8
2018,10,2,00:30,UTC,8,1004.6,98,,,7.4,7.2,17760,280,1.8,1.1
2018,10,2,00:40,UTC,8,1004.5,98,,,7.4,7.1,18496,291,1.7,0.9
2018,10,2,00:50,UTC,8,1004.5,98,,,7.3,7,19269,274,1.2,0.8
2018,10,2,01:00,UTC,8,1004.4,98,,,7.3,6.9,19226,0,0,0
2018,10,2,01:10,UTC,8,1004.2,98,,,7.1,6.9,17130,0,0,0
2018,10,2,01:20,UTC,8,1004.1,99,,,7,6.9,16715,0,0,0
2018,10,2,01:30,UTC,8,1003.9,99,,,6.9,6.8,17337,256,1,0.7
2018,10,2,01:40,UTC,8,1004,99,,,6.5,6.4,15468,271,1.2,1
2018,10,2,01:50,UTC,8,1003.9,100,,,6.8,6.8,16551,251,1.3,1
2018,10,2,02:00,UTC,8,1003.9,99,,,6.9,6.7,18230,271,1.6,1.2
2018,10,2,02:10,UTC,7,1003.8,99,,,6.5,6.4,15744,259,0.9,0.5
2018,10,2,02:20,UTC,6,1003.7,100,,,6.5,6.5,14264,0,0,0
2018,10,2,02:30,UTC,5,1003.6,100,,,6.3,6.3,13069,0,0,0
2018,10,2,02:40,UTC,5,1003.6,100,,,6.1,6.1,11540,0,0,0
2018,10,2,02:50,UTC,4,1003.5,100,,,6.1,6.1,7488,129,0.8,0.6
2018,10,2,03:00,UTC,5,1003.5,100,,,5.5,5.5,2001,0,0,0
2018,10,2,03:10,UTC,4,1003.4,100,,,5.6,5.6,706,0,0,0
2018,10,2,03:20,UTC,6,1003.2,100,,,5.8,5.8,1916,330,1,0.8
2018,10,2,03:30,UTC,6,1003.2,100,,,4.8,4.7,1133,308,1,0.8
2018,10,2,03:40,UTC,5,1003.2,100,,,4.4,4.4,705,276,1.6,0.9
2018,10,2,03:50,UTC,6,1003,100,,,5.1,5.1,1514,244,1,0.6
2018,10,2,04:00,UTC,7,1003,100,,,5,5,3145,0,0,0
2018,10,2,04:10,UTC,7,1003,100,,,4.5,4.5,1536,0,0,0
2018,10,2,04:20,UTC,7,1003,100,,,5,5,1264,228,1,0.6
2018,10,2,04:30,UTC,7,1002.9,100,,,5,5,7703,206,1.5,0.8
2018,10,2,04:40,UTC,7,1003,100,,,5.4,5.4,12958,221,1.4,0.9
2018,10,2,04:50,UTC,8,1003,100,,,5,5,17284,253,1.8,1.4
2018,10,2,05:00,UTC,7,1003,100,,,5.7,5.7,15250,251,2.5,1.6
2018,10,2,05:10,UTC,7,1002.8,100,,,6.1,6.1,16018,256,2.9,1.5
2018,10,2,05:20,UTC,7,1002.8,100,,,6,6,15300,235,1.2,0.9
2018,10,2,05:30,UTC,7,1002.9,100,,,5.6,5.6,12109,233,1.2,1
2018,10,2,05:40,UTC,7,1002.9,100,,,6,6,13185,202,1.7,1.3
2018,10,2,05:50,UTC,7,1002.8,100,,,6.2,6.2,13720,232,1.4,1.1
2018,10,2,06:00,UTC,8,1002.8,100,,,6.4,6.4,13174,264,1.8,1.2
2018,10,2,06:10,UTC,8,1002.8,100,,,6.7,6.7,15087,277,2.3,1.3
2018,10,2,06:20,UTC,8,1002.7,100,,,6.9,6.9,16222,282,2.5,1.4
2018,10,2,06:30,UTC,8,1002.7,100,,,6.5,6.5,13366,286,4.3,3
2018,10,2,06:40,UTC,8,1002.7,100,,,6.5,6.5,12515,286,3.5,2.2
2018,10,2,06:50,UTC,8,1002.7,99,,,6.7,6.6,14851,275,2.8,1.8
2018,10,2,07:00,UTC,7,1002.6,98,,,7.4,7.1,19523,284,3.3,1.9
2018,10,2,07:10,UTC,7,1002.6,94,,,7.5,6.7,27417,294,3.2,2.3
2018,10,2,07:20,UTC,7,1002.5,94,,,7.8,7,27323,300,3.6,2.5
2018,10,2,07:30,UTC,8,1002.5,92,,,7.7,6.6,32740,304,4.1,2.7
2018,10,2,07:40,UTC,8,1002.5,93,,,7.7,6.6,32027,295,4.9,2.7
2018,10,2,07:50,UTC,8,1002.5,92,,,7.8,6.5,29461,303,3.7,2.3
2018,10,2,08:00,UTC,8,1002.4,90,,,8,6.5,37146,299,3.6,2.2
2018,10,2,08:10,UTC,7,1002.3,89,,,8,6.3,37023,307,3.1,2.1
2018,10,2,08:20,UTC,6,1002.3,90,,,8.3,6.7,36167,318,2.8,1.7
2018,10,2,08:30,UTC,3,1002.2,86,,,8.8,6.6,35820,327,4,2.3
2018,10,2,08:40,UTC,1,1002.2,82,,,9.2,6.3,31073,313,4.2,2.6
2018,10,2,08:50,UTC,2,1002.2,77,,,9.2,5.3,36502,309,4.7,3
2018,10,2,09:00,UTC,3,1002.1,72,,,9.8,5.1,45862,304,4.8,2.8
2018,10,2,09:10,UTC,4,1002,72,,,9.8,5,50000,324,4.9,3.1
2018,10,2,09:20,UTC,4,1002,74,,,9.5,5,46075,296,4.1,2.6
2018,10,2,09:30,UTC,6,1001.9,72,,,10.2,5.4,41812,307,5.2,2.4
2018,10,2,09:40,UTC,7,1001.8,71,,,10.2,5.3,50000,331,5.8,4.4
2018,10,2,09:50,UTC,7,1001.7,72,,,9.9,5,48317,322,4.6,3
2018,10,2,10:00,UTC,8,1001.6,70,,,9.9,4.8,50000,323,4.2,2.9
2018,10,2,10:10,UTC,7,1001.5,68,,,9.8,4.3,46220,305,4.5,2.4
2018,10,2,10:20,UTC,7,1001.5,67,,,9.7,4,50000,314,4.2,2.6
2018,10,2,10:30,UTC,5,1001.4,64,,,10.7,4.2,43272,317,4.7,2.9
2018,10,2,10:40,UTC,6,1001.2,64,,,11.2,4.7,38206,315,4.8,3.3
2018,10,2,10:50,UTC,4,1001.2,65,,,10.3,3.9,46111,316,4.7,2.8
2018,10,2,11:00,UTC,5,1001.2,62,,,10.6,3.7,39372,331,3,2.1
2018,10,2,11:10,UTC,4,1001,62,,,11.4,4.4,36383,344,3.4,1.7
2018,10,2,11:20,UTC,6,1001,60,,,11,3.4,44003,297,3.7,2
2018,10,2,11:30,UTC,6,1000.9,60,,,11.2,3.7,43972,310,5.2,3
2018,10,2,11:40,UTC,7,1000.9,63,,,10.4,3.7,44258,332,4.3,3.1
2018,10,2,11:50,UTC,7,1000.9,63,,,10.5,3.8,50000,330,3.4,2.5
2018,10,2,12:00,UTC,7,1000.9,61,,,10.7,3.5,49652,291,3.8,2
2018,10,2,12:10,UTC,7,1000.9,60,,,11.2,3.7,40750,247,4.5,2.5
2018,10,2,12:20,UTC,6,1000.8,65,,,10.3,4,50000,212,5,3.5
2018,10,2,12:30,UTC,6,1000.7,64,,,10.7,4.1,50000,198,4.1,3.2
2018,10,2,12:40,UTC,6,1000.5,67,,,10.6,4.8,50000,194,5.3,3.4
2018,10,2,12:50,UTC,6,1000.5,67,,,10.4,4.6,46829,193,5,4.1
2018,10,2,13:00,UTC,7,1000.4,70,,,10.1,4.9,50000,196,5.4,4.3
2018,10,2,13:10,UTC,7,1000.4,71,,,10,4.9,50000,188,5.7,4.1
2018,10,2,13:20,UTC,7,1000.3,72,,,9.8,5,50000,197,4.8,3.3
2018,10,2,13:30,UTC,7,1000.2,73,,,9.8,5.3,47829,194,4.7,2.9
2018,10,2,13:40,UTC,7,1000.1,70,,,9.9,4.7,49368,182,5,3.2
2018,10,2,13:50,UTC,7,1000,71,,,9.9,4.9,50000,182,4.3,2.9
2018,10,2,14:00,UTC,7,1000,72,,,9.8,5,40583,180,4.5,3.2
2018,10,2,14:10,UTC,8,999.8,72,,,9.7,4.8,50000,177,4.5,3.3
2018,10,2,14:20,UTC,8,999.7,75,,,9.5,5.3,50000,172,4.4,3.1
2018,10,2,14:30,UTC,8,999.6,76,,,9.4,5.4,45085,171,4.1,2.8
2018,10,2,14:40,UTC,8,999.5,77,,,9.4,5.6,48330,178,3.2,2.3
2018,10,2,14:50,UTC,8,999.4,78,,,9.4,5.7,48891,175,4,2.5
2018,10,2,15:00,UTC,8,999.5,78,,,9.3,5.8,50000,179,2.7,1.9
2018,10,2,15:10,UTC,8,999.5,79,,,9.3,5.8,42659,187,2.6,1.8
2018,10,2,15:20,UTC,8,999.4,82,,,9.2,6.2,35941,186,2.4,1.7
2018,10,2,15:30,UTC,8,999.3,82,,,9,6,39545,199,2.3,1.6
2018,10,2,15:40,UTC,8,999.3,82,,,8.8,6,36349,203,1.4,1
2018,10,2,15:50,UTC,8,999.3,85,,,8.6,6.3,16411,194,2.9,1.8
2018,10,2,16:00,UTC,8,999.1,91,,,8.1,6.7,8756,163,3.5,2.2
2018,10,2,16:10,UTC,8,999.1,93,,,8.1,7,16669,142,2.7,1.9
2018,10,2,16:20,UTC,8,999,97,,,7.8,7.3,25382,122,2.2,1.6
2018,10,2,16:30,UTC,8,998.9,98,,,7.7,7.4,14455,110,2.5,1.9
2018,10,2,16:40,UTC,8,998.8,97,,,7.7,7.3,24588,86,1.7,1
2018,10,2,16:50,UTC,8,998.7,98,,,7.7,7.4,19011,117,1,0.7
2018,10,2,17:00,UTC,8,998.6,100,,,7.6,7.6,10261,91,1.1,0.7
2018,10,2,17:10,UTC,8,998.4,99,,,7.5,7.4,8513,55,1.5,0.9
2018,10,2,17:20,UTC,8,998.3,99,,,7.5,7.4,23525,8,1.8,1.3
2018,10,2,17:30,UTC,8,998.3,98,,,7.5,7.3,43792,39,1.8,1
2018,10,2,17:40,UTC,8,998.2,99,,,7.5,7.4,43004,81,1.3,1
2018,10,2,17:50,UTC,8,998.1,99,,,7.4,7.2,33112,77,1.9,1.5
2018,10,2,18:00,UTC,8,998,98,,,7.4,7.1,19942,95,4.1,1.9
2018,10,2,18:10,UTC,8,997.9,97,,,7.4,6.9,27341,89,2.5,1.6
2018,10,2,18:20,UTC,8,997.9,96,,,7.3,6.8,36158,92,2.1,1.2
2018,10,2,18:30,UTC,8,997.9,97,,,7.2,6.7,36312,115,1.6,0.8
2018,10,2,18:40,UTC,8,997.9,96,,,7.4,6.8,42373,159,1.4,0.9
2018,10,2,18:50,UTC,8,997.9,97,,,7.4,6.9,8570,192,1.8,1.2
2018,10,2,19:00,UTC,8,997.7,97,,,7.2,6.7,4352,152,2.7,1.5
2018,10,2,19:10,UTC,8,997.5,97,,,6.9,6.4,7985,114,2.7,1.9
2018,10,2,19:20,UTC,8,997.3,98,,,6.8,6.4,16618,13,2.9,1.8
2018,10,2,19:30,UTC,8,997.3,99,,,6.6,6.4,39991,324,3,2.2
2018,10,2,19:40,UTC,8,997.2,97,,,6.9,6.4,37010,332,2.5,1.3
2018,10,2,19:50,UTC,8,997.2,98,,,6.7,6.4,19385,329,1,0.5
2018,10,2,20:00,UTC,7,997.1,99,,,6.6,6.4,37936,36,1.4,1
2018,10,2,20:10,UTC,7,997,100,,,6.5,6.5,27154,77,1.4,1
2018,10,2,20:20,UTC,7,996.8,100,,,6.5,6.5,33986,53,1.6,1.1
2018,10,2,20:30,UTC,8,996.7,100,,,6.3,6.3,45449,6,1.5,0.9
2018,10,2,20:40,UTC,8,996.8,100,,,6.2,6.2,41770,354,1,0.6
2018,10,2,20:50,UTC,5,996.6,100,,,6,6,28934,357,1.2,0.7
2018,10,2,21:00,UTC,3,996.5,100,,,6,6,13152,82,0.8,0.6
2018,10,2,21:10,UTC,2,996.5,100,,,5.9,5.9,6246,0,0,0
2018,10,2,21:20,UTC,4,996.5,100,,,5.5,5.5,408,0,0,0
2018,10,2,21:30,UTC,3,996.4,100,,,5.3,5.2,489,96,0.9,0.5
2018,10,2,21:40,UTC,4,996.4,100,,,5.2,5.2,338,0,0,0
2018,10,2,21:50,UTC,9,996.3,100,,,4.8,4.8,367,0,0,0
2018,10,2,22:00,UTC,6,996.3,100,,,4.8,4.8,795,0,0,0
2018,10,2,22:10,UTC,7,996.2,100,,,4.5,4.5,489,0,0,0
2018,10,2,22:20,UTC,7,996.1,100,,,4.7,4.7,313,0,0,0
2018,10,2,22:30,UTC,9,996,100,,,4,3.9,278,0,0,0
2018,10,2,22:40,UTC,8,995.9,100,,,4.8,4.8,327,4,3,1
2018,10,2,22:50,UTC,7,995.9,100,,,4.1,4.1,358,128,2,1.3
2018,10,2,23:00,UTC,7,995.9,100,,,4.3,4.3,503,32,1.8,0.8
2018,10,2,23:10,UTC,6,995.8,100,,,4.3,4.3,579,72,0.9,0.6
2018,10,2,23:20,UTC,5,995.8,100,,,3.3,3.3,264,0,0,0
2018,10,2,23:30,UTC,9,995.8,100,,,3.1,3.1,222,92,1.6,0.6
2018,10,2,23:40,UTC,4,995.8,100,,,3.4,3.3,629,109,1.8,1.3
2018,10,2,23:50,UTC,3,995.8,100,,,3,3,265,0,0,0
2018,10,3,00:00,UTC,4,995.7,100,,,2.9,2.9,225,35,0.8,0.5
2018,10,3,00:10,UTC,6,995.6,100,,,2.3,2.3,438,8,1.5,0.8
2018,10,3,00:20,UTC,4,995.6,100,,,2.4,2.4,556,347,1.9,1.1
2018,10,3,00:30,UTC,5,995.5,100,,,2.5,2.5,468,8,1,0.6
2018,10,3,00:40,UTC,9,995.5,100,,,1.8,1.8,269,0,0,0
2018,10,3,00:50,UTC,9,995.5,100,,,2,2,446,71,1.5,0.9
2018,10,3,01:00,UTC,7,995.6,100,,,2.4,2.4,405,126,1.4,1.1
2018,10,3,01:10,UTC,7,995.5,100,,,2.3,2.3,687,0,0,0
2018,10,3,01:20,UTC,7,995.5,100,,,2.7,2.7,674,349,1.1,0.7
2018,10,3,01:30,UTC,7,995.5,100,,,2.8,2.8,666,0,0,0
2018,10,3,01:40,UTC,7,995.5,100,,,2.8,2.8,1229,0,0,0
2018,10,3,01:50,UTC,7,995.5,100,,,2.9,2.9,1440,57,1.5,0.5
2018,10,3,02:00,UTC,8,995.5,100,,,2.9,2.9,2834,0,0,0
2018,10,3,02:10,UTC,8,995.6,100,,,3.2,3.2,3946,66,1.2,0.7
2018,10,3,02:20,UTC,8,995.5,100,,,3.6,3.6,4369,141,1.5,0.8
2018,10,3,02:30,UTC,8,995.2,100,,,3.8,3.8,5129,2,3.1,1.8
2018,10,3,02:40,UTC,7,995.3,100,,,4.6,4.6,24046,69,3.7,2.4
2018,10,3,02:50,UTC,7,995.3,100,,,4.4,4.4,10300,77,2.7,1.6
2018,10,3,03:00,UTC,7,995.2,100,,,4.4,4.4,21976,47,3,1.5
2018,10,3,03:10,UTC,7,995.1,100,,,3.9,3.9,4787,28,2.3,1.3
2018,10,3,03:20,UTC,8,995.1,100,,,3.8,3.8,9749,347,2,1.1
2018,10,3,03:30,UTC,8,995.1,100,,,4.3,4.3,37900,340,2,1.5
2018,10,3,03:40,UTC,7,995.1,100,,,4.1,4.1,28126,343,2.7,2.2
2018,10,3,03:50,UTC,7,995,100,,,4.2,4.2,24711,349,2.5,1.9
2018,10,3,04:00,UTC,7,995.1,100,,,4.2,4.2,26297,30,1.7,1
2018,10,3,04:10,UTC,7,995.1,100,,,4.4,4.4,26690,25,1,0.5
2018,10,3,04:20,UTC,7,995,100,,,4.3,4.3,35682,14,2,0.9
2018,10,3,04:30,UTC,7,995.1,100,,,4.5,4.5,43675,4,2.2,1.3
2018,10,3,04:40,UTC,7,995.1,100,,,4.6,4.6,48830,2,1.9,1.4
2018,10,3,04:50,UTC,8,995.1,100,,,4.5,4.4,44032,353,2.6,1.8
2018,10,3,05:00,UTC,8,995.1,100,,,4.4,4.4,24613,351,2.6,2
2018,10,3,05:10,UTC,8,995.1,100,,,4.5,4.5,22268,352,2.4,1.8
2018,10,3,05:20,UTC,8,995.2,100,,,4.7,4.7,18697,351,2.2,1.6
2018,10,3,05:30,UTC,8,995.3,100,,,4.8,4.8,21237,1,1.7,1
2018,10,3,05:40,UTC,8,995.4,100,,,4.9,4.9,21759,359,3.3,1.7
2018,10,3,05:50,UTC,8,995.5,100,,,4.9,4.9,13514,24,2.3,1.1
2018,10,3,06:00,UTC,8,995.5,100,,,5,5,12671,2,2.5,1.5
2018,10,3,06:10,UTC,8,995.6,100,,,5,5,11406,11,2.7,1.1
2018,10,3,06:20,UTC,8,995.6,100,,,5.1,5.1,11232,357,2.7,1.5
2018,10,3,06:30,UTC,8,995.6,100,,,5.1,5.1,13156,357,2.6,1.8
2018,10,3,06:40,UTC,8,995.7,100,,,5.3,5.2,14896,3,3.1,1.7
2018,10,3,06:50,UTC,8,995.7,100,,,5.3,5.3,17251,3,3.8,2.2
2018,10,3,07:00,UTC,8,995.8,100,,,5.4,5.4,13121,5,4.1,2.2
2018,10,3,07:10,UTC,8,995.9,100,,,5.5,5.5,15777,1,3.2,1.9
2018,10,3,07:20,UTC,8,996,100,,,5.6,5.6,11408,3,2.8,1.6
2018,10,3,07:30,UTC,8,996,100,,,5.7,5.7,13938,7,3.5,2.1
2018,10,3,07:40,UTC,8,996.1,100,,,5.8,5.8,10681,10,4.2,2.1
2018,10,3,07:50,UTC,8,996.1,100,,,5.9,5.9,10777,9,3.9,1.8
2018,10,3,08:00,UTC,8,996.1,100,,,6.1,6.1,10178,19,3,1.3
2018,10,3,08:10,UTC,8,996.2,100,,,6.1,6.1,11702,8,3.6,1.9
2018,10,3,08:20,UTC,8,996.3,100,,,6.4,6.4,10705,30,3.5,1.4
2018,10,3,08:30,UTC,8,996.3,100,,,6.5,6.5,12968,5,3.7,2.3
2018,10,3,08:40,UTC,8,996.3,99,,,6.8,6.6,13625,9,4.7,2.5
2018,10,3,08:50,UTC,8,996.3,99,,,6.9,6.7,13905,9,4.6,2.6
2018,10,3,09:00,UTC,8,996.3,98,,,6.9,6.6,17131,9,5.4,3
2018,10,3,09:10,UTC,8,996.5,98,,,6.8,6.6,17185,17,4.6,2.2
2018,10,3,09:20,UTC,8,996.6,98,,,6.8,6.6,16773,11,6.7,2.6
2018,10,3,09:30,UTC,8,996.7,98,,,6.8,6.6,17855,6,4.8,2.7
2018,10,3,09:40,UTC,8,996.7,98,,,6.8,6.6,13505,5,5.2,3.1
2018,10,3,09:50,UTC,8,996.8,99,,,6.9,6.8,16720,5,5.3,2.9
2018,10,3,10:00,UTC,8,996.8,98,,,6.9,6.7,19576,2,5.5,3.1
2018,10,3,10:10,UTC,8,997,98,,,7,6.8,13364,7,5,2.6
2018,10,3,10:20,UTC,8,997,98,,,7,6.8,12747,5,4.4,2.5
2018,10,3,10:30,UTC,8,997.1,99,,,7.2,7,18847,6,3.9,2.4
2018,10,3,10:40,UTC,8,997.1,98,,,7.3,7,20262,13,4.2,2.4
2018,10,3,10:50,UTC,8,997.2,98,,,7.2,6.9,17557,6,5,2.6
2018,10,3,11:00,UTC,8,997.3,99,,,7.4,7.3,16591,5,4.4,2.5
2018,10,3,11:10,UTC,8,997.4,99,,,7.4,7.2,20526,1,4.5,2.8
2018,10,3,11:20,UTC,8,997.4,98,,,7.4,7,19103,4,5.1,2.7
2018,10,3,11:30,UTC,8,997.5,98,,,7.6,7.4,21331,5,5.9,2.9
2018,10,3,11:40,UTC,8,997.6,98,,,7.5,7.2,19166,1,5.6,3.2
2018,10,3,11:50,UTC,8,997.7,98,,,7.4,7.1,19011,359,5.8,3.9
2018,10,3,12:00,UTC,8,997.8,98,,,7.4,7.1,18098,360,5.8,3.6
2018,10,3,12:10,UTC,8,997.8,98,,,7.4,7,15950,358,5.7,3.5
2018,10,3,12:20,UTC,8,997.9,98,,,7.5,7.2,18508,357,5.4,3.4
2018,10,3,12:30,UTC,8,998,97,,,7.3,6.9,17183,357,6.1,3.7
2018,10,3,12:40,UTC,8,998.1,98,,,7.3,7,24196,355,5.6,3.4
2018,10,3,12:50,UTC,8,998.2,98,,,7.3,7.1,28215,356,5.4,3.6
2018,10,3,13:00,UTC,8,998.2,98,,,7.3,7,26836,355,6.1,4
2018,10,3,13:10,UTC,8,998.3,98,,,7.3,7,29578,351,6.2,4.1
2018,10,3,13:20,UTC,8,998.4,98,,,7.2,6.9,32512,353,5.9,4
2018,10,3,13:30,UTC,8,998.5,98,,,7.3,7,28480,348,5.9,4.1
2018,10,3,13:40,UTC,8,998.6,98,,,7.3,6.9,33031,351,6.7,4.5
2018,10,3,13:50,UTC,8,998.7,98,,,7.2,6.9,18538,348,6.4,4.4
2018,10,3,14:00,UTC,8,998.8,97,,,7.1,6.6,14795,352,7,4.7
2018,10,3,14:10,UTC,8,998.9,97,,,7,6.6,18612,357,5.8,3.3
2018,10,3,14:20,UTC,8,998.9,98,,,7,6.7,23253,356,5.3,3.3
2018,10,3,14:30,UTC,8,999.1,96,,,6.9,6.4,28882,359,5.3,3.4
2018,10,3,14:40,UTC,8,999.2,96,,,6.8,6.3,23810,357,6.1,3.6
2018,10,3,14:50,UTC,8,999.3,96,,,6.8,6.3,26784,355,6.5,3.9
2018,10,3,15:00,UTC,8,999.4,97,,,6.7,6.3,24416,354,6.2,4
2018,10,3,15:10,UTC,8,999.5,97,,,6.7,6.3,29733,352,7.3,4.5
2018,10,3,15:20,UTC,8,999.7,97,,,6.6,6.2,27827,348,7.1,4.7
2018,10,3,15:30,UTC,8,999.9,97,,,6.6,6.1,25699,349,7.3,5.2
2018,10,3,15:40,UTC,8,1000,96,,,6.5,6,19867,352,8.4,5.7
2018,10,3,15:50,UTC,8,1000.1,97,,,6.4,5.9,20030,352,8.5,5.5
2018,10,3,16:00,UTC,8,1000.3,96,,,6.2,5.6,22868,353,8.4,5.6
2018,10,3,16:10,UTC,8,1000.4,96,,,6,5.4,30801,350,8,5.9
2018,10,3,16:20,UTC,8,1000.6,96,,,5.9,5.3,27730,353,8.8,5.8
2018,10,3,16:30,UTC,8,1000.8,96,,,5.8,5.3,30102,354,9.2,4.6
2018,10,3,16:40,UTC,8,1000.9,97,,,5.7,5.2,29900,354,10.1,5.1
2018,10,3,16:50,UTC,8,1001.1,96,,,5.6,5,29827,355,8,4.9
2018,10,3,17:00,UTC,8,1001.3,96,,,5.5,4.9,28363,356,8.5,5.1
2018,10,3,17:10,UTC,8,1001.4,95,,,5.4,4.7,29271,355,8,5.2
2018,10,3,17:20,UTC,8,1001.5,95,,,5.3,4.6,23446,352,9.7,6
2018,10,3,17:30,UTC,8,1001.6,96,,,5.2,4.5,22883,353,9.4,5.5
2018,10,3,17:40,UTC,8,1001.7,95,,,5.1,4.3,22049,354,8,5.7
2018,10,3,17:50,UTC,8,1001.9,95,,,5,4.2,18723,359,8.4,5
2018,10,3,18:00,UTC,8,1002,95,,,4.9,4.2,20250,356,9.1,5
2018,10,3,18:10,UTC,8,1002.1,95,,,4.8,4.2,17653,357,9,4.9
2018,10,3,18:20,UTC,8,1002.2,96,,,4.7,4.1,15559,1,7.3,4.3
2018,10,3,18:30,UTC,8,1002.3,96,,,4.6,4,17985,360,7.9,4.9
2018,10,3,18:40,UTC,8,1002.3,96,,,4.5,3.9,18710,1,7.8,4.3
2018,10,3,18:50,UTC,8,1002.5,95,,,4.5,3.8,20745,2,8.4,4.8
2018,10,3,19:00,UTC,8,1002.6,96,,,4.4,3.9,17772,359,7.2,4.3
2018,10,3,19:10,UTC,8,1002.8,97,,,4.4,3.9,23445,359,7.4,4.3
2018,10,3,19:20,UTC,8,1002.9,96,,,4.4,3.8,47180,356,9,4.4
2018,10,3,19:30,UTC,8,1002.9,95,,,4.4,3.6,50000,356,8.5,4.9
2018,10,3,19:40,UTC,8,1003.1,95,,,4.4,3.6,48800,1,8.6,4.9
2018,10,3,19:50,UTC,8,1003.2,95,,,4.3,3.5,50000,357,9.1,4.9
2018,10,3,20:00,UTC,8,1003.3,93,,,4.3,3.2,50000,350,7.2,4.8
2018,10,3,20:10,UTC,7,1003.3,92,,,4.2,3,50000,347,8.6,5.4
2018,10,3,20:20,UTC,7,1003.4,93,,,4,3,50000,344,7.6,4.5
2018,10,3,20:30,UTC,7,1003.5,93,,,3.9,2.9,50000,342,7.5,4.9
2018,10,3,20:40,UTC,7,1003.5,92,,,3.8,2.7,50000,342,6.6,4.7
2018,10,3,20:50,UTC,7,1003.6,93,,,3.6,2.6,50000,342,6.1,4.5
2018,10,3,21:00,UTC,7,1003.7,94,,,3.5,2.5,50000,342,6.2,4.1
2018,10,3,21:10,UTC,7,1003.7,94,,,3.5,2.5,50000,343,6.2,4.1
2018,10,3,21:20,UTC,7,1003.8,94,,,3.4,2.5,50000,342,5.3,3.7
2018,10,3,21:30,UTC,7,1003.8,95,,,3.3,2.6,50000,340,5.5,3.3
2018,10,3,21:40,UTC,7,1003.9,94,,,3.7,2.8,50000,337,6.9,4.4
2018,10,3,21:50,UTC,7,1004,93,,,3.7,2.7,50000,339,5.8,4.2
2018,10,3,22:00,UTC,7,1004.2,93,,,3.7,2.7,50000,340,6.1,4.2
2018,10,3,22:10,UTC,7,1004.3,94,,,3.7,2.8,50000,333,5.3,3.7
2018,10,3,22:20,UTC,7,1004.3,93,,,3.9,2.8,50000,329,5.7,4
2018,10,3,22:30,UTC,7,1004.4,93,,,3.9,2.8,50000,331,6.8,4.3
2018,10,3,22:40,UTC,7,1004.5,92,,,4,2.8,50000,333,6.2,4.2
2018,10,3,22:50,UTC,8,1004.6,92,,,3.9,2.8,50000,336,7.1,4.5
2018,10,3,23:00,UTC,8,1004.6,91,,,4,2.7,49765,336,7.1,4.5
2018,10,3,23:10,UTC,8,1004.7,92,,,3.8,2.7,50000,335,6.4,4.1
2018,10,3,23:20,UTC,8,1004.8,92,,,3.9,2.7,49100,327,8,4.8
2018,10,3,23:30,UTC,8,1005,92,,,3.9,2.6,50000,331,7.2,4.6
2018,10,3,23:40,UTC,8,1005.1,91,,,3.8,2.6,50000,329,7.4,4.8
2018,10,3,23:50,UTC,8,1005.3,92,,,3.8,2.6,50000,334,6.4,4.3
2018,10,4,00:00,UTC,8,1005.4,91,,,3.8,2.5,50000,333,7.1,4.5
2018,10,4,00:10,UTC,8,1005.5,91,,,3.8,2.4,50000,330,6.7,4.6
2018,10,4,00:20,UTC,8,1005.6,90,,,3.8,2.4,50000,330,6.4,4.7
2018,10,4,00:30,UTC,8,1005.7,90,,,3.8,2.3,50000,333,6.1,4.2
2018,10,4,00:40,UTC,8,1005.8,88,,,3.8,2,50000,334,6.1,4.5
2018,10,4,00:50,UTC,7,1005.9,87,,,3.8,1.9,50000,331,6.9,5
2018,10,4,01:00,UTC,7,1006,86,,,3.9,1.8,50000,335,7.3,5.1
2018,10,4,01:10,UTC,7,1006.1,86,,,3.5,1.5,50000,332,6.9,4.9
2018,10,4,01:20,UTC,7,1006.2,88,,,3.2,1.4,50000,331,6.1,4.5
2018,10,4,01:30,UTC,7,1006.4,88,,,3.2,1.4,50000,332,6.9,4.8
2018,10,4,01:40,UTC,7,1006.5,90,,,3.1,1.5,50000,330,7.2,4.7
2018,10,4,01:50,UTC,7,1006.6,91,,,2.8,1.4,50000,328,7.8,5
2018,10,4,02:00,UTC,7,1006.7,92,,,2.5,1.4,50000,328,6.7,4.9
2018,10,4,02:10,UTC,4,1006.9,93,,,2.4,1.4,50000,327,7.3,5.4
2018,10,4,02:20,UTC,3,1007.1,93,,,2.2,1.2,50000,327,7.9,5.2
2018,10,4,02:30,UTC,1,1007.2,93,,,2.1,1.1,50000,331,6.8,4.9
2018,10,4,02:40,UTC,1,1007.3,94,,,2,1.1,50000,331,7.5,4.9
2018,10,4,02:50,UTC,1,1007.4,93,,,1.8,0.8,50000,332,7.6,4.8
2018,10,4,03:00,UTC,0,1007.5,94,,,1.6,0.7,50000,328,6.9,4.6
2018,10,4,03:10,UTC,0,1007.7,95,,,1.3,0.6,50000,327,6.9,3.8
2018,10,4,03:20,UTC,0,1007.9,95,,,1.3,0.6,50000,328,5.1,3.8
2018,10,4,03:30,UTC,0,1008,95,,,1,0.3,50000,330,4.8,3.6
2018,10,4,03:40,UTC,0,1008.1,95,,,1,0.3,50000,329,5.7,3.9
2018,10,4,03:50,UTC,0,1008.2,95,,,1.1,0.3,50000,330,6,4
2018,10,4,04:00,UTC,0,1008.4,94,,,1.1,0.2,50000,327,6,4.2
2018,10,4,04:10,UTC,0,1008.5,93,,,1,0,50000,330,7.8,4.8
2018,10,4,04:20,UTC,0,1008.7,92,,,1,-0.1,50000,331,6.8,4.7
2018,10,4,04:30,UTC,0,1008.9,93,,,1,0,50000,325,6.5,4.5
2018,10,4,04:40,UTC,0,1009.1,93,,,0.9,0,50000,324,6.6,4.4
2018,10,4,04:50,UTC,0,1009.3,93,,,0.8,-0.2,50000,326,7,4.7
2018,10,4,05:00,UTC,0,1009.4,94,,,0.7,-0.2,50000,329,5.6,4.2
2018,10,4,05:10,UTC,0,1009.5,93,,,0.7,-0.3,47939,324,6.8,4.4
2018,10,4,05:20,UTC,0,1009.6,92,,,0.9,-0.3,50000,325,7.3,5.1
2018,10,4,05:30,UTC,0,1009.7,91,,,1.1,-0.3,46704,327,7.3,4.9
2018,10,4,05:40,UTC,0,1010,90,,,1.2,-0.3,46338,331,6.6,4.6
2018,10,4,05:50,UTC,0,1010,88,,,1.3,-0.4,47913,334,7.2,5.1
2018,10,4,06:00,UTC,0,1010.1,87,,,1.5,-0.4,46066,338,7.4,5.5
2018,10,4,06:10,UTC,0,1010.2,85,,,1.7,-0.5,50000,335,8.6,5
2018,10,4,06:20,UTC,0,1010.3,83,,,2,-0.6,50000,333,8,5.8
2018,10,4,06:30,UTC,0,1010.5,81,,,2.1,-0.7,45733,335,8.2,5.5
2018,10,4,06:40,UTC,0,1010.7,79,,,2.4,-0.9,42497,331,8.4,5.5
2018,10,4,06:50,UTC,0,1010.8,78,,,2.5,-0.9,46643,329,7.8,5.3
2018,10,4,07:00,UTC,0,1010.8,79,,,2.6,-0.7,48756,332,9.3,5.7
2018,10,4,07:10,UTC,0,1010.9,78,,,2.8,-0.7,38537,338,7.3,5.1
2018,10,4,07:20,UTC,0,1011,77,,,3,-0.5,42773,336,7.6,5.5
2018,10,4,07:30,UTC,0,1011,76,,,3.3,-0.6,44845,341,7.8,5.1
2018,10,4,07:40,UTC,0,1011.2,71,,,3.3,-1.5,46849,343,9.8,5.8
2018,10,4,07:50,UTC,0,1011.3,70,,,3.6,-1.3,49721,339,7.6,5.7
2018,10,4,08:00,UTC,0,1011.3,68,,,3.7,-1.7,46580,330,9.3,6.5
2018,10,4,08:10,UTC,0,1011.4,68,,,3.9,-1.4,46384,334,9.4,7
2018,10,4,08:20,UTC,0,1011.4,66,,,4,-1.7,43416,340,8.8,6.5
2018,10,4,08:30,UTC,0,1011.5,66,,,4.2,-1.6,45143,337,9.9,6.8
2018,10,4,08:40,UTC,0,1011.6,66,,,4.4,-1.4,45790,342,10.2,7.2
2018,10,4,08:50,UTC,0,1011.7,67,,,4.6,-1.1,44300,330,9.4,6.8
2018,10,4,09:00,UTC,0,1011.8,65,,,4.8,-1.2,45026,341,8.8,6
2018,10,4,09:10,UTC,0,1011.9,64,,,4.8,-1.5,39710,347,9.4,6.6
2018,10,4,09:20,UTC,0,1012,63,,,5,-1.4,39075,334,9.2,6.1
2018,10,4,09:30,UTC,0,1012.2,63,,,5.2,-1.2,42228,339,10.3,5.7
2018,10,4,09:40,UTC,1,1012.3,63,,,5.4,-1.1,41497,314,9.3,6
2018,10,4,09:50,UTC,3,1012.4,62,,,5.7,-1.1,38164,322,10,5.5
2018,10,4,10:00,UTC,2,1012.5,62,,,5.8,-1,37138,336,9.8,6.8
2018,10,4,10:10,UTC,2,1012.6,62,,,5.9,-0.9,35932,314,9.8,6.2
2018,10,4,10:20,UTC,3,1012.6,62,,,5.9,-0.9,40765,329,8.5,5.9
2018,10,4,10:30,UTC,5,1012.6,62,,,5.7,-1.1,38464,329,8.8,6.1
2018,10,4,10:40,UTC,7,1012.8,61,,,5.7,-1.2,45252,329,8.3,6.3
2018,10,4,10:50,UTC,7,1012.8,62,,,5.7,-1,48148,308,8.2,6
2018,10,4,11:00,UTC,7,1013.1,62,,,5.6,-1.1,48702,326,10.8,6.4
2018,10,4,11:10,UTC,7,1013.2,61,,,5.7,-1.1,45261,316,10.2,6.7
2018,10,4,11:20,UTC,7,1013.3,63,,,5.7,-0.8,50000,317,8.8,5.4
2018,10,4,11:30,UTC,7,1013.3,60,,,5.9,-1.2,50000,303,9.4,6.1
2018,10,4,11:40,UTC,7,1013.5,63,,,5.5,-1.1,50000,302,8.4,5.8
2018,10,4,11:50,UTC,7,1013.5,63,,,5.7,-0.8,44371,307,7.6,5.2
2018,10,4,12:00,UTC,7,1013.5,63,,,5.9,-0.7,42895,306,9.1,5.8
2018,10,4,12:10,UTC,6,1013.6,63,,,5.7,-0.8,46713,307,8.6,5.7
2018,10,4,12:20,UTC,4,1013.7,61,,,5.8,-1.1,43024,319,8.5,5.7
2018,10,4,12:30,UTC,3,1013.7,62,,,6.3,-0.5,48398,319,7.8,5.3
2018,10,4,12:40,UTC,3,1013.8,62,,,5.5,-1.3,46413,315,9.6,6.6
2018,10,4,12:50,UTC,1,1013.9,62,,,5.4,-1.2,50000,313,8.5,5.5
2018,10,4,13:00,UTC,1,1013.8,63,,,6.3,-0.2,44426,314,6.7,4.2
2018,10,4,13:10,UTC,2,1013.9,60,,,6.3,-0.8,50000,317,7.4,5.3
2018,10,4,13:20,UTC,5,1013.9,60,,,6.2,-1.1,50000,297,7.8,4.9
2018,10,4,13:30,UTC,6,1014,61,,,6.4,-0.7,41625,311,6.8,4.3
2018,10,4,13:40,UTC,3,1014.1,61,,,6.1,-0.9,48798,329,8,5.5
2018,10,4,13:50,UTC,3,1014.2,61,,,6.2,-0.9,49100,300,7.9,5.1
2018,10,4,14:00,UTC,1,1014.3,62,,,6,-0.8,50000,308,7.4,4.8
2018,10,4,14:10,UTC,1,1014.4,61,,,5.8,-1,47688,309,7.2,4.7
2018,10,4,14:20,UTC,1,1014.5,61,,,5.8,-1.1,48404,306,7.3,4.7
2018,10,4,14:30,UTC,0,1014.7,62,,,5.5,-1.2,50000,304,7.5,4.6
2018,10,4,14:40,UTC,1,1014.8,63,,,5.5,-0.9,48368,288,7,4
2018,10,4,14:50,UTC,3,1014.8,65,,,5.3,-0.7,50000,294,6.4,3.9
2018,10,4,15:00,UTC,2,1014.9,66,,,4.9,-0.8,50000,295,6.1,4.1
2018,10,4,15:10,UTC,2,1014.9,67,,,4.8,-0.7,50000,308,5.8,3.7
2018,10,4,15:20,UTC,1,1014.9,68,,,4.5,-0.8,50000,315,5.6,3.6
2018,10,4,15:30,UTC,1,1015,71,,,4.1,-0.8,50000,316,4.6,3.2
2018,10,4,15:40,UTC,0,1015,71,,,3.9,-0.8,50000,317,4.2,3
2018,10,4,15:50,UTC,0,1015,72,,,3.6,-0.9,50000,314,3.6,2.6
2018,10,4,16:00,UTC,0,1015,73,,,3.9,-0.6,50000,308,2.9,2.1
2018,10,4,16:10,UTC,0,1015,80,,,2.7,-0.4,50000,324,2.2,1.5
2018,10,4,16:20,UTC,0,1015.1,84,,,2.2,-0.2,50000,345,1.6,1.1
2018,10,4,16:30,UTC,0,1015.1,87,,,1.9,-0.1,50000,0,0,0
2018,10,4,16:40,UTC,3,1015.2,88,,,1.3,-0.5,50000,161,1.1,0.5
2018,10,4,16:50,UTC,5,1015.3,89,,,1.3,-0.3,50000,140,1,0.7
2018,10,4,17:00,UTC,7,1015.4,92,,,0.9,-0.2,50000,63,1,0.8
2018,10,4,17:10,UTC,7,1015.5,94,,,0.2,-0.6,50000,0,0,0
2018,10,4,17:20,UTC,7,1015.5,94,,,0.4,-0.4,50000,0,0,0
2018,10,4,17:30,UTC,7,1015.6,95,,,0.6,-0.2,50000,0,0,0
2018,10,4,17:40,UTC,7,1015.6,95,,,0.7,0,50000,83,1.3,0.9
2018,10,4,17:50,UTC,7,1015.6,95,,,0.4,-0.3,47273,116,1.2,0.7
2018,10,4,18:00,UTC,7,1015.7,97,,,0.7,0.3,48159,141,1,0.7
2018,10,4,18:10,UTC,7,1015.6,96,,,0.6,0,45566,106,1.2,0.8
2018,10,4,18:20,UTC,7,1015.6,96,,,-0.2,-0.7,44221,123,1.2,0.8
2018,10,4,18:30,UTC,7,1015.7,98,,,0.2,0,45004,118,1.1,0.8
2018,10,4,18:40,UTC,7,1015.8,98,,,-0.1,-0.4,46557,86,0.8,0.5
2018,10,4,18:50,UTC,7,1015.9,98,,,0,-0.2,42360,0,0,0
2018,10,4,19:00,UTC,7,1015.9,100,,,0.2,0.1,41484,0,0,0
2018,10,4,19:10,UTC,7,1016,100,,,0.2,0.2,35757,0,0,0
2018,10,4,19:20,UTC,7,1016,100,,,0.2,0.2,40325,0,0,0
2018,10,4,19:30,UTC,7,1016,100,,,0.2,0.2,33939,112,0.9,0.6
2018,10,4,19:40,UTC,7,1016,100,,,0.3,0.2,32445,101,1.1,0.5
2018,10,4,19:50,UTC,7,1016,100,,,0.4,0.4,32930,88,1.4,0.8
2018,10,4,20:00,UTC,7,1015.9,99,,,0,-0.1,32636,3,1.5,0.6
2018,10,4,20:10,UTC,7,1015.9,100,,,0.1,0.1,30029,0,0,0
2018,10,4,20:20,UTC,7,1015.9,100,,,0,0,27112,0,0,0
2018,10,4,20:30,UTC,7,1016,100,,,-0.2,-0.2,29728,0,0,0
2018,10,4,20:40,UTC,7,1016,100,,,0,0,27779,102,0.9,0.6
2018,10,4,20:50,UTC,7,1015.8,100,,,0.3,0.3,31251,74,1.3,0.9
2018,10,4,21:00,UTC,4,1015.9,100,,,-0.8,-0.9,17623,0,0,0
2018,10,4,21:10,UTC,2,1015.9,100,,,-0.7,-0.7,13367,0,0,0
2018,10,4,21:20,UTC,1,1015.9,100,,,-0.6,-0.6,27644,0,0,0
2018,10,4,21:30,UTC,0,1016,100,,,-1.1,-1.1,2741,0,0,0
2018,10,4,21:40,UTC,0,1015.9,100,,,-1.2,-1.2,2996,106,1.3,0.9
2018,10,4,21:50,UTC,0,1015.9,100,,,-1.8,-1.8,8441,85,0.9,0.6
2018,10,4,22:00,UTC,0,1015.9,100,,,-1.6,-1.6,1943,0,0,0
2018,10,4,22:10,UTC,0,1015.8,100,,,-2.1,-2.1,490,0,0,0
2018,10,4,22:20,UTC,0,1015.7,100,,,-1.8,-1.8,1599,80,0.8,0.5
2018,10,4,22:30,UTC,0,1015.7,100,,,-2.4,-2.4,1355,0,0,0
2018,10,4,22:40,UTC,1,1015.6,100,,,-2.3,-2.3,912,0,0,0
2018,10,4,22:50,UTC,0,1015.6,100,,,-1.9,-1.9,808,83,0.9,0.6
2018,10,4,23:00,UTC,1,1015.6,100,,,-2.4,-2.4,23513,0,0,0
2018,10,4,23:10,UTC,3,1015.5,100,,,-2.3,-2.3,2246,0,0,0
2018,10,4,23:20,UTC,2,1015.5,100,,,-2.2,-2.2,20876,0,0,0
2018,10,4,23:30,UTC,1,1015.5,100,,,-2.2,-2.3,21269,0,0,0
2018,10,4,23:40,UTC,0,1015.3,100,,,-2.6,-2.6,1855,102,0.9,0.6
2018,10,4,23:50,UTC,0,1015.2,100,,,-2.5,-2.5,812,0,0,0
2018,10,5,00:00,UTC,0,1015,100,,,-2.5,-2.5,647,0,0,0
2018,10,5,00:10,UTC,0,1014.8,100,,,-2.5,-2.6,6166,0,0,0
2018,10,5,00:20,UTC,0,1014.7,100,,,-2.7,-2.7,4034,0,0,0
2018,10,5,00:30,UTC,0,1014.5,100,,,-2.7,-2.7,3980,0,0,0
2018,10,5,00:40,UTC,0,1014.4,100,,,-2.9,-2.9,3465,0,0,0
2018,10,5,00:50,UTC,0,1014.3,100,,,-3,-3,22447,0,0,0
2018,10,5,01:00,UTC,3,1014.1,100,,,-2.5,-2.5,10516,114,0.8,0.5
2018,10,5,01:10,UTC,3,1014,100,,,-2.5,-2.5,22505,117,1,0.6
2018,10,5,01:20,UTC,2,1013.8,100,,,-2.5,-2.5,30564,117,1.8,1.4
2018,10,5,01:30,UTC,1,1013.7,100,,,-2.4,-2.4,36707,117,1.9,1.5
2018,10,5,01:40,UTC,0,1013.5,100,,,-2.3,-2.3,39720,117,2.3,1.9
2018,10,5,01:50,UTC,1,1013.4,100,,,-2.4,-2.4,30151,115,2.8,2.4
2018,10,5,02:00,UTC,1,1013.3,100,,,-2.6,-2.6,48033,116,2.7,1.7
2018,10,5,02:10,UTC,4,1013.2,100,,,-1.2,-1.2,47086,119,3.2,2.1
2018,10,5,02:20,UTC,6,1013.1,100,,,3.4,3.4,48558,148,4.6,2.5
2018,10,5,02:30,UTC,7,1012.8,92,,,6,4.7,44349,164,6.4,3.5
2018,10,5,02:40,UTC,8,1012.7,80,,,6.6,3.4,50000,173,5.5,3.6
2018,10,5,02:50,UTC,8,1012.5,79,,,7,3.5,50000,166,5.2,3.6
2018,10,5,03:00,UTC,8,1012.2,76,,,7.2,3.3,45334,166,5.7,3.9
2018,10,5,03:10,UTC,8,1012,72,,,7.6,2.9,50000,177,8.2,4.4
2018,10,5,03:20,UTC,8,1011.8,73,,,7.7,3.1,50000,179,9,5.4
2018,10,5,03:30,UTC,8,1011.6,74,,,7.7,3.4,50000,176,7,5
2018,10,5,03:40,UTC,8,1011.3,75,,,7.9,3.7,50000,178,10.9,5.8
2018,10,5,03:50,UTC,8,1010.9,74,,,7.9,3.4,37484,182,11.2,7.7
2018,10,5,04:00,UTC,8,1010.9,78,,,7.3,3.6,21160,184,13.6,8.2
2018,10,5,04:10,UTC,8,1010.7,83,,,6.9,4.2,14509,183,10,6.9
2018,10,5,04:20,UTC,8,1010.6,89,,,6.6,4.9,13720,182,9.8,6.4
2018,10,5,04:30,UTC,8,1010.2,92,,,6.5,5.3,14699,170,7.9,5.3
2018,10,5,04:40,UTC,8,1010,92,,,6.6,5.5,20809,161,7.7,4.6
2018,10,5,04:50,UTC,8,1009.7,90,,,6.8,5.3,30858,160,7.8,4.5
2018,10,5,05:00,UTC,8,1009.5,89,,,6.8,5.2,18310,154,8.1,5.1
2018,10,5,05:10,UTC,8,1009.2,91,,,7.3,5.8,15701,166,8.5,5.2
2018,10,5,05:20,UTC,8,1009,94,,,7.4,6.5,15294,174,9.6,5.8
2018,10,5,05:30,UTC,8,1008.8,96,,,7.4,6.9,6387,174,12,6.8
2018,10,5,05:40,UTC,8,1008.5,97,,,7.4,7,4883,173,11.2,6.6
2018,10,5,05:50,UTC,8,1008.4,98,,,7.2,6.9,4655,174,10.9,6.7
2018,10,5,06:00,UTC,8,1008.4,99,,,7.2,7,5588,175,10.8,7
2018,10,5,06:10,UTC,8,1007.9,99,,,7.2,7,5175,172,10.3,6.8
2018,10,5,06:20,UTC,8,1007.9,99,,,7.3,7.1,4799,175,9.7,6.6
2018,10,5,06:30,UTC,8,1007.6,99,,,7.5,7.4,4468,177,11.5,6.6
2018,10,5,06:40,UTC,8,1007.4,100,,,7.5,7.5,4071,178,10.9,6.4
2018,10,5,06:50,UTC,8,1007.2,100,,,7.8,7.8,3372,179,10.8,6.6
2018,10,5,07:00,UTC,8,1007,100,,,8,8,3593,182,10.7,6.6
2018,10,5,07:10,UTC,8,1006.7,100,,,8.4,8.4,3663,180,10.8,7.1
2018,10,5,07:20,UTC,8,1006.5,100,,,8.6,8.6,3923,182,10,7.2
2018,10,5,07:30,UTC,8,1006.3,100,,,8.9,8.9,5476,187,12.3,7.4
2018,10,5,07:40,UTC,8,1006.1,100,,,9,9,5480,190,10.4,7
2018,10,5,07:50,UTC,8,1005.8,100,,,9.4,9.4,4659,192,12.3,7.4
2018,10,5,08:00,UTC,8,1005.5,100,,,9.6,9.6,4730,194,11.1,7.2
2018,10,5,08:10,UTC,8,1005.5,100,,,9.7,9.7,4031,195,11.4,7.3
2018,10,5,08:20,UTC,8,1005.5,100,,,10,10,4551,198,12.7,7.7
2018,10,5,08:30,UTC,8,1005.3,100,,,10,10,9942,197,10.8,7.8
2018,10,5,08:40,UTC,8,1005.1,100,,,10.3,10.3,8138,203,9.4,6.6
2018,10,5,08:50,UTC,8,1005,100,,,10.5,10.5,5076,204,9.2,6.3
2018,10,5,09:00,UTC,8,1004.8,100,,,10.7,10.7,15939,205,9.7,6.3
2018,10,5,09:10,UTC,8,1004.6,100,,,10.9,10.9,12033,204,10.6,6.5
2018,10,5,09:20,UTC,8,1004.5,99,,,11.2,11.2,4914,208,8,5.7
2018,10,5,09:30,UTC,8,1004.3,98,,,11.4,11.2,5338,214,8.3,6
2018,10,5,09:40,UTC,8,1004.2,98,,,11.5,11.3,10944,217,9.2,5.5
2018,10,5,09:50,UTC,8,1004.2,98,,,11.6,11.2,17329,220,8.9,5.8
2018,10,5,10:00,UTC,8,1004,96,,,11.7,11.2,33514,218,8.6,5.7
2018,10,5,10:10,UTC,8,1003.9,96,,,11.7,11.2,27837,219,7.9,5.1
2018,10,5,10:20,UTC,8,1003.9,97,,,11.9,11.5,8062,227,6.1,4.1
2018,10,5,10:30,UTC,8,1003.9,97,,,11.9,11.3,14168,228,9,5.3
2018,10,5,10:40,UTC,8,1003.9,96,,,12.1,11.4,33037,227,8.9,5.3
2018,10,5,10:50,UTC,8,1003.7,95,,,12.2,11.5,22293,230,8.7,4.7
2018,10,5,11:00,UTC,8,1003.7,94,,,12.2,11.2,16049,238,9.2,5.5
2018,10,5,11:10,UTC,8,1003.8,93,,,12.2,11.1,23359,241,8.9,5.6
2018,10,5,11:20,UTC,8,1004,93,,,12.1,11.1,12380,241,10.3,5.5
2018,10,5,11:30,UTC,8,1004.1,95,,,12,11.2,7882,243,9.5,5.8
2018,10,5,11:40,UTC,8,1004.1,95,,,12,11.2,11638,245,9.8,5.7
2018,10,5,11:50,UTC,8,1004.1,93,,,12.2,11.1,31553,249,9,5.3
2018,10,5,12:00,UTC,8,1004.1,95,,,12.4,11.6,12597,247,8.2,5.3
2018,10,5,12:10,UTC,7,1004.1,90,,,12.9,11.3,34488,251,10.5,5.3
2018,10,5,12:20,UTC,7,1004.2,86,,,13.1,10.8,36789,242,11.9,5.7
2018,10,5,12:30,UTC,7,1004.3,87,,,13,10.8,42649,240,9,6.1
2018,10,5,12:40,UTC,8,1004.3,83,,,13.2,10.4,42507,245,9.6,6.2
2018,10,5,12:50,UTC,7,1004.3,82,,,13.3,10.2,44068,246,11.6,7.1
2018,10,5,13:00,UTC,6,1004.4,81,,,13.4,10.1,42069,245,11.6,6.6
2018,10,5,13:10,UTC,5,1004.5,79,,,13.4,9.9,46992,247,9.4,5.8
2018,10,5,13:20,UTC,5,1004.5,79,,,13.1,9.6,46247,248,9.2,5.7
2018,10,5,13:30,UTC,6,1004.7,77,,,13.6,9.8,46414,252,9.7,6.2
2018,10,5,13:40,UTC,7,1004.9,75,,,13.7,9.4,38994,258,10.6,6.8
2018,10,5,13:50,UTC,6,1005,76,,,13.3,9.2,44060,256,9.3,5.5
2018,10,5,14:00,UTC,4,1005.1,76,,,13,8.9,46687,260,10.5,5.9
2018,10,5,14:10,UTC,2,1005.3,78,,,12.8,9,50000,249,10.4,5.2
2018,10,5,14:20,UTC,1,1005.4,77,,,12.8,8.9,48773,250,8.2,5.4
2018,10,5,14:30,UTC,1,1005.4,80,,,12.4,9.1,50000,242,6.8,4.5
2018,10,5,14:40,UTC,4,1005.6,80,,,12.4,9,47317,243,6.9,4.5
2018,10,5,14:50,UTC,2,1005.8,83,,,12.1,9.3,50000,242,6.8,3.8
2018,10,5,15:00,UTC,2,1005.9,84,,,12,9.4,47730,246,6,3.6
2018,10,5,15:10,UTC,3,1006,84,,,11.9,9.2,47940,244,6.2,3.9
2018,10,5,15:20,UTC,4,1006.1,85,,,11.7,9.3,46696,246,5.9,3.8
2018,10,5,15:30,UTC,4,1006.2,86,,,11.3,9.1,45212,254,5.2,3.4
2018,10,5,15:40,UTC,3,1006.3,86,,,11.3,9,49142,248,5.3,3.4
2018,10,5,15:50,UTC,5,1006.5,87,,,11.2,9,48830,244,5.2,3.8
2018,10,5,16:00,UTC,6,1006.8,87,,,11,9,47733,244,4.8,3.1
2018,10,5,16:10,UTC,7,1007.1,87,,,10.8,8.8,46163,250,3.9,2.6
2018,10,5,16:20,UTC,7,1007.2,88,,,10.5,8.7,45370,249,4.1,2.5
2018,10,5,16:30,UTC,7,1007.4,89,,,10.5,8.7,49851,243,4.4,2.5
2018,10,5,16:40,UTC,7,1007.5,89,,,10.3,8.5,42658,237,3.6,2.3
2018,10,5,16:50,UTC,7,1007.6,89,,,10,8.3,46011,238,4.4,2.6
2018,10,5,17:00,UTC,5,1007.8,90,,,9.7,8.1,48920,243,3.9,2.2
2018,10,5,17:10,UTC,3,1007.9,92,,,9.5,8.2,40388,239,2.5,1.7
2018,10,5,17:20,UTC,1,1007.9,92,,,9,7.8,40577,237,2.2,1.6
2018,10,5,17:30,UTC,0,1008.1,94,,,8.6,7.7,49219,237,2.2,1.3
2018,10,5,17:40,UTC,0,1008.1,93,,,8.5,7.4,42642,224,2.1,1.5
2018,10,5,17:50,UTC,0,1008.2,93,,,8.1,7.1,47200,224,2.2,1.6
2018,10,5,18:00,UTC,0,1008.2,97,,,7.7,7.2,47964,219,2,1.5
2018,10,5,18:10,UTC,0,1008.2,96,,,8,7.4,50000,220,1.8,1.1
2018,10,5,18:20,UTC,0,1008.3,95,,,8,7.3,50000,240,1.7,0.9
2018,10,5,18:30,UTC,0,1008.3,94,,,7.4,6.5,48559,233,2.3,1.4
2018,10,5,18:40,UTC,0,1008.3,96,,,7.1,6.4,47915,220,2.2,1.6
2018,10,5,18:50,UTC,0,1008.3,95,,,7.4,6.6,50000,228,2.7,1.8
2018,10,5,19:00,UTC,0,1008.3,95,,,7.1,6.4,46400,228,2.6,1.8
2018,10,5,19:10,UTC,0,1008.3,96,,,6.8,6.3,48117,225,3.4,1.6
2018,10,5,19:20,UTC,0,1008.2,97,,,7.1,6.6,47684,227,2.3,1.3
2018,10,5,19:30,UTC,0,1008.3,98,,,6.9,6.6,47813,226,1.7,1
2018,10,5,19:40,UTC,0,1008.3,96,,,7,6.4,47548,230,2.1,1.3
2018,10,5,19:50,UTC,0,1008.2,97,,,6.3,5.9,44363,240,1.6,0.6
2018,10,5,20:00,UTC,0,1008.1,97,,,4.9,4.5,8438,205,1.3,0.5
2018,10,5,20:10,UTC,0,1008.3,100,,,5.7,5.7,4021,149,1.2,0.7
2018,10,5,20:20,UTC,0,1008.3,100,,,4,4,589,130,1.5,1.1
2018,10,5,20:30,UTC,0,1008.3,100,,,4.4,4.3,1346,136,1.8,1.4
2018,10,5,20:40,UTC,0,1008.2,100,,,3.1,3.1,924,145,1.8,1.5
2018,10,5,20:50,UTC,0,1008.2,100,,,3.2,3.2,902,145,1.7,1.2
2018,10,5,21:00,UTC,0,1008.1,100,,,3.9,3.8,921,148,1.5,1.1
2018,10,5,21:10,UTC,0,1008.1,100,,,3.9,3.9,874,150,1.5,1
2018,10,5,21:20,UTC,0,1008,100,,,3.7,3.7,1754,147,1.8,1.2
2018,10,5,21:30,UTC,0,1008,100,,,3.3,3.3,1397,151,1.9,1.2
2018,10,5,21:40,UTC,0,1007.9,100,,,3.2,3.2,2267,148,2.1,1.5
2018,10,5,21:50,UTC,0,1007.9,100,,,3.4,3.4,5882,160,2.2,1.5
2018,10,5,22:00,UTC,0,1007.7,100,,,3.9,3.9,1877,147,1.3,0.9
2018,10,5,22:10,UTC,0,1007.5,100,,,2.5,2.5,333,122,1.5,1
2018,10,5,22:20,UTC,3,1007.5,100,,,2.8,2.8,310,0,0,0
2018,10,5,22:30,UTC,5,1007.6,100,,,4.5,4.5,680,170,2,1
2018,10,5,22:40,UTC,7,1007.6,100,,,3.8,3.8,439,185,2.3,1.1
2018,10,5,22:50,UTC,7,1007.5,100,,,5.1,5.1,1152,230,2.9,1.2
2018,10,5,23:00,UTC,7,1007.3,100,,,7,7,27768,228,3.4,2.1
2018,10,5,23:10,UTC,7,1007.2,100,,,7.1,7,34548,230,2.9,1.9
2018,10,5,23:20,UTC,6,1007.2,100,,,6.7,6.7,37623,233,3,1.7
2018,10,5,23:30,UTC,7,1007.2,100,,,7,7,44280,236,2.6,1.6
2018,10,5,23:40,UTC,7,1007.3,98,,,8,7.8,44657,226,4.4,2.7
2018,10,5,23:50,UTC,7,1007.3,91,,,8,6.7,46613,231,4.3,2.5
2018,10,6,00:00,UTC,7,1007.1,90,,,8.1,6.6,47254,225,4.4,2.7
2018,10,6,00:10,UTC,6,1006.9,88,,,8.2,6.3,46781,224,3.6,2.1
2018,10,6,00:20,UTC,6,1006.8,87,,,8.5,6.5,44073,216,4,2.5
2018,10,6,00:30,UTC,6,1006.8,87,,,8.3,6.2,48079,219,4.4,2.6
2018,10,6,00:40,UTC,3,1006.8,86,,,8.5,6.2,47371,225,4.7,2.5
2018,10,6,00:50,UTC,3,1006.7,88,,,8.1,6.2,46236,227,5.2,2.4
2018,10,6,01:00,UTC,1,1006.6,86,,,8.3,6.2,50000,224,4.1,2.5
2018,10,6,01:10,UTC,1,1006.6,87,,,8,6,49238,232,3.6,2.1
2018,10,6,01:20,UTC,0,1006.5,88,,,8.1,6.2,47463,232,3.8,2.3
2018,10,6,01:30,UTC,0,1006.5,88,,,8.2,6.3,47726,226,4.5,2.9
2018,10,6,01:40,UTC,0,1006.6,89,,,8.1,6.4,45595,228,4.6,2.8
2018,10,6,01:50,UTC,0,1006.5,89,,,8,6.3,49336,222,4.9,2.8
2018,10,6,02:00,UTC,0,1006.5,89,,,8.2,6.5,43407,222,5,3.2
2018,10,6,02:10,UTC,0,1006.4,90,,,8.1,6.7,44724,232,3.8,2.5
2018,10,6,02:20,UTC,0,1006.2,90,,,8.1,6.5,47111,231,4.7,2.6
2018,10,6,02:30,UTC,0,1006.2,90,,,8.2,6.6,45068,229,5.1,3
2018,10,6,02:40,UTC,0,1006.1,90,,,8,6.4,41541,239,5.1,3
2018,10,6,02:50,UTC,0,1006.2,91,,,7.6,6.3,45202,232,3.9,2.3
2018,10,6,03:00,UTC,0,1006.2,91,,,7.6,6.3,45169,233,4.5,2.6
2018,10,6,03:10,UTC,0,1006.2,90,,,7.7,6.2,46040,230,5.4,3
2018,10,6,03:20,UTC,0,1006,91,,,7.5,6,39593,233,5.1,2.7
2018,10,6,03:30,UTC,0,1005.9,91,,,7.4,6,39397,226,4,2.8
2018,10,6,03:40,UTC,0,1005.9,92,,,7.3,6,42047,224,4.3,2.8
2018,10,6,03:50,UTC,0,1006,91,,,7.1,5.8,39766,231,4.8,2.5
2018,10,6,04:00,UTC,1,1006.1,92,,,7.1,5.9,40545,234,4,2.2
2018,10,6,04:10,UTC,3,1006,93,,,7.1,6,40711,238,4.8,2.3
2018,10,6,04:20,UTC,4,1006,92,,,6.8,5.7,39405,234,4,2.5
2018,10,6,04:30,UTC,6,1006,93,,,6.6,5.6,31547,229,3.6,2.2
2018,10,6,04:40,UTC,7,1006,93,,,6.7,5.6,32781,227,4.7,2.7
2018,10,6,04:50,UTC,7,1005.9,92,,,6.7,5.5,35391,226,4.2,2.6
2018,10,6,05:00,UTC,6,1005.9,93,,,6.7,5.6,34884,222,4.4,2.9
2018,10,6,05:10,UTC,7,1005.9,93,,,6.7,5.6,30647,219,5.4,3
2018,10,6,05:20,UTC,7,1006.1,92,,,6.9,5.8,35696,225,4.8,2.8
2018,10,6,05:30,UTC,6,1006,92,,,7,5.8,31448,228,4.4,2.7
2018,10,6,05:40,UTC,5,1005.9,91,,,7.1,5.8,32742,229,4.6,2.3
2018,10,6,05:50,UTC,3,1006,91,,,7.3,5.8,31973,224,4.4,2.6
2018,10,6,06:00,UTC,2,1006.1,90,,,7.4,5.9,32763,228,4.6,2.6
2018,10,6,06:10,UTC,4,1006.1,90,,,7.5,6,31441,223,6,3.3
2018,10,6,06:20,UTC,4,1006,88,,,7.8,6,33350,222,5.2,3.7
2018,10,6,06:30,UTC,3,1006.1,88,,,8,6.2,30338,224,6,3.9
2018,10,6,06:40,UTC,1,1006,87,,,8.3,6.2,27534,220,6.6,3.9
2018,10,6,06:50,UTC,3,1006,86,,,8.5,6.4,31537,228,7,4.2
2018,10,6,07:00,UTC,5,1006,87,,,8.6,6.5,25287,233,6.9,4.2
2018,10,6,07:10,UTC,7,1006,86,,,8.7,6.4,29388,241,5.9,3.6
2018,10,6,07:20,UTC,7,1005.9,85,,,8.7,6.4,31936,237,4.6,3
2018,10,6,07:30,UTC,7,1005.9,86,,,8.6,6.4,32700,227,7.2,3.7
2018,10,6,07:40,UTC,5,1006,87,,,8.7,6.7,28773,238,5,2.7
2018,10,6,07:50,UTC,3,1006,86,,,8.8,6.5,29275,224,5.5,3.2
2018,10,6,08:00,UTC,5,1006,86,,,8.9,6.6,28277,219,5.6,3.7
2018,10,6,08:10,UTC,6,1005.9,86,,,9,6.8,25138,234,4.8,2.7
2018,10,6,08:20,UTC,7,1005.8,86,,,9.2,6.9,28844,227,5.7,3.3
2018,10,6,08:30,UTC,7,1005.8,84,,,9.3,6.7,28226,226,5.3,3.5
2018,10,6,08:40,UTC,7,1005.8,83,,,9.7,7,26838,236,5.5,3.7
2018,10,6,08:50,UTC,7,1005.8,81,,,9.8,6.7,30104,234,6.4,3.5
2018,10,6,09:00,UTC,4,1005.9,80,,,10,6.7,28999,230,7.2,4.7
2018,10,6,09:10,UTC,6,1005.9,79,,,10.2,6.7,25480,231,6,3.9
2018,10,6,09:20,UTC,6,1005.8,77,,,10.2,6.4,27971,234,7.4,4.6
2018,10,6,09:30,UTC,7,1005.6,78,,,10.4,6.6,33975,229,8.9,5.5
2018,10,6,09:40,UTC,7,1005.6,78,,,10.4,6.6,28308,227,7.8,4.8
2018,10,6,09:50,UTC,7,1005.5,78,,,10.4,6.6,27213,226,7.8,5
2018,10,6,10:00,UTC,8,1005.5,77,,,10.3,6.5,27219,231,7.3,4.2
2018,10,6,10:10,UTC,8,1005.4,78,,,10.4,6.8,31381,238,6.9,4
2018,10,6,10:20,UTC,8,1005.4,76,,,10.6,6.5,32583,240,8.5,5
2018,10,6,10:30,UTC,5,1005.4,76,,,10.8,6.7,25615,230,5.9,3.8
2018,10,6,10:40,UTC,2,1005.4,74,,,11.2,6.8,27874,235,7,4.6
2018,10,6,10:50,UTC,2,1005.3,71,,,11.1,6.1,32693,241,6.5,3.9
2018,10,6,11:00,UTC,2,1005.4,71,,,11.2,6.1,36433,247,6.4,4.3
2018,10,6,11:10,UTC,1,1005.2,69,,,11.1,5.7,34497,240,6.9,4.8
2018,10,6,11:20,UTC,1,1005.3,70,,,11.2,6,36582,244,6,4.1
2018,10,6,11:30,UTC,0,1005.4,69,,,11.3,5.8,35372,249,6.9,4.5
2018,10,6,11:40,UTC,3,1005.5,70,,,11.5,6.3,34515,239,5.8,3.8
2018,10,6,11:50,UTC,3,1005.5,71,,,11.3,6.3,35280,235,7.4,4.3
2018,10,6,12:00,UTC,6,1005.4,71,,,11.1,6.1,39052,238,6.3,3.9
2018,10,6,12:10,UTC,7,1005.4,72,,,11.1,6.2,32141,238,5.7,4.1
2018,10,6,12:20,UTC,7,1005.4,72,,,11.1,6.2,38146,241,5.5,3.4
2018,10,6,12:30,UTC,7,1005.4,70,,,11.1,5.9,31820,238,6.1,3.5
2018,10,6,12:40,UTC,7,1005.3,69,,,11.2,5.6,41860,237,6,3.7
2018,10,6,12:50,UTC,7,1005.4,71,,,11.1,6.2,45551,244,5.5,3.2
2018,10,6,13:00,UTC,7,1005.4,70,,,11.1,5.7,43546,239,5.8,3.6
2018,10,6,13:10,UTC,7,1005.4,68,,,11,5.4,41106,235,4.9,3.1
2018,10,6,13:20,UTC,5,1005.3,66,,,11,4.8,48401,242,5.9,3.9
2018,10,6,13:30,UTC,4,1005.4,67,,,10.9,5.1,40607,242,6.1,3.7
2018,10,6,13:40,UTC,1,1005.3,67,,,11,5.1,43061,243,4.2,2.9
2018,10,6,13:50,UTC,1,1005.4,69,,,10.9,5.3,45788,234,4.5,2.5
2018,10,6,14:00,UTC,0,1005.4,68,,,10.8,5.1,39474,244,4.4,2.9
2018,10,6,14:10,UTC,0,1005.5,69,,,10.6,5.2,41803,241,4.7,2.9
2018,10,6,14:20,UTC,3,1005.6,69,,,10.5,5.1,43061,243,6.5,3.3
2018,10,6,14:30,UTC,2,1005.7,71,,,10.3,5.2,41376,242,5.3,2.8
2018,10,6,14:40,UTC,5,1005.7,72,,,10.2,5.4,46574,233,3.3,2.1
2018,10,6,14:50,UTC,3,1005.7,73,,,10.1,5.4,43944,239,3.7,2.4
2018,10,6,15:00,UTC,2,1005.7,73,,,9.9,5.3,44995,241,4.1,2.4
2018,10,6,15:10,UTC,1,1005.6,72,,,9.9,5,40504,240,4.6,3.1
2018,10,6,15:20,UTC,2,1005.7,72,,,9.7,5,45198,232,3.7,2.7
2018,10,6,15:30,UTC,3,1005.7,75,,,9.3,5.1,42016,219,2.9,1.9
2018,10,6,15:40,UTC,5,1005.7,76,,,9.2,5.2,44253,216,3.1,2.2
2018,10,6,15:50,UTC,7,1005.7,75,,,9.3,5.1,40256,222,4.3,2.9
2018,10,6,16:00,UTC,7,1005.8,75,,,9.2,5.1,41271,225,4.3,2.7
2018,10,6,16:10,UTC,8,1005.9,77,,,9.1,5.2,43461,220,4,2.3
2018,10,6,16:20,UTC,8,1006,78,,,9.1,5.4,47128,229,3,1.9
2018,10,6,16:30,UTC,8,1006,78,,,9.1,5.5,44002,230,4.4,2.4
2018,10,6,16:40,UTC,8,1006.2,79,,,9,5.5,40996,233,3.9,2.2
2018,10,6,16:50,UTC,7,1006.2,80,,,8.9,5.6,36305,231,2.8,2
2018,10,6,17:00,UTC,7,1006.3,83,,,8.8,6,38784,223,3,1.9
2018,10,6,17:10,UTC,7,1006.3,85,,,8.7,6.3,37940,232,3.1,1.8
2018,10,6,17:20,UTC,7,1006.3,86,,,8.5,6.3,40235,239,3,1.7
2018,10,6,17:30,UTC,7,1006.3,87,,,8.5,6.4,36841,231,3.1,2.1
2018,10,6,17:40,UTC,8,1006.4,88,,,8.4,6.5,38439,230,2.8,1.8
2018,10,6,17:50,UTC,8,1006.5,88,,,8.4,6.5,32897,230,2.7,1.6
2018,10,6,18:00,UTC,8,1006.7,88,,,8.3,6.5,35553,231,2.6,1.5
2018,10,6,18:10,UTC,8,1006.7,88,,,8.3,6.4,31862,237,2.6,1.6
2018,10,6,18:20,UTC,8,1006.7,88,,,8.4,6.4,35665,244,3.4,2.1
2018,10,6,18:30,UTC,8,1006.9,88,,,8.4,6.5,33576,257,3.2,1.9
2018,10,6,18:40,UTC,8,1006.9,88,,,8.3,6.4,37186,259,2.8,1.6
2018,10,6,18:50,UTC,8,1007,88,,,8.3,6.4,36758,263,2.9,1.8
2018,10,6,19:00,UTC,8,1007.1,88,,,8.2,6.3,36354,279,2.7,1.4
2018,10,6,19:10,UTC,8,1007.2,89,,,8,6.4,32115,295,2.2,1.2
2018,10,6,19:20,UTC,8,1007,90,,,7.9,6.4,34064,281,1.8,1.1
2018,10,6,19:30,UTC,8,1007.2,91,,,7.8,6.4,34485,282,1.8,1.1
2018,10,6,19:40,UTC,8,1007.2,91,,,7.7,6.3,35345,289,1.8,1.3
2018,10,6,19:50,UTC,8,1007.2,92,,,7.6,6.4,35579,303,1.8,1.3
2018,10,6,20:00,UTC,8,1007.4,93,,,7.5,6.3,31972,306,1.8,1.1
2018,10,6,20:10,UTC,8,1007.4,93,,,7.4,6.4,32435,283,1.2,0.8
2018,10,6,20:20,UTC,7,1007.4,94,,,7,6.1,27216,271,1.4,0.9
2018,10,6,20:30,UTC,4,1007.4,96,,,6.9,6.4,29656,292,1.5,1.1
2018,10,6,20:40,UTC,5,1007.4,94,,,7.1,6.1,32629,305,1.9,1.3
2018,10,6,20:50,UTC,6,1007.4,94,,,6.6,5.7,30639,310,2.6,1.7
2018,10,6,21:00,UTC,7,1007.4,95,,,6.5,5.7,31134,319,3,2.2
2018,10,6,21:10,UTC,5,1007.5,95,,,6.7,6,33935,303,2.3,1.7
2018,10,6,21:20,UTC,3,1007.6,93,,,7,5.9,37979,302,2.2,1.6
2018,10,6,21:30,UTC,2,1007.8,91,,,7.1,5.7,36605,304,2.2,1.5
2018,10,6,21:40,UTC,1,1007.8,91,,,7,5.6,39727,298,2,1.4
2018,10,6,21:50,UTC,1,1007.8,90,,,7.1,5.6,35424,299,1.8,1.4
2018,10,6,22:00,UTC,1,1007.8,91,,,6.8,5.5,42410,309,2.7,1.4
2018,10,6,22:10,UTC,1,1007.8,92,,,6.3,5.2,40585,316,2.4,1.8
2018,10,6,22:20,UTC,1,1007.8,93,,,6.4,5.3,34768,316,2.8,1.8
2018,10,6,22:30,UTC,4,1007.7,93,,,6.3,5.2,44446,309,2.1,1.3
2018,10,6,22:40,UTC,2,1007.7,95,,,6.2,5.5,38157,333,1.6,0.9
2018,10,6,22:50,UTC,2,1007.7,96,,,6.1,5.4,34820,0,0,0
2018,10,6,23:00,UTC,1,1007.7,97,,,5.9,5.5,33635,0,0,0
2018,10,6,23:10,UTC,2,1007.7,98,,,5.6,5.4,28354,0,0,0
2018,10,6,23:20,UTC,5,1007.6,99,,,5.5,5.4,33061,0,0,0
2018,10,6,23:30,UTC,7,1007.6,100,,,5.2,5.2,25448,0,0,0
2018,10,6,23:40,UTC,7,1007.6,100,,,5.1,5.1,22553,122,0.9,0.6
2018,10,6,23:50,UTC,7,1007.6,100,,,5.1,5.1,20859,145,0.9,0.6
2018,10,7,00:00,UTC,3,1007.6,100,,,5,4.9,21378,0,0,0
2018,10,7,00:10,UTC,5,1007.5,100,,,4,4,1523,0,0,0
2018,10,7,00:20,UTC,6,1007.6,100,,,3.6,3.6,552,0,0,0
2018,10,7,00:30,UTC,8,1007.5,100,,,3.9,3.9,1338,0,0,0
2018,10,7,00:40,UTC,8,1007.7,100,,,3.9,3.9,726,0,0,0
2018,10,7,00:50,UTC,8,1007.7,100,,,3.8,3.7,2372,0,0,0
2018,10,7,01:00,UTC,8,1007.8,100,,,4.3,4.2,1740,0,0,0
2018,10,7,01:10,UTC,7,1007.8,100,,,4.1,4.1,1325,0,0,0
2018,10,7,01:20,UTC,7,1007.9,100,,,3.8,3.8,2248,0,0,0
2018,10,7,01:30,UTC,7,1007.9,100,,,4.3,4.3,2532,347,0.8,0.7
2018,10,7,01:40,UTC,7,1007.8,100,,,4.1,4.1,3779,0,0,0
2018,10,7,01:50,UTC,8,1007.9,100,,,4.2,4.2,9407,0,0,0
2018,10,7,02:00,UTC,8,1007.9,100,,,4,4,20032,139,0.7,0.6
2018,10,7,02:10,UTC,8,1007.9,100,,,4,4,35750,0,0,0
2018,10,7,02:20,UTC,8,1007.8,100,,,4.4,4.4,29178,0,0,0
2018,10,7,02:30,UTC,8,1007.7,100,,,4.1,4.1,15696,0,0,0
2018,10,7,02:40,UTC,8,1007.7,100,,,3.6,3.6,8476,0,0,0
2018,10,7,02:50,UTC,7,1007.7,100,,,3.8,3.8,1188,0,0,0
2018,10,7,03:00,UTC,7,1007.7,100,,,4.2,4.2,1627,0,0,0
2018,10,7,03:10,UTC,7,1007.8,100,,,3.9,3.9,5563,352,0.7,0.5
2018,10,7,03:20,UTC,7,1007.8,100,,,4.1,4.1,10499,0,0,0
2018,10,7,03:30,UTC,8,1007.8,100,,,4,4,1890,0,0,0
2018,10,7,03:40,UTC,8,1007.8,100,,,3.8,3.8,969,0,0,0
2018,10,7,03:50,UTC,8,1007.6,100,,,3.9,3.9,3566,0,0,0
2018,10,7,04:00,UTC,8,1007.5,100,,,3.8,3.8,1904,11,1.2,0.7
2018,10,7,04:10,UTC,8,1007.6,100,,,3.9,3.9,3442,76,1,0.5
2018,10,7,04:20,UTC,8,1007.6,100,,,3.5,3.5,13245,322,1.1,0.7
2018,10,7,04:30,UTC,8,1007.6,100,,,4.1,4.1,13090,357,1,0.6
2018,10,7,04:40,UTC,8,1007.8,100,,,4.2,4.2,12803,0,0,0
2018,10,7,04:50,UTC,8,1007.8,100,,,4.2,4.2,21991,0,0,0
2018,10,7,05:00,UTC,8,1007.9,100,,,4.1,4.1,33944,0,0,0
2018,10,7,05:10,UTC,8,1008,100,,,4.1,4.1,33954,0,0,0
2018,10,7,05:20,UTC,8,1008.1,100,,,4.2,4.2,26062,0,0,0
2018,10,7,05:30,UTC,8,1008.2,100,,,4.3,4.3,21324,0,0,0
2018,10,7,05:40,UTC,8,1008.3,100,,,4.3,4.3,20576,0,0,0
2018,10,7,05:50,UTC,8,1008.4,100,,,4.3,4.3,17923,331,1,0.5
2018,10,7,06:00,UTC,8,1008.5,100,,,4.4,4.4,26054,0,0,0
2018,10,7,06:10,UTC,8,1008.5,100,,,4.5,4.5,22280,0,0,0
2018,10,7,06:20,UTC,8,1008.6,100,,,4.6,4.6,25187,0,0,0
2018,10,7,06:30,UTC,8,1008.7,100,,,4.5,4.5,26120,339,1.7,1.3
2018,10,7,06:40,UTC,8,1008.7,100,,,4.8,4.8,28824,341,1.7,1.2
2018,10,7,06:50,UTC,8,1008.8,100,,,5.2,5.1,33634,340,2,1.4
2018,10,7,07:00,UTC,8,1008.8,100,,,5.4,5.4,35204,348,2.1,1.3
2018,10,7,07:10,UTC,8,1008.8,100,,,5.5,5.5,38399,355,2.5,1
2018,10,7,07:20,UTC,8,1008.8,98,,,5.8,5.5,39461,342,2.6,2.1
2018,10,7,07:30,UTC,8,1008.9,96,,,5.9,5.3,38721,344,3.3,2.3
2018,10,7,07:40,UTC,8,1008.8,95,,,5.9,5.2,38582,351,2.7,1.7
2018,10,7,07:50,UTC,8,1008.8,93,,,6,4.9,37721,355,3.2,1.8
2018,10,7,08:00,UTC,8,1008.9,93,,,6,5,43240,356,2.7,1.7
2018,10,7,08:10,UTC,8,1008.9,93,,,6.1,5,40989,354,2.2,1.5
2018,10,7,08:20,UTC,8,1008.9,93,,,6.3,5.2,39314,351,2.4,1.6
2018,10,7,08:30,UTC,8,1008.9,92,,,6.5,5.3,43066,358,2.7,1.6
2018,10,7,08:40,UTC,8,1009,90,,,6.6,5.2,39924,348,2.7,1.8
2018,10,7,08:50,UTC,8,1009,90,,,6.7,5.1,38800,335,2.2,1.3
2018,10,7,09:00,UTC,8,1009.1,90,,,6.9,5.3,44598,327,2.7,1.9
2018,10,7,09:10,UTC,7,1009.1,88,,,7.1,5.2,40857,340,3.3,2.4
2018,10,7,09:20,UTC,7,1009.3,86,,,7.3,5.1,39423,337,3.4,2.6
2018,10,7,09:30,UTC,7,1009.2,85,,,7.3,5,47139,349,3.1,2.2
2018,10,7,09:40,UTC,4,1009.1,86,,,7.6,5.5,44955,339,3.5,2.6
2018,10,7,09:50,UTC,3,1009.1,85,,,7.5,5.2,43449,355,3.9,2.5
2018,10,7,10:00,UTC,5,1009,85,,,7.6,5.3,46736,357,3.1,1.9
2018,10,7,10:10,UTC,7,1009,84,,,7.5,5,41840,20,2.2,1.2
2018,10,7,10:20,UTC,7,1009,84,,,7.6,5,48782,353,2.5,1.6
2018,10,7,10:30,UTC,7,1009.1,81,,,7.5,4.4,48878,354,2.7,2
2018,10,7,10:40,UTC,7,1009.1,82,,,7.6,4.7,50000,353,2.6,1.9
2018,10,7,10:50,UTC,8,1009.1,84,,,7.7,5.1,50000,360,2.5,1.8
2018,10,7,11:00,UTC,8,1009.1,83,,,7.6,4.8,50000,24,2.5,1.4
2018,10,7,11:10,UTC,8,1009,83,,,7.6,4.8,50000,17,2.2,1.4
2018,10,7,11:20,UTC,8,1009.1,83,,,7.6,5,50000,1,2.6,1.4
2018,10,7,11:30,UTC,8,1009.1,84,,,7.6,5,45871,356,3.3,2
2018,10,7,11:40,UTC,8,1009.1,84,,,7.5,5.1,47112,356,3.2,2.1
2018,10,7,11:50,UTC,8,1009.2,84,,,7.6,5.1,39820,359,2.9,1.9
2018,10,7,12:00,UTC,8,1009.3,85,,,7.6,5.1,44299,357,3.7,2.5
2018,10,7,12:10,UTC,8,1009.5,86,,,7.6,5.4,50000,348,3.4,2.3
2018,10,7,12:20,UTC,7,1009.6,84,,,7.5,5,50000,333,4.3,3.3
2018,10,7,12:30,UTC,7,1009.8,85,,,7.5,5.1,50000,344,3.9,2.7
2018,10,7,12:40,UTC,7,1009.8,84,,,7.4,4.8,50000,339,5,3.8
2018,10,7,12:50,UTC,8,1009.9,85,,,7.5,5,50000,345,5.8,3.5
2018,10,7,13:00,UTC,8,1010,83,,,7.6,4.9,49893,351,4.4,3.2
2018,10,7,13:10,UTC,6,1010,83,,,7.8,5,41419,353,5.2,3.4
2018,10,7,13:20,UTC,5,1010.1,82,,,7.9,4.9,39241,350,5.5,4
2018,10,7,13:30,UTC,3,1010.1,81,,,7.8,4.8,48982,345,5.6,3.8
2018,10,7,13:40,UTC,2,1010.1,82,,,7.9,5.1,45770,346,4.7,3.5
2018,10,7,13:50,UTC,1,1010.2,82,,,7.9,5,43043,344,4.7,3.1
2018,10,7,14:00,UTC,1,1010.3,80,,,7.9,4.6,50000,355,4.9,3.4
2018,10,7,14:10,UTC,1,1010.4,79,,,8,4.6,44464,358,4.4,2.8
2018,10,7,14:20,UTC,1,1010.6,79,,,8.1,4.6,47250,3,4.9,2.8
2018,10,7,14:30,UTC,2,1010.7,78,,,7.9,4.2,46292,2,3.9,2.3
2018,10,7,14:40,UTC,1,1010.8,79,,,7.7,4.3,50000,354,3.7,2.4
2018,10,7,14:50,UTC,1,1010.9,79,,,7.6,4.2,50000,357,3.8,2.5
2018,10,7,15:00,UTC,0,1011.1,82,,,6.9,4,48570,344,4.1,3
2018,10,7,15:10,UTC,2,1011.3,81,,,7.3,4.2,50000,350,4.2,3
2018,10,7,15:20,UTC,5,1011.4,83,,,6.8,4,50000,349,3.8,2.7
2018,10,7,15:30,UTC,4,1011.5,86,,,6.4,4.2,50000,1,2.3,1.5
2018,10,7,15:40,UTC,4,1011.7,87,,,6.2,4.1,50000,16,2.4,1.3
2018,10,7,15:50,UTC,2,1011.8,87,,,6.1,4.2,50000,13,2.7,1.6
2018,10,7,16:00,UTC,1,1011.9,91,,,5.6,4.2,50000,14,2.7,1.5
2018,10,7,16:10,UTC,0,1012.1,94,,,4.2,3.3,50000,19,2.1,1
2018,10,7,16:20,UTC,0,1012.2,98,,,3.8,3.5,41960,14,1.5,0.9
2018,10,7,16:30,UTC,0,1012.4,99,,,3.5,3.3,42306,84,1.5,0.7
2018,10,7,16:40,UTC,0,1012.3,100,,,3.9,3.9,14779,105,1.2,0.9
2018,10,7,16:50,UTC,0,1012.5,99,,,3.1,3,39066,131,1,0.5
2018,10,7,17:00,UTC,0,1012.6,100,,,2.9,2.9,31542,0,0,0
2018,10,7,17:10,UTC,0,1012.8,100,,,2.8,2.8,9565,352,1.1,0.8
2018,10,7,17:20,UTC,0,1012.8,100,,,1.8,1.8,2516,0,0,0
2018,10,7,17:30,UTC,0,1013.1,100,,,1.5,1.5,9760,0,0,0
2018,10,7,17:40,UTC,0,1013.2,100,,,1.1,1.1,4231,0,0,0
2018,10,7,17:50,UTC,0,1013.3,100,,,0.9,0.9,995,100,0.9,0.7
2018,10,7,18:00,UTC,0,1013.3,100,,,1.5,1.5,527,94,0.9,0.6
2018,10,7,18:10,UTC,0,1013.3,100,,,0.4,0.3,533,0,0,0
2018,10,7,18:20,UTC,0,1013.5,100,,,0.2,0.2,231,0,0,0
2018,10,7,18:30,UTC,0,1013.7,100,,,0,0,504,0,0,0
2018,10,7,18:40,UTC,0,1013.9,100,,,0.2,0.2,611,0,0,0
2018,10,7,18:50,UTC,0,1014,100,,,-0.2,-0.2,330,0,0,0
2018,10,7,19:00,UTC,2,1014.2,100,,,-0.9,-0.9,278,0,0,0
2018,10,7,19:10,UTC,3,1014.3,100,,,-0.3,-0.3,354,0,0,0
2018,10,7,19:20,UTC,2,1014.5,100,,,-0.7,-0.7,233,0,0,0
2018,10,7,19:30,UTC,2,1014.6,100,,,-1,-1,227,0,0,0
2018,10,7,19:40,UTC,2,1014.8,100,,,-1,-1,411,32,0.9,0.7
2018,10,7,19:50,UTC,1,1015,100,,,-1.4,-1.4,719,67,1.5,0.7
2018,10,7,20:00,UTC,1,1015,100,,,-1.4,-1.4,901,19,1.2,0.7
2018,10,7,20:10,UTC,0,1015,100,,,-1.5,-1.5,1184,0,0,0
2018,10,7,20:20,UTC,0,1015.1,100,,,-1.3,-1.4,1240,0,0,0
2018,10,7,20:30,UTC,0,1015.1,100,,,-1.2,-1.2,4306,114,0.7,0.6
2018,10,7,20:40,UTC,0,1015.2,100,,,-0.9,-0.9,1272,0,0,0
2018,10,7,20:50,UTC,0,1015.3,100,,,-1.6,-1.6,194,0,0,0
2018,10,7,21:00,UTC,0,1015.4,100,,,-1.3,-1.3,509,0,0,0
2018,10,7,21:10,UTC,0,1015.5,100,,,-1.4,-1.4,586,0,0,0
2018,10,7,21:20,UTC,0,1015.6,100,,,-2,-2,490,0,0,0
2018,10,7,21:30,UTC,1,1015.7,100,,,-2.2,-2.3,191,90,0.7,0.5
2018,10,7,21:40,UTC,1,1015.8,100,,,-1.7,-1.7,472,100,0.9,0.7
2018,10,7,21:50,UTC,1,1015.9,100,,,-2.1,-2.1,658,0,0,0
2018,10,7,22:00,UTC,0,1015.9,100,,,-2.6,-2.6,13580,0,0,0
2018,10,7,22:10,UTC,0,1016,100,,,-2.1,-2.2,490,0,0,0
2018,10,7,22:20,UTC,0,1016.1,100,,,-2.1,-2.1,281,0,0,0
2018,10,7,22:30,UTC,0,1016.2,100,,,-2.5,-2.5,373,0,0,0
2018,10,7,22:40,UTC,0,1016.3,100,,,-2.1,-2.2,249,0,0,0
2018,10,7,22:50,UTC,0,1016.5,100,,,-2.6,-2.6,304,0,0,0
2018,10,7,23:00,UTC,0,1016.6,100,,,-2.6,-2.7,315,0,0,0
2018,10,7,23:10,UTC,0,1016.7,100,,,-2.6,-2.6,355,0,0,0
2018,10,7,23:20,UTC,1,1016.8,100,,,-2.6,-2.6,327,0,0,0
2018,10,7,23:30,UTC,1,1016.8,100,,,-2.9,-2.9,1556,0,0,0
2018,10,7,23:40,UTC,0,1016.9,100,,,-3.3,-3.3,466,0,0,0
2018,10,7,23:50,UTC,0,1016.9,100,,,-2.9,-3,356,0,0,0
2018,10,8,00:00,UTC,0,1017.1,100,,,-2.7,-2.7,343,0,0,0
2018,10,8,00:10,UTC,0,1017.1,100,,,-3.2,-3.2,370,0,0,0
2018,10,8,00:20,UTC,0,1017.2,100,,,-2.6,-2.6,435,0,0,0
2018,10,8,00:30,UTC,0,1017.3,100,,,-2.8,-2.8,332,0,0,0
2018,10,8,00:40,UTC,0,1017.4,100,,,-3,-3.1,5151,0,0,0
2018,10,8,00:50,UTC,0,1017.4,100,,,-3.5,-3.5,428,0,0,0
2018,10,8,01:00,UTC,0,1017.5,100,,,-3.5,-3.5,423,0,0,0
2018,10,8,01:10,UTC,0,1017.7,100,,,-3.2,-3.2,528,0,0,0
2018,10,8,01:20,UTC,0,1017.8,100,,,-3.5,-3.5,2121,0,0,0
2018,10,8,01:30,UTC,0,1017.9,100,,,-3,-3,524,134,0.8,0.5
2018,10,8,01:40,UTC,0,1018,100,,,-3.1,-3.1,3074,106,0.9,0.7
2018,10,8,01:50,UTC,0,1018.1,100,,,-3.5,-3.5,5329,0,0,0
2018,10,8,02:00,UTC,0,1018.1,100,,,-3.8,-3.9,31287,0,0,0
2018,10,8,02:10,UTC,0,1018,100,,,-3.4,-3.4,26578,96,1.2,0.7
2018,10,8,02:20,UTC,0,1018.1,100,,,-4,-4,12693,0,0,0
2018,10,8,02:30,UTC,0,1018.1,100,,,-3.7,-3.7,12773,0,0,0
2018,10,8,02:40,UTC,0,1018.1,100,,,-3.3,-3.3,5050,111,0.8,0.6
2018,10,8,02:50,UTC,0,1018.1,100,,,-3.6,-3.7,19169,88,0.7,0.5
2018,10,8,03:00,UTC,0,1018.2,100,,,-4,-4,2314,321,1,0.6
2018,10,8,03:10,UTC,0,1018.3,100,,,-3.5,-3.5,406,316,0.9,0.7
2018,10,8,03:20,UTC,0,1018.3,100,,,-3.6,-3.6,1686,0,0,0
2018,10,8,03:30,UTC,0,1018.3,100,,,-3.9,-3.9,535,105,1,0.8
2018,10,8,03:40,UTC,0,1018.3,100,,,-4.1,-4.1,652,0,0,0
2018,10,8,03:50,UTC,0,1018.3,100,,,-4.1,-4.1,1708,0,0,0
2018,10,8,04:00,UTC,0,1018.2,100,,,-4.5,-4.5,1557,0,0,0
2018,10,8,04:10,UTC,0,1018.2,100,,,-4.4,-4.4,474,0,0,0
2018,10,8,04:20,UTC,0,1018.2,100,,,-3.8,-3.8,1274,108,1.2,0.9
2018,10,8,04:30,UTC,0,1018,100,,,-4.3,-4.3,3692,66,1.3,0.7
2018,10,8,04:40,UTC,0,1017.9,100,,,-4.2,-4.2,27717,0,0,0
2018,10,8,04:50,UTC,0,1017.9,100,,,-4.2,-4.2,19187,0,0,0
2018,10,8,05:00,UTC,0,1018,100,,,-4.1,-4.1,584,0,0,0
2018,10,8,05:10,UTC,0,1018.1,100,,,-3.6,-3.6,1001,0,0,0
2018,10,8,05:20,UTC,0,1018.2,100,,,-3.3,-3.3,26248,0,0,0
2018,10,8,05:30,UTC,0,1018.3,100,,,-2.9,-3,43152,0,0,0
2018,10,8,05:40,UTC,0,1018.3,100,,,-2.5,-2.5,37641,0,0,0
2018,10,8,05:50,UTC,0,1018.3,100,,,-2.1,-2.1,40197,71,1,0.5
2018,10,8,06:00,UTC,3,1018.2,100,,,-2.6,-2.6,37243,0,0,0
2018,10,8,06:10,UTC,5,1018.3,100,,,-2.6,-2.6,35536,0,0,0
2018,10,8,06:20,UTC,7,1018.3,100,,,-2.4,-2.4,37928,0,0,0
2018,10,8,06:30,UTC,6,1018.2,100,,,-1.8,-1.8,29958,0,0,0
2018,10,8,06:40,UTC,3,1018.1,100,,,-0.8,-0.8,28888,50,0.8,0.6
2018,10,8,06:50,UTC,1,1018.1,100,,,-0.4,-0.4,21390,0,0,0
2018,10,8,07:00,UTC,1,1018.1,100,,,0,0,15029,0,0,0
2018,10,8,07:10,UTC,5,1018,100,,,0.4,0.4,13016,0,0,0
2018,10,8,07:20,UTC,6,1017.8,100,,,0.9,0.9,13908,0,0,0
2018,10,8,07:30,UTC,7,1017.7,100,,,1.9,1.9,17087,0,0,0
2018,10,8,07:40,UTC,7,1017.7,100,,,3.6,3.5,21683,117,1.7,0.8
2018,10,8,07:50,UTC,7,1017.6,100,,,5,5,34891,138,2.8,1.9
2018,10,8,08:00,UTC,7,1017.6,93,,,6,5,43935,143,2.6,1.8
2018,10,8,08:10,UTC,7,1017.6,88,,,7,5.1,42313,170,3,1.8
2018,10,8,08:20,UTC,5,1017.5,83,,,8.1,5.4,46218,196,6.4,4.1
2018,10,8,08:30,UTC,,,,,,,,,,,
2018,10,8,08:40,UTC,5,1017.4,71,,,8.5,3.6,44398,206,6.2,3.8
2018,10,8,08:50,UTC,7,1017.3,71,,,8.5,3.6,47746,198,5.7,3.8
2018,10,8,09:00,UTC,7,1017.2,71,,,8.6,3.7,50000,199,6.2,4.4
2018,10,8,09:10,UTC,7,1017.1,76,,,8.5,4.5,50000,197,8.5,5.2
2018,10,8,09:20,UTC,7,1017,77,,,8.6,4.8,50000,191,10.6,5.4
2018,10,8,09:30,UTC,7,1016.9,77,,,8.6,4.8,49982,195,10.4,6.1
2018,10,8,09:40,UTC,7,1016.7,77,,,8.7,4.9,50000,193,10,6.7
2018,10,8,09:50,UTC,6,1016.6,77,,,8.9,5.1,48708,188,9.8,6.5
2018,10,8,10:00,UTC,4,1016.5,77,,,8.9,5.2,43618,187,11.7,6.9
2018,10,8,10:10,UTC,5,1016.4,78,,,9,5.4,46180,188,10.7,6.4
2018,10,8,10:20,UTC,6,1016.3,80,,,8.9,5.6,48217,184,11.5,7.5
2018,10,8,10:30,UTC,7,1016.4,80,,,8.9,5.6,49549,186,10.7,7.2
2018,10,8,10:40,UTC,7,1016.4,83,,,8.7,6,32354,191,11.9,7.4
2018,10,8,10:50,UTC,7,1016.5,85,,,8.6,6.2,23210,192,9.8,6.7
2018,10,8,11:00,UTC,7,1016.5,86,,,8.6,6.4,13633,203,9.2,6.1
2018,10,8,11:10,UTC,8,1016.4,88,,,8.6,6.7,14108,204,7.5,5.1
2018,10,8,11:20,UTC,8,1016.3,88,,,8.5,6.7,11913,204,8.3,4.9
2018,10,8,11:30,UTC,8,1016,90,,,8.4,6.8,8301,205,6.7,5.1
2018,10,8,11:40,UTC,8,1015.8,90,,,8.5,7,10767,198,11.3,5.6
2018,10,8,11:50,UTC,8,1015.5,89,,,8.7,7,12730,188,13.4,7.6
2018,10,8,12:00,UTC,8,1015.6,89,,,8.7,7,12335,198,12.3,8.4
2018,10,8,12:10,UTC,8,1015.6,86,,,8.6,6.3,16892,205,11.7,7.1
2018,10,8,12:20,UTC,8,1015.7,88,,,8.2,6.3,14683,205,12,6.9
2018,10,8,12:30,UTC,8,1015.3,90,,,8,6.4,12224,206,9.7,6.5
2018,10,8,12:40,UTC,8,1015.1,90,,,8.2,6.7,29346,197,12.3,6.5
2018,10,8,12:50,UTC,8,1014.9,92,,,8.4,7.2,37130,195,8.7,5.5
2018,10,8,13:00,UTC,7,1014.7,90,,,8.8,7.2,42739,195,8.5,5.8
2018,10,8,13:10,UTC,7,1014.7,87,,,9,6.9,39600,201,8.7,5.7
2018,10,8,13:20,UTC,7,1014.5,87,,,9.1,7,26640,199,10.3,6.8
2018,10,8,13:30,UTC,8,1014.5,90,,,9.1,7.5,14717,205,10.2,5.9
2018,10,8,13:40,UTC,8,1014.5,86,,,9.2,7,43062,204,10.5,6.5
2018,10,8,13:50,UTC,7,1014.4,84,,,8.9,6.3,18889,212,10,5.9
2018,10,8,14:00,UTC,7,1014,93,,,8.3,7.2,4777,207,10.7,6
2018,10,8,14:10,UTC,7,1013.9,96,,,8.1,7.6,5732,204,8.2,5
2018,10,8,14:20,UTC,8,1013.6,92,,,8.9,7.7,15697,203,10.7,5.9
2018,10,8,14:30,UTC,8,1013.6,92,,,9,7.7,10085,215,9.7,6.1
2018,10,8,14:40,UTC,8,1013.6,92,,,8.7,7.4,39283,218,9,5.6
2018,10,8,14:50,UTC,8,1013.5,92,,,8.6,7.4,37759,206,8.2,4.7
2018,10,8,15:00,UTC,8,1013.5,92,,,8.5,7.2,36374,208,8,4.8
2018,10,8,15:10,UTC,8,1013.5,93,,,8.6,7.4,31465,208,7,4.1
2018,10,8,15:20,UTC,8,1013.4,92,,,8.7,7.5,13313,212,8.3,4.5
2018,10,8,15:30,UTC,8,1013.3,92,,,8.7,7.5,14153,213,8.8,4.7
2018,10,8,15:40,UTC,8,1013.2,91,,,8.8,7.4,18150,212,9.4,5.5
2018,10,8,15:50,UTC,8,1013.2,92,,,8.7,7.5,10527,215,8.7,5.6
2018,10,8,16:00,UTC,8,1013.1,93,,,8.5,7.5,8949,219,8.4,5.4
2018,10,8,16:10,UTC,8,1013.1,93,,,8.4,7.4,9019,213,8.3,5.1
2018,10,8,16:20,UTC,8,1013.1,94,,,8.4,7.4,8734,217,7.1,4.8
2018,10,8,16:30,UTC,8,1013,95,,,8.3,7.6,10210,208,8,3.8
2018,10,8,16:40,UTC,8,1012.8,94,,,8.4,7.4,23153,213,10.2,5.1
2018,10,8,16:50,UTC,8,1012.7,93,,,8.4,7.4,28821,218,8.5,5.2
2018,10,8,17:00,UTC,8,1012.6,93,,,8.5,7.5,14832,214,9.6,5.6
2018,10,8,17:10,UTC,8,1012.7,94,,,8.4,7.6,10791,210,10.5,6.1
2018,10,8,17:20,UTC,8,1012.6,96,,,8.4,7.9,10508,212,8,4.5
2018,10,8,17:30,UTC,8,1012.5,97,,,8.7,8.1,11002,212,8.9,5.4
2018,10,8,17:40,UTC,8,1012.3,96,,,8.8,8.3,10085,215,8.7,5
2018,10,8,17:50,UTC,8,1012.4,96,,,8.9,8.4,8580,217,9.1,6
2018,10,8,18:00,UTC,8,1012.4,93,,,9.1,8.1,16560,217,12.4,6.7
2018,10,8,18:10,UTC,8,1012.1,93,,,9,7.9,16817,220,10.4,6.7
2018,10,8,18:20,UTC,8,1012.2,95,,,8.8,8,9204,218,10.7,6.1
2018,10,8,18:30,UTC,8,1012.2,96,,,8.8,8.3,5960,213,9.2,5.7
2018,10,8,18:40,UTC,8,1012.1,97,,,8.9,8.5,5507,210,7.5,4.9
2018,10,8,18:50,UTC,8,1012.2,98,,,9.1,8.7,6082,214,8.8,5.5
2018,10,8,19:00,UTC,8,1012.2,97,,,9.2,8.7,5624,217,10.3,6.1
2018,10,8,19:10,UTC,8,1012,97,,,9.3,8.8,5122,212,10.4,6.2
2018,10,8,19:20,UTC,8,1011.8,98,,,9.2,8.9,4419,208,9.8,5.9
2018,10,8,19:30,UTC,8,1011.9,98,,,9.2,9,4102,208,10.5,6.2
2018,10,8,19:40,UTC,8,1011.8,99,,,9.3,9.1,4601,210,9.4,5.9
2018,10,8,19:50,UTC,8,1011.7,99,,,9.4,9.2,5341,205,9.7,6.6
2018,10,8,20:00,UTC,8,1011.6,99,,,9.6,9.4,3479,210,10.5,6.1
2018,10,8,20:10,UTC,8,1011.6,99,,,9.6,9.5,3341,210,9.6,5.9
2018,10,8,20:20,UTC,8,1011.6,99,,,9.7,9.6,3567,207,9,5.9
2018,10,8,20:30,UTC,8,1011.5,99,,,9.7,9.6,4761,209,11.1,5.9
2018,10,8,20:40,UTC,8,1011.4,100,,,9.7,9.7,3404,213,6.9,4.6
2018,10,8,20:50,UTC,8,1011.5,99,,,9.8,9.8,3732,210,8.8,5.3
2018,10,8,21:00,UTC,8,1011.5,100,,,9.8,9.7,3272,209,7.8,5
2018,10,8,21:10,UTC,8,1011.4,100,,,9.8,9.8,3234,213,9,5.2
2018,10,8,21:20,UTC,8,1011.4,99,,,9.9,9.8,3551,214,8.9,5.9
2018,10,8,21:30,UTC,8,1011.4,99,,,9.9,9.8,4555,214,8.1,5.2
2018,10,8,21:40,UTC,8,1011.4,99,,,10,9.8,5102,213,8.5,5
2018,10,8,21:50,UTC,8,1011.5,98,,,10,9.8,4791,218,9,5.5
2018,10,8,22:00,UTC,8,1011.4,99,,,10.1,9.9,5249,216,7.2,4.8
2018,10,8,22:10,UTC,8,1011.6,99,,,10.1,9.9,4828,217,8.1,5
2018,10,8,22:20,UTC,8,1011.6,99,,,10,9.9,4974,219,7.7,5
2018,10,8,22:30,UTC,8,1011.7,98,,,10.2,9.9,7662,220,8.4,4.9
2018,10,8,22:40,UTC,8,1011.7,99,,,10.1,9.9,3868,220,7.1,4.7
2018,10,8,22:50,UTC,8,1011.6,99,,,10.1,10,3817,217,7.5,4.8
2018,10,8,23:00,UTC,8,1011.6,99,,,10.1,10,5537,217,7,4.5
2018,10,8,23:10,UTC,8,1011.6,99,,,10.2,10,3593,217,7.7,4.5
2018,10,8,23:20,UTC,8,1011.5,99,,,10.2,10,3093,220,8.5,5.5
2018,10,8,23:30,UTC,8,1011.4,100,,,10.1,10.1,3033,220,6.6,4.1
2018,10,8,23:40,UTC,8,1011.4,100,,,10.2,10.2,4204,215,7.1,4.4
2018,10,8,23:50,UTC,8,1011.3,100,,,10.2,10.2,3470,214,7.4,4.5
2018,10,9,00:00,UTC,8,1011.3,100,,,10.2,10.2,3886,218,6.3,4
2018,10,9,00:10,UTC,8,1011.3,100,,,10.2,10.2,6089,217,6.1,4.2
2018,10,9,00:20,UTC,8,1011.3,100,,,10.2,10.2,5936,216,6.8,3.9
2018,10,9,00:30,UTC,8,1011.3,100,,,10.2,10.2,2995,220,6.3,4.1
2018,10,9,00:40,UTC,8,1011.2,100,,,10.1,10.1,3567,217,5.9,3.7
2018,10,9,00:50,UTC,8,1011.2,100,,,10.3,10.3,6329,214,6.6,4.3
2018,10,9,01:00,UTC,8,1011.1,100,,,10.3,10.3,5147,216,6.7,3.9
2018,10,9,01:10,UTC,8,1011.1,100,,,10.3,10.3,4308,216,6.2,3.8
2018,10,9,01:20,UTC,8,1011,100,,,10.3,10.3,4173,211,5.1,3.5
2018,10,9,01:30,UTC,8,1011.1,100,,,10.3,10.3,6081,215,6,3.7
2018,10,9,01:40,UTC,8,1011,100,,,10.3,10.3,4882,216,5.3,3.6
2018,10,9,01:50,UTC,8,1011,100,,,10.3,10.3,7743,214,4.9,3.3
2018,10,9,02:00,UTC,8,1011,100,,,10.3,10.3,15784,212,5.1,3.2
2018,10,9,02:10,UTC,8,1010.9,100,,,10.2,10.2,16686,200,4.5,3.1
2018,10,9,02:20,UTC,8,1011,100,,,10.3,10.3,17005,208,4.4,3.2
2018,10,9,02:30,UTC,8,1011,100,,,10.3,10.3,21846,211,5.2,3.4
2018,10,9,02:40,UTC,8,1010.9,100,,,10.2,10.2,4963,213,5.8,3.6
2018,10,9,02:50,UTC,8,1010.9,100,,,10.2,10.2,6240,214,5.3,3.6
2018,10,9,03:00,UTC,8,1011,100,,,10.2,10.2,6546,213,5.8,3.3
2018,10,9,03:10,UTC,8,1011,100,,,10.2,10.2,7497,212,5.5,3.2
2018,10,9,03:20,UTC,8,1011,100,,,10.2,10.2,10226,208,5.1,3.1
2018,10,9,03:30,UTC,8,1011.1,100,,,10.2,10.2,8477,211,4.3,2.8
2018,10,9,03:40,UTC,8,1011.1,100,,,10.2,10.2,4264,216,4.7,3
2018,10,9,03:50,UTC,8,1011.1,100,,,10.2,10.2,4011,211,5.1,3.1
2018,10,9,04:00,UTC,8,1011.1,100,,,10.2,10.2,4689,215,4.8,3
2018,10,9,04:10,UTC,8,1011,100,,,10.2,10.2,3794,207,5.4,3.6
2018,10,9,04:20,UTC,8,1010.9,100,,,10.3,10.3,4229,208,4.4,2.9
2018,10,9,04:30,UTC,8,1010.8,100,,,10.2,10.2,6099,199,4.8,3.2
2018,10,9,04:40,UTC,8,1010.8,100,,,10.3,10.3,12031,199,5.4,3.4
2018,10,9,04:50,UTC,8,1010.9,100,,,10.3,10.3,15252,216,5.1,3.3
2018,10,9,05:00,UTC,8,1010.9,100,,,10.4,10.4,14360,212,6.6,3.9
2018,10,9,05:10,UTC,8,1010.9,100,,,10.4,10.4,16324,215,5.6,3.5
2018,10,9,05:20,UTC,8,1010.9,100,,,10.4,10.4,11328,214,5.7,3.8
2018,10,9,05:30,UTC,8,1010.7,100,,,10.4,10.4,9888,209,6.2,4.1
2018,10,9,05:40,UTC,8,1010.7,99,,,10.5,10.4,14553,207,6.3,4.1
2018,10,9,05:50,UTC,8,1010.8,99,,,10.6,10.5,18751,212,7,3.6
2018,10,9,06:00,UTC,8,1010.8,99,,,10.7,10.5,9633,212,8.2,4.7
2018,10,9,06:10,UTC,8,1010.9,99,,,10.7,10.6,16001,209,6.6,4
2018,10,9,06:20,UTC,8,1010.8,100,,,10.7,10.6,10148,209,6.4,3.9
2018,10,9,06:30,UTC,8,1010.8,100,,,10.8,10.7,9384,212,8.3,4.2
2018,10,9,06:40,UTC,8,1010.9,100,,,10.8,10.8,3300,213,6.7,4.8
2018,10,9,06:50,UTC,8,1011.1,100,,,10.9,10.9,5260,214,7.8,4.8
2018,10,9,07:00,UTC,8,1010.8,99,,,11,10.9,27999,205,7.3,4.1
2018,10,9,07:10,UTC,8,1011,98,,,11.1,10.8,39683,210,8.1,5.2
2018,10,9,07:20,UTC,8,1011.1,97,,,11.1,10.7,50000,217,10.1,5.3
2018,10,9,07:30,UTC,8,1011.2,97,,,11.2,10.8,44003,217,8.1,5
2018,10,9,07:40,UTC,8,1011.3,98,,,11.1,10.8,31543,217,7.1,4.8
2018,10,9,07:50,UTC,8,1011.4,98,,,11.1,10.8,38047,212,7.2,4.9
2018,10,9,08:00,UTC,8,1011.3,99,,,11.1,10.9,7825,214,7.1,4.6
2018,10,9,08:10,UTC,8,1011.2,99,,,11.1,11,6337,212,8.3,4.9
2018,10,9,08:20,UTC,8,1011.1,99,,,11.2,11.1,10352,214,8.8,5.2
2018,10,9,08:30,UTC,8,1011.2,99,,,11.2,11.1,4426,225,9,5.1
2018,10,9,08:40,UTC,8,1011.3,100,,,11.3,11.2,4729,218,7.6,5.1
2018,10,9,08:50,UTC,8,1011.5,99,,,11.4,11.3,5949,223,7.4,5
2018,10,9,09:00,UTC,8,1011.4,99,,,11.5,11.3,6198,217,8.4,5.5
2018,10,9,09:10,UTC,8,1011.2,98,,,11.7,11.4,10951,212,7.9,4.7
2018,10,9,09:20,UTC,8,1011.5,98,,,11.7,11.4,23810,220,7.5,4.9
2018,10,9,09:30,UTC,8,1011.4,97,,,11.8,11.3,13956,218,9.7,5.3
2018,10,9,09:40,UTC,8,1011.5,96,,,11.9,11.3,25809,218,6.7,4.8
2018,10,9,09:50,UTC,8,1011.5,96,,,11.9,11.2,44154,222,7.3,5.3
2018,10,9,10:00,UTC,8,1011.5,96,,,11.9,11.3,12869,218,10.6,6.4
2018,10,9,10:10,UTC,8,1011.6,97,,,11.8,11.4,7694,220,9,5.4
2018,10,9,10:20,UTC,8,1011.5,97,,,11.8,11.4,8111,220,9.8,6.2
2018,10,9,10:30,UTC,8,1011.5,97,,,11.8,11.3,11226,218,8.5,5.6
2018,10,9,10:40,UTC,8,1011.7,97,,,11.8,11.4,7669,221,9,5.6
2018,10,9,10:50,UTC,8,1011.7,97,,,11.7,11.3,22271,220,9.6,6.1
2018,10,9,11:00,UTC,8,1011.6,97,,,11.8,11.3,22759,226,10.4,5.5
2018,10,9,11:10,UTC,8,1011.4,96,,,11.8,11.3,21048,221,9.8,6.1
2018,10,9,11:20,UTC,8,1011.7,96,,,11.9,11.3,22765,219,10.9,6.6
2018,10,9,11:30,UTC,8,1011.6,96,,,11.9,11.3,22750,219,9,5.7
2018,10,9,11:40,UTC,8,1011.4,95,,,12,11.2,25286,222,9.9,6.2
2018,10,9,11:50,UTC,8,1011.1,94,,,12,11.1,26014,214,8.3,5.8
2018,10,9,12:00,UTC,8,1011.2,95,,,12,11.1,24781,221,9.9,5.7
2018,10,9,12:10,UTC,8,1011.3,94,,,11.9,11.1,28270,220,11.4,7.3
2018,10,9,12:20,UTC,8,1010.8,94,,,12,11,26812,217,11.7,7.2
2018,10,9,12:30,UTC,8,1011,92,,,12.1,10.8,35046,223,12.1,7.3
2018,10,9,12:40,UTC,8,1010.9,93,,,12,10.9,29575,218,10.9,5.8
2018,10,9,12:50,UTC,8,1010.8,94,,,12,11.1,13629,218,11,7.2
2018,10,9,13:00,UTC,8,1010.8,94,,,12,11.1,14746,220,11.9,7
2018,10,9,13:10,UTC,8,1010.7,94,,,12.1,11.2,20609,224,12.5,7.2
2018,10,9,13:20,UTC,8,1010.7,94,,,12.2,11.2,29304,221,10.4,6.7
2018,10,9,13:30,UTC,8,1010.6,93,,,12.2,11.2,27601,224,10.4,6.5
2018,10,9,13:40,UTC,8,1010.3,92,,,12.3,11.1,30927,218,11.9,7.1
2018,10,9,13:50,UTC,8,1010.3,93,,,12.3,11.1,34909,218,10.9,6.2
2018,10,9,14:00,UTC,8,1010.3,93,,,12.3,11.1,29355,220,10.8,5.8
2018,10,9,14:10,UTC,8,1010.4,92,,,12.3,11.1,28712,227,11,5.7
2018,10,9,14:20,UTC,8,1010.3,92,,,12.3,11.1,27450,224,10.7,5.9
2018,10,9,14:30,UTC,8,1010.4,92,,,12.3,11.1,28561,224,9.9,5.8
2018,10,9,14:40,UTC,8,1010.3,91,,,12.4,11,30552,223,12.4,7.4
2018,10,9,14:50,UTC,8,1010.6,91,,,12.4,10.9,29132,226,11.8,7.2
2018,10,9,15:00,UTC,8,1010.7,91,,,12.3,10.9,27287,231,11.7,6.9
2018,10,9,15:10,UTC,8,1010.7,91,,,12.3,10.9,26693,225,10.8,6.7
2018,10,9,15:20,UTC,8,1010.7,91,,,12.2,10.9,28030,224,11.6,6.3
2018,10,9,15:30,UTC,8,1010.9,90,,,12.3,10.7,27526,226,12.5,7
2018,10,9,15:40,UTC,8,1010.8,90,,,12.3,10.7,26249,226,12.6,7.1
2018,10,9,15:50,UTC,8,1010.8,91,,,12.2,10.7,28931,225,10.6,6.7
2018,10,9,16:00,UTC,8,1010.7,91,,,12.2,10.7,27219,219,11.3,6.2
2018,10,9,16:10,UTC,8,1011.1,91,,,12.2,10.8,25882,223,10.2,5.9
2018,10,9,16:20,UTC,8,1010.9,91,,,12.2,10.8,17414,226,9.9,5.9
2018,10,9,16:30,UTC,8,1010.8,94,,,12,11,7231,218,8,4.9
2018,10,9,16:40,UTC,8,1010.7,94,,,12,11,10906,220,8.1,5.3
2018,10,9,16:50,UTC,8,1010.5,95,,,11.8,11,8558,211,7.2,4.6
2018,10,9,17:00,UTC,8,1010.2,95,,,11.8,11,7929,209,8.6,5.5
2018,10,9,17:10,UTC,8,1009.9,95,,,11.8,11,12256,208,10.3,6
2018,10,9,17:20,UTC,8,1009.9,94,,,11.9,10.9,12072,209,10.2,6.4
2018,10,9,17:30,UTC,8,1010.1,94,,,12,11,16940,218,10.2,6.7
2018,10,9,17:40,UTC,8,1010.1,94,,,12,11,9516,220,10,6.2
2018,10,9,17:50,UTC,8,1010.1,94,,,12,11.1,5918,216,11.9,6.3
2018,10,9,18:00,UTC,8,1010.1,94,,,12,11.1,7244,217,10.3,6
2018,10,9,18:10,UTC,8,1010.1,94,,,12.1,11.1,10618,218,8.7,6.1
2018,10,9,18:20,UTC,8,1010.1,93,,,12.1,11,13023,218,11.1,6.2
2018,10,9,18:30,UTC,8,1009.8,92,,,12.2,11,9033,215,11.9,7
2018,10,9,18:40,UTC,8,1009.9,94,,,12,11.1,6264,215,11.4,7.3
2018,10,9,18:50,UTC,8,1010,95,,,11.9,11.1,4276,220,11.4,7.4
2018,10,9,19:00,UTC,8,1009.9,96,,,11.8,11.2,4302,221,11.5,6.7
2018,10,9,19:10,UTC,8,1009.7,96,,,11.8,11.2,4192,225,11.3,7.1
2018,10,9,19:20,UTC,8,1009.7,97,,,11.8,11.3,4416,219,11.1,6.8
2018,10,9,19:30,UTC,8,1009.7,97,,,11.9,11.4,4850,221,11.6,7
2018,10,9,19:40,UTC,8,1009.6,96,,,12,11.3,6148,220,12.5,6.9
2018,10,9,19:50,UTC,8,1009.6,96,,,12,11.3,7906,218,10.2,7.1
2018,10,9,20:00,UTC,8,1009.7,95,,,12,11.2,7878,215,12.4,6.7
2018,10,9,20:10,UTC,8,1009.7,95,,,12.1,11.2,8427,217,13.4,7.4
2018,10,9,20:20,UTC,8,1009.6,95,,,12,11.2,7917,216,8.6,5.9
2018,10,9,20:30,UTC,8,1009.7,95,,,12,11.2,6446,215,9.3,6.2
2018,10,9,20:40,UTC,8,1009.7,96,,,11.9,11.3,6430,216,8.4,5.4
2018,10,9,20:50,UTC,8,1009.5,95,,,12.1,11.2,8025,219,8.7,5.6
2018,10,9,21:00,UTC,8,1009.4,93,,,12.2,11.2,10428,213,9.1,6
2018,10,9,21:10,UTC,8,1009.4,93,,,12.2,11.1,9431,217,9.5,6.3
2018,10,9,21:20,UTC,8,1009.4,93,,,12.3,11.2,11450,219,8.8,5.7
2018,10,9,21:30,UTC,8,1009.3,92,,,12.3,11.1,15163,215,9.2,6
2018,10,9,21:40,UTC,8,1009.2,91,,,12.4,11.1,9155,221,11.6,7.4
2018,10,9,21:50,UTC,8,1009.4,94,,,12.2,11.2,6323,219,10.6,5.9
2018,10,9,22:00,UTC,8,1009.3,94,,,12.2,11.3,7272,225,9.7,5.8
2018,10,9,22:10,UTC,8,1009.2,95,,,12.2,11.3,7191,215,8.1,5.4
2018,10,9,22:20,UTC,8,1009,95,,,12.1,11.3,8385,220,10.1,6.2
2018,10,9,22:30,UTC,8,1008.9,95,,,12.1,11.3,9741,221,9.3,6.3
2018,10,9,22:40,UTC,8,1009,93,,,12.3,11.2,10356,222,11.2,6.7
2018,10,9,22:50,UTC,8,1009.1,94,,,12.2,11.2,9313,221,10.4,6.5
2018,10,9,23:00,UTC,8,1009.1,93,,,12.3,11.1,17329,222,9.8,6.2
2018,10,9,23:10,UTC,8,1008.9,92,,,12.3,11.1,22162,221,11.3,6.8
2018,10,9,23:20,UTC,8,1008.9,91,,,12.4,11,21156,223,11.1,7.1
2018,10,9,23:30,UTC,8,1008.8,91,,,12.4,11,15647,222,10.8,6.7
2018,10,9,23:40,UTC,8,1008.8,91,,,12.4,11,12563,223,9.9,6.6
2018,10,9,23:50,UTC,8,1008.9,92,,,12.3,11,10039,222,10.2,6.3
2018,10,10,00:00,UTC,8,1008.8,94,,,12.1,11.1,6730,224,10,6.4
2018,10,10,00:10,UTC,8,1008.8,95,,,12,11.2,7073,224,9.5,6.1
2018,10,10,00:20,UTC,8,1008.8,95,,,12,11.2,8172,224,8.6,5.8
2018,10,10,00:30,UTC,8,1008.9,96,,,11.9,11.2,11331,224,8.1,4.9
2018,10,10,00:40,UTC,8,1008.7,95,,,11.9,11.2,10245,222,8.8,5.4
2018,10,10,00:50,UTC,8,1008.9,96,,,11.8,11.2,9965,223,7.3,5
2018,10,10,01:00,UTC,8,1009,95,,,11.9,11.1,14353,219,8.3,5.2
2018,10,10,01:10,UTC,8,1009.2,94,,,11.9,11,12458,226,7.9,5.2
2018,10,10,01:20,UTC,8,1009,95,,,11.9,11,9817,225,8.9,5.4
2018,10,10,01:30,UTC,8,1009.2,95,,,11.8,11.1,11555,226,6.8,4.4
2018,10,10,01:40,UTC,8,1009.5,96,,,11.8,11.1,7366,228,8.4,4.4
2018,10,10,01:50,UTC,8,1009.8,97,,,11.7,11.3,5646,234,7.6,4.3
2018,10,10,02:00,UTC,8,1009.8,98,,,11.6,11.3,6380,228,5.9,3.7
2018,10,10,02:10,UTC,8,1009.9,99,,,11.5,11.4,4271,232,5.8,3.5
2018,10,10,02:20,UTC,8,1009.8,99,,,11.5,11.4,4431,224,5.8,3.6
2018,10,10,02:30,UTC,8,1009.9,99,,,11.5,11.4,7311,226,5.9,3.8
2018,10,10,02:40,UTC,8,1009.7,99,,,11.5,11.3,5766,221,6.5,4.3
2018,10,10,02:50,UTC,8,1009.7,99,,,11.5,11.3,5727,217,7,4.5
2018,10,10,03:00,UTC,8,1009.7,99,,,11.5,11.3,6337,222,7.2,4.5
2018,10,10,03:10,UTC,8,1009.6,99,,,11.5,11.3,7689,218,7.5,4.9
2018,10,10,03:20,UTC,8,1009.8,99,,,11.5,11.3,9919,220,6.8,5
2018,10,10,03:30,UTC,8,1009.8,99,,,11.5,11.3,10678,231,7.4,4.6
2018,10,10,03:40,UTC,8,1010.2,99,,,11.6,11.4,11976,233,6.4,4
2018,10,10,03:50,UTC,8,1010.4,98,,,11.6,11.3,6685,230,7.5,3.7
2018,10,10,04:00,UTC,8,1010.5,98,,,11.6,11.4,4537,239,7,4.3
2018,10,10,04:10,UTC,8,1010.7,99,,,11.6,11.4,4435,245,7.3,4.4
2018,10,10,04:20,UTC,8,1010.9,99,,,11.6,11.4,4538,246,7.6,4.5
2018,10,10,04:30,UTC,8,1010.8,99,,,11.5,11.4,4462,237,7.2,4.3
2018,10,10,04:40,UTC,8,1010.8,99,,,11.5,11.4,5663,236,6.3,3.7
2018,10,10,04:50,UTC,8,1011.1,99,,,11.6,11.4,7621,242,6.7,4.2
2018,10,10,05:00,UTC,8,1011.2,98,,,11.6,11.3,10072,242,6.2,4.2
2018,10,10,05:10,UTC,8,1011.2,98,,,11.6,11.3,10983,240,8.1,4.7
2018,10,10,05:20,UTC,8,1011.1,98,,,11.6,11.3,14208,239,6.4,4
2018,10,10,05:30,UTC,8,1011.2,97,,,11.6,11.2,21238,236,6.3,3.4
2018,10,10,05:40,UTC,8,1011.3,96,,,11.7,11.2,25777,243,7.2,4.5
2018,10,10,05:50,UTC,8,1011.7,96,,,11.8,11.2,22541,242,5.9,3.6
2018,10,10,06:00,UTC,8,1012,96,,,11.8,11.2,24332,248,6.3,3.8
2018,10,10,06:10,UTC,8,1012.1,95,,,11.9,11.2,23728,244,7.1,4.4
2018,10,10,06:20,UTC,8,1012.6,94,,,12,11.1,26008,253,7.2,4.2
2018,10,10,06:30,UTC,8,1012.7,93,,,12.2,11.1,26311,251,6.3,4.1
2018,10,10,06:40,UTC,8,1012.8,92,,,12.3,11,28001,251,6.6,4.5
2018,10,10,06:50,UTC,8,1012.9,92,,,12.3,11.1,25762,248,6,3.8
2018,10,10,07:00,UTC,8,1013.3,91,,,12.5,11.1,29648,261,6.1,3.6
2018,10,10,07:10,UTC,8,1013.5,90,,,12.6,11,26565,261,6.8,4
2018,10,10,07:20,UTC,8,1013.7,90,,,12.7,11.1,29170,256,6.7,4
2018,10,10,07:30,UTC,8,1014,91,,,12.6,11.1,26900,259,6.3,3.4
2018,10,10,07:40,UTC,8,1014.2,90,,,12.7,11.1,31920,254,5.3,3.9
2018,10,10,07:50,UTC,8,1014.3,90,,,12.8,11.2,31583,254,5.1,3.2
2018,10,10,08:00,UTC,8,1014.5,90,,,12.9,11.2,29844,250,5.1,3.4
2018,10,10,08:10,UTC,8,1014.7,89,,,13,11.2,29798,251,5,3.3
2018,10,10,08:20,UTC,8,1014.7,89,,,13.1,11.3,27504,249,6.6,3.8
2018,10,10,08:30,UTC,8,1014.7,88,,,13.3,11.4,26967,245,5,3.4
2018,10,10,08:40,UTC,7,1014.9,87,,,13.5,11.4,30459,243,6.1,3.7
2018,10,10,08:50,UTC,7,1015.1,85,,,13.9,11.5,30506,254,6,4
2018,10,10,09:00,UTC,6,1015.4,86,,,14.1,11.7,26810,257,7.7,4.6
2018,10,10,09:10,UTC,6,1015.7,85,,,14.1,11.6,30686,259,7.2,4.8
2018,10,10,09:20,UTC,5,1015.8,82,,,14.5,11.4,30227,266,6.2,4.2
2018,10,10,09:30,UTC,4,1016,82,,,14.6,11.7,28756,259,7,4.8
2018,10,10,09:40,UTC,1,1016.1,82,,,14.8,11.7,30063,251,6.4,4.3
2018,10,10,09:50,UTC,1,1016.1,79,,,15,11.4,33914,260,6.2,4
2018,10,10,10:00,UTC,0,1016.2,79,,,15.1,11.4,28487,254,6.2,4
2018,10,10,10:10,UTC,0,1016.4,77,,,15.4,11.3,27357,267,5.6,3.7
2018,10,10,10:20,UTC,1,1016.5,76,,,15.4,11.3,33774,280,6.9,5
2018,10,10,10:30,UTC,1,1016.7,75,,,15.4,11,32752,297,9.5,5.2
2018,10,10,10:40,UTC,1,1016.9,73,,,15.5,10.7,31977,294,6.9,4.5
2018,10,10,10:50,UTC,1,1017.1,73,,,15.8,11,37833,292,7.8,4.7
2018,10,10,11:00,UTC,1,1017.4,72,,,16.2,11.1,30039,294,7.1,4
2018,10,10,11:10,UTC,1,1017.6,72,,,15.9,10.8,40769,281,6.6,4.4
2018,10,10,11:20,UTC,1,1017.6,71,,,16.1,10.8,31985,290,7.4,4.5
2018,10,10,11:30,UTC,3,1017.9,70,,,16.5,11,32247,286,6.9,4.6
2018,10,10,11:40,UTC,3,1018,70,,,16.4,10.9,34686,280,6.9,4.5
2018,10,10,11:50,UTC,4,1018,66,,,16.3,9.9,40192,286,7.1,4.6
2018,10,10,12:00,UTC,2,1018.1,66,,,16.8,10.5,36528,293,6.7,4
2018,10,10,12:10,UTC,3,1018.3,66,,,17.1,10.8,40084,283,5.7,3.8
2018,10,10,12:20,UTC,4,1018.5,64,,,16.7,9.7,40013,270,6.8,4.8
2018,10,10,12:30,UTC,4,1018.6,65,,,16.9,10.3,41413,300,6.1,3.8
2018,10,10,12:40,UTC,5,1018.8,64,,,16.6,9.7,34383,285,8.3,4.7
2018,10,10,12:50,UTC,3,1018.9,64,,,16.7,9.9,40107,304,7.9,4.9
2018,10,10,13:00,UTC,2,1019.1,61,,,16.5,8.9,43963,295,8.6,5.1
2018,10,10,13:10,UTC,1,1019.1,63,,,16.5,9.3,40381,301,6.8,4.3
2018,10,10,13:20,UTC,0,1019.2,61,,,16.4,8.9,47152,297,7.9,4.6
2018,10,10,13:30,UTC,0,1019.4,61,,,16.3,8.8,44013,294,6,4.2
2018,10,10,13:40,UTC,0,1019.5,61,,,16.3,8.9,48819,299,5.3,3.6
2018,10,10,13:50,UTC,0,1019.8,61,,,16.1,8.6,48845,307,5.7,3.8
2018,10,10,14:00,UTC,1,1019.8,62,,,16,8.6,50000,306,6.3,4.2
2018,10,10,14:10,UTC,1,1020.1,61,,,15.8,8.3,44959,309,6.2,3.4
2018,10,10,14:20,UTC,1,1020.2,59,,,15.4,7.4,45984,309,7.4,4.3
2018,10,10,14:30,UTC,0,1020.4,59,,,15.2,7.2,45568,307,7.3,4.4
2018,10,10,14:40,UTC,0,1020.7,59,,,15.1,7.2,50000,309,6.6,3.9
2018,10,10,14:50,UTC,0,1020.9,61,,,14.7,7.3,50000,306,5.2,3
2018,10,10,15:00,UTC,0,1021,62,,,14.4,7.2,50000,313,3.6,2.4
2018,10,10,15:10,UTC,0,1021.3,64,,,14.1,7.3,50000,316,4.1,2.7
2018,10,10,15:20,UTC,0,1021.6,64,,,13.7,7.1,50000,310,3,2.1
2018,10,10,15:30,UTC,0,1021.7,67,,,13.2,7.1,50000,306,2.8,1.7
2018,10,10,15:40,UTC,0,1022,73,,,12.2,7.5,50000,277,1.5,1
2018,10,10,15:50,UTC,0,1022.2,81,,,11,7.8,50000,265,1.4,1.1
2018,10,10,16:00,UTC,0,1022.5,84,,,10.5,7.9,50000,255,1.4,0.8
2018,10,10,16:10,UTC,0,1022.7,84,,,10.7,8,50000,0,0,0
2018,10,10,16:20,UTC,0,1022.7,90,,,9.8,8.2,50000,166,1.1,0.7
2018,10,10,16:30,UTC,0,1023,92,,,9.4,8.1,44776,242,1.2,0.6
2018,10,10,16:40,UTC,0,1023.2,93,,,9.4,8.3,44660,0,0,0
2018,10,10,16:50,UTC,0,1023.4,95,,,8.2,7.4,47438,100,0.9,0.7
2018,10,10,17:00,UTC,0,1023.5,96,,,7.6,7,47163,0,0,0
2018,10,10,17:10,UTC,0,1023.8,99,,,7.6,7.5,32157,0,0,0
2018,10,10,17:20,UTC,0,1024,100,,,7.4,7.4,26888,127,1,0.7
2018,10,10,17:30,UTC,0,1024.2,100,,,7.7,7.6,37436,108,1,0.7
2018,10,10,17:40,UTC,0,1024.3,100,,,6.6,6.6,1637,0,0,0
2018,10,10,17:50,UTC,0,1024.4,100,,,6.6,6.6,22277,0,0,0
2018,10,10,18:00,UTC,0,1024.5,100,,,7,7,5748,0,0,0
2018,10,10,18:10,UTC,0,1024.7,100,,,5.6,5.6,1655,0,0,0
2018,10,10,18:20,UTC,0,1024.9,100,,,6.7,6.7,739,8,0.8,0.5
2018,10,10,18:30,UTC,0,1025,100,,,5.9,5.9,1518,0,0,0
2018,10,10,18:40,UTC,0,1025.1,100,,,6,6,19161,0,0,0
2018,10,10,18:50,UTC,0,1025.3,100,,,5.7,5.7,10857,0,0,0
2018,10,10,19:00,UTC,0,1025.4,100,,,5.7,5.7,17082,0,0,0
2018,10,10,19:10,UTC,0,1025.6,100,,,5.7,5.7,627,0,0,0
2018,10,10,19:20,UTC,0,1025.7,100,,,4.9,4.9,2362,0,0,0
2018,10,10,19:30,UTC,0,1025.8,100,,,4.1,4.1,1405,0,0,0
2018,10,10,19:40,UTC,0,1025.9,100,,,4.5,4.5,652,67,1,0.6
2018,10,10,19:50,UTC,0,1026,100,,,5,5,39037,128,1,0.7
2018,10,10,20:00,UTC,0,1026.1,100,,,4.9,4.9,1891,112,1,0.8
2018,10,10,20:10,UTC,0,1026.2,100,,,4.4,4.4,3086,128,0.7,0.5
2018,10,10,20:20,UTC,0,1026.4,100,,,4.4,4.4,1936,0,0,0
2018,10,10,20:30,UTC,0,1026.5,100,,,4.9,4.8,1767,0,0,0
2018,10,10,20:40,UTC,0,1026.7,100,,,4.5,4.5,647,0,0,0
2018,10,10,20:50,UTC,0,1026.8,100,,,4.7,4.7,978,36,0.8,0.6
2018,10,10,21:00,UTC,0,1027,100,,,3.1,3.1,14662,33,0.9,0.7
2018,10,10,21:10,UTC,0,1027,100,,,3.8,3.8,10307,31,1.5,0.8
2018,10,10,21:20,UTC,0,1026.9,100,,,3.8,3.8,2555,126,0.8,0.5
2018,10,10,21:30,UTC,0,1026.9,100,,,3.6,3.6,44731,120,0.8,0.6
2018,10,10,21:40,UTC,0,1026.9,100,,,4.5,4.5,31277,101,0.8,0.5
2018,10,10,21:50,UTC,0,1027,100,,,3.5,3.5,2151,0,0,0
2018,10,10,22:00,UTC,0,1027.1,100,,,3.5,3.5,551,49,0.6,0.5
2018,10,10,22:10,UTC,0,1027.4,100,,,2.7,2.7,467,0,0,0
2018,10,10,22:20,UTC,0,1027.4,100,,,3.8,3.8,374,0,0,0
2018,10,10,22:30,UTC,0,1027.5,100,,,3.2,3.2,343,0,0,0
2018,10,10,22:40,UTC,1,1027.6,100,,,2,2,179,0,0,0
2018,10,10,22:50,UTC,0,1027.5,100,,,2.4,2.4,560,0,0,0
2018,10,10,23:00,UTC,0,1027.6,100,,,2.3,2.3,9444,0,0,0
2018,10,10,23:10,UTC,0,1027.7,100,,,2.5,2.5,28583,0,0,0
2018,10,10,23:20,UTC,0,1027.8,100,,,2.4,2.4,33194,0,0,0
2018,10,10,23:30,UTC,0,1027.9,100,,,2.3,2.3,40329,0,0,0
2018,10,10,23:40,UTC,0,1028,100,,,2.8,2.8,1014,206,1.2,0.9
2018,10,10,23:50,UTC,0,1028.1,100,,,4,4,24089,137,1.5,1.1
2018,10,11,00:00,UTC,0,1028.2,100,,,4.2,4.2,28125,155,1.2,0.8
2018,10,11,00:10,UTC,0,1028.3,100,,,3.2,3.2,42028,131,1,0.8
2018,10,11,00:20,UTC,0,1028.4,100,,,2.9,2.9,19984,97,1.3,1
2018,10,11,00:30,UTC,0,1028.6,100,,,2.5,2.5,1946,0,0,0
2018,10,11,00:40,UTC,0,1028.7,100,,,2.7,2.7,2419,111,1.1,0.7
2018,10,11,00:50,UTC,0,1028.7,100,,,2.1,2.1,1096,0,0,0
2018,10,11,01:00,UTC,0,1028.8,100,,,3.1,3.1,2292,60,1,0.7
2018,10,11,01:10,UTC,0,1028.9,100,,,1.1,1.1,1872,0,0,0
2018,10,11,01:20,UTC,0,1029,100,,,1.3,1.3,1096,0,0,0
2018,10,11,01:30,UTC,0,1029.1,100,,,1.6,1.6,403,0,0,0
2018,10,11,01:40,UTC,0,1029.2,100,,,1.6,1.6,266,0,0,0
2018,10,11,01:50,UTC,0,1029.1,100,,,1.8,1.8,439,0,0,0
2018,10,11,02:00,UTC,0,1029.3,100,,,1.9,1.9,920,0,0,0
2018,10,11,02:10,UTC,0,1029.3,100,,,1.4,1.4,516,0,0,0
2018,10,11,02:20,UTC,0,1029.3,100,,,1.7,1.7,691,0,0,0
2018,10,11,02:30,UTC,0,1029.3,100,,,0.9,0.9,905,0,0,0
2018,10,11,02:40,UTC,0,1029.5,100,,,1.2,1.2,476,103,0.7,0.5
2018,10,11,02:50,UTC,0,1029.4,100,,,1.4,1.4,479,84,0.9,0.6
2018,10,11,03:00,UTC,0,1029.5,100,,,1,1,514,0,0,0
2018,10,11,03:10,UTC,0,1029.4,100,,,1.1,1.1,818,0,0,0
2018,10,11,03:20,UTC,0,1029.5,100,,,1.2,1.2,1032,0,0,0
2018,10,11,03:30,UTC,0,1029.4,100,,,0.6,0.6,765,0,0,0
2018,10,11,03:40,UTC,0,1029.5,100,,,0.8,0.8,604,0,0,0
2018,10,11,03:50,UTC,0,1029.5,100,,,1.4,1.4,487,0,0,0
2018,10,11,04:00,UTC,0,1029.6,100,,,1.2,1.2,349,0,0,0
2018,10,11,04:10,UTC,0,1029.7,100,,,0.7,0.7,1023,0,0,0
2018,10,11,04:20,UTC,0,1029.8,100,,,0.6,0.6,538,0,0,0
2018,10,11,04:30,UTC,0,1029.8,100,,,0.6,0.6,909,0,0,0
2018,10,11,04:40,UTC,0,1030,100,,,0.7,0.7,531,338,0.8,0.6
2018,10,11,04:50,UTC,0,1030,100,,,0.8,0.8,582,0,0,0
2018,10,11,05:00,UTC,0,1030.1,100,,,0.6,0.5,861,0,0,0
2018,10,11,05:10,UTC,0,1030.2,100,,,0.6,0.6,1422,0,0,0
2018,10,11,05:20,UTC,0,1030.1,100,,,0.4,0.4,863,0,0,0
2018,10,11,05:30,UTC,0,1030.1,100,,,1.2,1.2,526,0,0,0
2018,10,11,05:40,UTC,0,1030.2,100,,,1.2,1.2,6611,0,0,0
2018,10,11,05:50,UTC,0,1030.4,100,,,1.7,1.7,31320,0,0,0
2018,10,11,06:00,UTC,0,1030.5,100,,,3.2,3.2,25371,0,0,0
2018,10,11,06:10,UTC,0,1030.6,100,,,3.3,3.3,23121,0,0,0
2018,10,11,06:20,UTC,0,1030.6,100,,,4.2,4.2,18450,0,0,0
2018,10,11,06:30,UTC,0,1030.7,100,,,4.5,4.5,19333,0,0,0
2018,10,11,06:40,UTC,0,1030.7,100,,,5.5,5.5,29594,0,0,0
2018,10,11,06:50,UTC,0,1030.7,100,,,5.3,5.3,31068,0,0,0
2018,10,11,07:00,UTC,0,1030.7,100,,,6,6,31459,0,0,0
2018,10,11,07:10,UTC,0,1030.5,100,,,7,7,26499,0,0,0
2018,10,11,07:20,UTC,0,1030.5,100,,,8.3,8.3,30766,0,0,0
2018,10,11,07:30,UTC,0,1030.7,96,,,9.2,8.6,28158,0,0,0
2018,10,11,07:40,UTC,0,1030.8,93,,,10.3,9.2,31083,190,1.8,0.8
2018,10,11,07:50,UTC,0,1030.8,87,,,11.3,9.2,38592,170,1.8,1
2018,10,11,08:00,UTC,0,1030.9,85,,,11.6,9.2,39962,179,3.1,1.9
2018,10,11,08:10,UTC,0,1031.1,87,,,11.8,9.7,42471,180,3.6,2.3
2018,10,11,08:20,UTC,0,1031.2,86,,,11.9,9.7,38534,191,3.8,2.6
2018,10,11,08:30,UTC,0,1031.2,87,,,12.1,10.1,45871,181,4.1,2.9
2018,10,11,08:40,UTC,0,1031.3,89,,,12.4,10.6,36415,182,4.1,3.1
2018,10,11,08:50,UTC,0,1031.3,89,,,12.3,10.5,38084,181,4,3
2018,10,11,09:00,UTC,0,1031.2,89,,,12.4,10.5,45893,177,3.6,2.5
2018,10,11,09:10,UTC,0,1031.2,85,,,12.7,10.3,39586,175,3.1,2.1
2018,10,11,09:20,UTC,0,1031.2,83,,,13.2,10.5,35051,178,2.9,1.9
2018,10,11,09:30,UTC,0,1031.2,81,,,13.2,10,38651,173,3.4,2.3
2018,10,11,09:40,UTC,0,1031.1,78,,,13.6,9.8,42423,163,3.5,2.3
2018,10,11,09:50,UTC,0,1031.1,78,,,13.6,9.7,44059,165,3.4,2.5
2018,10,11,10:00,UTC,0,1031,75,,,13.7,9.2,39740,182,3.4,2.5
2018,10,11,10:10,UTC,0,1030.9,78,,,13.6,9.8,35786,174,3.3,2.4
2018,10,11,10:20,UTC,0,1031,76,,,14,9.9,36358,186,3.5,2.3
2018,10,11,10:30,UTC,0,1031,76,,,13.9,9.8,42298,183,3.7,2.1
2018,10,11,10:40,UTC,0,1031,76,,,13.7,9.7,43278,192,3.6,2.4
2018,10,11,10:50,UTC,0,1030.9,76,,,13.7,9.6,43672,166,3.7,2.6
2018,10,11,11:00,UTC,0,1030.9,75,,,13.7,9.3,38645,174,3.8,2.5
2018,10,11,11:10,UTC,0,1030.9,75,,,13.5,9.2,39486,168,3.2,2.5
2018,10,11,11:20,UTC,0,1030.9,73,,,13.7,9,38237,183,3.4,2.6
2018,10,11,11:30,UTC,0,1030.8,74,,,13.7,9.1,43530,180,4.1,2.8
2018,10,11,11:40,UTC,0,1030.8,74,,,13.6,9.1,37236,184,3.9,2.9
2018,10,11,11:50,UTC,0,1030.7,75,,,13.2,8.9,37839,181,4.1,3.1
2018,10,11,12:00,UTC,0,1030.7,79,,,13.3,9.6,43029,187,4.7,3.4
2018,10,11,12:10,UTC,0,1030.7,82,,,12.8,9.7,44780,187,4.3,3.5
2018,10,11,12:20,UTC,0,1030.7,82,,,12.2,9.3,47261,190,4.2,3.5
2018,10,11,12:30,UTC,0,1030.8,87,,,11.4,9.3,47711,197,4.6,3.9
2018,10,11,12:40,UTC,0,1030.9,92,,,10.5,9.2,48490,192,5.5,4.2
2018,10,11,12:50,UTC,0,1030.8,94,,,10.4,9.4,37274,188,4.4,3.4
2018,10,11,13:00,UTC,0,1031,95,,,10.4,9.6,42570,183,4.4,3.4
2018,10,11,13:10,UTC,2,1030.9,96,,,9.8,9.2,23556,182,5,3.4
2018,10,11,13:20,UTC,5,1030.9,100,,,9.6,9.6,845,185,4.8,3.6
2018,10,11,13:30,UTC,9,1031,100,,,9.8,9.8,522,190,4.5,3.1
2018,10,11,13:40,UTC,9,1030.9,100,,,10,10,700,187,4.7,3.2
2018,10,11,13:50,UTC,9,1030.9,100,,,10.2,10.2,1123,190,4.4,2.7
2018,10,11,14:00,UTC,8,1030.8,100,,,10.4,10.4,2450,189,3.3,2.2
2018,10,11,14:10,UTC,8,1030.8,100,,,10.5,10.5,4626,191,3.2,2.3
2018,10,11,14:20,UTC,8,1030.8,100,,,10.6,10.6,6244,192,3,2
2018,10,11,14:30,UTC,8,1030.8,100,,,10.7,10.7,6783,193,3.6,2.3
2018,10,11,14:40,UTC,8,1030.8,100,,,10.6,10.6,6341,178,3,2.1
2018,10,11,14:50,UTC,8,1030.8,100,,,10.5,10.5,6260,186,2.9,2.3
2018,10,11,15:00,UTC,8,1030.8,100,,,10.6,10.6,7649,185,3.1,2.5
2018,10,11,15:10,UTC,8,1030.8,100,,,10.7,10.6,8618,187,2.6,1.9
2018,10,11,15:20,UTC,8,1030.8,100,,,10.7,10.7,8978,183,2.5,1.6
2018,10,11,15:30,UTC,8,1030.8,100,,,10.7,10.6,9205,187,2,1.6
2018,10,11,15:40,UTC,8,1030.8,100,,,10.7,10.7,9631,180,2.1,1.4
2018,10,11,15:50,UTC,8,1030.8,100,,,10.7,10.7,10180,173,2.8,1.8
2018,10,11,16:00,UTC,8,1030.8,100,,,10.7,10.7,10094,174,2.3,1.7
2018,10,11,16:10,UTC,8,1030.8,100,,,10.7,10.7,9991,181,2.3,1.6
2018,10,11,16:20,UTC,8,1030.9,100,,,10.7,10.7,10081,186,2.2,1.6
2018,10,11,16:30,UTC,8,1030.9,100,,,10.7,10.7,10370,187,2.4,1.7
2018,10,11,16:40,UTC,8,1030.9,100,,,10.7,10.7,11103,177,2.4,1.8
2018,10,11,16:50,UTC,8,1030.8,100,,,10.6,10.6,9927,167,2.2,1.4
2018,10,11,17:00,UTC,8,1030.8,100,,,10.7,10.7,10019,169,2.2,1.3
2018,10,11,17:10,UTC,8,1030.8,100,,,10.7,10.7,9646,174,2.2,1.4
2018,10,11,17:20,UTC,8,1030.8,100,,,10.7,10.7,9906,176,1.6,1.3
2018,10,11,17:30,UTC,8,1030.8,100,,,10.7,10.7,10595,176,2,1.2
2018,10,11,17:40,UTC,8,1030.9,99,,,10.8,10.7,11676,176,2,1.4
2018,10,11,17:50,UTC,8,1030.9,99,,,10.8,10.6,12457,176,1.9,1.5
2018,10,11,18:00,UTC,8,1030.9,99,,,10.7,10.6,11998,178,2.4,1.6
2018,10,11,18:10,UTC,8,1030.7,100,,,10.6,10.6,11405,178,2.3,1.4
2018,10,11,18:20,UTC,8,1030.8,100,,,10.6,10.6,11482,170,1.8,1.1
2018,10,11,18:30,UTC,8,1030.8,100,,,10.7,10.6,11819,165,2.1,1.1
2018,10,11,18:40,UTC,8,1030.7,100,,,10.8,10.7,12176,162,2.4,1.5
2018,10,11,18:50,UTC,8,1030.7,99,,,10.8,10.7,12438,167,2.8,1.8
2018,10,11,19:00,UTC,8,1030.7,99,,,10.9,10.7,14247,178,3.7,1.9
2018,10,11,19:10,UTC,8,1030.7,98,,,10.9,10.6,18427,191,2.9,2
2018,10,11,19:20,UTC,8,1030.7,97,,,11,10.6,21875,191,2.9,2.1
2018,10,11,19:30,UTC,8,1030.6,97,,,11.1,10.6,20175,192,3.3,1.8
2018,10,11,19:40,UTC,8,1030.6,94,,,11.4,10.4,30673,208,4.5,2.7
2018,10,11,19:50,UTC,8,1030.6,93,,,11.3,10.3,39233,199,3.9,2.5
2018,10,11,20:00,UTC,8,1030.6,93,,,11.4,10.2,39300,190,3.9,2.4
2018,10,11,20:10,UTC,8,1030.6,91,,,11.4,10,38549,200,3.7,2.4
2018,10,11,20:20,UTC,8,1030.6,91,,,11.5,10.1,44328,199,4.1,2.7
2018,10,11,20:30,UTC,8,1030.5,91,,,11.4,10.1,43794,204,4.1,2.4
2018,10,11,20:40,UTC,8,1030.6,92,,,11.5,10.2,41949,196,3.4,2.3
2018,10,11,20:50,UTC,8,1030.6,94,,,11.4,10.4,31491,187,3.5,2.7
2018,10,11,21:00,UTC,8,1030.6,95,,,11.3,10.6,25768,185,4.4,2.9
2018,10,11,21:10,UTC,8,1030.7,96,,,11.2,10.6,17524,184,3.9,2.8
2018,10,11,21:20,UTC,8,1030.8,97,,,11.1,10.6,16500,188,4.4,2.6
2018,10,11,21:30,UTC,8,1030.8,96,,,11.2,10.6,16669,187,4.3,2.9
2018,10,11,21:40,UTC,8,1030.7,96,,,11.1,10.5,18209,184,3.8,2.6
2018,10,11,21:50,UTC,8,1030.7,95,,,11.2,10.4,18460,200,3.8,2.7
2018,10,11,22:00,UTC,8,1030.7,95,,,11.1,10.4,15084,202,4.4,2.9
2018,10,11,22:10,UTC,8,1030.6,95,,,11.1,10.4,23490,212,5.3,2.9
2018,10,11,22:20,UTC,8,1030.5,96,,,11,10.4,11389,197,5.9,3.2
2018,10,11,22:30,UTC,8,1030.4,96,,,11,10.4,20890,212,5,2.7
2018,10,11,22:40,UTC,8,1030.5,96,,,11,10.4,18281,205,4.9,3.4
2018,10,11,22:50,UTC,8,1030.4,96,,,10.9,10.4,16207,219,5.5,3
2018,10,11,23:00,UTC,8,1030.4,96,,,11,10.3,19560,217,5.7,2.7
2018,10,11,23:10,UTC,8,1030.5,95,,,11,10.3,25191,217,4.8,2.8
2018,10,11,23:20,UTC,8,1030.4,94,,,11.1,10.2,24812,217,4.9,3.1
2018,10,11,23:30,UTC,8,1030.3,93,,,11.1,10.1,27854,209,5.6,3.3
2018,10,11,23:40,UTC,8,1030.2,93,,,11.1,10.1,26030,206,4.6,2.8
2018,10,11,23:50,UTC,8,1030.3,93,,,11.1,10.1,34391,217,4.4,2.5
2018,10,12,00:00,UTC,8,1030.2,94,,,11,10.1,31706,209,3.2,1.8
2018,10,12,00:10,UTC,8,1030.1,94,,,11.1,10.1,33184,204,3,1.5
2018,10,12,00:20,UTC,8,1030,96,,,10.9,10.3,28226,171,2.8,2.1
2018,10,12,00:30,UTC,8,1030,97,,,10.9,10.4,23633,179,3.3,2.1
2018,10,12,00:40,UTC,8,1029.9,97,,,10.8,10.4,22619,181,2.8,2.1
2018,10,12,00:50,UTC,8,1029.9,98,,,10.8,10.5,20741,179,3.8,2.6
2018,10,12,01:00,UTC,8,1029.9,98,,,10.8,10.5,19216,185,2.8,2.1
2018,10,12,01:10,UTC,8,1029.9,98,,,10.8,10.5,20133,183,3,2.1
2018,10,12,01:20,UTC,8,1029.8,98,,,10.8,10.5,21475,183,3,2.1
2018,10,12,01:30,UTC,8,1029.9,98,,,10.9,10.6,21187,186,2.7,1.9
2018,10,12,01:40,UTC,8,1030.1,98,,,10.9,10.6,21757,207,2.7,1.7
2018,10,12,01:50,UTC,8,1030,96,,,11.1,10.5,25971,225,3.9,2.6
2018,10,12,02:00,UTC,8,1030,96,,,11.1,10.4,25052,227,4.9,2.9
2018,10,12,02:10,UTC,8,1030,94,,,11.1,10.1,29859,213,4.9,3.3
2018,10,12,02:20,UTC,8,1029.9,95,,,10.9,10.1,27728,205,3.3,2.5
2018,10,12,02:30,UTC,8,1029.8,95,,,10.9,10.1,28301,205,3.7,2.4
2018,10,12,02:40,UTC,8,1029.7,95,,,10.8,10.1,25460,208,4.2,2.5
2018,10,12,02:50,UTC,8,1029.7,96,,,10.8,10.1,21988,199,5,2.8
2018,10,12,03:00,UTC,8,1029.7,94,,,10.8,9.9,24601,228,5,3.1
2018,10,12,03:10,UTC,8,1029.6,96,,,10.6,10,19290,242,3.8,2.6
2018,10,12,03:20,UTC,8,1029.5,97,,,10.5,10.1,16295,228,3.2,1.9
2018,10,12,03:30,UTC,8,1029.6,97,,,10.5,10,18703,218,4.5,2.9
2018,10,12,03:40,UTC,8,1029.6,97,,,10.4,10,16133,213,3.4,2.5
2018,10,12,03:50,UTC,8,1029.5,98,,,10.4,10.1,13667,216,3.5,2.3
2018,10,12,04:00,UTC,8,1029.4,98,,,10.3,10.1,10996,217,3.7,2.5
2018,10,12,04:10,UTC,8,1029.4,99,,,10.3,10.2,9616,205,3.4,2.3
2018,10,12,04:20,UTC,8,1029.5,100,,,10.3,10.2,7299,221,4.5,2.6
2018,10,12,04:30,UTC,8,1029.5,100,,,10.2,10.2,6546,224,3.5,2.2
2018,10,12,04:40,UTC,8,1029.3,100,,,10.2,10.2,5330,206,2.9,2
2018,10,12,04:50,UTC,8,1029.3,100,,,10.1,10.1,4994,194,4.8,3.3
2018,10,12,05:00,UTC,8,1029.3,100,,,10.2,10.1,6478,210,4.9,2.6
2018,10,12,05:10,UTC,8,1029.3,100,,,10.1,10.1,3561,214,3.2,2.1
2018,10,12,05:20,UTC,8,1029.2,100,,,10.1,10.1,2827,200,3,1.8
2018,10,12,05:30,UTC,8,1029.2,100,,,10.2,10.2,2617,204,4.5,2.4
2018,10,12,05:40,UTC,8,1029.1,100,,,10.2,10.2,2558,201,3.8,2.2
2018,10,12,05:50,UTC,8,1029.2,100,,,10.2,10.2,2474,213,4,2.9
2018,10,12,06:00,UTC,8,1029.1,100,,,10.3,10.3,2317,195,3.2,1.9
2018,10,12,06:10,UTC,8,1029,100,,,10.3,10.3,2300,191,4,2.4
2018,10,12,06:20,UTC,8,1029.1,100,,,10.4,10.4,1762,199,4.4,3
2018,10,12,06:30,UTC,8,1029.3,100,,,10.4,10.4,2137,189,5.9,4
2018,10,12,06:40,UTC,8,1029.6,100,,,10.4,10.4,1476,194,6.1,3.9
2018,10,12,06:50,UTC,8,1029.7,100,,,10.4,10.4,1614,205,4.3,3.1
2018,10,12,07:00,UTC,8,1029.5,100,,,10.4,10.4,2913,199,5.5,3.4
2018,10,12,07:10,UTC,8,1029.5,100,,,10.5,10.4,3264,212,5.4,3.4
2018,10,12,07:20,UTC,8,1029.4,100,,,10.5,10.5,3379,190,3.8,2.5
2018,10,12,07:30,UTC,8,1029.4,100,,,10.6,10.5,4900,190,4.8,3.3
2018,10,12,07:40,UTC,8,1029.5,100,,,10.6,10.6,4013,184,4.2,2.8
2018,10,12,07:50,UTC,8,1029.4,100,,,10.6,10.6,3923,179,4.3,3.1
2018,10,12,08:00,UTC,8,1029.4,100,,,10.5,10.5,3610,175,5,3.3
2018,10,12,08:10,UTC,8,1029.3,100,,,10.5,10.5,3252,174,4.3,2.8
2018,10,12,08:20,UTC,8,1029.3,100,,,10.5,10.5,2039,170,6.5,3.9
2018,10,12,08:30,UTC,8,1029.3,100,,,10.5,10.5,1949,176,4.4,2.9
2018,10,12,08:40,UTC,8,1029.4,100,,,10.5,10.5,2441,179,5.9,4.4
2018,10,12,08:50,UTC,8,1029.2,100,,,10.5,10.5,2011,176,6.1,4.2
2018,10,12,09:00,UTC,8,1029.4,100,,,10.5,10.5,1874,182,5.3,3.5
2018,10,12,09:10,UTC,8,1029.3,100,,,10.5,10.5,1926,173,6.1,4
2018,10,12,09:20,UTC,8,1029.2,100,,,10.5,10.5,2408,172,4.7,3
2018,10,12,09:30,UTC,8,1029.1,100,,,10.5,10.5,2985,169,5.3,3.5
2018,10,12,09:40,UTC,8,1029.1,100,,,10.5,10.5,3721,161,5.6,3.6
2018,10,12,09:50,UTC,8,1029.2,100,,,10.6,10.6,3735,171,5.5,3.7
2018,10,12,10:00,UTC,8,1029,100,,,10.6,10.6,3025,168,6.4,3.9
2018,10,12,10:10,UTC,8,1029,100,,,10.7,10.7,3488,177,4.7,3
2018,10,12,10:20,UTC,8,1028.9,100,,,10.7,10.7,4299,185,5,3.1
2018,10,12,10:30,UTC,8,1028.9,100,,,10.8,10.8,4159,178,4.2,2.8
2018,10,12,10:40,UTC,8,1028.7,100,,,11,11,8877,166,5.3,3.2
2018,10,12,10:50,UTC,8,1028.7,99,,,10.9,10.8,9348,178,5.1,3.4
2018,10,12,11:00,UTC,8,1028.5,99,,,10.9,10.8,8756,174,5.3,3.7
2018,10,12,11:10,UTC,8,1028.2,97,,,11,10.6,10567,157,6,3.6
2018,10,12,11:20,UTC,8,1028.3,98,,,11,10.6,11084,181,5.6,4.3
2018,10,12,11:30,UTC,8,1028.3,98,,,10.9,10.6,11035,173,5.6,3.8
2018,10,12,11:40,UTC,8,1028,98,,,10.8,10.5,10025,185,6.5,4.1
2018,10,12,11:50,UTC,8,1028,98,,,10.8,10.6,10040,175,6.2,4
2018,10,12,12:00,UTC,8,1028.1,99,,,10.3,10.2,7508,187,7.2,5.3
2018,10,12,12:10,UTC,8,1028,100,,,10.1,10.1,4756,181,7.1,5
2018,10,12,12:20,UTC,8,1028,100,,,10.3,10.3,5071,183,5.4,3.1
2018,10,12,12:30,UTC,8,1028,100,,,10.3,10.2,3770,178,5.9,3.9
2018,10,12,12:40,UTC,8,1027.9,100,,,10.2,10.2,3204,190,5.5,3.8
2018,10,12,12:50,UTC,8,1027.9,100,,,10.2,10.2,2742,184,5.6,3.2
2018,10,12,13:00,UTC,8,1027.9,100,,,10.3,10.3,2797,188,5.1,3.6
2018,10,12,13:10,UTC,8,1027.9,100,,,10.4,10.4,3521,184,5.3,3
2018,10,12,13:20,UTC,8,1027.8,100,,,10.5,10.5,4077,177,4.4,2.8
2018,10,12,13:30,UTC,8,1027.7,100,,,10.7,10.7,5235,175,3.8,2.5
2018,10,12,13:40,UTC,8,1027.8,99,,,10.8,10.7,6797,184,4.6,2.9
2018,10,12,13:50,UTC,8,1027.7,98,,,10.8,10.6,7153,198,4.2,2.9
2018,10,12,14:00,UTC,8,1027.6,98,,,11,10.7,7787,191,3.7,2.2
2018,10,12,14:10,UTC,8,1027.5,97,,,11.1,10.7,8177,185,3.6,2
2018,10,12,14:20,UTC,8,1027.6,97,,,11.1,10.7,8664,187,3.6,2.3
2018,10,12,14:30,UTC,8,1027.5,97,,,11.1,10.6,8962,207,4.3,2.4
2018,10,12,14:40,UTC,8,1027.6,97,,,11.1,10.6,8793,200,4.2,2.9
2018,10,12,14:50,UTC,8,1027.5,98,,,11,10.6,8516,209,3.4,2
2018,10,12,15:00,UTC,8,1027.5,98,,,10.8,10.6,7681,217,3.1,2.3
2018,10,12,15:10,UTC,8,1027.5,99,,,10.7,10.6,6870,225,3,1.7
2018,10,12,15:20,UTC,8,1027.5,100,,,10.5,10.5,5729,225,2.8,1.7
2018,10,12,15:30,UTC,8,1027.3,100,,,10.4,10.4,5233,193,3.4,2
2018,10,12,15:40,UTC,8,1027.1,100,,,10.3,10.3,4372,175,2.6,1.9
2018,10,12,15:50,UTC,8,1027.2,100,,,10.3,10.3,3400,179,3.2,2
2018,10,12,16:00,UTC,8,1027.2,100,,,10.3,10.3,3012,196,2.4,1.4
2018,10,12,16:10,UTC,8,1026.9,100,,,10.3,10.3,2715,161,2.2,1.2
2018,10,12,16:20,UTC,8,1026.8,100,,,10.3,10.2,2254,161,2.4,1.3
2018,10,12,16:30,UTC,8,1026.7,100,,,10.2,10.2,2208,165,2.7,1.9
2018,10,12,16:40,UTC,8,1026.6,100,,,10.2,10.2,967,168,2.6,1.8
2018,10,12,16:50,UTC,9,1026.6,100,,,10.1,10.1,516,147,2.9,1.9
2018,10,12,17:00,UTC,9,1026.6,100,,,10.1,10.1,366,139,2.1,1.3
2018,10,12,17:10,UTC,9,1026.6,100,,,10.1,10.1,404,158,2.1,1.3
2018,10,12,17:20,UTC,9,1026.4,100,,,10.1,10.1,451,151,2.6,1.7
2018,10,12,17:30,UTC,9,1026.4,100,,,10,10,731,157,2.5,1.7
2018,10,12,17:40,UTC,9,1026.3,100,,,9.9,9.9,395,148,2,1.4
2018,10,12,17:50,UTC,9,1026.2,100,,,9.9,9.9,262,158,1.8,1.2
2018,10,12,18:00,UTC,9,1026.3,100,,,9.9,9.9,237,145,1.5,0.6
2018,10,12,18:10,UTC,9,1026.2,100,,,9.8,9.8,199,0,0,0
2018,10,12,18:20,UTC,9,1026.1,100,,,9.8,9.8,174,0,0,0
2018,10,12,18:30,UTC,9,1026.2,100,,,9.8,9.8,199,132,1.7,1.3
2018,10,12,18:40,UTC,9,1026.2,100,,,9.7,9.7,203,146,1.4,1.1
2018,10,12,18:50,UTC,9,1026,100,,,9.5,9.5,191,144,2.4,1.4
2018,10,12,19:00,UTC,9,1026.1,100,,,9.3,9.3,161,125,1.8,1.1
2018,10,12,19:10,UTC,9,1026.1,100,,,9.2,9.2,139,86,1.1,0.7
2018,10,12,19:20,UTC,9,1026.3,100,,,9.1,9.1,184,38,0.9,0.6
2018,10,12,19:30,UTC,9,1026.4,100,,,9,9,150,0,0,0
2018,10,12,19:40,UTC,9,1026.4,100,,,8.7,8.7,123,0,0,0
2018,10,12,19:50,UTC,9,1026.2,100,,,8.5,8.5,91,0,0,0
2018,10,12,20:00,UTC,9,1026.1,100,,,8,8,112,78,0.8,0.6
2018,10,12,20:10,UTC,9,1026.1,100,,,7.6,7.6,118,0,0,0
2018,10,12,20:20,UTC,9,1026.1,100,,,7.3,7.3,142,0,0,0
2018,10,12,20:30,UTC,7,1026.1,100,,,7.1,7,140,0,0,0
2018,10,12,20:40,UTC,7,1026,100,,,6.9,6.9,201,0,0,0
2018,10,12,20:50,UTC,5,1026,100,,,7.3,7.3,401,126,1.1,0.8
2018,10,12,21:00,UTC,5,1026,100,,,7.1,7,288,163,2,0.7
2018,10,12,21:10,UTC,6,1025.8,100,,,8.6,8.6,1127,165,2.5,1.4
2018,10,12,21:20,UTC,4,1025.6,100,,,9.7,9.7,7255,174,3.2,2
2018,10,12,21:30,UTC,3,1025.4,100,,,10.1,10.1,9236,178,4.1,2.7
2018,10,12,21:40,UTC,1,1025.4,100,,,10.3,10.3,8977,185,3.2,2.2
2018,10,12,21:50,UTC,1,1025.4,100,,,10.5,10.5,9240,182,3.2,1.8
2018,10,12,22:00,UTC,1,1025.2,100,,,10.6,10.6,9180,187,3.8,2
2018,10,12,22:10,UTC,1,1025.2,100,,,11,11,10425,203,4.1,2.6
2018,10,12,22:20,UTC,0,1025.1,100,,,11.2,11.2,11680,201,4.3,2.7
2018,10,12,22:30,UTC,4,1025.2,100,,,11,11,10589,197,3.6,2.2
2018,10,12,22:40,UTC,6,1025.3,100,,,11.2,11.2,10310,201,3.5,2.2
2018,10,12,22:50,UTC,7,1025.3,100,,,11.3,11.3,11084,199,3.9,2.4
2018,10,12,23:00,UTC,7,1025.2,99,,,11.3,11.3,11026,202,3.4,2.2
2018,10,12,23:10,UTC,7,1025,99,,,11.3,11.1,11524,195,3.9,2.5
2018,10,12,23:20,UTC,6,1024.9,99,,,11.4,11.2,11184,191,3.9,2.6
2018,10,12,23:30,UTC,7,1024.7,98,,,11.1,10.9,10575,195,3.8,2.4
2018,10,12,23:40,UTC,7,1024.7,98,,,11.2,11,10963,188,3.9,2.8
2018,10,12,23:50,UTC,7,1024.7,98,,,11.3,11,11430,190,4.1,2.4
2018,10,13,00:00,UTC,7,1024.8,98,,,11.2,10.8,11485,198,3.7,2.2
2018,10,13,00:10,UTC,4,1025,97,,,11.2,10.8,12196,214,3.5,1.7
2018,10,13,00:20,UTC,2,1024.8,98,,,11,10.6,11914,206,2.6,1.8
2018,10,13,00:30,UTC,1,1024.7,99,,,10.8,10.7,9803,191,2.7,2.2
2018,10,13,00:40,UTC,0,1024.5,99,,,10.8,10.7,10163,185,3.8,2.4
2018,10,13,00:50,UTC,0,1024.5,100,,,10.8,10.8,9703,196,3.6,2.3
2018,10,13,01:00,UTC,0,1024.4,100,,,10.8,10.8,9433,192,3.8,2.3
2018,10,13,01:10,UTC,0,1024.3,100,,,10.9,10.9,9971,197,4.7,2.7
2018,10,13,01:20,UTC,0,1024.5,100,,,10.8,10.8,10357,197,4,2.2
2018,10,13,01:30,UTC,0,1024.3,100,,,10.8,10.8,9352,192,4.6,2.4
2018,10,13,01:40,UTC,2,1024.3,100,,,10.9,10.9,9112,185,4.5,2.7
2018,10,13,01:50,UTC,5,1024.1,100,,,11,10.9,9366,176,3.9,2.6
2018,10,13,02:00,UTC,7,1024.1,100,,,10.9,10.8,9493,175,3.9,2.4
2018,10,13,02:10,UTC,7,1024,100,,,10.8,10.8,8909,183,3,2
2018,10,13,02:20,UTC,7,1023.9,100,,,11,11,9505,178,4,2.7
2018,10,13,02:30,UTC,4,1023.9,99,,,10.9,10.8,9618,180,4,2.9
2018,10,13,02:40,UTC,6,1023.8,99,,,10.9,10.8,9372,184,3.8,2.7
2018,10,13,02:50,UTC,5,1023.6,100,,,11,10.9,9541,175,4.2,2.7
2018,10,13,03:00,UTC,3,1023.6,99,,,10.9,10.8,10438,175,5.2,2.9
2018,10,13,03:10,UTC,2,1023.6,99,,,11,10.9,10043,191,3.9,2.8
2018,10,13,03:20,UTC,1,1023.5,100,,,11,10.9,9994,188,4.6,3.4
2018,10,13,03:30,UTC,0,1023.6,100,,,11.1,11,10267,193,5.5,3.7
2018,10,13,03:40,UTC,4,1023.8,99,,,11.1,11,9984,204,4.9,3.2
2018,10,13,03:50,UTC,6,1023.8,99,,,11.1,10.9,10308,207,4,2.7
2018,10,13,04:00,UTC,7,1023.8,99,,,10.9,10.8,9400,199,3.3,2.2
2018,10,13,04:10,UTC,7,1023.8,100,,,10.9,10.9,9556,215,2.9,1.9
2018,10,13,04:20,UTC,7,1023.8,100,,,10.7,10.7,8654,190,2.7,2.2
2018,10,13,04:30,UTC,7,1023.7,100,,,10.7,10.7,8260,184,3.4,2.5
2018,10,13,04:40,UTC,7,1023.7,100,,,10.7,10.7,8229,181,3.4,2.4
2018,10,13,04:50,UTC,4,1023.7,100,,,10.7,10.7,8247,184,3.3,2.3
2018,10,13,05:00,UTC,2,1023.8,100,,,10.4,10.4,7814,191,2.7,2.2
2018,10,13,05:10,UTC,0,1023.6,100,,,10.5,10.5,7341,190,2.8,2.2
2018,10,13,05:20,UTC,1,1023.6,100,,,10.5,10.5,8038,186,3.1,2.2
2018,10,13,05:30,UTC,5,1023.6,100,,,10.7,10.7,7635,183,3.2,1.9
2018,10,13,05:40,UTC,3,1023.6,100,,,10.8,10.8,8545,184,3,2
2018,10,13,05:50,UTC,2,1023.8,100,,,10.6,10.6,6780,198,2.5,1.9
2018,10,13,06:00,UTC,1,1023.7,100,,,11,11,8391,208,3.6,2.3
2018,10,13,06:10,UTC,0,1023.7,100,,,11.1,11.1,8953,200,3.4,2.5
2018,10,13,06:20,UTC,4,1023.8,100,,,11.4,11.4,9053,203,3.4,2.2
2018,10,13,06:30,UTC,6,1023.9,99,,,11.7,11.6,9689,216,4.3,2.5
2018,10,13,06:40,UTC,7,1023.9,99,,,11.9,11.7,10490,224,4.7,2.8
2018,10,13,06:50,UTC,8,1023.9,98,,,12.1,11.8,10713,222,5.9,3.4
2018,10,13,07:00,UTC,8,1023.9,98,,,12.2,11.9,10301,227,6,3.9
2018,10,13,07:10,UTC,8,1023.9,98,,,12.3,11.9,10370,224,5.5,3.6
2018,10,13,07:20,UTC,8,1024.2,97,,,12.4,12,10366,228,5.6,3.9
2018,10,13,07:30,UTC,8,1024.2,98,,,12.4,12,9914,232,5.7,3.6
2018,10,13,07:40,UTC,8,1024.3,97,,,12.4,12,9646,224,6.4,4
2018,10,13,07:50,UTC,8,1024.2,97,,,12.4,12,9847,223,6.5,3.7
2018,10,13,08:00,UTC,8,1024.1,97,,,12.5,12.1,9447,224,5.8,3.7
2018,10,13,08:10,UTC,8,1024.2,97,,,12.6,12.2,9393,227,5.7,3.4
2018,10,13,08:20,UTC,8,1024.2,97,,,12.7,12.3,9634,221,5.6,3.6
2018,10,13,08:30,UTC,8,1024.2,96,,,12.8,12.2,9485,226,5.6,3.6
2018,10,13,08:40,UTC,7,1024.4,96,,,12.9,12.3,9593,223,5.2,3.3
2018,10,13,08:50,UTC,7,1024.4,96,,,13.1,12.6,10273,243,4.5,2.5
2018,10,13,09:00,UTC,7,1024.3,96,,,13.2,12.7,9551,237,5.9,3.7
2018,10,13,09:10,UTC,7,1024.5,95,,,13.6,12.7,10556,231,6.4,4.1
2018,10,13,09:20,UTC,7,1024.6,93,,,13.6,12.5,11333,239,7.3,4.7
2018,10,13,09:30,UTC,5,1024.5,92,,,13.8,12.6,11763,230,6.1,4.2
2018,10,13,09:40,UTC,3,1024.4,91,,,14.3,12.9,13439,231,5.3,3.8
2018,10,13,09:50,UTC,1,1024.2,88,,,14.7,12.8,13138,226,4.6,2.6
2018,10,13,10:00,UTC,0,1024.4,88,,,15,13,14581,211,4.9,3.1
2018,10,13,10:10,UTC,0,1024.2,87,,,15.2,13,16025,218,4.8,3.4
2018,10,13,10:20,UTC,0,1024.2,85,,,15.1,12.6,14880,211,5.9,3.4
2018,10,13,10:30,UTC,0,1024.1,84,,,15,12.4,14663,210,5.6,3.6
2018,10,13,10:40,UTC,0,1024,86,,,14.9,12.5,16309,220,4.5,3.4
2018,10,13,10:50,UTC,0,1024,88,,,14.7,12.7,14240,194,5.7,4.1
2018,10,13,11:00,UTC,1,1024.1,88,,,14.3,12.3,14084,199,6.1,4.4
2018,10,13,11:10,UTC,1,1024.1,89,,,14.1,12.3,13246,195,6,4.4
2018,10,13,11:20,UTC,1,1024.2,89,,,14.2,12.5,12859,203,6.2,4.3
2018,10,13,11:30,UTC,0,1024.3,90,,,14.2,12.6,12249,207,5.7,3.8
2018,10,13,11:40,UTC,0,1024.3,88,,,14.1,12.3,12965,218,4.4,3.2
2018,10,13,11:50,UTC,1,1024.3,89,,,14,12.2,12377,212,4.8,3.2
2018,10,13,12:00,UTC,4,1024.3,91,,,14,12.5,11954,206,5.1,3.3
2018,10,13,12:10,UTC,6,1024.4,91,,,13.9,12.4,12169,210,4.6,3.3
2018,10,13,12:20,UTC,7,1024.4,91,,,13.9,12.4,11904,223,4.5,3.1
2018,10,13,12:30,UTC,4,1024.3,91,,,13.9,12.4,12323,221,4.4,2.7
2018,10,13,12:40,UTC,2,1024.3,91,,,13.9,12.4,11652,212,5.1,3.3
2018,10,13,12:50,UTC,1,1024.2,91,,,13.8,12.4,11306,208,4.9,3.2
2018,10,13,13:00,UTC,2,1024.1,91,,,13.7,12.4,11058,198,4.4,3.3
2018,10,13,13:10,UTC,5,1024,92,,,13.7,12.3,10968,202,5.2,3.4
2018,10,13,13:20,UTC,7,1024.1,92,,,13.6,12.3,10946,212,5,3.3
2018,10,13,13:30,UTC,5,1024.1,92,,,13.5,12.3,10442,215,4.9,3.2
2018,10,13,13:40,UTC,5,1024,93,,,13.4,12.3,10530,215,4.6,3.5
2018,10,13,13:50,UTC,3,1024,93,,,13.4,12.3,10290,218,5.1,3.5
2018,10,13,14:00,UTC,2,1024.1,93,,,13.3,12.3,10039,222,4.3,2.7
2018,10,13,14:10,UTC,1,1024,93,,,13.3,12.3,9989,209,3.9,2.8
2018,10,13,14:20,UTC,1,1024,94,,,13.3,12.3,9794,210,4.3,2.6
2018,10,13,14:30,UTC,1,1024,94,,,13.3,12.3,9612,207,3.7,2.8
2018,10,13,14:40,UTC,1,1023.8,94,,,13.2,12.3,9199,200,3.8,3
2018,10,13,14:50,UTC,4,1023.8,94,,,13.2,12.3,9251,201,4.6,3.3
2018,10,13,15:00,UTC,6,1023.6,95,,,13.1,12.3,9286,201,4.3,3.2
2018,10,13,15:10,UTC,7,1023.9,94,,,13.2,12.3,9053,215,4.9,3.3
2018,10,13,15:20,UTC,7,1024,94,,,13.2,12.3,9254,230,4.4,2.9
2018,10,13,15:30,UTC,7,1024.1,94,,,13.2,12.3,9026,225,4.4,2.5
2018,10,13,15:40,UTC,7,1024.2,95,,,13,12.2,8727,224,3.7,1.9
2018,10,13,15:50,UTC,7,1024.1,95,,,13.1,12.2,8581,220,3.7,2.4
2018,10,13,16:00,UTC,7,1024.1,96,,,13,12.3,8291,214,4.3,2.6
2018,10,13,16:10,UTC,3,1024.1,96,,,12.8,12.2,8167,214,4,2.4
2018,10,13,16:20,UTC,1,1024.1,96,,,12.9,12.3,7826,211,3.8,2.4
2018,10,13,16:30,UTC,0,1024.1,96,,,13,12.3,7911,217,4.6,2.5
2018,10,13,16:40,UTC,0,1024.3,95,,,12.9,12.1,8232,220,3.5,2.2
2018,10,13,16:50,UTC,0,1024.3,96,,,12.9,12.3,8100,226,3.9,2.1
2018,10,13,17:00,UTC,0,1024.2,95,,,12.9,12.1,7942,225,4,2.4
2018,10,13,17:10,UTC,0,1024.1,95,,,13.1,12.3,8458,214,4.9,2.9
2018,10,13,17:20,UTC,0,1023.9,95,,,13.1,12.3,8435,204,5.3,3.9
2018,10,13,17:30,UTC,0,1024,96,,,13,12.4,7857,199,5.1,3.2
2018,10,13,17:40,UTC,0,1024.1,95,,,12.9,12.2,8003,203,5.1,3.1
2018,10,13,17:50,UTC,0,1024.1,96,,,12.9,12.2,8251,202,5.5,3.2
2018,10,13,18:00,UTC,0,1024.2,96,,,12.9,12.3,8378,211,4.8,3
2018,10,13,18:10,UTC,0,1024.3,96,,,12.7,12,8319,206,4,2.5
2018,10,13,18:20,UTC,0,1024.3,96,,,12.7,12.2,8177,206,3.7,2.2
2018,10,13,18:30,UTC,0,1024.2,96,,,12.5,12,8165,201,3.3,2.3
2018,10,13,18:40,UTC,0,1024.1,97,,,12.7,12.2,7954,192,4.2,2.9
2018,10,13,18:50,UTC,0,1024.1,96,,,12.6,11.9,8120,201,4.5,3.1
2018,10,13,19:00,UTC,0,1024.1,95,,,12.8,12.1,8736,205,6,3.3
2018,10,13,19:10,UTC,0,1024.2,96,,,12.6,11.9,8996,208,5.1,2.6
2018,10,13,19:20,UTC,0,1024.2,95,,,12.6,11.9,9106,208,4.6,2.7
2018,10,13,19:30,UTC,0,1024.2,95,,,12.7,12,9088,212,4.2,2.5
2018,10,13,19:40,UTC,0,1024.2,96,,,12.7,12,9086,208,3.8,2.1
2018,10,13,19:50,UTC,0,1024.2,97,,,12.4,11.9,8024,199,3.4,2.4
2018,10,13,20:00,UTC,0,1024.2,97,,,12.4,11.9,8009,194,4.2,2.7
2018,10,13,20:10,UTC,0,1024.2,97,,,12.2,11.8,7801,196,3.3,2.3
2018,10,13,20:20,UTC,0,1024.2,97,,,12.2,11.7,7937,191,4.4,2.8
2018,10,13,20:30,UTC,0,1024.1,98,,,12.1,11.7,7725,191,3.9,2.8
2018,10,13,20:40,UTC,0,1024,98,,,12.1,11.8,7108,189,4.5,3
2018,10,13,20:50,UTC,0,1023.9,98,,,12.1,11.8,7069,189,5.2,3.1
2018,10,13,21:00,UTC,0,1024,98,,,12.2,11.9,7324,200,4.1,2.6
2018,10,13,21:10,UTC,0,1023.9,98,,,12.1,11.8,7242,203,3.5,2.4
2018,10,13,21:20,UTC,0,1024,98,,,12.3,12,7487,202,4.4,2.6
2018,10,13,21:30,UTC,0,1024.1,98,,,12.1,11.8,7776,204,4.6,2.9
2018,10,13,21:40,UTC,0,1024.1,97,,,12.2,11.7,7722,202,4.9,3.3
2018,10,13,21:50,UTC,0,1023.9,97,,,12.2,11.8,7750,202,5.4,3.3
2018,10,13,22:00,UTC,0,1023.8,97,,,12.2,11.8,7623,197,6.1,4.3
2018,10,13,22:10,UTC,0,1023.7,97,,,12.2,11.8,7712,198,5.7,4.4
2018,10,13,22:20,UTC,0,1023.7,97,,,12.2,11.8,7731,199,6.5,4.4
2018,10,13,22:30,UTC,0,1023.6,96,,,12.4,11.8,7514,203,5.8,4.3
2018,10,13,22:40,UTC,0,1023.7,96,,,12.4,11.7,7587,205,5.6,3.7
2018,10,13,22:50,UTC,0,1023.7,96,,,12.4,11.7,7704,208,5.5,3.6
2018,10,13,23:00,UTC,0,1023.7,95,,,12.4,11.7,7970,206,5,3.2
2018,10,13,23:10,UTC,0,1023.7,96,,,12.2,11.6,7857,203,4.3,2.8
2018,10,13,23:20,UTC,0,1023.7,96,,,12.2,11.5,7797,204,4.6,3
2018,10,13,23:30,UTC,0,1023.7,96,,,12,11.4,7373,201,4.1,2.9
2018,10,13,23:40,UTC,0,1023.6,97,,,12,11.5,7345,200,3.8,2.9
2018,10,13,23:50,UTC,0,1023.6,97,,,11.8,11.4,7091,199,4.1,2.9
2018,10,14,00:00,UTC,0,1023.6,97,,,11.9,11.5,7166,198,3.6,2.7
2018,10,14,00:10,UTC,0,1023.6,97,,,11.7,11.2,7271,201,3.6,2.6
2018,10,14,00:20,UTC,0,1023.6,97,,,11.6,11.1,7262,204,3.6,2.3
2018,10,14,00:30,UTC,0,1023.6,96,,,11.7,11.1,7535,203,3.5,2.3
2018,10,14,00:40,UTC,0,1023.6,97,,,11.5,11,7265,194,2.8,2.2
2018,10,14,00:50,UTC,0,1023.6,98,,,11.4,11,7307,195,3,2.2
2018,10,14,01:00,UTC,0,1023.5,97,,,11.2,10.9,7519,200,2.5,1.8
2018,10,14,01:10,UTC,0,1023.5,98,,,11,10.6,7159,205,2.7,1.8
2018,10,14,01:20,UTC,0,1023.4,99,,,11.1,10.9,6693,202,2.3,1.6
2018,10,14,01:30,UTC,0,1023.4,98,,,11.3,11,6779,192,2.6,2.1
2018,10,14,01:40,UTC,0,1023.4,98,,,11.2,10.9,7068,196,3.1,2.4
2018,10,14,01:50,UTC,0,1023.4,98,,,11.3,11,6933,200,3.8,2.6
2018,10,14,02:00,UTC,0,1023.4,97,,,11.4,11,7059,202,3.5,2.4
2018,10,14,02:10,UTC,0,1023.4,98,,,11.3,10.9,6995,198,3.6,2.4
2018,10,14,02:20,UTC,0,1023.4,98,,,11.1,10.8,6579,195,3,2.2
2018,10,14,02:30,UTC,0,1023.3,99,,,11.2,11,6416,197,3.3,2.2
2018,10,14,02:40,UTC,0,1023.3,99,,,11.2,11,6292,198,3.3,2.1
2018,10,14,02:50,UTC,0,1023.3,99,,,11.1,10.9,6068,191,3.1,2.2
2018,10,14,03:00,UTC,0,1023.3,99,,,10.9,10.8,5824,184,2.9,2.1
2018,10,14,03:10,UTC,0,1023.3,99,,,11.1,10.9,5776,180,3.5,2.6
2018,10,14,03:20,UTC,0,1023.3,99,,,11,10.9,5591,182,3.6,2.6
2018,10,14,03:30,UTC,0,1023.3,99,,,10.9,10.8,5352,179,3.2,2.5
2018,10,14,03:40,UTC,0,1023.3,100,,,10.7,10.6,5046,184,3.1,2.3
2018,10,14,03:50,UTC,0,1023.3,100,,,10.7,10.7,5046,187,3.5,2.4
2018,10,14,04:00,UTC,0,1023.3,100,,,10.9,10.9,5048,189,3.4,2.5
2018,10,14,04:10,UTC,0,1023.3,100,,,10.9,10.8,5097,191,3.6,2.5
2018,10,14,04:20,UTC,0,1023.2,100,,,11,11,5324,187,3.5,2.2
2018,10,14,04:30,UTC,0,1023.3,99,,,10.7,10.6,4780,182,3,2.1
2018,10,14,04:40,UTC,0,1023.3,100,,,10.7,10.7,4435,183,2.6,2.1
2018,10,14,04:50,UTC,0,1023.3,100,,,10.8,10.8,4437,178,3.2,2.3
2018,10,14,05:00,UTC,0,1023.3,100,,,10.7,10.7,4226,180,3.2,2.3
2018,10,14,05:10,UTC,0,1023.3,100,,,10.6,10.6,3904,180,3,2.2
2018,10,14,05:20,UTC,0,1023.2,100,,,10.6,10.6,3613,180,3.2,2.2
2018,10,14,05:30,UTC,0,1023.2,100,,,10.5,10.5,3542,187,3.3,2.3
2018,10,14,05:40,UTC,0,1023.2,100,,,10.9,10.8,4061,195,4,2.4
2018,10,14,05:50,UTC,0,1023.2,100,,,11.1,11.1,4641,194,4.4,2.8
2018,10,14,06:00,UTC,0,1023.2,100,,,11.5,11.5,5338,197,4.5,3
2018,10,14,06:10,UTC,0,1023.2,99,,,11.7,11.5,5627,201,4.9,3.3
2018,10,14,06:20,UTC,0,1023.3,98,,,11.9,11.6,5766,201,5.6,3.7
2018,10,14,06:30,UTC,0,1023.3,97,,,12,11.6,5922,204,5.5,3.8
2018,10,14,06:40,UTC,0,1023.4,97,,,12.2,11.7,6169,201,5.9,4.2
2018,10,14,06:50,UTC,0,1023.4,97,,,12.4,11.8,6428,203,6.1,3.9
2018,10,14,07:00,UTC,0,1023.3,96,,,12.6,11.9,6842,201,6.4,4.2
2018,10,14,07:10,UTC,0,1023.4,96,,,12.7,12,7095,198,5.8,3.8
2018,10,14,07:20,UTC,0,1023.4,94,,,12.9,12,7450,203,6,4
2018,10,14,07:30,UTC,0,1023.4,94,,,13.1,12.1,8101,208,5.1,3.1
2018,10,14,07:40,UTC,0,1023.5,93,,,13.3,12.1,8537,206,5.4,3.4
2018,10,14,07:50,UTC,0,1023.5,92,,,13.5,12.3,9384,211,6.5,3.7
2018,10,14,08:00,UTC,0,1023.5,92,,,13.8,12.5,9660,213,5.2,3.2
2018,10,14,08:10,UTC,0,1023.6,91,,,13.8,12.4,9909,205,6.1,4.1
2018,10,14,08:20,UTC,0,1023.6,90,,,14,12.4,10184,207,6,3.8
2018,10,14,08:30,UTC,0,1023.5,89,,,14.2,12.4,10512,205,5.5,3.4
2018,10,14,08:40,UTC,0,1023.5,88,,,14.5,12.6,11229,207,5.6,3.7
2018,10,14,08:50,UTC,0,1023.5,87,,,14.7,12.6,11453,209,5.7,3.7
2018,10,14,09:00,UTC,0,1023.5,86,,,14.6,12.2,11594,204,6,4
2018,10,14,09:10,UTC,0,1023.6,87,,,14.7,12.6,11626,196,5.2,3.8
2018,10,14,09:20,UTC,0,1023.6,87,,,14.4,12.3,10490,179,6.1,4.2
2018,10,14,09:30,UTC,0,1023.6,88,,,14.3,12.3,10733,178,5.8,4.4
2018,10,14,09:40,UTC,0,1023.6,86,,,14.4,12.1,10764,177,5.9,4.2
2018,10,14,09:50,UTC,0,1023.5,85,,,14.5,12,11651,192,7,4.1
2018,10,14,10:00,UTC,0,1023.6,86,,,14.6,12.2,11782,179,6.4,3.9
2018,10,14,10:10,UTC,0,1023.5,84,,,14.8,12.2,12134,180,6.1,3.7
2018,10,14,10:20,UTC,0,1023.5,84,,,15,12.3,11278,181,5.4,3.6
2018,10,14,10:30,UTC,0,1023.4,82,,,15.1,12.1,13698,190,5.5,4.1
2018,10,14,10:40,UTC,0,1023.3,82,,,15.1,12.1,12007,187,6.4,4.5
2018,10,14,10:50,UTC,0,1023.3,82,,,15.1,12.1,12017,178,5.5,3.9
2018,10,14,11:00,UTC,0,1023.2,82,,,15.1,11.9,12705,186,6.2,3.9
2018,10,14,11:10,UTC,0,1023.2,80,,,15.3,11.9,12922,190,5.9,4
2018,10,14,11:20,UTC,0,1023.2,80,,,15.3,11.9,13392,193,6.3,4.5
2018,10,14,11:30,UTC,0,1023.2,80,,,15.3,11.8,13868,192,6,4.2
2018,10,14,11:40,UTC,0,1023.2,79,,,15.3,11.7,13718,196,6.7,4.2
2018,10,14,11:50,UTC,0,1023.1,79,,,15.2,11.7,13894,197,6.5,4.9
2018,10,14,12:00,UTC,0,1023.1,79,,,15.3,11.7,15059,201,7,4.7
2018,10,14,12:10,UTC,0,1023.1,79,,,15.3,11.8,14028,199,6.8,4.6
2018,10,14,12:20,UTC,0,1023.1,79,,,15.4,11.7,13672,199,7.2,5.2
2018,10,14,12:30,UTC,0,1023,79,,,15.6,11.9,14574,203,7.5,4.3
2018,10,14,12:40,UTC,0,1023,79,,,15.4,11.8,14439,211,6.9,4.7
2018,10,14,12:50,UTC,0,1023,79,,,15.5,11.9,14010,209,6.5,4.3
2018,10,14,13:00,UTC,0,1022.9,79,,,15.5,12,13848,210,6.7,4
2018,10,14,13:10,UTC,0,1022.8,80,,,15.5,12.1,13240,204,6.6,4.4
2018,10,14,13:20,UTC,0,1022.8,80,,,15.5,12,13137,201,6.5,4.4
2018,10,14,13:30,UTC,0,1022.7,80,,,15.4,12,12749,206,6.6,4.7
2018,10,14,13:40,UTC,0,1022.7,80,,,15.4,12,13198,205,6.8,3.9
2018,10,14,13:50,UTC,0,1022.6,80,,,15.5,12,13279,207,5.9,4
2018,10,14,14:00,UTC,0,1022.6,80,,,15.5,12.1,13255,203,6.5,3.9
2018,10,14,14:10,UTC,0,1022.6,81,,,15.4,12.1,13612,201,5.8,3.6
2018,10,14,14:20,UTC,0,1022.5,81,,,15.2,12,13645,201,5.8,4.2
2018,10,14,14:30,UTC,0,1022.5,82,,,15.1,12,13347,199,6.1,3.8
2018,10,14,14:40,UTC,0,1022.5,83,,,14.7,11.9,13291,197,4.5,3.1
2018,10,14,14:50,UTC,0,1022.5,85,,,14.2,11.8,12271,192,3.5,2.7
2018,10,14,15:00,UTC,0,1022.5,87,,,13.8,11.7,11674,193,3.7,2.7
2018,10,14,15:10,UTC,0,1022.4,89,,,13.7,11.8,11451,189,3.1,2.3
2018,10,14,15:20,UTC,0,1022.4,89,,,13.5,11.8,11005,178,2.8,2.1
2018,10,14,15:30,UTC,0,1022.5,90,,,13.2,11.7,10219,175,2.7,2
2018,10,14,15:40,UTC,0,1022.5,92,,,12.3,11.1,9311,180,2.1,1.8
2018,10,14,15:50,UTC,0,1022.5,94,,,12.6,11.7,8914,172,2.8,2.1
2018,10,14,16:00,UTC,0,1022.5,94,,,12.5,11.6,8703,171,2.8,2.2
2018,10,14,16:10,UTC,0,1022.2,94,,,12.6,11.6,8544,170,3.2,2.4
2018,10,14,16:20,UTC,0,1022.1,94,,,12.5,11.5,8387,172,3.3,2.1
2018,10,14,16:30,UTC,0,1022.1,94,,,12.2,11.2,8055,169,2.7,1.7
2018,10,14,16:40,UTC,0,1022,96,,,11.7,11.1,6840,180,2.4,1.6
2018,10,14,16:50,UTC,0,1021.8,97,,,12.3,11.9,7253,164,3.1,2
2018,10,14,17:00,UTC,0,1021.8,96,,,12.2,11.5,7289,183,3.4,2.5
2018,10,14,17:10,UTC,0,1021.7,98,,,12.5,12.1,7000,176,3.5,2.3
2018,10,14,17:20,UTC,0,1021.7,97,,,12.3,11.8,7003,169,4.5,2.6
2018,10,14,17:30,UTC,0,1021.7,96,,,12.4,11.9,7263,170,4.1,2.7
2018,10,14,17:40,UTC,0,1021.6,96,,,12.7,12,7647,169,4.5,3
2018,10,14,17:50,UTC,0,1021.6,95,,,12.7,12,8276,172,4.6,3.5
2018,10,14,18:00,UTC,0,1021.6,94,,,12.8,11.8,8790,173,5.5,4
2018,10,14,18:10,UTC,0,1021.5,94,,,12.9,12,9259,177,6,4.3
2018,10,14,18:20,UTC,0,1021.5,93,,,13,11.8,9623,175,6.9,4.8
2018,10,14,18:30,UTC,0,1021.5,94,,,12.7,11.8,9776,179,6.5,4.4
2018,10,14,18:40,UTC,0,1021.4,93,,,12.9,11.8,10315,180,6.5,4.4
2018,10,14,18:50,UTC,0,1021.4,93,,,12.8,11.7,10901,184,7.1,4.9
2018,10,14,19:00,UTC,0,1021.4,93,,,12.7,11.5,10992,184,7.4,4.9
2018,10,14,19:10,UTC,0,1021.4,93,,,12.6,11.4,10830,182,6.5,4.6
2018,10,14,19:20,UTC,0,1021.5,93,,,12.5,11.5,11332,184,7.1,4.9
2018,10,14,19:30,UTC,0,1021.5,92,,,12.7,11.5,11333,183,7.6,5.2
2018,10,14,19:40,UTC,0,1021.3,92,,,12.6,11.4,12260,181,8.1,5.5
2018,10,14,19:50,UTC,0,1021.4,93,,,12.4,11.3,11985,180,7.2,5.2
2018,10,14,20:00,UTC,0,1021.4,92,,,12.4,11.2,12522,180,7.1,4.7
2018,10,14,20:10,UTC,0,1021.3,91,,,12.5,11.1,12415,181,5.8,4.4
2018,10,14,20:20,UTC,0,1021.2,91,,,12.5,11.1,13070,183,6,4
2018,10,14,20:30,UTC,0,1021.1,90,,,12.6,11.1,13366,182,6.1,4.1
2018,10,14,20:40,UTC,0,1021.1,91,,,12.5,11,13539,182,5.6,4.1
2018,10,14,20:50,UTC,0,1021.1,92,,,12.2,11,13655,186,5.4,3.7
2018,10,14,21:00,UTC,0,1021.1,91,,,12.3,10.9,13015,184,6.1,3.9
2018,10,14,21:10,UTC,0,1021.2,91,,,12.1,10.8,13437,187,5.8,3.7
2018,10,14,21:20,UTC,0,1021.1,91,,,12.2,10.8,13594,184,5.7,3.9
2018,10,14,21:30,UTC,0,1021,91,,,12.3,10.8,13582,181,5.8,4.3
2018,10,14,21:40,UTC,0,1020.9,91,,,12.4,10.9,13857,177,6,4.3
2018,10,14,21:50,UTC,0,1020.9,92,,,12.3,10.9,13719,176,6.6,4.4
2018,10,14,22:00,UTC,0,1020.8,91,,,12.2,10.9,13648,176,6.7,4.6
2018,10,14,22:10,UTC,0,1020.7,92,,,12.1,10.9,13703,179,6.3,4.5
2018,10,14,22:20,UTC,0,1020.6,92,,,12,10.8,13156,175,6.4,4.4
2018,10,14,22:30,UTC,0,1020.7,93,,,11.9,10.8,12654,177,5.8,4
2018,10,14,22:40,UTC,0,1020.7,93,,,11.9,10.8,12977,180,5.5,4.1
2018,10,14,22:50,UTC,0,1020.5,93,,,12.1,10.9,13155,177,6.4,4.8
2018,10,14,23:00,UTC,0,1020.4,92,,,11.9,10.7,14509,177,6.7,4.6
2018,10,14,23:10,UTC,0,1020.4,93,,,11.9,10.8,13779,173,6.4,4.6
2018,10,14,23:20,UTC,0,1020.3,93,,,11.9,10.7,14232,173,6.4,4.9
2018,10,14,23:30,UTC,0,1020.2,93,,,11.8,10.7,14020,175,6.5,4.6
2018,10,14,23:40,UTC,0,1020.2,94,,,11.8,10.8,13961,179,6.3,4.3
2018,10,14,23:50,UTC,0,1020.2,94,,,11.6,10.6,13435,180,5.7,3.9
2018,10,15,00:00,UTC,0,1020.3,95,,,11.3,10.5,13314,190,5.2,3.4
2018,10,15,00:10,UTC,0,1020.2,96,,,11.3,10.6,13153,188,3.9,2.9
2018,10,15,00:20,UTC,0,1020.2,95,,,11.5,10.7,13689,181,4.5,3.1
2018,10,15,00:30,UTC,0,1020.2,95,,,11.3,10.6,13151,186,4.6,2.9
2018,10,15,00:40,UTC,0,1020.2,95,,,11.3,10.6,13368,183,4.1,3.1
2018,10,15,00:50,UTC,0,1020,96,,,11.3,10.7,12971,183,4.3,3.1
2018,10,15,01:00,UTC,0,1019.9,96,,,11.1,10.5,12810,181,4.5,3
2018,10,15,01:10,UTC,0,1019.8,95,,,11.5,10.8,13596,172,5.1,3.5
2018,10,15,01:20,UTC,0,1019.7,95,,,11.5,10.7,14391,168,6,3.8
2018,10,15,01:30,UTC,0,1019.7,95,,,11.5,10.7,13990,168,5.1,3.6
2018,10,15,01:40,UTC,0,1019.7,95,,,11.4,10.7,13692,172,5.6,3.7
2018,10,15,01:50,UTC,0,1019.6,96,,,11.3,10.6,13219,171,5.3,3.7
2018,10,15,02:00,UTC,0,1019.5,96,,,11.3,10.7,13024,171,5.5,3.8
2018,10,15,02:10,UTC,0,1019.5,95,,,11.3,10.6,13190,174,5.7,4
2018,10,15,02:20,UTC,0,1019.4,95,,,11.4,10.7,13637,175,6.7,4.6
2018,10,15,02:30,UTC,0,1019.3,95,,,11.3,10.4,14554,176,6.3,4.5
2018,10,15,02:40,UTC,0,1019.4,94,,,11.3,10.4,14662,176,6.8,4.7
2018,10,15,02:50,UTC,0,1019.4,94,,,11.2,10.3,15464,178,5.8,4.2
2018,10,15,03:00,UTC,0,1019.2,93,,,11.3,10.2,15970,179,6.1,4.4
2018,10,15,03:10,UTC,0,1019.1,92,,,11.3,10.1,16687,176,6.4,4.9
2018,10,15,03:20,UTC,0,1019.1,93,,,11,9.9,16976,184,5.9,4.2
2018,10,15,03:30,UTC,0,1019.1,93,,,11.1,10,16581,186,5.2,3.7
2018,10,15,03:40,UTC,0,1019.2,93,,,10.9,9.9,16575,184,4.9,3.5
2018,10,15,03:50,UTC,0,1019.1,93,,,11,10,16764,181,6.1,4
2018,10,15,04:00,UTC,0,1019,93,,,11,9.8,16353,177,5.7,4.3
2018,10,15,04:10,UTC,0,1018.9,93,,,10.9,9.8,16783,180,6.2,4.2
2018,10,15,04:20,UTC,0,1018.9,94,,,10.7,9.7,16652,188,5.3,3.5
2018,10,15,04:30,UTC,0,1018.8,91,,,11.1,9.7,18461,186,5.2,3.8
2018,10,15,04:40,UTC,0,1018.7,91,,,11.1,9.7,19518,182,6.5,4.1
2018,10,15,04:50,UTC,0,1018.8,90,,,11.1,9.6,18390,182,6.5,4.6
2018,10,15,05:00,UTC,0,1018.9,90,,,11.1,9.6,18948,193,6.3,3.7
2018,10,15,05:10,UTC,0,1018.9,91,,,10.9,9.4,18953,186,5.2,3.5
2018,10,15,05:20,UTC,0,1018.9,90,,,11,9.4,19730,194,6.1,3.8
2018,10,15,05:30,UTC,0,1019,89,,,11,9.3,20211,201,6.3,3.8
2018,10,15,05:40,UTC,0,1018.9,88,,,11.3,9.4,20176,196,7.2,4.2
2018,10,15,05:50,UTC,0,1019,89,,,11.3,9.6,20916,196,5.7,3.8
2018,10,15,06:00,UTC,0,1018.9,87,,,11.7,9.6,20994,198,8.2,4.8
2018,10,15,06:10,UTC,0,1018.9,87,,,11.7,9.6,21852,197,7.3,4.9
2018,10,15,06:20,UTC,0,1019,87,,,11.8,9.7,22137,199,8.7,5.1
2018,10,15,06:30,UTC,0,1019,86,,,11.9,9.7,21866,201,7.1,5.2
2018,10,15,06:40,UTC,0,1019,87,,,11.9,9.8,20266,201,7.4,5
2018,10,15,06:50,UTC,0,1018.9,86,,,12,9.8,22482,193,8.5,5.4
2018,10,15,07:00,UTC,0,1018.9,87,,,12,9.9,20694,188,8.8,5.5
2018,10,15,07:10,UTC,0,1018.9,87,,,12.2,10,19794,195,7.8,4.9
2018,10,15,07:20,UTC,0,1018.9,86,,,12.2,10,21647,189,7.7,5.3
2018,10,15,07:30,UTC,0,1019.1,85,,,12.4,10,21413,193,7.5,4.8
2018,10,15,07:40,UTC,0,1019,85,,,12.4,10,22998,191,8,4.6
2018,10,15,07:50,UTC,0,1019,85,,,12.5,10,22367,190,7.2,4.7
2018,10,15,08:00,UTC,0,1019.1,84,,,12.7,10.1,22323,194,7.1,4.8
2018,10,15,08:10,UTC,0,1019,85,,,12.7,10.2,22012,188,7.9,5.1
2018,10,15,08:20,UTC,0,1019,84,,,12.7,10.1,23235,186,9.5,5.3
2018,10,15,08:30,UTC,0,1019.1,83,,,12.9,10.1,22385,195,8.1,5.2
2018,10,15,08:40,UTC,0,1019.1,82,,,12.8,9.8,23502,196,8.9,6.2
2018,10,15,08:50,UTC,0,1019.1,82,,,12.9,9.9,23910,200,8.3,6.3
2018,10,15,09:00,UTC,0,1019.2,82,,,13.2,10.2,19369,204,7.7,5.1
2018,10,15,09:10,UTC,0,1019.2,81,,,13.2,10,25513,201,9.4,5.9
2018,10,15,09:20,UTC,0,1019.2,81,,,13.2,10,25275,207,8.9,5.8
2018,10,15,09:30,UTC,0,1019,81,,,13.4,10.2,22821,200,8.6,5.6
2018,10,15,09:40,UTC,0,1018.9,81,,,13.6,10.3,21661,197,8.4,6
2018,10,15,09:50,UTC,0,1018.8,80,,,13.8,10.4,23059,198,8.2,5.5
2018,10,15,10:00,UTC,0,1018.7,78,,,13.7,10,21712,196,9.3,5.9
2018,10,15,10:10,UTC,0,1018.8,78,,,13.9,10.2,23741,200,8.3,5.6
2018,10,15,10:20,UTC,0,1018.7,79,,,13.9,10.3,22953,191,9.1,6.7
2018,10,15,10:30,UTC,0,1018.7,78,,,14,10.2,21282,192,8.9,6.1
2018,10,15,10:40,UTC,0,1018.8,78,,,14,10.3,25250,201,9.7,6.1
2018,10,15,10:50,UTC,0,1018.8,77,,,14,10.1,21824,200,9.6,6.1
2018,10,15,11:00,UTC,0,1018.7,78,,,14.1,10.3,24686,205,9.3,6.3
2018,10,15,11:10,UTC,0,1018.6,77,,,14.1,10.2,25683,201,9.8,7.1
2018,10,15,11:20,UTC,0,1018.6,78,,,14.2,10.5,24371,197,11.5,6.9
2018,10,15,11:30,UTC,0,1018.5,77,,,14.3,10.4,22978,197,9.1,5.9
2018,10,15,11:40,UTC,0,1018.5,77,,,14.3,10.3,21833,199,9.1,6
2018,10,15,11:50,UTC,0,1018.6,77,,,14.4,10.3,21725,202,8.5,6.4
2018,10,15,12:00,UTC,0,1018.4,75,,,14.5,10.2,22657,198,8.5,5.6
2018,10,15,12:10,UTC,0,1018.6,76,,,14.8,10.5,24363,201,8.5,5.1
2018,10,15,12:20,UTC,0,1018.7,75,,,14.9,10.4,22651,203,8.8,5.2
2018,10,15,12:30,UTC,0,1018.6,74,,,15,10.4,21804,202,6.9,4.9
2018,10,15,12:40,UTC,0,1018.5,74,,,15.1,10.5,20780,199,9.3,5.6
2018,10,15,12:50,UTC,0,1018.6,74,,,15,10.4,23910,207,9.1,5.5
2018,10,15,13:00,UTC,0,1018.5,75,,,15,10.5,22205,203,8.2,5.3
2018,10,15,13:10,UTC,0,1018.5,74,,,15,10.5,25186,205,10,5.9
2018,10,15,13:20,UTC,0,1018.6,74,,,15,10.4,24905,209,8.3,5.2
2018,10,15,13:30,UTC,0,1018.6,74,,,15.1,10.4,27949,215,8.1,4.8
2018,10,15,13:40,UTC,0,1018.6,74,,,15,10.4,25981,212,8.2,4.7
2018,10,15,13:50,UTC,0,1018.6,73,,,15,10.3,24904,218,5.9,3.6
2018,10,15,14:00,UTC,0,1018.6,74,,,14.9,10.3,20793,216,6.2,3.9
2018,10,15,14:10,UTC,0,1018.5,74,,,14.8,10.2,27285,222,5.2,3.1
2018,10,15,14:20,UTC,0,1018.6,75,,,14.5,10.2,23536,228,4.3,2.6
2018,10,15,14:30,UTC,0,1018.5,76,,,14.4,10.1,25863,213,4.2,2.5
2018,10,15,14:40,UTC,0,1018.4,77,,,14.1,10.1,25016,204,4.9,3.1
2018,10,15,14:50,UTC,0,1018.4,77,,,14,10,24430,209,5,2.7
2018,10,15,15:00,UTC,0,1018.3,77,,,13.9,10,24364,212,4.3,2.7
2018,10,15,15:10,UTC,0,1018.3,78,,,13.8,10.1,24357,208,4.2,2.6
2018,10,15,15:20,UTC,0,1018.5,81,,,13.1,9.9,24309,201,3.1,1.8
2018,10,15,15:30,UTC,0,1018.6,80,,,13.3,10,23672,194,2.7,2
2018,10,15,15:40,UTC,0,1018.6,81,,,13.1,10,23363,198,3.1,2.2
2018,10,15,15:50,UTC,0,1018.6,82,,,12.7,9.8,21655,208,2.9,1.9
2018,10,15,16:00,UTC,0,1018.7,83,,,12.8,10,21535,190,2.7,2.1
2018,10,15,16:10,UTC,0,1018.7,82,,,12,9,22819,194,2.4,1.7
2018,10,15,16:20,UTC,0,1018.8,93,,,10.7,9.7,19119,221,1.8,0.9
2018,10,15,16:30,UTC,0,1018.7,91,,,10.7,9.2,18775,209,1.2,0.6
2018,10,15,16:40,UTC,0,1018.6,95,,,10.2,9.5,16871,138,1.3,1
2018,10,15,16:50,UTC,0,1018.7,97,,,10.4,10,17497,136,1.7,1.4
2018,10,15,17:00,UTC,0,1018.6,98,,,10,9.6,14998,144,2.1,1.7
2018,10,15,17:10,UTC,0,1018.7,95,,,10,9.2,15503,146,2.1,1.5
2018,10,15,17:20,UTC,0,1018.8,97,,,10,9.5,14895,174,2.2,1.3
2018,10,15,17:30,UTC,0,1018.8,97,,,9.7,9.2,15762,187,2.2,1.7
2018,10,15,17:40,UTC,0,1018.7,98,,,9.4,9.1,14940,193,1.9,0.9
2018,10,15,17:50,UTC,0,1018.7,95,,,8.9,8.2,15232,175,2.6,1.7
2018,10,15,18:00,UTC,0,1018.6,100,,,10,10,15366,187,3.1,2.5
2018,10,15,18:10,UTC,0,1018.5,94,,,10.8,9.8,17771,160,3.7,2.5
2018,10,15,18:20,UTC,0,1018.4,93,,,11.1,10,17976,167,3.6,2.4
2018,10,15,18:30,UTC,0,1018.4,94,,,11.2,10.2,16851,159,4.5,3
2018,10,15,18:40,UTC,0,1018.3,93,,,11.4,10.4,17276,162,4.7,3.1
2018,10,15,18:50,UTC,0,1018.3,93,,,11.4,10.3,17454,167,4.4,2.7
2018,10,15,19:00,UTC,0,1018.3,94,,,11.4,10.4,17219,169,4.1,2.3
2018,10,15,19:10,UTC,0,1018.2,93,,,11.6,10.5,18244,180,4.8,3.1
2018,10,15,19:20,UTC,0,1018,92,,,11.6,10.4,17288,177,4.5,3.3
2018,10,15,19:30,UTC,0,1018,93,,,11.5,10.5,17248,179,4.4,3.3
2018,10,15,19:40,UTC,0,1018,93,,,11.6,10.5,17886,180,4.8,3.5
2018,10,15,19:50,UTC,0,1017.9,91,,,11.5,10.2,17983,177,5.4,3.9
2018,10,15,20:00,UTC,0,1017.8,91,,,11.4,10,18862,178,4.8,3.6
2018,10,15,20:10,UTC,0,1017.8,92,,,11.2,9.9,19724,183,4.2,3.1
2018,10,15,20:20,UTC,0,1017.7,91,,,11.3,9.9,19816,180,4.3,3.2
2018,10,15,20:30,UTC,0,1017.6,91,,,11.3,9.8,19206,175,4.7,3.1
2018,10,15,20:40,UTC,0,1017.6,91,,,11.1,9.8,19991,178,4.6,3.1
2018,10,15,20:50,UTC,0,1017.5,92,,,11.2,9.9,20217,178,4,2.9
2018,10,15,21:00,UTC,0,1017.5,92,,,11.1,9.8,19522,179,4,2.9
2018,10,15,21:10,UTC,0,1017.4,92,,,11,9.8,19556,179,4.4,3.2
2018,10,15,21:20,UTC,0,1017.3,93,,,11,9.9,19433,177,4.9,3.4
2018,10,15,21:30,UTC,0,1017.2,93,,,11,9.9,18923,178,4.6,3.4
2018,10,15,21:40,UTC,0,1017.2,94,,,11,10,19017,182,4.7,3.3
2018,10,15,21:50,UTC,0,1017.1,94,,,10.9,9.9,17981,182,4.4,3.1
2018,10,15,22:00,UTC,0,1017.1,94,,,10.9,10,17603,186,4.5,2.8
2018,10,15,22:10,UTC,0,1017.1,94,,,11,10,17134,194,3.9,2.7
2018,10,15,22:20,UTC,0,1017.1,94,,,11,10,17258,192,4.5,2.7
2018,10,15,22:30,UTC,0,1017,94,,,11.2,10.3,16668,184,5,3.2
2018,10,15,22:40,UTC,0,1017,93,,,11.2,10.2,18429,178,4.5,3.3
2018,10,15,22:50,UTC,0,1017,94,,,11.2,10.3,17803,181,4.7,3.1
2018,10,15,23:00,UTC,0,1017,94,,,11.3,10.3,17503,184,4.8,3.2
2018,10,15,23:10,UTC,0,1016.9,94,,,11.2,10.2,17573,188,4.6,3.3
2018,10,15,23:20,UTC,0,1016.7,94,,,11.2,10.3,17969,187,5.1,3.2
2018,10,15,23:30,UTC,0,1016.5,92,,,11.5,10.3,17328,180,5.5,3.9
2018,10,15,23:40,UTC,0,1016.6,92,,,11.2,10,18301,184,5.5,3.7
2018,10,15,23:50,UTC,0,1016.7,93,,,11.2,10,17664,195,4.3,3
2018,10,16,00:00,UTC,0,1016.5,92,,,11.4,10.2,18693,185,4.9,3.2
2018,10,16,00:10,UTC,0,1016.4,93,,,11.2,10.2,17221,174,5.2,3.7
2018,10,16,00:20,UTC,0,1016.3,93,,,11.2,10.1,17856,180,5.8,3.9
2018,10,16,00:30,UTC,0,1016.2,92,,,11.3,10,18357,185,6.4,3.9
2018,10,16,00:40,UTC,0,1016,91,,,11.3,9.9,19179,181,7.9,4.4
2018,10,16,00:50,UTC,0,1015.9,92,,,11.2,9.9,19726,189,5.9,3.7
2018,10,16,01:00,UTC,0,1015.9,91,,,11.3,9.9,18760,192,7.1,4
2018,10,16,01:10,UTC,0,1015.9,91,,,11.1,9.8,20120,197,5.7,3.4
2018,10,16,01:20,UTC,0,1015.9,91,,,11.3,9.9,20224,195,5.8,3.8
2018,10,16,01:30,UTC,0,1015.9,91,,,11.3,9.9,20327,193,6.4,3.8
2018,10,16,01:40,UTC,0,1015.9,91,,,11.4,10,20323,200,5.1,3.3
2018,10,16,01:50,UTC,0,1015.9,91,,,11.4,10.1,21888,198,5.2,3.3
2018,10,16,02:00,UTC,0,1015.8,92,,,11.5,10.2,19035,194,5.8,3.5
2018,10,16,02:10,UTC,0,1015.8,92,,,11.3,10,19474,196,5.2,3.4
2018,10,16,02:20,UTC,0,1015.7,92,,,11.2,10,19678,190,5.1,3.2
2018,10,16,02:30,UTC,0,1015.6,93,,,11.2,10.1,18544,180,4.6,3
2018,10,16,02:40,UTC,0,1015.5,93,,,11.2,10.2,18108,182,5,3
2018,10,16,02:50,UTC,0,1015.4,93,,,11.3,10.2,18934,180,4.8,3.4
2018,10,16,03:00,UTC,0,1015.3,93,,,11,10,17948,181,4.2,3.1
2018,10,16,03:10,UTC,0,1015.2,94,,,10.8,10,17624,187,4,2.7
2018,10,16,03:20,UTC,0,1015.2,94,,,10.8,9.9,17434,185,3.2,2.2
2018,10,16,03:30,UTC,0,1015.2,95,,,10.8,10,17075,181,3.2,2.4
2018,10,16,03:40,UTC,0,1015.3,96,,,10.8,10.1,17482,196,3.3,2.2
2018,10,16,03:50,UTC,0,1015.2,95,,,10.8,10,17682,198,4.6,3
2018,10,16,04:00,UTC,0,1015.2,95,,,10.9,10.2,17848,195,5,3.4
2018,10,16,04:10,UTC,0,1015.2,96,,,10.8,10.1,17453,195,5,3.4
2018,10,16,04:20,UTC,0,1015.3,95,,,10.8,10,17073,196,5.4,3.4
2018,10,16,04:30,UTC,0,1015.4,96,,,10.8,10.2,16860,200,4.7,3.1
2018,10,16,04:40,UTC,0,1015.1,96,,,10.7,10,16159,193,4.8,3.2
2018,10,16,04:50,UTC,0,1015.1,97,,,10.7,10.2,16112,194,4.6,3
2018,10,16,05:00,UTC,0,1015.1,97,,,10.8,10.3,15683,186,4.9,3.1
2018,10,16,05:10,UTC,0,1015.2,96,,,11.1,10.5,14895,184,4.9,3.5
2018,10,16,05:20,UTC,1,1015.2,96,,,11.1,10.5,14838,194,5.6,3.3
2018,10,16,05:30,UTC,2,1015.3,97,,,11.2,10.6,15167,195,6.4,3.8
2018,10,16,05:40,UTC,4,1015.4,95,,,11.3,10.6,15323,200,6.2,4.1
2018,10,16,05:50,UTC,6,1015.4,96,,,11.3,10.7,15034,203,5.2,3.5
2018,10,16,06:00,UTC,7,1015.4,96,,,11.4,10.8,15482,193,6.9,4.5
2018,10,16,06:10,UTC,7,1015.7,96,,,11.8,11.1,14952,210,6.7,3.8
2018,10,16,06:20,UTC,7,1015.9,96,,,11.7,11,15350,225,3.9,2.2
2018,10,16,06:30,UTC,7,1015.9,95,,,11.8,10.9,16079,226,4.1,2.5
2018,10,16,06:40,UTC,8,1015.8,94,,,12,11,16768,220,5.5,3.2
2018,10,16,06:50,UTC,8,1015.7,94,,,12.1,11.1,16310,225,5.5,3.6
2018,10,16,07:00,UTC,8,1015.9,94,,,12.1,11.2,16010,232,6.5,4.2
2018,10,16,07:10,UTC,8,1016.1,94,,,12.1,11.2,14733,241,5.8,3.8
2018,10,16,07:20,UTC,8,1016,94,,,12.1,11.2,14364,234,6.6,3.9
2018,10,16,07:30,UTC,8,1016.2,94,,,12.1,11.2,14056,247,7.3,4.4
2018,10,16,07:40,UTC,8,1016.2,94,,,12.1,11.2,13756,237,6,3.9
2018,10,16,07:50,UTC,8,1016.2,94,,,12.2,11.2,13526,226,5.4,3.9
2018,10,16,08:00,UTC,8,1016.2,94,,,12.3,11.3,13737,219,6.7,4.2
2018,10,16,08:10,UTC,7,1016.4,93,,,12.4,11.3,13983,223,5.6,4.1
2018,10,16,08:20,UTC,7,1016.4,93,,,12.5,11.4,14257,229,6.2,3.6
2018,10,16,08:30,UTC,7,1016.6,93,,,12.6,11.5,14122,244,6.3,4.1
2018,10,16,08:40,UTC,7,1016.9,93,,,12.6,11.6,14992,250,6.2,3.8
2018,10,16,08:50,UTC,7,1016.9,92,,,12.7,11.5,14074,246,5.4,3.4
2018,10,16,09:00,UTC,8,1017.1,92,,,12.9,11.6,15088,252,4.9,3.1
2018,10,16,09:10,UTC,8,1017.1,90,,,13.1,11.6,15273,257,5.5,3
2018,10,16,09:20,UTC,8,1017.1,88,,,13.3,11.4,15656,257,6.7,4.2
2018,10,16,09:30,UTC,8,1017.2,89,,,13.3,11.5,14964,257,5.5,4
2018,10,16,09:40,UTC,7,1017.2,89,,,13.2,11.5,14882,252,6,3.8
2018,10,16,09:50,UTC,7,1017.3,89,,,13.4,11.6,15721,246,3.9,2.8
2018,10,16,10:00,UTC,7,1017.4,89,,,13.4,11.6,15962,245,4.3,2.9
2018,10,16,10:10,UTC,7,1017.5,89,,,13.4,11.6,15357,253,3.6,2.5
2018,10,16,10:20,UTC,7,1017.5,87,,,13.7,11.5,16362,262,3.5,2.1
2018,10,16,10:30,UTC,6,1017.4,87,,,13.8,11.8,15906,262,3.4,2.3
2018,10,16,10:40,UTC,6,1017.5,86,,,13.8,11.5,14994,254,3.1,2.2
2018,10,16,10:50,UTC,6,1017.6,86,,,13.9,11.7,16367,280,3.7,2.6
2018,10,16,11:00,UTC,7,1017.7,85,,,14.1,11.6,16223,274,3.8,2.6
2018,10,16,11:10,UTC,7,1017.7,85,,,14,11.5,17676,283,4.5,2.7
2018,10,16,11:20,UTC,8,1017.8,85,,,14,11.5,15584,276,4.1,2.7
2018,10,16,11:30,UTC,8,1017.9,85,,,13.8,11.4,14895,282,4.8,3.2
2018,10,16,11:40,UTC,8,1018,86,,,14,11.7,15605,268,4.2,2.2
2018,10,16,11:50,UTC,8,1018,85,,,13.9,11.4,16281,283,3.3,2.2
2018,10,16,12:00,UTC,8,1018.1,85,,,14,11.5,16715,259,2.9,2
2018,10,16,12:10,UTC,8,1018.3,85,,,14,11.5,17135,276,3,2
2018,10,16,12:20,UTC,8,1018.3,86,,,13.9,11.5,16634,303,3,1.9
2018,10,16,12:30,UTC,8,1018.4,87,,,13.5,11.5,15294,337,3.9,3
2018,10,16,12:40,UTC,8,1018.6,87,,,13.4,11.3,14551,330,4,3.2
2018,10,16,12:50,UTC,8,1018.7,87,,,13.5,11.4,14746,323,3.5,2.6
2018,10,16,13:00,UTC,7,1018.8,87,,,13.6,11.5,14798,322,3.3,2.3
2018,10,16,13:10,UTC,7,1018.9,87,,,13.5,11.4,15020,321,4.7,2.9
2018,10,16,13:20,UTC,7,1018.9,88,,,13.2,11.3,14481,329,5,3.6
2018,10,16,13:30,UTC,7,1018.9,89,,,12.9,11.1,14164,328,5.3,4.4
2018,10,16,13:40,UTC,7,1019.1,90,,,12.7,11.1,13317,331,5.2,3.9
2018,10,16,13:50,UTC,8,1019.1,90,,,12.6,11,13359,314,4.8,3.3
2018,10,16,14:00,UTC,8,1019.1,90,,,12.4,10.9,14039,328,4.6,3.3
2018,10,16,14:10,UTC,8,1019.2,91,,,12.4,10.9,13080,327,3.6,2.8
2018,10,16,14:20,UTC,8,1019.3,91,,,12.4,11,12362,323,3.1,2.3
2018,10,16,14:30,UTC,8,1019.4,92,,,12.3,11,11703,324,3.7,2.6
2018,10,16,14:40,UTC,8,1019.4,92,,,12.3,11,11858,338,3.9,2.7
2018,10,16,14:50,UTC,8,1019.5,91,,,12.3,10.8,12341,344,4.3,3.1
2018,10,16,15:00,UTC,8,1019.7,92,,,12.2,10.9,12736,340,3.7,2.7
2018,10,16,15:10,UTC,8,1019.6,91,,,12.2,10.8,12674,349,3,2.2
2018,10,16,15:20,UTC,8,1019.6,91,,,12.2,10.8,13307,3,2.5,1.6
2018,10,16,15:30,UTC,8,1019.8,90,,,12.2,10.6,13720,1,2.9,1.7
2018,10,16,15:40,UTC,7,1019.9,91,,,12,10.6,14205,5,2.1,1.4
2018,10,16,15:50,UTC,7,1019.9,92,,,11.8,10.6,13522,4,2.5,1.4
2018,10,16,16:00,UTC,7,1019.9,92,,,11.8,10.5,13086,55,1.1,0.6
2018,10,16,16:10,UTC,7,1020,93,,,11.5,10.5,12043,0,0,0
2018,10,16,16:20,UTC,7,1020.1,95,,,11,10.2,11682,360,1,0.6
2018,10,16,16:30,UTC,8,1020,98,,,10.8,10.4,10390,70,1.2,0.7
2018,10,16,16:40,UTC,5,1020.1,98,,,10.7,10.4,9306,130,1.1,0.7
2018,10,16,16:50,UTC,6,1020.2,98,,,10.1,9.8,7870,0,0,0
2018,10,16,17:00,UTC,6,1020.2,99,,,9.9,9.8,7492,95,1.1,0.8
2018,10,16,17:10,UTC,8,1020.4,99,,,9.7,9.6,7712,360,0.9,0.6
2018,10,16,17:20,UTC,8,1020.3,100,,,10.1,10.1,7340,338,0.7,0.5
2018,10,16,17:30,UTC,8,1020.3,100,,,10.2,10.2,7350,97,1.2,0.7
2018,10,16,17:40,UTC,8,1020.3,100,,,10.2,10.2,8215,124,0.9,0.7
2018,10,16,17:50,UTC,8,1020.3,99,,,10.1,9.9,8359,70,0.9,0.7
2018,10,16,18:00,UTC,8,1020.4,100,,,9.9,9.9,7137,0,0,0
2018,10,16,18:10,UTC,8,1020.5,100,,,10,10,6147,0,0,0
2018,10,16,18:20,UTC,8,1020.5,100,,,10.1,10.1,6340,1,1.1,0.8
2018,10,16,18:30,UTC,8,1020.6,100,,,10.1,10.1,8686,95,0.8,0.6
2018,10,16,18:40,UTC,8,1020.7,100,,,10.2,10.2,8760,51,0.9,0.6
2018,10,16,18:50,UTC,8,1020.8,100,,,10.2,10.1,8189,0,0,0
2018,10,16,19:00,UTC,8,1020.9,100,,,10.1,10.1,7975,0,0,0
2018,10,16,19:10,UTC,8,1020.9,100,,,10.1,10.1,6946,352,1.3,1
2018,10,16,19:20,UTC,8,1020.9,100,,,10.3,10.3,9110,43,1.3,1
2018,10,16,19:30,UTC,8,1020.9,99,,,10.8,10.7,9821,11,1.5,1
2018,10,16,19:40,UTC,8,1021,99,,,10.3,10.1,8289,9,1.4,0.9
2018,10,16,19:50,UTC,8,1021,100,,,10.6,10.6,7722,359,1.9,1.4
2018,10,16,20:00,UTC,8,1021,100,,,10.7,10.6,8307,348,1.8,1.6
2018,10,16,20:10,UTC,8,1020.9,99,,,10.8,10.6,9379,23,1.7,1
2018,10,16,20:20,UTC,8,1021,98,,,10.9,10.6,9988,0,0,0
2018,10,16,20:30,UTC,8,1021,98,,,10.8,10.5,9604,358,0.7,0.5
2018,10,16,20:40,UTC,8,1021.1,99,,,10.7,10.5,8973,0,0,0
2018,10,16,20:50,UTC,8,1021,99,,,10.8,10.6,9026,68,1.5,0.8
2018,10,16,21:00,UTC,8,1021.1,99,,,10.7,10.5,9021,96,1.3,0.8
2018,10,16,21:10,UTC,8,1021,99,,,10.8,10.6,9709,0,0,0
2018,10,16,21:20,UTC,8,1020.9,97,,,11.1,10.6,11291,74,2,1.3
2018,10,16,21:30,UTC,8,1020.8,96,,,11.1,10.5,11820,69,1.8,1.2
2018,10,16,21:40,UTC,8,1020.9,96,,,11.1,10.5,12099,46,2.3,1.2
2018,10,16,21:50,UTC,8,1020.9,96,,,11.1,10.4,11884,35,1.8,0.9
2018,10,16,22:00,UTC,8,1020.9,96,,,11.1,10.4,12293,62,2.4,1.1
2018,10,16,22:10,UTC,8,1020.9,95,,,11.1,10.4,12136,73,2.4,1.3
2018,10,16,22:20,UTC,8,1020.8,95,,,11.1,10.4,11981,94,2.9,1.8
2018,10,16,22:30,UTC,8,1020.5,96,,,11.1,10.5,11938,112,4.4,2.7
2018,10,16,22:40,UTC,8,1020,96,,,11.1,10.5,11821,118,5.3,3.6
2018,10,16,22:50,UTC,8,1020.3,96,,,11.1,10.5,11761,103,4.4,2.4
2018,10,16,23:00,UTC,8,1020.5,95,,,11.2,10.4,12420,68,3.5,1.8
2018,10,16,23:10,UTC,8,1020.6,95,,,11.2,10.4,11851,60,2.1,1.5
2018,10,16,23:20,UTC,8,1020.6,95,,,11.2,10.4,11685,63,2.7,1.4
2018,10,16,23:30,UTC,8,1020.5,96,,,11.1,10.4,11237,92,3.1,1.7
2018,10,16,23:40,UTC,8,1020.4,96,,,11,10.4,10947,108,2.9,2.1
2018,10,16,23:50,UTC,8,1020.4,96,,,11.1,10.5,10425,119,2.8,2
2018,10,17,00:00,UTC,8,1020.5,96,,,11.1,10.6,10018,103,3.2,1.8
2018,10,17,00:10,UTC,8,1020.5,97,,,11.1,10.6,9190,110,2.8,2
2018,10,17,00:20,UTC,8,1020.5,97,,,11.1,10.7,8469,111,3.1,2.2
2018,10,17,00:30,UTC,8,1020.5,97,,,11.2,10.7,7993,108,3.8,2.3
2018,10,17,00:40,UTC,8,1020.4,97,,,11.2,10.7,7138,117,4.3,2.9
2018,10,17,00:50,UTC,8,1020.4,98,,,11.1,10.8,5788,120,4.6,3.1
2018,10,17,01:00,UTC,8,1020.5,99,,,11,10.9,4794,129,4,2.4
2018,10,17,01:10,UTC,8,1020.5,100,,,11,10.9,3856,129,2.5,1.6
2018,10,17,01:20,UTC,8,1020.7,100,,,11,11,3227,126,2.2,1.5
2018,10,17,01:30,UTC,8,1020.7,100,,,11,11,2874,149,1.9,1.2
2018,10,17,01:40,UTC,8,1020.7,100,,,11,11,2597,134,2,1.1
2018,10,17,01:50,UTC,8,1020.6,100,,,11,11,2335,139,2.2,1.7
2018,10,17,02:00,UTC,8,1020.4,100,,,11,11,2188,154,3.1,2
2018,10,17,02:10,UTC,8,1020.3,100,,,11,11,1558,149,3.3,2.2
2018,10,17,02:20,UTC,8,1020.3,100,,,10.9,10.9,866,138,3,2.1
2018,10,17,02:30,UTC,9,1020.2,100,,,10.9,10.9,489,143,3.2,2.2
2018,10,17,02:40,UTC,9,1020.3,100,,,10.9,10.9,352,157,3.4,2.2
2018,10,17,02:50,UTC,9,1020.3,100,,,10.8,10.8,352,155,2.9,1.7
2018,10,17,03:00,UTC,9,1020.4,100,,,10.8,10.8,361,141,3.2,2.2
2018,10,17,03:10,UTC,9,1020.3,100,,,10.7,10.7,711,144,3,2.3
2018,10,17,03:20,UTC,9,1020.4,100,,,10.7,10.7,584,161,2.9,2.2
2018,10,17,03:30,UTC,9,1020.2,100,,,10.7,10.7,222,150,3.1,2.1
2018,10,17,03:40,UTC,9,1020.2,100,,,10.7,10.7,205,146,3.5,2.1
2018,10,17,03:50,UTC,9,1020.2,100,,,10.7,10.7,263,155,3,2
2018,10,17,04:00,UTC,8,1020.2,100,,,10.7,10.7,1730,154,2.6,1.8
2018,10,17,04:10,UTC,8,1020.2,100,,,10.7,10.7,2845,163,2.3,1.5
2018,10,17,04:20,UTC,8,1020,100,,,10.7,10.7,2572,152,2.4,1.6
2018,10,17,04:30,UTC,8,1019.9,100,,,10.8,10.7,2025,141,4.3,2.1
2018,10,17,04:40,UTC,9,1019.9,100,,,10.6,10.6,403,131,4.9,3
2018,10,17,04:50,UTC,9,1020,100,,,10.5,10.5,260,139,4.5,3.5
2018,10,17,05:00,UTC,9,1020.1,100,,,10.4,10.4,382,152,5,3.2
2018,10,17,05:10,UTC,9,1020,100,,,10.3,10.2,400,145,4.5,3.3
2018,10,17,05:20,UTC,9,1020,100,,,10.2,10.2,448,144,4.1,2.7
2018,10,17,05:30,UTC,9,1019.8,100,,,10.1,10.1,304,140,4.4,3
2018,10,17,05:40,UTC,9,1019.9,100,,,10.1,10.1,313,150,4.3,2.5
2018,10,17,05:50,UTC,9,1019.9,100,,,10.1,10.1,313,152,4.1,3
2018,10,17,06:00,UTC,9,1020,100,,,10.1,10.1,317,150,3.7,2.7
2018,10,17,06:10,UTC,9,1020,100,,,10.1,10.1,267,148,3.6,2.5
2018,10,17,06:20,UTC,9,1020.2,100,,,10.1,10.1,212,146,3.9,2.8
2018,10,17,06:30,UTC,9,1020.2,100,,,10.2,10.2,229,148,3.1,2.3
2018,10,17,06:40,UTC,9,1020.3,100,,,10.4,10.4,269,167,3.3,2.1
2018,10,17,06:50,UTC,9,1020.3,100,,,10.3,10.3,434,170,4.2,3
2018,10,17,07:00,UTC,9,1020.3,100,,,10.3,10.3,369,181,5.2,3.5
2018,10,17,07:10,UTC,9,1020.3,100,,,10.3,10.3,292,169,4.3,2.9
2018,10,17,07:20,UTC,9,1020.2,100,,,10.3,10.3,273,160,3.9,2.5
2018,10,17,07:30,UTC,9,1020.2,100,,,10.3,10.3,262,175,4.7,3.3
2018,10,17,07:40,UTC,9,1020.2,100,,,10.3,10.3,230,177,5,3.2
2018,10,17,07:50,UTC,9,1020.4,100,,,10.4,10.4,227,194,5,2.9
2018,10,17,08:00,UTC,9,1020.5,100,,,10.5,10.5,300,200,4.4,3
2018,10,17,08:10,UTC,9,1020.4,100,,,10.5,10.5,510,187,3.5,2.2
2018,10,17,08:20,UTC,9,1020.3,100,,,10.5,10.5,486,191,4.5,2.3
2018,10,17,08:30,UTC,9,1020.2,100,,,10.7,10.7,493,187,3.8,2.2
2018,10,17,08:40,UTC,9,1020.2,100,,,10.7,10.7,402,178,3.4,2.4
2018,10,17,08:50,UTC,9,1020.2,100,,,10.7,10.7,373,176,4.3,3
2018,10,17,09:00,UTC,9,1020.1,100,,,10.7,10.7,938,181,4.2,2.4
2018,10,17,09:10,UTC,8,1020.1,100,,,10.8,10.8,3529,192,4,3.1
2018,10,17,09:20,UTC,8,1020.2,100,,,11,11,4259,201,4.4,3.2
2018,10,17,09:30,UTC,8,1020.2,100,,,11.1,11.1,4125,201,6.1,3.5
2018,10,17,09:40,UTC,8,1020.1,100,,,11,11,3702,200,5.5,3.5
2018,10,17,09:50,UTC,8,1019.9,100,,,11.1,11.1,3023,197,3.5,2.3
2018,10,17,10:00,UTC,8,1019.9,100,,,11.1,11.1,2933,191,4.3,2.8
2018,10,17,10:10,UTC,8,1019.9,100,,,10.9,10.9,1866,182,4.8,3.7
2018,10,17,10:20,UTC,8,1019.9,100,,,10.9,10.9,2591,176,4.7,3.4
2018,10,17,10:30,UTC,8,1019.7,100,,,10.8,10.8,1566,177,4.2,2.8
2018,10,17,10:40,UTC,8,1019.7,100,,,10.7,10.7,1434,177,4.1,3.1
2018,10,17,10:50,UTC,8,1019.8,100,,,10.7,10.7,1600,174,4.9,3.6
2018,10,17,11:00,UTC,8,1019.8,100,,,10.7,10.7,1677,185,5.6,3.4
2018,10,17,11:10,UTC,8,1019.6,100,,,10.3,10.3,799,182,4.7,3.6
2018,10,17,11:20,UTC,9,1019.6,100,,,10.2,10.2,642,175,4.9,3.3
2018,10,17,11:30,UTC,8,1019.6,100,,,10.1,10.1,1134,177,5.1,3.6
2018,10,17,11:40,UTC,8,1019.6,100,,,10.1,10.1,3546,197,5.3,3.6
2018,10,17,11:50,UTC,8,1019.6,100,,,10.3,10.3,4106,180,4.4,3.1
2018,10,17,12:00,UTC,8,1019.5,100,,,10.4,10.4,5250,199,5.4,2.8
2018,10,17,12:10,UTC,8,1019.6,100,,,10.2,10.2,3489,201,5.1,3.1
2018,10,17,12:20,UTC,8,1019.5,100,,,10.2,10.2,2860,204,4.9,3.5
2018,10,17,12:30,UTC,8,1019.5,100,,,10.2,10.2,1992,196,5.1,3.2
2018,10,17,12:40,UTC,8,1019.5,100,,,10.2,10.2,1907,181,5.4,3.3
2018,10,17,12:50,UTC,8,1019.4,100,,,10.1,10.1,1827,182,5.5,3.7
2018,10,17,13:00,UTC,7,1019.3,100,,,10.5,10.5,3340,182,5.9,3.8
2018,10,17,13:10,UTC,7,1019.2,100,,,10.6,10.6,6792,188,6.4,3.9
2018,10,17,13:20,UTC,7,1019.1,99,,,10.7,10.6,7593,187,5.4,3.3
2018,10,17,13:30,UTC,7,1019,98,,,10.8,10.5,7869,184,3.5,2.1
2018,10,17,13:40,UTC,7,1019,98,,,10.7,10.4,7104,182,3.8,2.3
2018,10,17,13:50,UTC,7,1018.8,99,,,10.5,10.4,5792,164,3.7,2.3
2018,10,17,14:00,UTC,7,1018.8,100,,,10.5,10.4,5097,176,3,2.1
2018,10,17,14:10,UTC,7,1018.8,100,,,10.4,10.4,4582,181,3.2,2
2018,10,17,14:20,UTC,7,1018.9,100,,,10.4,10.4,4164,180,2.4,1.7
2018,10,17,14:30,UTC,7,1018.8,100,,,10.3,10.3,3565,164,2.5,1.7
2018,10,17,14:40,UTC,7,1018.7,100,,,10.1,10.1,2378,159,2.6,1.7
2018,10,17,14:50,UTC,7,1018.7,100,,,10.1,10.1,1701,154,2.7,1.9
2018,10,17,15:00,UTC,7,1018.6,100,,,9.9,9.9,1980,145,2.5,1.4
2018,10,17,15:10,UTC,6,1018.7,100,,,9.7,9.7,2019,137,1.9,1.3
2018,10,17,15:20,UTC,5,1018.7,100,,,9.6,9.6,1874,133,1.5,1.1
2018,10,17,15:30,UTC,2,1018.6,100,,,9.4,9.4,2013,144,2.5,1.6
2018,10,17,15:40,UTC,1,1018.5,100,,,9.5,9.5,2489,143,3.2,2.3
2018,10,17,15:50,UTC,0,1018.4,100,,,9.3,9.3,2319,141,2.9,2.1
2018,10,17,16:00,UTC,0,1018.5,100,,,9.1,9.1,1915,142,2.5,2
2018,10,17,16:10,UTC,0,1018.5,100,,,9.4,9.4,1964,148,1.6,1.1
2018,10,17,16:20,UTC,0,1018.4,100,,,9.4,9.4,1703,149,1.5,1.1
2018,10,17,16:30,UTC,0,1018.4,100,,,9.3,9.3,1207,135,1.8,0.7
2018,10,17,16:40,UTC,0,1018.4,100,,,8.5,8.5,257,134,2.1,1.2
2018,10,17,16:50,UTC,0,1018.3,100,,,8.8,8.8,389,159,2.3,1.1
2018,10,17,17:00,UTC,0,1018.2,100,,,9,9,1197,175,2.3,1.7
2018,10,17,17:10,UTC,0,1018.2,100,,,9.4,9.4,2913,168,2.3,1.7
2018,10,17,17:20,UTC,0,1018.1,100,,,9.7,9.7,4100,168,2.7,2
2018,10,17,17:30,UTC,0,1018,100,,,10.4,10.4,6927,177,3,2.2
2018,10,17,17:40,UTC,0,1018,100,,,10.4,10.4,8029,187,3.2,2.4
2018,10,17,17:50,UTC,0,1017.9,99,,,11.1,11,9650,181,4.2,3
2018,10,17,18:00,UTC,0,1017.9,97,,,10.9,10.4,10911,192,3.9,2.9
2018,10,17,18:10,UTC,0,1017.9,97,,,10.9,10.4,10440,195,4.3,3.1
2018,10,17,18:20,UTC,0,1017.9,95,,,11.1,10.4,11476,200,5.7,3.4
2018,10,17,18:30,UTC,0,1017.8,94,,,11.5,10.6,12350,199,6,4
2018,10,17,18:40,UTC,0,1017.7,94,,,11.6,10.6,12454,199,5.5,4
2018,10,17,18:50,UTC,0,1017.6,94,,,11.7,10.7,12056,198,6.4,4
2018,10,17,19:00,UTC,0,1017.6,94,,,11.6,10.7,11545,200,6.8,4.2
2018,10,17,19:10,UTC,3,1017.7,95,,,11.8,10.9,11189,206,5.5,3.9
2018,10,17,19:20,UTC,5,1017.7,95,,,11.9,11.1,10365,209,6.7,4.5
2018,10,17,19:30,UTC,7,1017.7,96,,,12,11.3,9225,213,6.8,4
2018,10,17,19:40,UTC,8,1017.6,97,,,11.9,11.4,8046,209,5.8,3.5
2018,10,17,19:50,UTC,8,1017.6,97,,,11.9,11.5,7485,213,7.2,4.1
2018,10,17,20:00,UTC,8,1017.7,97,,,12,11.6,6942,221,6.2,4
2018,10,17,20:10,UTC,8,1017.8,98,,,11.9,11.5,6895,235,4.7,3.3
2018,10,17,20:20,UTC,8,1017.8,98,,,11.9,11.6,6330,237,6.5,3.8
2018,10,17,20:30,UTC,8,1017.9,99,,,11.8,11.6,5390,233,6.8,4.1
2018,10,17,20:40,UTC,8,1017.9,99,,,11.7,11.6,4622,236,6.4,4.1
2018,10,17,20:50,UTC,8,1017.8,100,,,11.6,11.6,4062,223,6.1,3.7
2018,10,17,21:00,UTC,8,1017.7,100,,,11.5,11.5,3547,226,5.5,3.9
2018,10,17,21:10,UTC,8,1017.7,100,,,11.5,11.5,3184,225,5.8,3.7
2018,10,17,21:20,UTC,8,1017.7,100,,,11.5,11.5,3183,224,6.7,4
2018,10,17,21:30,UTC,8,1017.6,100,,,11.5,11.5,3186,230,6,3.4
2018,10,17,21:40,UTC,8,1017.7,100,,,11.5,11.5,3377,235,5.6,3.5
2018,10,17,21:50,UTC,8,1017.7,100,,,11.4,11.4,3290,229,4.6,3.2
2018,10,17,22:00,UTC,8,1017.6,100,,,11.5,11.5,3598,224,4.7,3.2
2018,10,17,22:10,UTC,8,1017.5,100,,,11.4,11.4,4018,225,5.3,3.5
2018,10,17,22:20,UTC,8,1017.5,100,,,11.4,11.4,3686,226,4.6,3.1
2018,10,17,22:30,UTC,8,1017.5,100,,,11.4,11.4,3666,217,5,3.3
2018,10,17,22:40,UTC,8,1017.5,100,,,11.4,11.4,3525,227,4.9,3.4
2018,10,17,22:50,UTC,8,1017.5,100,,,11.2,11.2,2830,216,5.7,3.2
2018,10,17,23:00,UTC,8,1017.4,100,,,11.1,11.1,2236,219,4.2,3.2
2018,10,17,23:10,UTC,8,1017.4,100,,,11.1,11.1,1986,219,4.5,3.2
2018,10,17,23:20,UTC,8,1017.4,100,,,11.1,11.1,2124,230,4.6,3.2
2018,10,17,23:30,UTC,8,1017.3,100,,,11.1,11.1,2081,236,3.5,2.4
2018,10,17,23:40,UTC,8,1017.2,100,,,11.1,11.1,3920,240,2.9,1.9
2018,10,17,23:50,UTC,8,1017.2,100,,,11.1,11.1,4273,232,3.3,1.8
2018,10,18,00:00,UTC,8,1017.2,100,,,10.9,10.9,1842,213,3.8,2.5
2018,10,18,00:10,UTC,8,1017.1,100,,,10.8,10.8,1205,208,4.1,2.9
2018,10,18,00:20,UTC,8,1017.2,100,,,10.7,10.7,1232,204,4.7,3.1
2018,10,18,00:30,UTC,8,1017,100,,,10.6,10.6,1211,209,4.5,3.2
2018,10,18,00:40,UTC,8,1016.9,100,,,10.6,10.6,2030,214,5.4,2.9
2018,10,18,00:50,UTC,8,1016.8,100,,,10.6,10.6,1854,216,3.9,2.5
2018,10,18,01:00,UTC,8,1016.7,100,,,10.5,10.5,1322,214,5.1,3.1
2018,10,18,01:10,UTC,8,1016.6,100,,,10.5,10.5,1285,212,4.6,2.7
2018,10,18,01:20,UTC,9,1016.6,100,,,10.5,10.5,793,212,3.4,2.5
2018,10,18,01:30,UTC,9,1016.4,100,,,10.5,10.5,660,216,4.3,2.5
2018,10,18,01:40,UTC,9,1016.4,100,,,10.6,10.5,377,210,3.9,2.7
2018,10,18,01:50,UTC,9,1016.4,100,,,10.7,10.7,322,216,4,2.8
2018,10,18,02:00,UTC,9,1016.3,100,,,10.8,10.8,278,208,4.4,3
2018,10,18,02:10,UTC,9,1016.1,100,,,10.9,10.9,329,206,6,3.7
2018,10,18,02:20,UTC,9,1015.9,100,,,11,11,363,203,5.3,3.5
2018,10,18,02:30,UTC,9,1015.8,100,,,11.1,11.1,454,203,5.8,3.3
2018,10,18,02:40,UTC,9,1015.7,100,,,11.2,11.2,550,200,5.1,3.5
2018,10,18,02:50,UTC,8,1015.5,100,,,11.3,11.3,925,198,5.6,3.6
2018,10,18,03:00,UTC,8,1015.4,100,,,11.5,11.4,1227,199,5.4,3.6
2018,10,18,03:10,UTC,8,1015.3,100,,,11.5,11.5,901,192,4.9,3.3
2018,10,18,03:20,UTC,8,1015.2,100,,,11.5,11.5,951,197,5.6,3.7
2018,10,18,03:30,UTC,8,1015,100,,,11.6,11.6,1318,190,6.5,4.3
2018,10,18,03:40,UTC,8,1015,100,,,11.6,11.6,1663,194,6.1,4
2018,10,18,03:50,UTC,8,1015.1,100,,,11.7,11.7,2135,201,6.6,4.1
2018,10,18,04:00,UTC,8,1015,100,,,11.7,11.7,2213,198,6.4,4.3
2018,10,18,04:10,UTC,8,1015,100,,,11.7,11.7,2369,197,5.9,3.7
2018,10,18,04:20,UTC,8,1015,100,,,11.7,11.7,2912,204,5.3,3.7
2018,10,18,04:30,UTC,8,1014.9,100,,,11.7,11.7,3126,197,7.6,4.1
2018,10,18,04:40,UTC,8,1014.9,100,,,11.7,11.7,3198,197,5.9,4
2018,10,18,04:50,UTC,8,1014.8,100,,,11.6,11.6,3332,195,6.1,3.9
2018,10,18,05:00,UTC,8,1014.7,100,,,11.6,11.6,3774,200,6.2,4.1
2018,10,18,05:10,UTC,8,1014.6,100,,,11.6,11.6,4242,197,5.9,3.8
2018,10,18,05:20,UTC,8,1014.5,100,,,11.6,11.5,4605,197,6,4.2
2018,10,18,05:30,UTC,8,1014.4,100,,,11.6,11.5,5135,201,6.1,4.2
2018,10,18,05:40,UTC,8,1014.4,99,,,11.6,11.5,5519,200,5.6,3.7
2018,10,18,05:50,UTC,8,1014.3,99,,,11.6,11.4,5917,195,7.6,4.6
2018,10,18,06:00,UTC,8,1014.2,99,,,11.6,11.4,5963,196,6,4.3
2018,10,18,06:10,UTC,8,1014.1,99,,,11.6,11.4,5839,194,6,4.1
2018,10,18,06:20,UTC,8,1014.1,99,,,11.6,11.4,5897,199,6.2,4
2018,10,18,06:30,UTC,8,1013.9,98,,,11.7,11.5,6140,202,6.7,4.2
2018,10,18,06:40,UTC,8,1013.9,98,,,11.8,11.5,6528,199,6.6,4.3
2018,10,18,06:50,UTC,8,1013.8,98,,,11.8,11.5,6898,199,5.9,3.9
2018,10,18,07:00,UTC,8,1013.9,98,,,11.9,11.5,6984,200,6.3,4.1
2018,10,18,07:10,UTC,8,1013.9,97,,,11.8,11.5,6978,195,5.8,4
2018,10,18,07:20,UTC,8,1013.8,98,,,11.9,11.5,6966,195,5.5,3.9
2018,10,18,07:30,UTC,8,1013.8,97,,,12,11.5,7224,201,6.7,4.6
2018,10,18,07:40,UTC,8,1013.8,96,,,12,11.5,7677,191,6.2,4.1
2018,10,18,07:50,UTC,8,1013.9,96,,,12.1,11.5,7928,196,6.4,4.5
2018,10,18,08:00,UTC,8,1013.8,96,,,12.2,11.5,8467,201,6.7,4.4
2018,10,18,08:10,UTC,8,1013.7,95,,,12.3,11.5,8696,196,5.5,3.9
2018,10,18,08:20,UTC,8,1013.5,94,,,12.4,11.5,8902,186,5.9,3.8
2018,10,18,08:30,UTC,8,1013.6,94,,,12.5,11.5,9002,195,5.5,3.7
2018,10,18,08:40,UTC,8,1013.7,93,,,12.6,11.5,9223,214,5.9,3.8
2018,10,18,08:50,UTC,8,1013.7,93,,,12.9,11.8,9066,219,6.2,3.5
2018,10,18,09:00,UTC,8,1013.5,92,,,13.3,12,9345,217,5.4,3.2
2018,10,18,09:10,UTC,8,1013.4,92,,,13.5,12.1,9632,229,6.5,3.9
2018,10,18,09:20,UTC,8,1013.3,91,,,13.4,12,9467,225,7.2,4.6
2018,10,18,09:30,UTC,8,1013.1,91,,,13.4,12,9519,219,7.4,4.4
2018,10,18,09:40,UTC,8,1013,92,,,13.4,12.1,9617,221,6.7,4
2018,10,18,09:50,UTC,7,1013,92,,,13.5,12.2,9736,215,6.9,3.6
2018,10,18,10:00,UTC,7,1012.9,91,,,13.4,12,9510,201,4.9,2.9
2018,10,18,10:10,UTC,7,1012.9,92,,,13.3,12.1,9261,202,5.3,3
2018,10,18,10:20,UTC,7,1012.9,94,,,13.1,12.1,8522,207,6.6,4.1
2018,10,18,10:30,UTC,8,1012.8,94,,,13,12.1,8354,216,5.1,3.4
2018,10,18,10:40,UTC,8,1012.8,94,,,13,12.1,8027,207,5.3,3.4
2018,10,18,10:50,UTC,8,1012.9,94,,,13.1,12.2,8103,215,3.9,2.5
2018,10,18,11:00,UTC,8,1012.9,94,,,13.1,12.2,8171,222,4.4,2.7
2018,10,18,11:10,UTC,8,1012.8,95,,,13.1,12.3,7718,232,4.6,2.9
2018,10,18,11:20,UTC,8,1012.8,96,,,13,12.3,6926,244,4.6,3.2
2018,10,18,11:30,UTC,8,1012.9,96,,,13,12.3,6748,246,5.7,3.8
2018,10,18,11:40,UTC,8,1012.9,97,,,12.8,12.4,5072,242,5,3.1
2018,10,18,11:50,UTC,8,1012.8,98,,,12.6,12.4,5445,247,4.9,3.5
2018,10,18,12:00,UTC,8,1013,99,,,12.6,12.4,5595,234,5.3,3.3
2018,10,18,12:10,UTC,8,1012.9,99,,,12.5,12.4,5351,237,4.7,2.8
2018,10,18,12:20,UTC,8,1012.9,100,,,12.4,12.4,5163,231,3.4,2.3
2018,10,18,12:30,UTC,8,1012.8,100,,,12.4,12.4,5672,223,4,2.6
2018,10,18,12:40,UTC,8,1012.8,100,,,12.3,12.3,6343,221,4,2.2
2018,10,18,12:50,UTC,8,1012.7,100,,,12.2,12.2,5393,219,3.9,2.4
2018,10,18,13:00,UTC,8,1012.6,100,,,12.2,12.2,6388,211,3.9,2.6
2018,10,18,13:10,UTC,8,1012.6,100,,,12.1,12.1,6907,218,4.3,2.9
2018,10,18,13:20,UTC,8,1012.8,100,,,12.1,12.1,6645,220,4.1,2.6
2018,10,18,13:30,UTC,8,1012.6,100,,,12.1,12.1,8157,218,5,3.1
2018,10,18,13:40,UTC,7,1012.6,100,,,12,12,9791,213,4.6,3.2
2018,10,18,13:50,UTC,7,1012.6,100,,,12,12,9675,205,5.9,3.6
2018,10,18,14:00,UTC,7,1012.8,100,,,11.9,11.9,10982,218,4.1,2.8
2018,10,18,14:10,UTC,7,1012.7,100,,,11.9,11.8,11911,224,3.9,2.6
2018,10,18,14:20,UTC,7,1012.7,100,,,11.8,11.8,11446,223,4.5,2.9
2018,10,18,14:30,UTC,7,1012.8,99,,,11.9,11.8,12445,232,4,3
2018,10,18,14:40,UTC,7,1012.7,99,,,11.8,11.7,12933,235,5.7,2.7
2018,10,18,14:50,UTC,7,1012.8,99,,,11.9,11.7,14307,240,4.2,2.8
2018,10,18,15:00,UTC,7,1012.9,99,,,11.8,11.6,14004,229,3.9,2.8
2018,10,18,15:10,UTC,7,1013,99,,,11.7,11.6,13082,225,3.9,2.7
2018,10,18,15:20,UTC,7,1013.1,100,,,11.7,11.6,12577,231,3.7,2.3
2018,10,18,15:30,UTC,7,1013.1,100,,,11.5,11.5,12140,232,3.8,2.3
2018,10,18,15:40,UTC,5,1013.1,99,,,11.3,11.2,12457,241,4.4,2.9
2018,10,18,15:50,UTC,3,1013.1,99,,,11.1,11,13169,251,3.9,2.6
2018,10,18,16:00,UTC,1,1013.3,99,,,10.9,10.8,12658,247,4.2,2.7
2018,10,18,16:10,UTC,0,1013.4,99,,,11.1,10.9,14235,258,4.3,2.9
2018,10,18,16:20,UTC,1,1013.4,99,,,10.9,10.7,15311,260,4,2.7
2018,10,18,16:30,UTC,1,1013.5,98,,,11,10.7,15362,266,4.9,2.7
2018,10,18,16:40,UTC,1,1013.5,99,,,10.7,10.5,14514,260,4.2,2.7
2018,10,18,16:50,UTC,1,1013.7,99,,,10.7,10.6,14432,271,4.5,2.6
2018,10,18,17:00,UTC,1,1013.7,99,,,10.6,10.4,14627,272,4.5,2.8
2018,10,18,17:10,UTC,1,1013.8,99,,,10.4,10.3,16006,276,4.1,2.7
2018,10,18,17:20,UTC,1,1014,99,,,10.3,10.2,15851,281,4,2.7
2018,10,18,17:30,UTC,4,1014.2,100,,,10.2,10.1,14283,287,4.2,2.7
2018,10,18,17:40,UTC,2,1014.4,99,,,10.1,9.9,16716,283,4.8,2.9
2018,10,18,17:50,UTC,3,1014.5,98,,,9.9,9.6,18143,294,4.5,3.2
2018,10,18,18:00,UTC,2,1014.6,98,,,9.8,9.5,17660,299,4.4,2.9
2018,10,18,18:10,UTC,4,1014.9,97,,,9.8,9.3,26999,309,6.3,3.8
2018,10,18,18:20,UTC,2,1015,95,,,9.4,8.6,34761,310,6,3.9
2018,10,18,18:30,UTC,1,1015.1,91,,,9,7.6,45791,307,6.5,4.3
2018,10,18,18:40,UTC,0,1015.2,89,,,8.5,6.7,43200,317,6.4,4.2
2018,10,18,18:50,UTC,0,1015.4,88,,,8.3,6.5,46124,317,5.1,3.7
2018,10,18,19:00,UTC,0,1015.6,89,,,8,6.2,50000,311,5.6,3.4
2018,10,18,19:10,UTC,0,1015.7,89,,,7.8,6,50000,312,4.7,3.2
2018,10,18,19:20,UTC,0,1015.9,91,,,7.4,6,50000,306,4.1,2.4
2018,10,18,19:30,UTC,0,1016.1,92,,,7.3,6,46925,304,4.5,2.9
2018,10,18,19:40,UTC,0,1016.2,92,,,7.2,6,50000,300,4.7,2.7
2018,10,18,19:50,UTC,0,1016.4,93,,,7,5.9,48745,300,4,2.5
2018,10,18,20:00,UTC,0,1016.5,93,,,6.7,5.7,44269,300,3.5,2.4
2018,10,18,20:10,UTC,0,1016.6,94,,,6.6,5.7,46137,299,3.8,2.5
2018,10,18,20:20,UTC,0,1016.7,94,,,6.5,5.6,39978,297,3.3,2.3
2018,10,18,20:30,UTC,0,1016.9,93,,,6.5,5.5,43166,296,3.9,2.2
2018,10,18,20:40,UTC,0,1017,93,,,6.3,5.4,47689,295,4.4,2.5
2018,10,18,20:50,UTC,0,1017.1,94,,,6.3,5.4,47938,294,2.9,1.9
2018,10,18,21:00,UTC,0,1017.2,94,,,6.1,5.2,43957,293,2.8,1.9
2018,10,18,21:10,UTC,0,1017.2,94,,,6,5,46004,302,2.5,1.7
2018,10,18,21:20,UTC,0,1017.3,95,,,5.9,5.1,46518,307,2.5,1.6
2018,10,18,21:30,UTC,0,1017.4,94,,,5.3,4.5,46333,312,2.7,1.8
2018,10,18,21:40,UTC,0,1017.4,93,,,5.4,4.3,50000,315,2.9,2.1
2018,10,18,21:50,UTC,0,1017.4,93,,,5.2,4.2,46546,314,2.7,2
2018,10,18,22:00,UTC,0,1017.4,96,,,5.1,4.6,44143,301,2.4,1.8
2018,10,18,22:10,UTC,0,1017.5,96,,,4.7,4.2,41218,294,2.7,1.8
2018,10,18,22:20,UTC,0,1017.6,96,,,4.9,4.3,46341,293,2.9,2
2018,10,18,22:30,UTC,0,1017.7,96,,,5,4.4,46451,285,2.8,1.8
2018,10,18,22:40,UTC,0,1017.7,94,,,5.1,4.2,46667,287,3,2
2018,10,18,22:50,UTC,0,1017.7,94,,,5.1,4.2,47120,279,2.5,1.7
2018,10,18,23:00,UTC,0,1017.7,95,,,5,4.2,46801,283,2.5,1.6
2018,10,18,23:10,UTC,0,1017.8,95,,,5,4.2,41970,290,2.4,1.6
2018,10,18,23:20,UTC,0,1017.8,95,,,4.9,4.2,45498,273,2.5,1.5
2018,10,18,23:30,UTC,0,1017.8,94,,,5,4.1,42536,260,2.8,1.9
2018,10,18,23:40,UTC,0,1017.8,96,,,4.7,4.1,44023,250,2.7,1.9
2018,10,18,23:50,UTC,0,1017.9,96,,,4.8,4.1,43272,247,2.8,2
2018,10,19,00:00,UTC,0,1017.9,97,,,4.9,4.4,48368,250,3.4,2.2
2018,10,19,00:10,UTC,0,1018,97,,,4.8,4.4,41401,256,3.6,2.4
2018,10,19,00:20,UTC,0,1018,96,,,5,4.4,49244,263,3.6,2
2018,10,19,00:30,UTC,0,1018,96,,,4.8,4.2,44146,256,3.5,2.1
2018,10,19,00:40,UTC,0,1017.9,97,,,4.9,4.4,45952,270,2.6,1.5
2018,10,19,00:50,UTC,0,1018,97,,,4.7,4.2,47148,262,2.5,1.7
2018,10,19,01:00,UTC,0,1018,98,,,4.6,4.3,45920,249,2.6,1.9
2018,10,19,01:10,UTC,0,1018.2,98,,,4.5,4.2,46448,261,2.9,2.1
2018,10,19,01:20,UTC,0,1018,97,,,4.5,4.2,45229,259,3.6,2.1
2018,10,19,01:30,UTC,0,1018.1,98,,,4.3,4,46214,248,3.3,2.3
2018,10,19,01:40,UTC,0,1018,98,,,4.5,4.3,44195,254,3.6,2.3
2018,10,19,01:50,UTC,0,1018,97,,,4.5,4.1,43263,256,3.6,2.4
2018,10,19,02:00,UTC,0,1018,98,,,4.6,4.3,47127,260,4.2,2.7
2018,10,19,02:10,UTC,0,1018.1,97,,,4.7,4.3,46633,259,3.7,2.5
2018,10,19,02:20,UTC,0,1018.2,98,,,4.7,4.4,41670,262,3.6,2.4
2018,10,19,02:30,UTC,0,1018.2,98,,,4.7,4.4,46370,263,3.7,2.5
2018,10,19,02:40,UTC,0,1018.3,97,,,4.6,4.2,43577,266,4,2.3
2018,10,19,02:50,UTC,0,1018.2,97,,,4.7,4.3,47006,265,3.3,1.9
2018,10,19,03:00,UTC,0,1018.2,98,,,4.5,4.2,40846,258,2.8,1.8
2018,10,19,03:10,UTC,0,1018.3,99,,,4.5,4.3,45653,261,4.2,2.3
2018,10,19,03:20,UTC,0,1018.3,97,,,4.8,4.3,41729,268,3.8,2.2
2018,10,19,03:30,UTC,0,1018.4,97,,,4.8,4.3,45411,264,3.5,2.1
2018,10,19,03:40,UTC,0,1018.3,96,,,4.8,4.2,44510,267,3,2
2018,10,19,03:50,UTC,0,1018.2,96,,,4.6,4.1,48526,255,3.1,2.1
2018,10,19,04:00,UTC,0,1018.3,96,,,4.8,4.2,45620,258,2.9,1.8
2018,10,19,04:10,UTC,0,1018.3,96,,,4.4,3.8,47576,256,2.4,1.4
2018,10,19,04:20,UTC,0,1018.4,97,,,4.2,3.8,47277,272,2.3,1.5
2018,10,19,04:30,UTC,0,1018.3,97,,,4.5,4.1,49852,254,2.4,1.5
2018,10,19,04:40,UTC,0,1018.4,97,,,4.4,3.9,50000,248,2.9,1.8
2018,10,19,04:50,UTC,0,1018.5,97,,,4.3,3.8,50000,257,3.5,2.1
2018,10,19,05:00,UTC,0,1018.6,96,,,4.3,3.7,47347,270,2.6,1.3
2018,10,19,05:10,UTC,0,1018.6,97,,,4.1,3.7,44404,236,2.2,1
2018,10,19,05:20,UTC,0,1018.7,98,,,4.1,3.8,41920,239,2.2,1.4
2018,10,19,05:30,UTC,0,1018.7,98,,,3.8,3.6,44268,240,2.6,1.2
2018,10,19,05:40,UTC,2,1018.8,99,,,4,3.9,42434,262,1.8,0.9
2018,10,19,05:50,UTC,5,1018.9,98,,,4.5,4.3,43326,275,2.8,1.8
2018,10,19,06:00,UTC,7,1019,95,,,5.1,4.3,40663,261,3.4,2.2
2018,10,19,06:10,UTC,7,1019,94,,,5.4,4.5,50000,253,3.7,2.4
2018,10,19,06:20,UTC,7,1019,93,,,5.4,4.4,49122,253,4.5,2.9
2018,10,19,06:30,UTC,7,1019.1,92,,,5.5,4.4,50000,249,4,2.9
2018,10,19,06:40,UTC,4,1019.1,91,,,5.5,4.2,50000,258,4.1,2.8
2018,10,19,06:50,UTC,2,1019.1,92,,,5.6,4.3,49390,254,3.2,2.4
2018,10,19,07:00,UTC,0,1019.2,92,,,5.9,4.6,45294,249,3.4,2.2
2018,10,19,07:10,UTC,0,1019.2,88,,,6.3,4.5,48782,256,4.6,3
2018,10,19,07:20,UTC,0,1019.3,88,,,6.7,4.8,47168,259,4.6,2.7
2018,10,19,07:30,UTC,0,1019.3,86,,,6.9,4.7,48349,262,5.6,3.1
2018,10,19,07:40,UTC,0,1019.3,84,,,7.1,4.6,44848,263,5.3,3.6
2018,10,19,07:50,UTC,0,1019.4,84,,,7.3,4.7,38283,261,5.2,3.6
2018,10,19,08:00,UTC,0,1019.4,83,,,7.5,4.8,45084,257,5.3,3.5
2018,10,19,08:10,UTC,0,1019.4,81,,,7.7,4.6,48273,262,5.3,3.3
2018,10,19,08:20,UTC,0,1019.4,79,,,7.9,4.5,38792,258,5.7,3.9
2018,10,19,08:30,UTC,0,1019.4,79,,,8.1,4.6,42015,264,6.3,3.8
2018,10,19,08:40,UTC,0,1019.5,80,,,8.4,5,39823,260,4.7,3.1
2018,10,19,08:50,UTC,0,1019.5,78,,,8.5,5,50000,261,4.9,3.4
2018,10,19,09:00,UTC,0,1019.4,79,,,8.8,5.3,39822,268,6.4,3.9
2018,10,19,09:10,UTC,0,1019.4,74,,,9,4.7,42407,284,5.6,3.4
2018,10,19,09:20,UTC,0,1019.3,73,,,9.2,4.6,46325,278,7.5,4.4
2018,10,19,09:30,UTC,0,1019.4,72,,,9.3,4.5,38734,292,8,5.7
2018,10,19,09:40,UTC,0,1019.4,71,,,9.3,4.2,43679,291,8.9,5.8
2018,10,19,09:50,UTC,0,1019.3,70,,,9.3,4,43099,284,8.5,5.2
2018,10,19,10:00,UTC,0,1019.3,70,,,9.4,4.2,38418,289,7.7,5.2
2018,10,19,10:10,UTC,0,1019.2,69,,,9.5,4,38376,276,7.9,5.2
2018,10,19,10:20,UTC,0,1019.3,69,,,9.8,4.3,43003,290,6.6,4.3
2018,10,19,10:30,UTC,0,1019.3,65,,,9.7,3.5,30691,278,7.6,4.4
2018,10,19,10:40,UTC,0,1019.3,66,,,10,4,45393,276,7.2,4.6
2018,10,19,10:50,UTC,0,1019.3,67,,,10.1,4.1,48983,282,6.5,4.1
2018,10,19,11:00,UTC,1,1019.3,65,,,10.1,3.7,38719,283,6.9,4.5
2018,10,19,11:10,UTC,0,1019.3,65,,,10.2,3.8,38960,280,7.2,5
2018,10,19,11:20,UTC,0,1019.3,64,,,10.3,3.8,46468,283,7.1,4.7
2018,10,19,11:30,UTC,0,1019.4,63,,,10.6,3.9,45262,282,7.6,4.9
2018,10,19,11:40,UTC,0,1019.3,63,,,10.9,4.1,38260,275,6.1,3.5
2018,10,19,11:50,UTC,0,1019.2,61,,,10.6,3.3,44023,273,7.9,4.9
2018,10,19,12:00,UTC,0,1019.2,61,,,10.8,3.5,50000,275,8.7,5.4
2018,10,19,12:10,UTC,0,1019.2,58,,,10.8,3,41506,268,9.1,6
2018,10,19,12:20,UTC,0,1019.2,57,,,10.8,2.7,50000,271,8.4,5.6
2018,10,19,12:30,UTC,0,1019.2,59,,,10.9,3.1,44966,282,9.3,5.7
2018,10,19,12:40,UTC,0,1019.1,59,,,11.1,3.4,50000,277,8.8,4.6
2018,10,19,12:50,UTC,0,1019.2,59,,,11,3.3,50000,288,6.8,4.8
2018,10,19,13:00,UTC,1,1019.1,59,,,11,3.4,48532,280,7.1,4.9
2018,10,19,13:10,UTC,1,1019.1,59,,,11,3.3,50000,284,7.7,5.3
2018,10,19,13:20,UTC,1,1019,59,,,11,3.4,50000,276,7.2,4.4
2018,10,19,13:30,UTC,1,1019,59,,,10.9,3.2,50000,286,6.7,4.5
2018,10,19,13:40,UTC,0,1019,59,,,10.9,3.2,50000,274,7,4.3
2018,10,19,13:50,UTC,0,1018.9,59,,,10.8,3.1,50000,277,5.9,4
2018,10,19,14:00,UTC,0,1019,60,,,10.6,3.1,50000,282,6.4,4
2018,10,19,14:10,UTC,0,1018.9,61,,,10.2,3.1,50000,280,6.3,3.5
2018,10,19,14:20,UTC,0,1018.9,61,,,10.3,3.1,50000,280,4.6,3.1
2018,10,19,14:30,UTC,0,1018.9,62,,,10.2,3.1,50000,275,4,2.2
2018,10,19,14:40,UTC,0,1019,62,,,10.1,3,50000,271,4.8,2.7
2018,10,19,14:50,UTC,0,1019,63,,,9.7,3,50000,271,5,3
2018,10,19,15:00,UTC,0,1019.1,64,,,9.5,3,50000,275,4,2.3
2018,10,19,15:10,UTC,0,1019.1,65,,,9.1,3,50000,277,2.7,1.7
2018,10,19,15:20,UTC,0,1019.2,67,,,8.6,2.9,50000,286,2.7,1.8
2018,10,19,15:30,UTC,0,1019.2,68,,,8.5,3,50000,284,2.7,1.8
2018,10,19,15:40,UTC,0,1019.2,69,,,8.2,2.9,50000,273,2.6,1.8
2018,10,19,15:50,UTC,0,1019.2,73,,,7.4,3,50000,269,2.7,2
2018,10,19,16:00,UTC,0,1019.3,74,,,7.3,3,50000,268,2.3,1.6
2018,10,19,16:10,UTC,0,1019.4,74,,,7.2,2.9,50000,265,2.2,1.5
2018,10,19,16:20,UTC,0,1019.3,76,,,7,3.1,50000,262,2.2,1.3
2018,10,19,16:30,UTC,0,1019.3,73,,,7.3,2.8,50000,266,4.1,1.8
2018,10,19,16:40,UTC,0,1019.4,73,,,7.5,2.9,50000,274,3.6,2.2
2018,10,19,16:50,UTC,0,1019.4,74,,,7.3,3,50000,277,3,2.2
2018,10,19,17:00,UTC,0,1019.4,75,,,7,2.8,50000,268,3.9,2.2
2018,10,19,17:10,UTC,0,1019.4,76,,,6.9,2.8,50000,280,2.8,1.5
2018,10,19,17:20,UTC,0,1019.3,76,,,6.7,2.8,50000,279,3.7,2.1
2018,10,19,17:30,UTC,0,1019.4,77,,,6.6,3,46254,288,3.2,2
2018,10,19,17:40,UTC,0,1019.4,77,,,6.4,2.7,50000,261,3.1,1.5
2018,10,19,17:50,UTC,0,1019.5,78,,,6.3,2.8,50000,265,3.9,2.3
2018,10,19,18:00,UTC,0,1019.5,77,,,6.4,2.7,49205,265,4.3,2.5
2018,10,19,18:10,UTC,0,1019.6,78,,,6.1,2.6,50000,273,3,1.6
2018,10,19,18:20,UTC,0,1019.5,79,,,6,2.6,48028,295,2.2,1.3
2018,10,19,18:30,UTC,0,1019.6,80,,,4.9,1.7,50000,308,2.5,1.3
2018,10,19,18:40,UTC,0,1019.6,84,,,4.7,2.2,49679,271,2,1.3
2018,10,19,18:50,UTC,0,1019.5,88,,,3.8,2,50000,254,2.1,1.3
2018,10,19,19:00,UTC,0,1019.7,90,,,4,2.6,49769,0,0,0
2018,10,19,19:10,UTC,0,1019.8,88,,,2.3,0.6,50000,345,1.2,0.8
2018,10,19,19:20,UTC,0,1019.9,98,,,2.6,2.3,46695,281,1.6,0.8
2018,10,19,19:30,UTC,0,1020,97,,,2.6,2.1,50000,229,1.4,0.8
2018,10,19,19:40,UTC,0,1020.1,95,,,2.5,1.8,46446,180,0.9,0.5
2018,10,19,19:50,UTC,0,1020.1,96,,,2,1.5,31056,235,2.2,1.4
2018,10,19,20:00,UTC,0,1020.1,98,,,1.7,1.5,20251,217,1.9,1.6
2018,10,19,20:10,UTC,0,1020,99,,,2.2,2,32947,226,2,1.6
2018,10,19,20:20,UTC,0,1019.9,99,,,2.4,2.2,36774,205,2,1.2
2018,10,19,20:30,UTC,0,1020,96,,,3.3,2.8,47225,204,1.7,1
2018,10,19,20:40,UTC,0,1020.1,95,,,3,2.3,44966,214,2,1.4
2018,10,19,20:50,UTC,2,1020.1,95,,,3.3,2.5,44090,221,2.3,1.6
2018,10,19,21:00,UTC,5,1020.2,92,,,3.3,2.1,46301,224,2.1,1.5
2018,10,19,21:10,UTC,7,1020.2,94,,,3.5,2.5,46754,224,1.9,1.3
2018,10,19,21:20,UTC,7,1020.3,94,,,3.3,2.5,47274,211,1.8,1
2018,10,19,21:30,UTC,7,1020.4,95,,,3.4,2.6,44772,218,1.6,0.9
2018,10,19,21:40,UTC,7,1020.3,96,,,3,2.4,48602,231,1.8,1.2
2018,10,19,21:50,UTC,7,1020.4,96,,,3.1,2.4,45523,231,1.7,1.2
2018,10,19,22:00,UTC,7,1020.5,96,,,3.2,2.6,40799,220,1.8,1.4
2018,10,19,22:10,UTC,7,1020.5,95,,,3.5,2.7,44538,215,1.9,1.4
2018,10,19,22:20,UTC,7,1020.4,96,,,3.5,2.8,47958,232,1.8,1.3
2018,10,19,22:30,UTC,5,1020.4,96,,,3.1,2.6,45756,236,1.5,1.1
2018,10,19,22:40,UTC,7,1020.5,99,,,2.1,1.9,39748,223,1.5,1
2018,10,19,22:50,UTC,7,1020.4,100,,,2.8,2.8,43696,211,1.4,0.8
2018,10,19,23:00,UTC,5,1020.5,97,,,0.8,0.3,16785,225,1,0.5
2018,10,19,23:10,UTC,2,1020.4,100,,,0.7,0.7,25721,0,0,0
2018,10,19,23:20,UTC,1,1020.4,100,,,0.6,0.6,13774,96,1.1,0.6
2018,10,19,23:30,UTC,0,1020.5,100,,,1.9,1.9,2704,122,1.1,0.7
2018,10,19,23:40,UTC,0,1020.5,100,,,0.1,0.1,5930,0,0,0
2018,10,19,23:50,UTC,0,1020.5,100,,,0.2,0.2,465,0,0,0
2018,10,20,00:00,UTC,0,1020.4,100,,,0,0,369,0,0,0
2018,10,20,00:10,UTC,0,1020.5,100,,,-0.1,-0.1,432,0,0,0
2018,10,20,00:20,UTC,2,1020.5,100,,,-0.4,-0.4,489,0,0,0
2018,10,20,00:30,UTC,2,1020.4,100,,,0,0,560,96,1.1,0.8
2018,10,20,00:40,UTC,2,1020.4,100,,,-0.9,-1,943,11,0.9,0.5
2018,10,20,00:50,UTC,1,1020.4,100,,,-0.5,-0.5,531,344,0.7,0.5
2018,10,20,01:00,UTC,1,1020.3,100,,,-0.4,-0.4,659,0,0,0
2018,10,20,01:10,UTC,9,1020.4,100,,,-0.9,-0.9,312,0,0,0
2018,10,20,01:20,UTC,9,1020.4,100,,,-1.4,-1.4,292,0,0,0
2018,10,20,01:30,UTC,6,1020.4,100,,,-1.2,-1.2,379,0,0,0
2018,10,20,01:40,UTC,3,1020.4,100,,,-0.9,-0.9,618,0,0,0
2018,10,20,01:50,UTC,2,1020.3,100,,,-0.7,-0.7,468,105,1,0.8
2018,10,20,02:00,UTC,1,1020.3,100,,,-1.2,-1.2,469,0,0,0
2018,10,20,02:10,UTC,1,1020.3,100,,,-1.2,-1.3,636,0,0,0
2018,10,20,02:20,UTC,0,1020.2,100,,,-1,-1,497,0,0,0
2018,10,20,02:30,UTC,0,1020.2,100,,,-1.1,-1.1,521,0,0,0
2018,10,20,02:40,UTC,2,1020.2,100,,,-1.5,-1.6,360,0,0,0
2018,10,20,02:50,UTC,9,1020.2,100,,,-1.3,-1.3,301,0,0,0
2018,10,20,03:00,UTC,5,1020.2,100,,,-1.3,-1.3,399,0,0,0
2018,10,20,03:10,UTC,7,1020.3,100,,,-1.4,-1.5,468,0,0,0
2018,10,20,03:20,UTC,7,1020.2,100,,,-1.6,-1.6,444,0,0,0
2018,10,20,03:30,UTC,7,1020.2,100,,,-1,-1.1,591,0,0,0
2018,10,20,03:40,UTC,3,1020.2,100,,,-1.5,-1.5,419,0,0,0
2018,10,20,03:50,UTC,4,1020.3,100,,,-1.2,-1.3,408,0,0,0
2018,10,20,04:00,UTC,3,1020.3,100,,,-1.3,-1.3,398,0,0,0
2018,10,20,04:10,UTC,2,1020.3,100,,,-1.5,-1.5,10981,0,0,0
2018,10,20,04:20,UTC,1,1020.3,100,,,-1.6,-1.6,1277,0,0,0
2018,10,20,04:30,UTC,1,1020.3,100,,,-1.8,-1.8,2426,0,0,0
2018,10,20,04:40,UTC,5,1020.4,100,,,-1.5,-1.5,23200,0,0,0
2018,10,20,04:50,UTC,7,1020.4,100,,,-1.3,-1.4,16680,92,0.7,0.5
2018,10,20,05:00,UTC,7,1020.5,100,,,-1.4,-1.4,9689,0,0,0
2018,10,20,05:10,UTC,8,1020.6,100,,,-1.2,-1.2,3547,0,0,0
2018,10,20,05:20,UTC,8,1020.6,100,,,-1.1,-1.1,2065,0,0,0
2018,10,20,05:30,UTC,8,1020.5,100,,,-0.9,-0.9,2224,0,0,0
2018,10,20,05:40,UTC,7,1020.4,100,,,-0.8,-0.8,3204,103,0.8,0.6
2018,10,20,05:50,UTC,3,1020.5,100,,,-1.1,-1.1,5407,0,0,0
2018,10,20,06:00,UTC,1,1020.5,100,,,-1.2,-1.2,14889,0,0,0
2018,10,20,06:10,UTC,1,1020.5,100,,,-0.6,-0.6,3753,0,0,0
2018,10,20,06:20,UTC,4,1020.5,100,,,-0.5,-0.5,18325,0,0,0
2018,10,20,06:30,UTC,6,1020.3,100,,,-0.4,-0.4,25088,0,0,0
2018,10,20,06:40,UTC,7,1020.4,100,,,0,0,24808,235,0.9,0.5
2018,10,20,06:50,UTC,8,1020.5,100,,,0.5,0.5,22772,236,0.9,0.6
2018,10,20,07:00,UTC,7,1020.6,100,,,1.1,1.1,20150,247,1.1,0.7
2018,10,20,07:10,UTC,7,1020.7,100,,,2,2,14653,217,1.7,0.9
2018,10,20,07:20,UTC,7,1020.7,100,,,2.7,2.7,17261,0,0,0
2018,10,20,07:30,UTC,7,1020.7,100,,,2.8,2.8,14330,0,0,0
2018,10,20,07:40,UTC,7,1020.7,100,,,3.2,3.1,13407,0,0,0
2018,10,20,07:50,UTC,,,,,,,,,,,
2018,10,20,08:00,UTC,7,1020.8,100,,,3.6,3.6,22317,0,0,0
2018,10,20,08:10,UTC,7,1020.9,100,,,3.8,3.8,24548,190,0.9,0.5
2018,10,20,08:20,UTC,5,1021.1,100,,,4,4,27427,0,0,0
2018,10,20,08:30,UTC,6,1021.2,100,,,4.4,4.4,31449,0,0,0
2018,10,20,08:40,UTC,7,1021.3,100,,,4.8,4.8,29736,0,0,0
2018,10,20,08:50,UTC,7,1021.3,100,,,5.2,5.2,31504,0,0,0
2018,10,20,09:00,UTC,6,1021.3,100,,,5.6,5.6,30942,0,0,0
2018,10,20,09:10,UTC,3,1021.4,99,,,6,5.8,36813,0,0,0
2018,10,20,09:20,UTC,2,1021.3,97,,,6.3,5.8,37264,341,1.2,0.6
2018,10,20,09:30,UTC,0,1021.3,94,,,6.6,5.8,42437,0,0,0
2018,10,20,09:40,UTC,0,1021.3,92,,,6.9,5.7,37963,0,0,0
2018,10,20,09:50,UTC,0,1021.3,91,,,7.2,5.9,38754,0,0,0
2018,10,20,10:00,UTC,2,1021.3,90,,,7.7,6.1,35539,0,0,0
2018,10,20,10:10,UTC,4,1021.3,86,,,8,5.9,35593,0,0,0
2018,10,20,10:20,UTC,6,1021.4,85,,,8.5,6.2,44998,0,0,0
2018,10,20,10:30,UTC,7,1021.3,80,,,8.9,5.6,44071,244,1.9,1.1
2018,10,20,10:40,UTC,7,1021.2,77,,,9.1,5.3,46109,230,2.7,1.4
2018,10,20,10:50,UTC,7,1021.2,76,,,9.2,5.3,45433,223,2.6,1.6
2018,10,20,11:00,UTC,8,1021.2,75,,,9.3,5,50000,221,3,1.6
2018,10,20,11:10,UTC,8,1021.2,72,,,9.4,4.6,45510,228,2.6,2
2018,10,20,11:20,UTC,8,1021.2,72,,,9.5,4.7,47734,235,2.9,1.5
2018,10,20,11:30,UTC,8,1021.2,71,,,9.5,4.5,50000,249,2.3,1.7
2018,10,20,11:40,UTC,8,1021.2,71,,,9.6,4.6,50000,228,2.1,1.4
2018,10,20,11:50,UTC,8,1021.2,71,,,9.6,4.6,50000,200,2.2,1.3
2018,10,20,12:00,UTC,8,1021.2,70,,,9.9,4.7,45187,242,2.4,1.1
2018,10,20,12:10,UTC,8,1021.2,70,,,9.7,4.6,45843,207,2.2,1.1
2018,10,20,12:20,UTC,7,1021.2,69,,,9.7,4.3,47179,217,2.1,1.2
2018,10,20,12:30,UTC,6,1021.3,70,,,9.7,4.6,50000,219,2.4,1.5
2018,10,20,12:40,UTC,3,1021.4,72,,,9.7,4.9,50000,233,2.2,1.6
2018,10,20,12:50,UTC,3,1021.3,71,,,9.7,4.7,50000,214,1.9,1.4
2018,10,20,13:00,UTC,5,1021.3,75,,,9.5,5.2,50000,183,2.5,2.1
2018,10,20,13:10,UTC,7,1021.3,77,,,9.3,5.5,50000,182,3,2.3
2018,10,20,13:20,UTC,8,1021.3,79,,,9.1,5.7,50000,187,2.7,2.3
2018,10,20,13:30,UTC,8,1021.3,81,,,9.1,6,50000,187,2.5,2
2018,10,20,13:40,UTC,8,1021.3,82,,,8.9,6,49630,190,2.5,1.9
2018,10,20,13:50,UTC,8,1021.3,83,,,8.8,6.1,50000,189,2.6,2.1
2018,10,20,14:00,UTC,8,1021.3,84,,,8.6,6.1,50000,189,2.4,2
2018,10,20,14:10,UTC,8,1021.4,85,,,8.6,6.2,50000,182,2,1.5
2018,10,20,14:20,UTC,8,1021.4,86,,,8.4,6.2,50000,191,1.8,1.4
2018,10,20,14:30,UTC,8,1021.5,87,,,8.3,6.2,50000,203,1.7,1.3
2018,10,20,14:40,UTC,8,1021.5,87,,,8.2,6.2,50000,202,1.7,1.4
2018,10,20,14:50,UTC,8,1021.5,88,,,8.1,6.2,50000,208,1.4,1
2018,10,20,15:00,UTC,8,1021.5,88,,,8,6.2,50000,199,0.9,0.7
2018,10,20,15:10,UTC,7,1021.7,90,,,7.8,6.2,50000,209,0.8,0.6
2018,10,20,15:20,UTC,7,1021.8,91,,,7.4,6.1,50000,0,0,0
2018,10,20,15:30,UTC,7,1021.8,93,,,7.3,6.2,46918,275,0.9,0.6
2018,10,20,15:40,UTC,8,1021.8,95,,,7.1,6.3,48590,219,1,0.8
2018,10,20,15:50,UTC,7,1021.9,94,,,6.9,6,48645,193,0.9,0.6
2018,10,20,16:00,UTC,6,1021.9,95,,,6.9,6.3,37752,0,0,0
2018,10,20,16:10,UTC,4,1021.9,96,,,6.8,6.2,42552,0,0,0
2018,10,20,16:20,UTC,3,1021.9,96,,,6.7,6.1,44005,0,0,0
2018,10,20,16:30,UTC,5,1022.1,96,,,5.8,5.3,41142,0,0,0
2018,10,20,16:40,UTC,6,1022.2,99,,,5.8,5.6,47955,0,0,0
2018,10,20,16:50,UTC,7,1022.2,100,,,5.9,5.9,33144,0,0,0
2018,10,20,17:00,UTC,8,1022.3,100,,,5.8,5.8,29412,0,0,0
2018,10,20,17:10,UTC,8,1022.3,100,,,5.9,5.9,23481,0,0,0
2018,10,20,17:20,UTC,8,1022.3,100,,,5.9,5.9,21813,0,0,0
2018,10,20,17:30,UTC,8,1022.4,100,,,5.9,5.9,23193,0,0,0
2018,10,20,17:40,UTC,8,1022.4,100,,,5.9,5.9,31748,104,0.6,0.5
2018,10,20,17:50,UTC,8,1022.4,100,,,6.2,6.2,27538,0,0,0
2018,10,20,18:00,UTC,8,1022.5,100,,,6,6,27292,0,0,0
2018,10,20,18:10,UTC,8,1022.5,100,,,6.1,6.1,20145,115,0.8,0.7
2018,10,20,18:20,UTC,8,1022.5,100,,,6,6,18146,105,0.7,0.6
2018,10,20,18:30,UTC,8,1022.5,100,,,5.8,5.8,8916,0,0,0
2018,10,20,18:40,UTC,8,1022.4,100,,,5.7,5.7,8637,99,0.8,0.6
2018,10,20,18:50,UTC,8,1022.5,100,,,5.7,5.6,2178,0,0,0
2018,10,20,19:00,UTC,8,1022.5,100,,,5.6,5.6,1483,0,0,0
2018,10,20,19:10,UTC,7,1022.5,100,,,5.3,5.3,671,0,0,0
2018,10,20,19:20,UTC,4,1022.6,100,,,4.8,4.8,304,0,0,0
2018,10,20,19:30,UTC,3,1022.6,100,,,4.6,4.6,154,0,0,0
2018,10,20,19:40,UTC,2,1022.6,100,,,4,4,190,0,0,0
2018,10,20,19:50,UTC,9,1022.7,100,,,3.5,3.5,91,0,0,0
2018,10,20,20:00,UTC,9,1022.7,100,,,3.8,3.8,168,0,0,0
2018,10,20,20:10,UTC,9,1022.8,100,,,3.7,3.7,280,0,0,0
2018,10,20,20:20,UTC,9,1022.9,100,,,3.4,3.4,257,0,0,0
2018,10,20,20:30,UTC,8,1022.9,100,,,3.4,3.4,341,0,0,0
2018,10,20,20:40,UTC,7,1023,100,,,3.5,3.5,468,0,0,0
2018,10,20,20:50,UTC,7,1022.9,100,,,3.9,3.9,643,0,0,0
2018,10,20,21:00,UTC,7,1022.8,100,,,3.9,3.9,448,117,0.9,0.8
2018,10,20,21:10,UTC,7,1022.8,100,,,3.2,3.2,737,67,0.9,0.5
2018,10,20,21:20,UTC,8,1022.6,100,,,3.3,3.3,690,0,0,0
2018,10,20,21:30,UTC,7,1022.5,100,,,3.4,3.4,655,104,0.9,0.7
2018,10,20,21:40,UTC,6,1022.6,100,,,3.2,3.2,290,0,0,0
2018,10,20,21:50,UTC,7,1022.6,100,,,3.1,3.1,377,98,1,0.6
2018,10,20,22:00,UTC,7,1022.7,100,,,3,3,439,54,1.1,0.6
2018,10,20,22:10,UTC,5,1022.7,100,,,3.4,3.4,363,9,1.1,0.7
2018,10,20,22:20,UTC,3,1022.7,100,,,2.6,2.6,432,0,0,0
2018,10,20,22:30,UTC,3,1022.7,100,,,2.3,2.3,250,0,0,0
2018,10,20,22:40,UTC,5,1022.7,100,,,2.3,2.3,373,0,0,0
2018,10,20,22:50,UTC,7,1022.7,100,,,2.3,2.3,717,0,0,0
2018,10,20,23:00,UTC,7,1022.8,100,,,2.7,2.7,548,0,0,0
2018,10,20,23:10,UTC,7,1022.9,100,,,3,3,3313,194,0.7,0.6
2018,10,20,23:20,UTC,8,1022.8,100,,,3.4,3.4,5444,172,0.9,0.7
2018,10,20,23:30,UTC,8,1022.8,100,,,3.6,3.6,12168,151,0.9,0.7
2018,10,20,23:40,UTC,8,1022.9,100,,,3.9,3.9,15510,0,0,0
2018,10,20,23:50,UTC,8,1022.8,100,,,3.9,3.9,13113,81,0.9,0.7
2018,10,21,00:00,UTC,8,1022.8,100,,,3.8,3.8,10946,0,0,0
2018,10,21,00:10,UTC,8,1022.8,100,,,4.1,4.1,12166,0,0,0
2018,10,21,00:20,UTC,8,1022.8,100,,,4,4,15049,142,0.8,0.6
2018,10,21,00:30,UTC,8,1022.8,100,,,4.1,4.1,17153,143,0.7,0.5
2018,10,21,00:40,UTC,8,1022.9,100,,,4.5,4.4,14961,0,0,0
2018,10,21,00:50,UTC,8,1022.8,100,,,4.6,4.6,16467,130,0.7,0.5
2018,10,21,01:00,UTC,8,1022.7,100,,,4.7,4.7,17262,133,0.7,0.6
2018,10,21,01:10,UTC,8,1022.7,100,,,4.8,4.8,14607,131,0.9,0.7
2018,10,21,01:20,UTC,8,1022.6,100,,,4.6,4.6,12080,0,0,0
2018,10,21,01:30,UTC,8,1022.7,100,,,4.8,4.8,12183,0,0,0
2018,10,21,01:40,UTC,8,1022.7,100,,,4.9,4.9,8223,0,0,0
2018,10,21,01:50,UTC,8,1022.8,100,,,4.7,4.7,7256,0,0,0
2018,10,21,02:00,UTC,8,1022.8,100,,,4.5,4.5,9389,0,0,0
2018,10,21,02:10,UTC,8,1022.9,100,,,4.6,4.6,1733,0,0,0
2018,10,21,02:20,UTC,8,1022.9,100,,,4.6,4.6,3544,0,0,0
2018,10,21,02:30,UTC,8,1022.8,100,,,4.7,4.7,1955,151,0.9,0.5
2018,10,21,02:40,UTC,8,1022.6,100,,,5.1,5.1,1989,139,1.4,0.9
2018,10,21,02:50,UTC,8,1022.5,100,,,5.2,5.2,5200,161,1.5,1
2018,10,21,03:00,UTC,7,1022.7,100,,,3.4,3.4,899,109,2,0.9
2018,10,21,03:10,UTC,7,1022.7,100,,,4.3,4.3,323,338,2.5,1.8
2018,10,21,03:20,UTC,5,1022.6,100,,,3.5,3.5,369,48,1.2,0.5
2018,10,21,03:30,UTC,7,1022.7,100,,,3.3,3.3,393,48,1.1,0.7
2018,10,21,03:40,UTC,7,1022.4,100,,,3,3,273,102,1.8,1.1
2018,10,21,03:50,UTC,7,1022.3,100,,,2.8,2.8,242,123,1.6,1
2018,10,21,04:00,UTC,5,1022.2,100,,,2.4,2.4,174,126,1.1,0.6
2018,10,21,04:10,UTC,3,1022.2,100,,,2.2,2.2,216,0,0,0
2018,10,21,04:20,UTC,9,1022.2,100,,,1.8,1.8,132,119,1.1,0.6
2018,10,21,04:30,UTC,9,1022.2,100,,,1.5,1.5,130,106,1.1,0.8
2018,10,21,04:40,UTC,9,1022.2,100,,,1.1,1.1,233,111,1,0.9
2018,10,21,04:50,UTC,4,1022.2,100,,,0.9,0.9,295,0,0,0
2018,10,21,05:00,UTC,4,1022.1,100,,,0.7,0.7,511,108,1.3,1
2018,10,21,05:10,UTC,9,1021.9,100,,,0.4,0.4,278,104,1.1,0.9
2018,10,21,05:20,UTC,3,1021.9,100,,,0.6,0.5,467,104,1.3,1.1
2018,10,21,05:30,UTC,2,1021.8,100,,,0.5,0.5,345,98,0.9,0.7
2018,10,21,05:40,UTC,1,1021.8,100,,,0.4,0.4,450,101,1.3,0.9
2018,10,21,05:50,UTC,0,1021.9,100,,,0.4,0.4,455,65,1.1,0.5
2018,10,21,06:00,UTC,0,1022,100,,,0.2,0.1,706,0,0,0
2018,10,21,06:10,UTC,0,1022,100,,,1.5,1.5,1039,0,0,0
2018,10,21,06:20,UTC,1,1022,100,,,1.7,1.7,2018,100,0.9,0.6
2018,10,21,06:30,UTC,1,1022,100,,,2.9,2.9,4691,99,0.9,0.6
2018,10,21,06:40,UTC,1,1021.9,100,,,3.3,3.3,5859,0,0,0
2018,10,21,06:50,UTC,0,1021.8,100,,,3.9,3.9,9169,117,1.6,1.3
2018,10,21,07:00,UTC,0,1021.7,100,,,5.5,5.4,14872,135,2,1.3
2018,10,21,07:10,UTC,0,1021.6,100,,,7.5,7.5,20885,154,2.5,1.9
2018,10,21,07:20,UTC,1,1021.5,100,,,9,9,44841,158,3.2,2.1
2018,10,21,07:30,UTC,2,1021.8,99,,,9,8.9,50000,165,3.8,2.6
2018,10,21,07:40,UTC,5,1021.9,95,,,9,8.3,50000,179,4.4,3.1
2018,10,21,07:50,UTC,7,1022,94,,,9,8.1,50000,197,4.6,2.6
2018,10,21,08:00,UTC,7,1022,93,,,9.3,8.3,45777,202,4.3,2.7
2018,10,21,08:10,UTC,7,1021.8,89,,,9.9,8.2,46408,201,6.4,4
2018,10,21,08:20,UTC,7,1021.8,88,,,10.2,8.2,43085,206,8.6,5.5
2018,10,21,08:30,UTC,6,1021.8,86,,,10.1,7.9,39210,205,9,5.7
2018,10,21,08:40,UTC,7,1021.8,87,,,10.1,8,47190,203,9,6
2018,10,21,08:50,UTC,7,1021.8,85,,,10.7,8.3,38824,205,8.7,5.5
2018,10,21,09:00,UTC,7,1021.6,84,,,10.5,7.9,46185,202,9.2,5.5
2018,10,21,09:10,UTC,7,1021.5,86,,,10.3,8,45528,199,9.7,5.4
2018,10,21,09:20,UTC,7,1021.4,83,,,10.6,7.9,39735,199,9.6,5.8
2018,10,21,09:30,UTC,7,1021.3,82,,,10.7,7.7,49182,201,8.6,5.4
2018,10,21,09:40,UTC,6,1021.3,83,,,10.5,7.7,45745,200,9.1,5.8
2018,10,21,09:50,UTC,7,1021.1,83,,,10.3,7.5,49529,200,8.8,6.1
2018,10,21,10:00,UTC,5,1021,84,,,10.4,7.8,43685,200,9.2,5.9
2018,10,21,10:10,UTC,6,1020.9,84,,,10.3,7.6,45687,200,10,6.2
2018,10,21,10:20,UTC,7,1020.8,85,,,10.2,7.8,49724,194,7.9,5.4
2018,10,21,10:30,UTC,7,1020.7,86,,,10.1,7.8,50000,197,7.7,5.2
2018,10,21,10:40,UTC,8,1020.5,88,,,10,8.1,50000,203,7.3,4.9
2018,10,21,10:50,UTC,7,1020.3,88,,,10.2,8.3,50000,198,6.1,4.1
2018,10,21,11:00,UTC,7,1020.2,87,,,10,8,50000,201,9.5,5.9
2018,10,21,11:10,UTC,7,1020.2,88,,,10,8.2,48832,200,8.6,5.8
2018,10,21,11:20,UTC,7,1020.1,89,,,10.1,8.4,45114,203,10.3,5.7
2018,10,21,11:30,UTC,7,1020,87,,,10.3,8.3,45022,201,8.9,5.4
2018,10,21,11:40,UTC,7,1019.7,87,,,10.3,8.3,43722,206,10.5,5.8
2018,10,21,11:50,UTC,7,1019.6,87,,,10.3,8.2,43481,208,8.8,5.6
2018,10,21,12:00,UTC,7,1019.3,88,,,10.2,8.3,46173,203,9.8,6.2
2018,10,21,12:10,UTC,7,1019.2,88,,,10.3,8.4,49703,193,10.8,6.7
2018,10,21,12:20,UTC,7,1019.1,89,,,10.3,8.6,42177,202,8.8,6
2018,10,21,12:30,UTC,7,1019.2,88,,,10.4,8.5,45124,204,8.3,5.7
2018,10,21,12:40,UTC,7,1019.1,87,,,10.4,8.4,45502,212,8,5
2018,10,21,12:50,UTC,7,1018.9,84,,,10.5,8,42265,210,10.4,6.1
2018,10,21,13:00,UTC,7,1018.8,81,,,10.7,7.6,47076,208,10.4,6.6
2018,10,21,13:10,UTC,6,1018.6,81,,,10.9,7.7,40874,205,8.8,5.8
2018,10,21,13:20,UTC,6,1018.5,79,,,10.9,7.4,39317,211,9.9,6.4
2018,10,21,13:30,UTC,7,1018.3,82,,,10.7,7.7,42831,207,10.5,6.3
2018,10,21,13:40,UTC,7,1018.2,81,,,10.7,7.6,45912,209,10.8,6.6
2018,10,21,13:50,UTC,7,1018.2,81,,,10.7,7.5,48636,208,9.2,6
2018,10,21,14:00,UTC,7,1018.1,80,,,10.7,7.4,42843,205,11.7,6.7
2018,10,21,14:10,UTC,7,1018,80,,,10.7,7.4,46406,205,10.3,6.4
2018,10,21,14:20,UTC,7,1017.8,84,,,10.5,7.9,47945,200,11.4,7.2
2018,10,21,14:30,UTC,7,1017.6,85,,,10.4,8,40345,200,11.8,7.1
2018,10,21,14:40,UTC,7,1017.5,84,,,10.4,7.9,49995,199,11.6,7.5
2018,10,21,14:50,UTC,7,1017.3,84,,,10.3,7.7,45380,200,11,7.6
2018,10,21,15:00,UTC,7,1017.1,83,,,10.5,7.6,43595,202,11.2,7.3
2018,10,21,15:10,UTC,7,1017.1,83,,,10.5,7.7,44843,201,11.2,7.5
2018,10,21,15:20,UTC,7,1017.1,82,,,10.6,7.6,42875,204,12,7.4
2018,10,21,15:30,UTC,7,1017,82,,,10.6,7.6,49585,206,11.6,7.4
2018,10,21,15:40,UTC,7,1016.9,82,,,10.6,7.6,48020,205,13.7,8.1
2018,10,21,15:50,UTC,7,1016.8,83,,,10.6,7.7,43951,203,11.3,6.9
2018,10,21,16:00,UTC,7,1016.6,82,,,10.7,7.8,48222,210,13.9,8.4
2018,10,21,16:10,UTC,7,1016.7,83,,,10.7,7.9,42947,207,10.5,7.6
2018,10,21,16:20,UTC,7,1016.5,83,,,10.6,7.9,47089,205,11.1,7.3
2018,10,21,16:30,UTC,7,1016.3,83,,,10.7,8,48522,205,11.4,6.6
2018,10,21,16:40,UTC,7,1016,83,,,10.6,7.8,46572,204,10.9,7.5
2018,10,21,16:50,UTC,7,1015.9,83,,,10.6,7.9,43525,202,11.9,7.1
2018,10,21,17:00,UTC,7,1015.8,82,,,10.6,7.7,50000,203,12.4,7.4
2018,10,21,17:10,UTC,8,1015.6,82,,,10.6,7.7,46610,200,12.1,7.4
2018,10,21,17:20,UTC,8,1015.2,83,,,10.7,7.9,44687,199,12.3,8.2
2018,10,21,17:30,UTC,8,1015.1,83,,,10.7,7.9,50000,200,13.1,8.8
2018,10,21,17:40,UTC,8,1014.9,84,,,10.6,8,43930,199,14,8.1
2018,10,21,17:50,UTC,8,1014.6,85,,,10.6,8.2,43895,200,11,7.6
2018,10,21,18:00,UTC,8,1014.5,85,,,10.7,8.3,40218,200,13.7,7.7
2018,10,21,18:10,UTC,8,1014.3,86,,,10.6,8.3,44331,202,12,7.2
2018,10,21,18:20,UTC,8,1014.1,84,,,10.8,8.2,43179,206,16.1,8.2
2018,10,21,18:30,UTC,8,1013.9,85,,,10.8,8.3,26426,212,11.8,8.1
2018,10,21,18:40,UTC,8,1013.9,86,,,10.7,8.4,18214,213,13.7,8.9
2018,10,21,18:50,UTC,8,1013.7,88,,,10.6,8.6,12788,209,12.9,7.7
2018,10,21,19:00,UTC,8,1013.5,91,,,10.4,8.9,8819,205,13.7,7.9
2018,10,21,19:10,UTC,8,1013.4,93,,,10.2,9.2,4803,208,11.8,7.5
2018,10,21,19:20,UTC,8,1013.1,96,,,10.1,9.4,3619,211,11.9,7.6
2018,10,21,19:30,UTC,8,1012.9,97,,,10,9.6,3810,204,12.7,8.3
2018,10,21,19:40,UTC,8,1013,98,,,10,9.7,4145,204,11.6,7.5
2018,10,21,19:50,UTC,8,1012.7,99,,,9.9,9.8,3085,202,11.1,6.8
2018,10,21,20:00,UTC,8,1012.6,100,,,10,9.9,2617,206,8,5.7
2018,10,21,20:10,UTC,8,1012.4,100,,,10.1,10,2824,207,10.3,6.9
2018,10,21,20:20,UTC,8,1012.5,100,,,10.1,10.1,2572,208,11.2,6.3
2018,10,21,20:30,UTC,8,1012.2,100,,,10.3,10.2,2759,211,11.3,7.2
2018,10,21,20:40,UTC,8,1012.1,99,,,10.2,10.1,2655,209,13.1,7.4
2018,10,21,20:50,UTC,8,1012,99,,,10.2,10.1,2839,211,11.9,6.7
2018,10,21,21:00,UTC,8,1011.8,100,,,10.1,10.1,2714,206,11,7.3
2018,10,21,21:10,UTC,8,1011.6,100,,,10.1,10.1,2905,203,10.7,7.1
2018,10,21,21:20,UTC,8,1011.3,100,,,10.1,10.1,3349,204,12,6.7
2018,10,21,21:30,UTC,8,1011.2,100,,,10.2,10.2,3411,209,10.9,6.9
2018,10,21,21:40,UTC,8,1011.1,100,,,10.2,10.2,3189,209,11.9,7.4
2018,10,21,21:50,UTC,8,1010.9,100,,,10.4,10.3,4199,208,11.9,7.7
2018,10,21,22:00,UTC,8,1010.8,99,,,10.5,10.4,4698,213,12.8,7.9
2018,10,21,22:10,UTC,8,1010.6,99,,,10.4,10.3,4112,210,12.5,8
2018,10,21,22:20,UTC,8,1010.2,100,,,10.5,10.4,2831,205,11.4,7.2
2018,10,21,22:30,UTC,8,1010,100,,,10.6,10.5,2805,205,12.8,8.1
2018,10,21,22:40,UTC,8,1009.8,99,,,10.6,10.5,3438,212,14,7.9
2018,10,21,22:50,UTC,8,1009.6,99,,,10.7,10.5,4445,209,11,7.3
2018,10,21,23:00,UTC,8,1009.5,99,,,10.8,10.6,3542,212,11.5,7.4
2018,10,21,23:10,UTC,8,1009.2,99,,,10.8,10.6,2991,209,12.8,7.7
2018,10,21,23:20,UTC,8,1009,99,,,10.9,10.7,6198,213,11.3,7.1
2018,10,21,23:30,UTC,8,1008.7,98,,,11,10.7,9240,214,12.1,8
2018,10,21,23:40,UTC,8,1008.6,97,,,11.1,10.7,11633,213,14.3,8.8
2018,10,21,23:50,UTC,8,1008.3,97,,,11.1,10.7,6755,216,14.5,9.1
2018,10,22,00:00,UTC,8,1008,97,,,11.2,10.7,9787,210,15.1,9.9
2018,10,22,00:10,UTC,8,1007.8,98,,,11.1,10.7,5177,211,14.9,9.2
2018,10,22,00:20,UTC,8,1007.4,97,,,11.1,10.7,8616,208,13.1,8.4
2018,10,22,00:30,UTC,8,1007.3,98,,,11.1,10.7,6903,212,16.3,8.9
2018,10,22,00:40,UTC,8,1007.3,98,,,11,10.7,7397,211,15,8.3
2018,10,22,00:50,UTC,8,1006.9,98,,,11.1,10.8,8103,211,15,9.2
2018,10,22,01:00,UTC,8,1006.9,99,,,11.1,10.9,8773,211,12.6,8.1
2018,10,22,01:10,UTC,8,1006.7,99,,,11.3,11,8147,213,13.6,8.5
2018,10,22,01:20,UTC,8,1006.4,98,,,11.3,11.1,6437,216,15,9.1
2018,10,22,01:30,UTC,8,1006.3,98,,,11.4,11.1,10194,219,12.9,8.5
2018,10,22,01:40,UTC,8,1006.1,98,,,11.5,11.2,9441,214,14.2,9
2018,10,22,01:50,UTC,8,1005.9,98,,,11.5,11.2,8924,214,12.9,8.1
2018,10,22,02:00,UTC,8,1005.7,98,,,11.5,11.2,5235,216,13.7,8.1
2018,10,22,02:10,UTC,8,1005.6,98,,,11.6,11.3,7791,213,13.9,8.5
2018,10,22,02:20,UTC,8,1005.4,97,,,11.7,11.3,10816,216,13.4,8.2
2018,10,22,02:30,UTC,8,1005.1,98,,,11.7,11.4,4955,218,14.1,9
2018,10,22,02:40,UTC,8,1004.9,98,,,11.8,11.5,5596,218,13.5,8.7
2018,10,22,02:50,UTC,8,1004.7,98,,,11.8,11.5,6115,218,12.5,8.3
2018,10,22,03:00,UTC,8,1004.7,98,,,11.8,11.6,5699,214,14.8,8.5
2018,10,22,03:10,UTC,8,1004.5,98,,,11.9,11.5,6381,216,13.7,9.4
2018,10,22,03:20,UTC,8,1004.3,98,,,11.8,11.6,6727,216,14,8.5
2018,10,22,03:30,UTC,8,1004.1,97,,,12,11.6,8725,215,13.4,8.9
2018,10,22,03:40,UTC,8,1004.1,97,,,12,11.6,11772,220,13.3,7.5
2018,10,22,03:50,UTC,8,1004.1,98,,,12,11.6,5993,219,13.1,7.7
2018,10,22,04:00,UTC,8,1004,98,,,11.9,11.7,5268,222,11.6,7.4
2018,10,22,04:10,UTC,8,1004,99,,,11.9,11.8,4203,225,10.8,6.7
2018,10,22,04:20,UTC,8,1003.9,100,,,11.8,11.8,3912,227,9.2,6.1
2018,10,22,04:30,UTC,8,1003.9,100,,,11.9,11.9,4269,227,8.7,5.7
2018,10,22,04:40,UTC,8,1003.9,99,,,12,11.8,10818,232,8.2,5
2018,10,22,04:50,UTC,8,1003.9,98,,,12.1,11.8,32648,240,7.6,4.9
2018,10,22,05:00,UTC,8,1004,97,,,12.1,11.7,46062,237,7.6,5
2018,10,22,05:10,UTC,8,1003.9,96,,,12.2,11.6,45949,236,8,4.6
2018,10,22,05:20,UTC,8,1003.8,96,,,12.1,11.5,42966,237,8.2,5
2018,10,22,05:30,UTC,8,1003.9,95,,,12.1,11.4,32752,236,8.1,5.1
2018,10,22,05:40,UTC,8,1004.2,97,,,11.9,11.4,8930,248,6.8,4.6
2018,10,22,05:50,UTC,8,1004.2,96,,,12,11.3,31695,253,8.1,4.9
2018,10,22,06:00,UTC,8,1004.3,96,,,11.8,11.2,24867,254,6.5,4.3
2018,10,22,06:10,UTC,8,1004.4,95,,,11.8,11.1,44607,258,7.4,4.7
2018,10,22,06:20,UTC,7,1004.5,94,,,11.8,10.8,50000,256,7.4,4.8
2018,10,22,06:30,UTC,7,1004.7,91,,,11.8,10.3,45702,266,9.4,6.1
2018,10,22,06:40,UTC,7,1005,88,,,11.4,9.5,32856,291,11,6.8
2018,10,22,06:50,UTC,8,1005.3,89,,,10.8,9.1,26253,299,9.1,6
2018,10,22,07:00,UTC,8,1005.7,88,,,9.6,7.6,50000,320,12.7,7.5
2018,10,22,07:10,UTC,7,1006.1,87,,,9.2,7.1,23416,312,10.4,7.3
2018,10,22,07:20,UTC,7,1006.3,87,,,9.1,7,50000,313,9,6.1
2018,10,22,07:30,UTC,7,1006.4,86,,,9,6.7,50000,317,8.9,5.9
2018,10,22,07:40,UTC,8,1006.6,88,,,8.8,6.9,50000,317,7.8,5.1
2018,10,22,07:50,UTC,8,1006.7,89,,,8.8,7,50000,316,7,4.6
2018,10,22,08:00,UTC,8,1006.8,87,,,8.8,6.7,50000,303,8.5,5.2
2018,10,22,08:10,UTC,8,1007,87,,,8.8,6.8,50000,305,8.7,5.1
2018,10,22,08:20,UTC,8,1007.1,88,,,8.9,7.1,50000,302,7.1,4.8
2018,10,22,08:30,UTC,8,1007.1,80,,,9,5.7,50000,295,9.2,5.7
2018,10,22,08:40,UTC,8,1007.1,79,,,9,5.5,50000,303,8.3,5.8
2018,10,22,08:50,UTC,8,1007.2,80,,,9,5.7,50000,292,8.2,5.3
2018,10,22,09:00,UTC,7,1007.2,80,,,9.1,5.8,50000,286,7.2,4.6
2018,10,22,09:10,UTC,5,1007.2,76,,,9.4,5.3,50000,284,7.8,5.1
2018,10,22,09:20,UTC,3,1007.4,76,,,9.5,5.4,50000,296,9.2,5.7
2018,10,22,09:30,UTC,3,1007.4,73,,,9.3,4.7,42828,282,7.8,5.6
2018,10,22,09:40,UTC,3,1007.4,74,,,9,4.6,40933,291,8.1,5
2018,10,22,09:50,UTC,4,1007.6,77,,,9,5.3,50000,293,7.5,4.5
2018,10,22,10:00,UTC,5,1007.5,77,,,9.3,5.6,50000,292,5.6,3.4
2018,10,22,10:10,UTC,5,1007.5,73,,,9.4,4.8,50000,292,7.2,4.3
2018,10,22,10:20,UTC,6,1007.3,72,,,10,5.1,42241,296,7.6,4.4
2018,10,22,10:30,UTC,6,1007.4,71,,,10.1,5,48714,273,8,5.6
2018,10,22,10:40,UTC,6,1007.3,70,,,10.2,4.9,40387,281,9,4.8
2018,10,22,10:50,UTC,7,1007.2,67,,,10,4,40756,267,7.3,4.8
2018,10,22,11:00,UTC,6,1007.1,66,,,10,4,33303,258,8.3,5.2
2018,10,22,11:10,UTC,4,1007.1,66,,,10,3.8,50000,268,7.7,4.1
2018,10,22,11:20,UTC,2,1007,64,,,9.8,3.3,41088,266,6.6,4.7
2018,10,22,11:30,UTC,0,1007.1,66,,,9.8,3.7,38132,253,6.8,4.8
2018,10,22,11:40,UTC,0,1007,65,,,10,3.7,50000,259,6.3,4.4
2018,10,22,11:50,UTC,0,1007,63,,,10.2,3.4,49952,256,5.6,4
2018,10,22,12:00,UTC,0,1007,63,,,9.8,3,50000,258,7,4.5
2018,10,22,12:10,UTC,0,1006.9,63,,,10.1,3.4,38374,267,6.7,3.9
2018,10,22,12:20,UTC,1,1006.8,66,,,10,3.9,46777,249,6.4,3.8
2018,10,22,12:30,UTC,0,1006.8,64,,,10.3,3.8,40515,264,5.3,3.3
2018,10,22,12:40,UTC,0,1006.7,65,,,10.2,3.9,43257,257,5.4,3.7
2018,10,22,12:50,UTC,1,1006.7,65,,,10.2,3.9,45810,253,7.2,4.3
2018,10,22,13:00,UTC,3,1006.8,66,,,10.1,4,50000,254,6.9,3.9
2018,10,22,13:10,UTC,3,1006.8,66,,,10.1,4,50000,263,7.1,4.2
2018,10,22,13:20,UTC,4,1006.7,68,,,9.7,4.1,50000,259,4.9,3.4
2018,10,22,13:30,UTC,6,1006.5,68,,,9.8,4.2,50000,251,4.8,3.5
2018,10,22,13:40,UTC,6,1006.3,68,,,9.9,4.2,48812,224,3.9,2.6
2018,10,22,13:50,UTC,3,1006.2,68,,,9.7,4.1,50000,226,3.7,2
2018,10,22,14:00,UTC,1,1006.1,68,,,9.7,4.2,50000,226,4.4,2.3
2018,10,22,14:10,UTC,0,1006.1,71,,,9.5,4.4,50000,212,5.4,3.1
2018,10,22,14:20,UTC,0,1006.1,76,,,9.3,5.2,50000,219,7.3,4.2
2018,10,22,14:30,UTC,0,1005.8,78,,,9,5.3,50000,215,4.6,3.3
2018,10,22,14:40,UTC,1,1005.8,80,,,8.6,5.3,48615,212,4.2,2.7
2018,10,22,14:50,UTC,0,1005.8,82,,,8.5,5.5,50000,207,4.5,2.8
2018,10,22,15:00,UTC,0,1005.9,81,,,8.6,5.6,50000,215,4.5,3.1
2018,10,22,15:10,UTC,0,1006,81,,,8.6,5.5,50000,223,6.4,3.7
2018,10,22,15:20,UTC,3,1006,81,,,8.6,5.6,50000,237,5.6,3.3
2018,10,22,15:30,UTC,5,1006,81,,,8.4,5.4,50000,236,4.8,2.7
2018,10,22,15:40,UTC,5,1006.1,82,,,8.3,5.5,50000,226,4,2.4
2018,10,22,15:50,UTC,4,1006.1,84,,,8.2,5.6,48932,228,4.3,2.5
2018,10,22,16:00,UTC,1,1006.1,83,,,8.1,5.3,50000,236,6.6,3.8
2018,10,22,16:10,UTC,1,1006.2,81,,,8,5,50000,246,6.9,4.5
2018,10,22,16:20,UTC,0,1006.4,81,,,8.1,4.9,50000,254,6.2,4
2018,10,22,16:30,UTC,1,1006.4,81,,,7.8,4.7,50000,262,6.6,3.9
2018,10,22,16:40,UTC,1,1006.6,75,,,7.8,3.6,50000,274,8.1,4.7
2018,10,22,16:50,UTC,2,1006.7,73,,,7.8,3.3,50000,277,7.7,4.9
2018,10,22,17:00,UTC,5,1006.7,73,,,7.8,3.2,50000,270,7.6,4.8
2018,10,22,17:10,UTC,6,1006.7,73,,,7.4,3,50000,270,7.8,5
2018,10,22,17:20,UTC,5,1006.7,75,,,7.1,3,50000,271,6.5,4.3
2018,10,22,17:30,UTC,2,1006.7,76,,,7,3,50000,276,5.7,4
2018,10,22,17:40,UTC,1,1006.7,77,,,6.7,2.9,50000,273,5.1,3.5
2018,10,22,17:50,UTC,0,1006.7,77,,,6.6,2.9,50000,276,5.7,3.6
2018,10,22,18:00,UTC,0,1006.6,78,,,6.5,2.9,50000,268,5.7,3.4
2018,10,22,18:10,UTC,0,1006.6,79,,,6.3,2.8,50000,271,7.7,3.6
2018,10,22,18:20,UTC,0,1006.6,79,,,6.1,2.7,50000,269,5.7,3.4
2018,10,22,18:30,UTC,0,1006.5,80,,,6,2.8,50000,266,5.5,3.4
2018,10,22,18:40,UTC,0,1006.5,81,,,6,2.9,50000,263,5.7,3.3
2018,10,22,18:50,UTC,0,1006.5,81,,,5.9,2.8,50000,255,4.6,3.4
2018,10,22,19:00,UTC,0,1006.5,80,,,5.9,2.7,50000,256,7.1,3.7
2018,10,22,19:10,UTC,0,1006.3,80,,,5.6,2.5,50000,255,4.9,3.4
2018,10,22,19:20,UTC,0,1006.4,81,,,5.6,2.5,50000,251,5.8,3.2
2018,10,22,19:30,UTC,0,1006.3,81,,,5.4,2.4,50000,241,3.7,2.4
2018,10,22,19:40,UTC,0,1006.1,82,,,5.2,2.4,50000,228,3.5,2.1
2018,10,22,19:50,UTC,0,1006,81,,,5.1,2.2,50000,224,4,2.4
2018,10,22,20:00,UTC,0,1006,82,,,4.9,2.1,50000,230,3.8,2.2
2018,10,22,20:10,UTC,0,1006,83,,,4.8,2.2,50000,228,3,2.1
2018,10,22,20:20,UTC,0,1005.9,84,,,4.7,2.2,50000,226,3.6,2.3
2018,10,22,20:30,UTC,0,1005.9,84,,,4.8,2.3,50000,228,4.6,2.8
2018,10,22,20:40,UTC,0,1005.7,84,,,4.7,2.3,50000,222,5,3.1
2018,10,22,20:50,UTC,0,1005.6,84,,,4.8,2.3,50000,221,4.7,2.8
2018,10,22,21:00,UTC,0,1005.5,83,,,4.9,2.3,50000,219,5.7,3.3
2018,10,22,21:10,UTC,0,1005.4,83,,,4.6,2,50000,225,6.1,3.3
2018,10,22,21:20,UTC,0,1005.4,84,,,4.6,2.1,50000,225,5.9,3.4
2018,10,22,21:30,UTC,0,1005.3,82,,,4.9,2.1,50000,224,5.1,3.5
2018,10,22,21:40,UTC,0,1005.4,83,,,4.7,2,50000,226,5.3,3.6
2018,10,22,21:50,UTC,0,1005.2,83,,,4.7,2,50000,227,4.9,3
2018,10,22,22:00,UTC,0,1005.1,82,,,4.8,2,50000,227,5.8,3.2
2018,10,22,22:10,UTC,0,1005,81,,,4.9,1.9,50000,225,6,3.6
2018,10,22,22:20,UTC,0,1004.9,80,,,4.9,1.8,50000,229,5.2,3.5
2018,10,22,22:30,UTC,0,1004.8,80,,,4.8,1.7,50000,230,4.8,3.1
2018,10,22,22:40,UTC,0,1004.6,80,,,4.8,1.7,50000,227,4.5,3.1
2018,10,22,22:50,UTC,0,1004.4,80,,,4.8,1.6,50000,225,4.6,3
2018,10,22,23:00,UTC,0,1004.2,79,,,4.9,1.5,50000,229,4.4,3
2018,10,22,23:10,UTC,0,1004,79,,,4.8,1.4,50000,226,4.3,2.7
2018,10,22,23:20,UTC,0,1003.9,77,,,5,1.4,50000,225,4.3,2.9
2018,10,22,23:30,UTC,0,1003.8,77,,,5,1.4,50000,224,4.9,2.9
2018,10,22,23:40,UTC,0,1003.6,76,,,5.3,1.4,50000,225,5.5,3.1
2018,10,22,23:50,UTC,0,1003.5,76,,,5.4,1.5,50000,225,4.9,3.3
2018,10,23,00:00,UTC,0,1003.3,75,,,5.7,1.5,50000,224,5.8,3.3
2018,10,23,00:10,UTC,0,1003.1,75,,,5.7,1.6,50000,223,5.5,3.6
2018,10,23,00:20,UTC,1,1002.9,76,,,5.7,1.9,50000,227,6.3,3.5
2018,10,23,00:30,UTC,4,1002.8,76,,,5.6,1.7,50000,226,4.1,2.8
2018,10,23,00:40,UTC,2,1002.6,77,,,5.5,1.8,50000,227,4.9,2.5
2018,10,23,00:50,UTC,2,1002.2,76,,,5.6,1.8,50000,224,4.4,2.9
2018,10,23,01:00,UTC,0,1002,78,,,5.4,1.9,50000,218,3.9,2.4
2018,10,23,01:10,UTC,0,1001.8,78,,,5.4,2,50000,219,4.2,2.7
2018,10,23,01:20,UTC,0,1001.7,78,,,5.6,2.1,50000,217,4.5,2.8
2018,10,23,01:30,UTC,0,1001.5,78,,,5.6,2.1,50000,220,4,2.3
2018,10,23,01:40,UTC,0,1001.3,79,,,5.6,2.2,50000,217,3.4,2.1
2018,10,23,01:50,UTC,0,1001,80,,,5.4,2.2,50000,220,3.1,2
2018,10,23,02:00,UTC,0,1000.8,80,,,5.5,2.4,50000,220,3,1.9
2018,10,23,02:10,UTC,0,1000.6,82,,,5.1,2.3,50000,218,2.4,1.5
2018,10,23,02:20,UTC,0,1000.4,84,,,4.7,2.2,50000,208,2.4,1.1
2018,10,23,02:30,UTC,0,1000.3,87,,,3.4,1.5,50000,188,1.7,1
2018,10,23,02:40,UTC,0,1000,90,,,2.8,1.3,50000,165,2.4,1.1
2018,10,23,02:50,UTC,3,999.8,90,,,3.7,2.2,50000,178,2,1.5
2018,10,23,03:00,UTC,5,999.6,90,,,3.9,2.5,49636,164,1.9,1.5
2018,10,23,03:10,UTC,7,999.4,91,,,1.8,0.5,48738,138,1.8,1.3
2018,10,23,03:20,UTC,7,999.2,97,,,1.1,0.7,50000,126,1.5,1.1
2018,10,23,03:30,UTC,7,998.9,99,,,1.5,1.4,48081,130,2.8,1.1
2018,10,23,03:40,UTC,7,998.7,99,,,1.1,0.9,41849,121,1.4,1.1
2018,10,23,03:50,UTC,7,998.4,98,,,0.6,0.4,47542,111,1.5,1.2
2018,10,23,04:00,UTC,7,998.2,99,,,0.5,0.3,45778,89,1.4,0.9
2018,10,23,04:10,UTC,7,997.9,100,,,1.2,1.2,31665,0,0,0
2018,10,23,04:20,UTC,7,997.7,100,,,1.1,1.1,31334,97,0.7,0.5
2018,10,23,04:30,UTC,7,997.4,100,,,1.1,1.1,37052,0,0,0
2018,10,23,04:40,UTC,7,997.2,100,,,0.8,0.8,33111,0,0,0
2018,10,23,04:50,UTC,7,997,100,,,1.2,1.2,29236,0,0,0
2018,10,23,05:00,UTC,7,996.7,100,,,1.5,1.5,32325,81,1,0.6
2018,10,23,05:10,UTC,7,996.5,100,,,1.6,1.6,30858,61,0.8,0.5
2018,10,23,05:20,UTC,7,996.2,100,,,2,2,23849,121,1.9,1
2018,10,23,05:30,UTC,7,996,100,,,4.1,4.1,30327,159,3.6,1.6
2018,10,23,05:40,UTC,7,995.8,90,,,7.5,6,37823,189,7.4,4.3
2018,10,23,05:50,UTC,7,995.5,85,,,6.8,4.5,20035,184,11.1,6.9
2018,10,23,06:00,UTC,7,995.3,89,,,7.4,5.7,23622,158,8.8,5.5
2018,10,23,06:10,UTC,7,995.3,80,,,7.5,4.2,37173,189,8.3,5.3
2018,10,23,06:20,UTC,7,995.2,79,,,7.2,3.8,45293,190,7.2,5.1
2018,10,23,06:30,UTC,7,995,74,,,7.2,2.9,50000,197,9.7,6.2
2018,10,23,06:40,UTC,7,994.9,71,,,7,2.2,50000,203,9.1,5.3
2018,10,23,06:50,UTC,8,994.9,71,,,6.9,1.9,50000,205,10,6.1
2018,10,23,07:00,UTC,8,994.9,73,,,6.4,2,24758,222,9.7,6.3
2018,10,23,07:10,UTC,8,994.6,76,,,6.2,2.2,28375,258,6.5,3.9
2018,10,23,07:20,UTC,8,994.3,80,,,5.9,2.7,36934,258,3.7,2.1
2018,10,23,07:30,UTC,8,993.8,80,,,5.8,2.6,21800,11,4.1,2.9
2018,10,23,07:40,UTC,8,993.8,86,,,5.5,3.3,20904,341,3.9,1.7
2018,10,23,07:50,UTC,8,993.5,89,,,5.3,3.6,19054,279,3.7,2.2
2018,10,23,08:00,UTC,8,993.2,88,,,5.5,3.7,50000,344,2.2,1.5
2018,10,23,08:10,UTC,8,992.9,90,,,5.5,4,47254,14,2.8,1.7
2018,10,23,08:20,UTC,8,992.7,92,,,5.5,4.3,49405,351,2.4,1.8
2018,10,23,08:30,UTC,7,992.4,88,,,6.3,4.4,49375,45,2.6,1.2
2018,10,23,08:40,UTC,7,992.2,91,,,6.1,4.8,45474,351,2.8,0.9
2018,10,23,08:50,UTC,7,992.1,77,,,7.4,3.7,40997,223,4.6,2.4
2018,10,23,09:00,UTC,7,991.8,82,,,7.1,4.3,43000,262,3.8,2
2018,10,23,09:10,UTC,7,991.7,84,,,7.2,4.7,40833,309,1.6,0.9
2018,10,23,09:20,UTC,7,991.4,82,,,7.9,5.1,36297,208,4.5,1.8
2018,10,23,09:30,UTC,7,991.2,73,,,8.1,3.5,27510,189,8.3,5.6
2018,10,23,09:40,UTC,7,990.9,80,,,8,4.7,28626,187,8.3,5.7
2018,10,23,09:50,UTC,7,990.8,82,,,8,5.2,23305,174,6.7,4.5
2018,10,23,10:00,UTC,8,990.6,80,,,7.7,4.5,18737,170,7.6,4.8
2018,10,23,10:10,UTC,8,990.4,78,,,7.7,4.1,29131,176,7.4,4.8
2018,10,23,10:20,UTC,8,990.2,74,,,7.8,3.5,26398,166,6.8,3.9
2018,10,23,10:30,UTC,8,990,77,,,7.8,4.1,39831,150,5.4,3.2
2018,10,23,10:40,UTC,8,989.8,80,,,7.9,4.7,36509,149,6.2,3.8
2018,10,23,10:50,UTC,8,989.5,80,,,7.9,4.7,26820,142,7.7,4
2018,10,23,11:00,UTC,8,989.4,81,,,7.6,4.5,17033,150,8.8,5.6
2018,10,23,11:10,UTC,8,989.4,84,,,6.9,4.4,11115,148,8.6,6
2018,10,23,11:20,UTC,8,989.2,88,,,6.6,4.7,11180,146,6.9,4.1
2018,10,23,11:30,UTC,8,989.1,90,,,6.5,4.9,12427,150,3.8,2.7
2018,10,23,11:40,UTC,8,988.8,92,,,6.2,5.1,8526,134,4.6,2.8
2018,10,23,11:50,UTC,7,988.6,93,,,6.5,5.4,34904,124,3.4,2.4
2018,10,23,12:00,UTC,7,988.4,94,,,6.8,6,33468,117,4.5,2.8
2018,10,23,12:10,UTC,7,988.2,87,,,7.3,5.3,37043,144,7.4,4.3
2018,10,23,12:20,UTC,7,988,88,,,7.4,5.5,35092,142,7.2,4.9
2018,10,23,12:30,UTC,7,987.8,85,,,7.4,5.1,26812,139,7.6,5.3
2018,10,23,12:40,UTC,7,987.6,84,,,7.4,4.9,28876,141,6.7,4.5
2018,10,23,12:50,UTC,7,987.5,87,,,7,5.1,12271,149,7.7,4.6
2018,10,23,13:00,UTC,8,987.4,85,,,7,4.7,16322,137,8.4,4.8
2018,10,23,13:10,UTC,8,987.1,84,,,7.1,4.6,12498,135,10.6,5.5
2018,10,23,13:20,UTC,8,987,86,,,6.9,4.8,19918,127,8.7,5.5
2018,10,23,13:30,UTC,8,986.8,87,,,6.8,4.8,13016,140,8.6,5.7
2018,10,23,13:40,UTC,8,986.7,88,,,6.7,4.9,14968,142,7.3,4.4
2018,10,23,13:50,UTC,8,986.6,86,,,6.8,4.6,24612,135,8.1,4.7
2018,10,23,14:00,UTC,8,986.4,83,,,6.9,4.2,24852,132,8.5,5.5
2018,10,23,14:10,UTC,8,986.3,82,,,6.8,4,40383,138,8.3,5.1
2018,10,23,14:20,UTC,8,986.2,82,,,6.8,4,50000,136,6.7,4.8
2018,10,23,14:30,UTC,8,986.1,82,,,6.8,4,50000,128,7,4.6
2018,10,23,14:40,UTC,8,985.9,84,,,6.7,4.2,50000,129,8.6,5.2
2018,10,23,14:50,UTC,8,985.8,83,,,6.8,4.1,50000,126,6.3,4.5
2018,10,23,15:00,UTC,8,985.8,83,,,6.8,4.2,42627,126,7.9,4.8
2018,10,23,15:10,UTC,8,985.7,91,,,6.1,4.7,8813,115,7.9,4.8
2018,10,23,15:20,UTC,8,985.6,93,,,6,5,16417,108,6.1,3.6
2018,10,23,15:30,UTC,8,985.6,90,,,6.3,4.8,33643,119,7.6,4.5
2018,10,23,15:40,UTC,8,985.5,93,,,6,5,9070,115,8.5,5
2018,10,23,15:50,UTC,8,985.4,94,,,5.9,5.1,26578,112,6.3,3.4
2018,10,23,16:00,UTC,8,985.4,93,,,6,4.9,50000,108,5,3
2018,10,23,16:10,UTC,8,985.4,92,,,6,4.9,21875,110,6.2,3
2018,10,23,16:20,UTC,8,985.2,88,,,6.1,4.2,50000,123,5.5,3.2
2018,10,23,16:30,UTC,8,985.2,88,,,6.2,4.3,50000,110,6,3.4
2018,10,23,16:40,UTC,8,985.1,87,,,6.2,4.2,50000,115,5.7,3.8
2018,10,23,16:50,UTC,8,985.1,84,,,6.3,3.8,50000,112,5.8,3.9
2018,10,23,17:00,UTC,8,984.9,84,,,6.2,3.8,50000,98,4.8,3.3
2018,10,23,17:10,UTC,8,984.8,84,,,6.2,3.8,50000,103,5.6,3.2
2018,10,23,17:20,UTC,8,984.7,84,,,6.3,3.7,24399,104,7.1,4.1
2018,10,23,17:30,UTC,8,984.7,84,,,6.2,3.6,39972,110,5.3,3.5
2018,10,23,17:40,UTC,8,984.7,83,,,6.3,3.5,50000,95,5.9,3.4
2018,10,23,17:50,UTC,8,984.6,84,,,6.2,3.7,27594,98,5.7,3.5
2018,10,23,18:00,UTC,8,984.6,84,,,6.2,3.7,50000,90,4.2,2.4
2018,10,23,18:10,UTC,8,984.5,84,,,6.2,3.7,50000,83,4,2.1
2018,10,23,18:20,UTC,8,984.5,84,,,6.2,3.8,50000,85,3.8,1.9
2018,10,23,18:30,UTC,8,984.5,84,,,6.2,3.8,17214,76,4.2,2.3
2018,10,23,18:40,UTC,8,984.4,90,,,5.8,4.3,37591,40,4.3,2.1
2018,10,23,18:50,UTC,8,984.5,95,,,5.5,4.7,15060,22,4,1.6
2018,10,23,19:00,UTC,8,984.4,97,,,5.3,4.9,7462,34,3.2,1.5
2018,10,23,19:10,UTC,8,984.4,98,,,5.2,4.9,24156,33,2.3,1
2018,10,23,19:20,UTC,8,984.4,99,,,5.2,5,18997,12,3.2,1.5
2018,10,23,19:30,UTC,8,984.4,99,,,5.1,5,9904,20,4.5,2
2018,10,23,19:40,UTC,8,984.3,99,,,5.1,4.9,13563,29,4.5,1.8
2018,10,23,19:50,UTC,7,984.4,99,,,5.1,4.9,22628,30,4.6,2.1
2018,10,23,20:00,UTC,7,984.3,99,,,5,4.9,7527,23,4.2,1.9
2018,10,23,20:10,UTC,7,984.3,100,,,5,4.9,18615,18,4.2,2.2
2018,10,23,20:20,UTC,7,984.2,100,,,4.9,4.9,23035,12,4.1,2.4
2018,10,23,20:30,UTC,7,984.2,100,,,5,4.9,10286,12,4.4,2.4
2018,10,23,20:40,UTC,7,984.3,100,,,4.9,4.9,10206,27,4.2,2.1
2018,10,23,20:50,UTC,8,984.3,100,,,4.9,4.9,7548,17,4.5,2
2018,10,23,21:00,UTC,8,984.3,100,,,4.9,4.9,28794,13,5.2,2.9
2018,10,23,21:10,UTC,8,984.3,100,,,4.9,4.8,12646,15,5.2,2.8
2018,10,23,21:20,UTC,8,984.3,100,,,4.9,4.9,23908,11,5.1,2.6
2018,10,23,21:30,UTC,8,984.4,100,,,5,4.9,22672,12,4.7,2.2
2018,10,23,21:40,UTC,8,984.3,99,,,5.1,4.9,48101,15,5.9,3
2018,10,23,21:50,UTC,7,984.3,99,,,5,4.9,31637,15,6.5,2.7
2018,10,23,22:00,UTC,7,984.4,99,,,5,4.8,44150,17,6.6,3.2
2018,10,23,22:10,UTC,7,984.4,99,,,5,4.8,20781,17,5.9,2.9
2018,10,23,22:20,UTC,7,984.4,98,,,5,4.8,12320,22,5.3,2.8
2018,10,23,22:30,UTC,7,984.5,98,,,5,4.7,13246,20,6.6,2.8
2018,10,23,22:40,UTC,8,984.5,99,,,4.9,4.7,11843,18,5.1,2.5
2018,10,23,22:50,UTC,8,984.6,98,,,4.9,4.7,13890,10,6.7,3.3
2018,10,23,23:00,UTC,8,984.6,99,,,4.8,4.7,9941,14,5.4,2.4
2018,10,23,23:10,UTC,8,984.6,99,,,4.8,4.7,11344,20,5.5,2.8
2018,10,23,23:20,UTC,8,984.7,99,,,4.8,4.7,14525,13,4.9,2.6
2018,10,23,23:30,UTC,8,984.8,99,,,4.9,4.7,11972,17,6.1,2.6
2018,10,23,23:40,UTC,8,984.7,99,,,4.9,4.7,11594,20,5.6,2.9
2018,10,23,23:50,UTC,8,984.8,99,,,4.9,4.7,16035,16,5,2.9
2018,10,24,00:00,UTC,8,984.8,99,,,4.9,4.7,23562,13,5.8,2.7
2018,10,24,00:10,UTC,8,984.8,99,,,4.8,4.6,20656,10,6.8,3.5
2018,10,24,00:20,UTC,8,985,98,,,4.8,4.6,34619,10,6,3.4
2018,10,24,00:30,UTC,8,985.2,98,,,4.8,4.6,30652,15,6.2,3.5
2018,10,24,00:40,UTC,8,985.3,98,,,4.8,4.5,16753,13,7.6,3.2
2018,10,24,00:50,UTC,8,985.5,97,,,4.8,4.4,18441,15,7,3.3
2018,10,24,01:00,UTC,8,985.5,98,,,4.8,4.5,20925,11,7.6,3
2018,10,24,01:10,UTC,8,985.6,98,,,4.7,4.5,24908,16,5.4,2.9
2018,10,24,01:20,UTC,8,985.7,98,,,4.7,4.5,19494,9,6.4,3.6
2018,10,24,01:30,UTC,8,985.9,98,,,4.7,4.4,19602,14,7,3.3
2018,10,24,01:40,UTC,8,986,98,,,4.7,4.4,18733,10,7.2,3.1
2018,10,24,01:50,UTC,8,986.1,98,,,4.7,4.4,17968,15,6.7,3
2018,10,24,02:00,UTC,8,986.3,97,,,4.8,4.4,27542,13,6.3,3.3
2018,10,24,02:10,UTC,8,986.5,97,,,4.7,4.4,29988,14,6,3.1
2018,10,24,02:20,UTC,8,986.7,97,,,4.7,4.3,23897,14,7.7,3.5
2018,10,24,02:30,UTC,8,986.9,97,,,4.7,4.3,22360,14,6.6,3.5
2018,10,24,02:40,UTC,8,987.1,97,,,4.7,4.2,24372,10,7.6,3.7
2018,10,24,02:50,UTC,8,987.2,97,,,4.7,4.2,18518,16,6.6,3.5
2018,10,24,03:00,UTC,8,987.4,97,,,4.6,4.1,13095,23,7.2,3.4
2018,10,24,03:10,UTC,8,987.5,97,,,4.5,4,19064,18,7.3,3.3
2018,10,24,03:20,UTC,8,987.7,96,,,4.5,4,22372,16,8.1,3.4
2018,10,24,03:30,UTC,8,987.8,96,,,4.5,3.9,27346,13,6.8,3.5
2018,10,24,03:40,UTC,8,988,97,,,4.4,4,21071,9,6.4,3
2018,10,24,03:50,UTC,8,988.2,97,,,4.4,4,26198,14,6.4,3.2
2018,10,24,04:00,UTC,8,988.3,97,,,4.4,3.9,25077,12,5.3,3.1
2018,10,24,04:10,UTC,8,988.5,97,,,4.4,3.9,22634,18,6.8,2.9
2018,10,24,04:20,UTC,8,988.7,96,,,4.4,3.9,18708,19,8.5,3.4
2018,10,24,04:30,UTC,8,988.9,95,,,4.4,3.7,28136,23,7.9,3.4
2018,10,24,04:40,UTC,7,989,94,,,4.5,3.7,26496,17,6.8,3.4
2018,10,24,04:50,UTC,7,989.3,94,,,4.5,3.7,29495,21,7.3,3.6
2018,10,24,05:00,UTC,7,989.4,96,,,4.5,3.8,30195,15,6.8,3.2
2018,10,24,05:10,UTC,8,989.6,96,,,4.5,3.9,28559,26,6,2.7
2018,10,24,05:20,UTC,7,989.7,95,,,4.4,3.6,31757,8,5.7,2.8
2018,10,24,05:30,UTC,7,989.9,94,,,4.3,3.4,34513,11,6.7,3.2
2018,10,24,05:40,UTC,7,990.1,94,,,4.3,3.3,35406,6,6.4,3.5
2018,10,24,05:50,UTC,6,990.2,94,,,4.2,3.3,36555,8,5.2,3
2018,10,24,06:00,UTC,5,990.3,93,,,4.3,3.2,32606,10,6.6,3.5
2018,10,24,06:10,UTC,2,990.6,92,,,4.3,3.1,35430,11,7.6,3.8
2018,10,24,06:20,UTC,1,990.8,91,,,4.4,3.1,34664,11,6.5,3.6
2018,10,24,06:30,UTC,1,990.9,91,,,4.5,3.2,38985,5,6.7,3.4
2018,10,24,06:40,UTC,5,991.2,91,,,4.8,3.5,36517,3,6.4,3.7
2018,10,24,06:50,UTC,6,991.4,90,,,5.1,3.6,38012,7,7.3,4
2018,10,24,07:00,UTC,7,991.6,90,,,5.1,3.5,35503,3,7.8,4.1
2018,10,24,07:10,UTC,7,991.8,90,,,5.1,3.6,41309,360,5.3,3.5
2018,10,24,07:20,UTC,7,991.9,89,,,5.2,3.5,40756,360,6.9,3.8
2018,10,24,07:30,UTC,7,992.1,90,,,5.3,3.7,38392,1,6.5,3.6
2018,10,24,07:40,UTC,7,992.4,88,,,5.5,3.6,36412,9,8.1,4.4
2018,10,24,07:50,UTC,7,992.6,89,,,5.6,3.9,41360,5,6.8,3.7
2018,10,24,08:00,UTC,7,992.8,88,,,5.7,3.9,35481,1,7.5,4
2018,10,24,08:10,UTC,7,992.9,88,,,5.7,3.8,39055,6,6.7,4.2
2018,10,24,08:20,UTC,7,993.1,87,,,5.6,3.7,40316,359,9.2,4.5
2018,10,24,08:30,UTC,8,993.4,88,,,5.6,3.7,40359,6,6.5,3.7
2018,10,24,08:40,UTC,8,993.6,88,,,5.7,3.9,35209,3,6.8,3.7
2018,10,24,08:50,UTC,7,993.7,88,,,5.9,4.2,37866,360,6.4,3.7
2018,10,24,09:00,UTC,6,993.8,86,,,6,3.9,30301,359,7.2,4.7
2018,10,24,09:10,UTC,5,993.9,84,,,6,3.5,37970,360,8.5,5
2018,10,24,09:20,UTC,5,994.1,84,,,6.3,3.8,41428,1,8.1,4.2
2018,10,24,09:30,UTC,6,994.3,83,,,6.2,3.5,43188,2,8,4.6
2018,10,24,09:40,UTC,7,994.4,82,,,6.4,3.5,38963,3,8,4.2
2018,10,24,09:50,UTC,7,994.6,81,,,6.4,3.3,46503,1,7.4,4.3
2018,10,24,10:00,UTC,7,994.8,79,,,6.3,3,49353,357,8,5.2
2018,10,24,10:10,UTC,7,994.9,75,,,6.6,2.4,36469,356,7.6,4.5
2018,10,24,10:20,UTC,8,995.1,82,,,6.2,3.2,41517,352,9.7,6.2
2018,10,24,10:30,UTC,8,995.2,81,,,5.9,3,47250,354,8.2,5.5
2018,10,24,10:40,UTC,8,995.3,83,,,5.9,3.2,41962,351,8.1,5.9
2018,10,24,10:50,UTC,8,995.5,83,,,5.8,3.1,50000,357,7.6,5.2
2018,10,24,11:00,UTC,8,995.6,85,,,5.7,3.4,49919,351,7.9,5.3
2018,10,24,11:10,UTC,8,995.9,85,,,5.8,3.5,50000,349,8.1,5.9
2018,10,24,11:20,UTC,8,996,84,,,5.7,3.2,45722,347,8.7,6.2
2018,10,24,11:30,UTC,8,996.2,83,,,5.6,2.9,48818,348,7.9,5.4
2018,10,24,11:40,UTC,8,996.2,85,,,5.5,3.1,50000,342,8.4,6
2018,10,24,11:50,UTC,7,996.3,85,,,5.6,3.3,43471,342,8.1,6
2018,10,24,12:00,UTC,7,996.4,83,,,5.6,2.9,50000,342,8,6
2018,10,24,12:10,UTC,7,996.5,82,,,5.5,2.8,47773,349,8.1,6
2018,10,24,12:20,UTC,8,996.7,80,,,5.5,2.4,50000,352,7.9,5.6
2018,10,24,12:30,UTC,8,996.8,83,,,5.4,2.8,50000,349,7,4.9
2018,10,24,12:40,UTC,8,996.9,84,,,5.3,2.7,50000,344,8.5,5.7
2018,10,24,12:50,UTC,8,997.1,84,,,5.3,2.8,48409,345,7.7,5.1
2018,10,24,13:00,UTC,8,997.2,84,,,5.3,2.8,49666,346,7.4,4.9
2018,10,24,13:10,UTC,8,997.4,84,,,5.2,2.7,48541,342,7.9,5.5
2018,10,24,13:20,UTC,8,997.5,84,,,5.1,2.6,50000,349,7.4,4.8
2018,10,24,13:30,UTC,8,997.7,82,,,5.1,2.3,49365,343,7.8,5.8
2018,10,24,13:40,UTC,8,997.7,82,,,5,2.2,50000,347,8.2,5
2018,10,24,13:50,UTC,8,997.8,83,,,4.9,2.2,50000,347,7.7,5.7
2018,10,24,14:00,UTC,8,997.9,82,,,4.8,2,50000,353,9.4,5.8
2018,10,24,14:10,UTC,8,997.9,83,,,4.7,2.1,50000,358,7.3,4.5
2018,10,24,14:20,UTC,8,998,84,,,4.7,2.2,50000,356,6.3,4.1
2018,10,24,14:30,UTC,8,998.1,85,,,4.7,2.4,50000,355,4.7,3.4
2018,10,24,14:40,UTC,8,998.2,86,,,4.6,2.4,50000,340,6.7,4.3
2018,10,24,14:50,UTC,8,998.4,84,,,4.6,2.2,50000,341,8.8,4.9
2018,10,24,15:00,UTC,7,998.4,83,,,4.4,1.7,50000,347,8.1,5.6
2018,10,24,15:10,UTC,7,998.6,84,,,4.3,1.9,50000,345,6.4,4.4
2018,10,24,15:20,UTC,7,998.7,84,,,4.4,1.8,50000,346,6,4.4
2018,10,24,15:30,UTC,7,998.7,85,,,4.4,2,50000,335,7,4.4
2018,10,24,15:40,UTC,7,998.9,85,,,4.2,2,50000,336,6,4.2
2018,10,24,15:50,UTC,7,999,84,,,4,1.5,50000,328,6.6,4.8
2018,10,24,16:00,UTC,7,999.1,85,,,3.6,1.3,50000,338,7.3,5.6
2018,10,24,16:10,UTC,7,999.3,86,,,3.4,1.3,50000,338,6.4,4.1
2018,10,24,16:20,UTC,7,999.4,86,,,3.3,1.2,50000,335,5.3,3.9
2018,10,24,16:30,UTC,7,999.5,87,,,3,1,50000,332,5.2,4
2018,10,24,16:40,UTC,7,999.6,88,,,2.8,1,50000,332,5.1,3.6
2018,10,24,16:50,UTC,7,999.7,90,,,2.5,1,49904,328,3.9,2.9
2018,10,24,17:00,UTC,5,999.6,91,,,2.1,0.8,50000,334,4.3,3.3
2018,10,24,17:10,UTC,4,999.6,92,,,2,0.8,46471,335,4.5,3.4
2018,10,24,17:20,UTC,2,999.6,93,,,2,1,49167,331,5,3.5
2018,10,24,17:30,UTC,1,999.6,95,,,1.4,0.7,49576,339,4.1,2.9
2018,10,24,17:40,UTC,3,999.7,95,,,1.5,0.7,50000,330,3.6,2.8
2018,10,24,17:50,UTC,2,999.7,93,,,1.4,0.4,50000,325,3.7,2.8
2018,10,24,18:00,UTC,2,999.7,93,,,1.1,0.1,49970,329,4.1,3
2018,10,24,18:10,UTC,1,999.8,94,,,0.8,-0.1,50000,338,3.7,2.6
2018,10,24,18:20,UTC,2,999.9,93,,,1.1,0.1,50000,340,4.2,2.5
2018,10,24,18:30,UTC,2,999.9,93,,,1.3,0.3,50000,328,4.1,2.6
2018,10,24,18:40,UTC,4,1000,92,,,1.4,0.2,50000,331,4.1,2.6
2018,10,24,18:50,UTC,6,1000.1,88,,,2,0.2,50000,322,4.7,3.2
2018,10,24,19:00,UTC,6,1000.1,85,,,1.6,-0.6,50000,340,5.9,3.7
2018,10,24,19:10,UTC,3,1000.1,88,,,1.3,-0.5,50000,332,4.5,3
2018,10,24,19:20,UTC,1,1000.1,89,,,0.7,-0.8,50000,316,3.5,2.2
2018,10,24,19:30,UTC,0,1000.1,90,,,0.8,-0.6,50000,298,2.8,1.8
2018,10,24,19:40,UTC,0,1000.1,93,,,0.3,-0.6,50000,315,2.2,1.4
2018,10,24,19:50,UTC,3,1000,96,,,0.1,-0.4,47939,316,2.1,1.3
2018,10,24,20:00,UTC,6,1000,98,,,0,-0.3,49992,328,1.2,0.7
2018,10,24,20:10,UTC,5,999.9,98,,,-0.2,-0.4,49140,0,0,0
2018,10,24,20:20,UTC,3,999.9,100,,,-0.3,-0.3,43883,0,0,0
2018,10,24,20:30,UTC,1,999.8,100,,,-0.4,-0.4,15041,0,0,0
2018,10,24,20:40,UTC,0,999.7,100,,,-0.9,-0.9,6666,0,0,0
2018,10,24,20:50,UTC,0,999.6,100,,,-1.3,-1.3,4818,0,0,0
2018,10,24,21:00,UTC,0,999.6,100,,,-1.2,-1.2,4249,0,0,0
2018,10,24,21:10,UTC,0,999.5,100,,,-1.2,-1.2,1746,0,0,0
2018,10,24,21:20,UTC,0,999.3,100,,,-1.6,-1.7,2265,150,0.9,0.5
2018,10,24,21:30,UTC,0,999.1,100,,,-2,-2,512,0,0,0
2018,10,24,21:40,UTC,0,998.9,100,,,-2.4,-2.4,370,0,0,0
2018,10,24,21:50,UTC,0,998.8,100,,,-2.6,-2.6,656,0,0,0
2018,10,24,22:00,UTC,0,998.8,100,,,-3,-3,322,0,0,0
2018,10,24,22:10,UTC,0,998.6,100,,,-2.9,-2.9,201,0,0,0
2018,10,24,22:20,UTC,2,998.5,100,,,-2.6,-2.6,378,125,0.9,0.7
2018,10,24,22:30,UTC,1,998.5,100,,,-2.7,-2.7,409,0,0,0
2018,10,24,22:40,UTC,1,998.4,100,,,-2.7,-2.7,655,100,1,0.6
2018,10,24,22:50,UTC,0,998.3,100,,,-3.5,-3.5,841,171,0.7,0.5
2018,10,24,23:00,UTC,0,998.3,100,,,-3.2,-3.2,1873,0,0,0
2018,10,24,23:10,UTC,0,998.1,100,,,-3,-3,519,0,0,0
2018,10,24,23:20,UTC,0,998,100,,,-3.5,-3.5,296,0,0,0
2018,10,24,23:30,UTC,0,998,100,,,-3.1,-3.1,480,0,0,0
2018,10,24,23:40,UTC,0,997.9,100,,,-3.6,-3.6,682,127,0.9,0.5
2018,10,24,23:50,UTC,1,997.9,100,,,-3.9,-3.9,3481,108,0.9,0.7
2018,10,25,00:00,UTC,0,997.9,100,,,-4,-4,997,0,0,0
2018,10,25,00:10,UTC,0,997.9,100,,,-3.4,-3.4,286,0,0,0
2018,10,25,00:20,UTC,0,997.8,100,,,-3.2,-3.2,311,0,0,0
2018,10,25,00:30,UTC,0,997.7,100,,,-3.3,-3.3,30735,81,1,0.8
2018,10,25,00:40,UTC,0,997.6,100,,,-3.8,-3.8,21071,96,0.9,0.6
2018,10,25,00:50,UTC,1,997.5,100,,,-3.7,-3.7,19644,124,0.7,0.5
2018,10,25,01:00,UTC,2,997.4,100,,,-4.1,-4.1,16371,0,0,0
2018,10,25,01:10,UTC,1,997.2,100,,,-3.9,-4,9000,0,0,0
2018,10,25,01:20,UTC,2,997,100,,,-3.9,-3.9,625,0,0,0
2018,10,25,01:30,UTC,2,996.9,100,,,-3.9,-3.9,6633,92,1,0.7
2018,10,25,01:40,UTC,1,996.8,100,,,-4.5,-4.5,18948,0,0,0
2018,10,25,01:50,UTC,1,996.7,100,,,-4.1,-4.1,1395,0,0,0
2018,10,25,02:00,UTC,0,996.6,100,,,-4.5,-4.5,2006,0,0,0
2018,10,25,02:10,UTC,1,996.4,100,,,-4.2,-4.2,5895,89,0.9,0.5
2018,10,25,02:20,UTC,3,996.4,100,,,-4.5,-4.5,2892,0,0,0
2018,10,25,02:30,UTC,2,996.4,100,,,-4.3,-4.3,2307,0,0,0
2018,10,25,02:40,UTC,5,996.3,100,,,-3.9,-3.9,14912,0,0,0
2018,10,25,02:50,UTC,6,996.3,100,,,-4.2,-4.2,23656,0,0,0
2018,10,25,03:00,UTC,7,996.2,100,,,-4.1,-4.1,4234,0,0,0
2018,10,25,03:10,UTC,7,996.1,100,,,-3.6,-3.6,25876,0,0,0
2018,10,25,03:20,UTC,8,996,100,,,-3.5,-3.5,34833,0,0,0
2018,10,25,03:30,UTC,8,995.9,100,,,-3.6,-3.6,37297,0,0,0
2018,10,25,03:40,UTC,8,995.8,100,,,-3.4,-3.5,37187,0,0,0
2018,10,25,03:50,UTC,8,995.7,100,,,-3.2,-3.2,39469,0,0,0
2018,10,25,04:00,UTC,8,995.5,100,,,-2.9,-2.9,33316,0,0,0
2018,10,25,04:10,UTC,8,995.4,100,,,-2.7,-2.7,38935,116,0.9,0.7
2018,10,25,04:20,UTC,8,995.3,100,,,-2.6,-2.6,37395,114,1.5,1.1
2018,10,25,04:30,UTC,7,995.2,100,,,-2.6,-2.6,32840,92,1.2,0.6
2018,10,25,04:40,UTC,7,995.2,100,,,-2.6,-2.6,32243,326,1.5,0.8
2018,10,25,04:50,UTC,7,995.1,100,,,-2.3,-2.3,26748,7,1.3,0.6
2018,10,25,05:00,UTC,7,995,100,,,-2.1,-2.1,24280,104,1.2,0.7
2018,10,25,05:10,UTC,7,994.9,100,,,-1.9,-1.9,21595,0,0,0
2018,10,25,05:20,UTC,7,994.9,100,,,-2,-2,27662,132,1.2,0.8
2018,10,25,05:30,UTC,8,994.9,100,,,-2,-2,24456,0,0,0
2018,10,25,05:40,UTC,8,994.9,100,,,-2,-2,23018,318,1,0.8
2018,10,25,05:50,UTC,8,994.9,100,,,-1.5,-1.6,19081,5,1.3,0.6
2018,10,25,06:00,UTC,8,994.7,100,,,-1.4,-1.4,22652,0,0,0
2018,10,25,06:10,UTC,8,994.7,100,,,-1.3,-1.3,21025,0,0,0
2018,10,25,06:20,UTC,8,994.6,100,,,-1.2,-1.2,21046,0,0,0
2018,10,25,06:30,UTC,7,994.5,100,,,-1.1,-1.1,19137,10,1.3,0.7
2018,10,25,06:40,UTC,7,994.5,100,,,-0.8,-0.8,15983,350,1.1,0.6
2018,10,25,06:50,UTC,7,994.4,100,,,-0.7,-0.7,14120,12,1,0.5
2018,10,25,07:00,UTC,7,994.3,100,,,-0.5,-0.5,13734,0,0,0
2018,10,25,07:10,UTC,7,994.2,100,,,-0.3,-0.3,13473,0,0,0
2018,10,25,07:20,UTC,7,994.3,100,,,-0.1,-0.1,12113,0,0,0
2018,10,25,07:30,UTC,7,994.2,100,,,0,0,12520,338,1,0.6
2018,10,25,07:40,UTC,8,994.2,100,,,0.4,0.4,12475,326,1.3,0.9
2018,10,25,07:50,UTC,8,994.1,100,,,0.7,0.7,10753,0,0,0
2018,10,25,08:00,UTC,8,994.1,100,,,1,1,9738,0,0,0
2018,10,25,08:10,UTC,8,994.1,100,,,1.2,1.2,10682,0,0,0
2018,10,25,08:20,UTC,8,994.1,100,,,1.5,1.5,11635,330,1.1,0.7
2018,10,25,08:30,UTC,8,994,100,,,2.3,2.3,11796,0,0,0
2018,10,25,08:40,UTC,8,994,100,,,2.4,2.4,12585,55,1.2,0.6
2018,10,25,08:50,UTC,8,994,100,,,2.9,2.9,12120,49,1,0.5
2018,10,25,09:00,UTC,8,994,100,,,3.2,3.2,17060,341,1,0.6
2018,10,25,09:10,UTC,7,994,100,,,3.5,3.5,22405,0,0,0
2018,10,25,09:20,UTC,7,994,100,,,3.8,3.7,20855,188,1,0.5
2018,10,25,09:30,UTC,7,994,100,,,3.9,3.9,25437,111,1,0.6
2018,10,25,09:40,UTC,7,994,100,,,4.1,4.1,23950,82,1.5,0.8
2018,10,25,09:50,UTC,8,994,98,,,4.4,4.1,36217,98,1.1,0.6
2018,10,25,10:00,UTC,8,993.9,95,,,4.5,3.8,41018,0,0,0
2018,10,25,10:10,UTC,8,993.8,93,,,4.9,3.8,34931,0,0,0
2018,10,25,10:20,UTC,8,993.8,91,,,5.2,3.8,42535,0,0,0
2018,10,25,10:30,UTC,8,993.8,84,,,5.5,3.1,34192,0,0,0
2018,10,25,10:40,UTC,8,993.8,81,,,5.8,2.7,44111,0,0,0
2018,10,25,10:50,UTC,8,993.8,78,,,5.5,2.1,44147,281,1,0.5
2018,10,25,11:00,UTC,8,993.8,77,,,5.6,1.9,43115,286,1.4,0.9
2018,10,25,11:10,UTC,8,993.8,76,,,5.6,1.7,48651,245,0.9,0.5
2018,10,25,11:20,UTC,8,993.7,78,,,5.5,2,48782,273,1.4,0.6
2018,10,25,11:30,UTC,8,993.8,80,,,5.6,2.5,50000,0,0,0
2018,10,25,11:40,UTC,8,993.7,77,,,5.6,2,46244,318,1.3,0.6
2018,10,25,11:50,UTC,7,993.7,77,,,5.7,1.9,42975,356,1.3,0.7
2018,10,25,12:00,UTC,7,993.7,73,,,5.7,1.2,49215,307,0.8,0.5
2018,10,25,12:10,UTC,7,993.7,71,,,5.7,0.9,50000,262,1.2,0.6
2018,10,25,12:20,UTC,8,993.8,74,,,5.7,1.3,49962,277,1.7,1
2018,10,25,12:30,UTC,8,993.8,73,,,5.6,1.1,49145,270,2.6,1.6
2018,10,25,12:40,UTC,8,993.8,76,,,5.4,1.5,50000,288,2.4,1.7
2018,10,25,12:50,UTC,7,993.9,75,,,5.4,1.4,50000,287,1.7,1.2
2018,10,25,13:00,UTC,7,993.9,77,,,5.4,1.6,50000,295,1.6,1.2
2018,10,25,13:10,UTC,7,993.9,76,,,5.4,1.5,50000,305,2.5,1.2
2018,10,25,13:20,UTC,7,993.9,74,,,5.4,1.1,50000,328,2.4,1.3
2018,10,25,13:30,UTC,7,993.9,76,,,5.3,1.4,50000,339,2.8,1.1
2018,10,25,13:40,UTC,7,994,76,,,5.3,1.4,45410,334,1.5,0.7
2018,10,25,13:50,UTC,8,994,77,,,5.2,1.5,49887,309,1,0.7
2018,10,25,14:00,UTC,8,994,79,,,4.9,1.6,43879,354,1.3,0.7
2018,10,25,14:10,UTC,7,994.1,81,,,4.7,1.7,45957,3,1,0.7
2018,10,25,14:20,UTC,7,994.1,86,,,4.3,2.2,44874,7,0.8,0.5
2018,10,25,14:30,UTC,7,994.1,87,,,3.9,2,49947,98,1,0.8
2018,10,25,14:40,UTC,7,994.1,87,,,3.9,1.9,41886,96,1.3,0.5
2018,10,25,14:50,UTC,6,994.1,90,,,3.4,1.9,38290,0,0,0
2018,10,25,15:00,UTC,6,994.1,90,,,3.3,1.9,36725,0,0,0
2018,10,25,15:10,UTC,6,994.2,94,,,2.6,1.7,40231,28,1.1,0.5
2018,10,25,15:20,UTC,7,994.2,95,,,2.4,1.7,39697,0,0,0
2018,10,25,15:30,UTC,7,994.3,96,,,2.1,1.5,32503,298,1.1,0.7
2018,10,25,15:40,UTC,7,994.4,97,,,2.3,1.8,32445,25,1.4,0.9
2018,10,25,15:50,UTC,7,994.4,97,,,2,1.6,30772,0,0,0
2018,10,25,16:00,UTC,6,994.4,98,,,1.7,1.5,24616,0,0,0
2018,10,25,16:10,UTC,6,994.4,100,,,1.7,1.7,29245,99,1.3,0.8
2018,10,25,16:20,UTC,4,994.5,99,,,1.3,1.2,23389,0,0,0
2018,10,25,16:30,UTC,3,994.5,100,,,1.2,1.2,24883,0,0,0
2018,10,25,16:40,UTC,4,994.5,100,,,1.3,1.3,22741,0,0,0
2018,10,25,16:50,UTC,4,994.5,100,,,1,1,21537,0,0,0
2018,10,25,17:00,UTC,5,994.5,100,,,1.1,1.1,20808,0,0,0
2018,10,25,17:10,UTC,6,994.5,100,,,1,0.9,13704,142,0.7,0.6
2018,10,25,17:20,UTC,7,994.5,100,,,0.3,0.3,8043,99,0.8,0.6
2018,10,25,17:30,UTC,7,994.4,100,,,0.3,0.3,3203,0,0,0
2018,10,25,17:40,UTC,8,994.4,100,,,0.2,0.1,10783,0,0,0
2018,10,25,17:50,UTC,8,994.5,100,,,0.2,0.2,23302,0,0,0
2018,10,25,18:00,UTC,8,994.5,100,,,0.2,0.2,12347,0,0,0
2018,10,25,18:10,UTC,8,994.5,100,,,0.3,0.3,15972,0,0,0
2018,10,25,18:20,UTC,8,994.5,100,,,0.5,0.5,17582,0,0,0
2018,10,25,18:30,UTC,8,994.5,100,,,0.9,0.8,14419,93,0.9,0.5
2018,10,25,18:40,UTC,8,994.5,100,,,0.5,0.5,10967,0,0,0
2018,10,25,18:50,UTC,7,994.7,100,,,-0.1,-0.1,9669,308,0.9,0.5
2018,10,25,19:00,UTC,6,994.7,100,,,0.3,0.3,4473,0,0,0
2018,10,25,19:10,UTC,6,994.8,100,,,0.3,0.3,1459,0,0,0
2018,10,25,19:20,UTC,5,994.8,100,,,-0.1,-0.1,435,0,0,0
2018,10,25,19:30,UTC,4,994.8,100,,,-0.3,-0.3,1287,0,0,0
2018,10,25,19:40,UTC,5,994.8,100,,,0,0,426,116,0.8,0.6
2018,10,25,19:50,UTC,6,994.9,100,,,0.1,0.1,750,127,0.7,0.6
2018,10,25,20:00,UTC,7,994.9,100,,,-0.1,-0.2,2341,123,0.7,0.6
2018,10,25,20:10,UTC,8,994.9,100,,,-0.6,-0.6,11027,111,0.7,0.6
2018,10,25,20:20,UTC,8,995,100,,,-0.4,-0.5,7436,110,0.8,0.7
2018,10,25,20:30,UTC,8,995,100,,,-0.4,-0.4,14670,90,0.7,0.6
2018,10,25,20:40,UTC,8,995,100,,,-0.4,-0.4,7412,0,0,0
2018,10,25,20:50,UTC,8,995,100,,,-0.4,-0.4,9081,309,0.8,0.5
2018,10,25,21:00,UTC,7,995.1,100,,,0.2,0.2,8811,0,0,0
2018,10,25,21:10,UTC,7,995.1,100,,,0.2,0.2,7330,0,0,0
2018,10,25,21:20,UTC,7,995.1,100,,,0.1,0.1,5879,0,0,0
2018,10,25,21:30,UTC,7,995,100,,,-0.2,-0.2,6424,30,0.9,0.5
2018,10,25,21:40,UTC,7,995.1,100,,,0,0,5714,54,0.8,0.6
2018,10,25,21:50,UTC,4,995.1,100,,,-0.2,-0.2,1206,0,0,0
2018,10,25,22:00,UTC,2,995.1,100,,,-0.8,-0.8,362,0,0,0
2018,10,25,22:10,UTC,2,995.2,100,,,-0.8,-0.8,181,0,0,0
2018,10,25,22:20,UTC,5,995.1,100,,,-0.6,-0.6,327,0,0,0
2018,10,25,22:30,UTC,6,995.2,100,,,-0.6,-0.6,564,0,0,0
2018,10,25,22:40,UTC,7,995.2,100,,,-0.6,-0.6,991,0,0,0
2018,10,25,22:50,UTC,7,995.2,100,,,-0.7,-0.7,3220,0,0,0
2018,10,25,23:00,UTC,8,995.2,100,,,-0.8,-0.8,1633,0,0,0
2018,10,25,23:10,UTC,8,995.3,100,,,-0.7,-0.7,1839,0,0,0
2018,10,25,23:20,UTC,8,995.2,100,,,-0.5,-0.5,1584,0,0,0
2018,10,25,23:30,UTC,8,995.3,100,,,0,-0.1,3009,0,0,0
2018,10,25,23:40,UTC,8,995.2,100,,,-0.3,-0.3,3562,0,0,0
2018,10,25,23:50,UTC,8,995.3,100,,,-0.1,-0.2,1963,326,1.4,0.8
2018,10,26,00:00,UTC,8,995.2,100,,,0.4,0.4,1575,322,2,1.2
2018,10,26,00:10,UTC,8,995.2,100,,,0.5,0.5,5440,314,1.3,0.9
2018,10,26,00:20,UTC,8,995.3,100,,,0.7,0.7,5090,272,1.3,0.7
2018,10,26,00:30,UTC,8,995.2,100,,,0.9,0.8,4312,246,1,0.7
2018,10,26,00:40,UTC,8,995.2,100,,,1,1,8242,0,0,0
2018,10,26,00:50,UTC,8,995.2,100,,,1.1,1.1,10985,0,0,0
2018,10,26,01:00,UTC,8,995.3,100,,,1,1,7141,294,0.9,0.6
2018,10,26,01:10,UTC,8,995.3,100,,,1.1,1.1,8085,0,0,0
2018,10,26,01:20,UTC,8,995.3,100,,,1.1,1,6655,0,0,0
2018,10,26,01:30,UTC,8,995.3,100,,,1.1,1.1,7874,0,0,0
2018,10,26,01:40,UTC,8,995.4,100,,,1.1,1.1,6647,0,0,0
2018,10,26,01:50,UTC,8,995.5,100,,,1.2,1.1,9002,0,0,0
2018,10,26,02:00,UTC,8,995.5,100,,,1.3,1.3,10389,0,0,0
2018,10,26,02:10,UTC,8,995.6,100,,,1.3,1.3,9711,0,0,0
2018,10,26,02:20,UTC,8,995.6,100,,,1.1,1.1,9474,0,0,0
2018,10,26,02:30,UTC,8,995.6,100,,,1,1,5391,343,0.8,0.6
2018,10,26,02:40,UTC,8,995.7,100,,,0.7,0.7,4249,337,2,1.2
2018,10,26,02:50,UTC,8,995.8,100,,,1.3,1.3,7464,324,2.8,2.1
2018,10,26,03:00,UTC,8,995.8,100,,,1.4,1.4,5558,323,2.8,1.9
2018,10,26,03:10,UTC,8,995.9,100,,,1.4,1.4,6436,335,2.7,2
2018,10,26,03:20,UTC,8,995.9,100,,,1.7,1.7,8650,330,3.1,2
2018,10,26,03:30,UTC,8,996,100,,,1.6,1.6,13931,328,2.8,1.9
2018,10,26,03:40,UTC,8,996,100,,,1.7,1.7,23833,333,3,2
2018,10,26,03:50,UTC,8,996.1,100,,,1.8,1.7,33137,319,2.8,2
2018,10,26,04:00,UTC,8,996.1,100,,,1.8,1.8,18309,312,2.7,1.8
2018,10,26,04:10,UTC,8,996.1,100,,,1.8,1.8,11267,305,2.5,1.9
2018,10,26,04:20,UTC,8,996.2,100,,,1.8,1.8,14271,305,3.4,2.3
2018,10,26,04:30,UTC,8,996.2,100,,,1.8,1.8,5082,296,2.8,1.9
2018,10,26,04:40,UTC,8,996.2,100,,,1.7,1.7,6959,294,3.2,1.9
2018,10,26,04:50,UTC,8,996.3,100,,,1.7,1.7,12561,304,1.9,1.3
2018,10,26,05:00,UTC,8,996.4,100,,,1.7,1.7,8903,307,2.1,1.3
2018,10,26,05:10,UTC,8,996.5,100,,,1.7,1.7,8095,307,2.4,1.3
2018,10,26,05:20,UTC,8,996.6,100,,,1.7,1.7,11673,310,2.8,1.8
2018,10,26,05:30,UTC,8,996.6,100,,,1.7,1.7,8450,309,3.4,2.3
2018,10,26,05:40,UTC,8,996.7,100,,,1.7,1.7,8044,306,3.3,2.1
2018,10,26,05:50,UTC,8,996.8,100,,,1.6,1.6,6356,316,3.3,2.2
2018,10,26,06:00,UTC,8,996.9,100,,,1.6,1.6,13444,312,3,2.2
2018,10,26,06:10,UTC,8,997,100,,,1.6,1.6,8089,322,3,2.1
2018,10,26,06:20,UTC,8,997.1,100,,,1.6,1.6,8061,316,2.4,1.7
2018,10,26,06:30,UTC,8,997.1,100,,,1.7,1.7,16132,319,2.7,1.8
2018,10,26,06:40,UTC,8,997.2,100,,,1.9,1.9,9555,314,2.5,1.7
2018,10,26,06:50,UTC,8,997.2,100,,,1.9,1.9,11200,305,3.5,2.3
2018,10,26,07:00,UTC,8,997.3,100,,,1.8,1.8,8865,306,3.8,2.7
2018,10,26,07:10,UTC,8,997.4,100,,,1.8,1.7,9609,310,3.9,2.6
2018,10,26,07:20,UTC,8,997.4,99,,,1.8,1.7,7862,317,4.2,3
2018,10,26,07:30,UTC,8,997.4,99,,,1.9,1.8,18501,322,4.4,2.9
2018,10,26,07:40,UTC,8,997.5,98,,,2,1.7,28700,326,5.2,3.8
2018,10,26,07:50,UTC,8,997.6,99,,,2.2,2,20932,328,4.5,3.1
2018,10,26,08:00,UTC,8,997.7,98,,,2.1,1.9,21442,334,4.4,3.1
2018,10,26,08:10,UTC,8,997.8,98,,,2.3,2,30335,335,4.2,3
2018,10,26,08:20,UTC,8,997.8,98,,,2.3,2.1,36057,332,3.9,2.9
2018,10,26,08:30,UTC,8,997.9,98,,,2.4,2.1,13708,341,4,2.9
2018,10,26,08:40,UTC,8,998,98,,,2.5,2.1,23846,328,4.3,2.8
2018,10,26,08:50,UTC,8,998.2,97,,,2.6,2.2,23524,328,4,3.1
2018,10,26,09:00,UTC,8,998.2,96,,,2.7,2.2,29732,336,4.4,3.1
2018,10,26,09:10,UTC,8,998.3,96,,,2.8,2.2,44616,336,4.6,3.4
2018,10,26,09:20,UTC,8,998.3,96,,,2.9,2.3,42915,342,4.3,3.4
2018,10,26,09:30,UTC,8,998.4,96,,,2.8,2.3,15012,353,4.4,3.2
2018,10,26,09:40,UTC,8,998.5,97,,,2.9,2.5,21948,360,4,2.4
2018,10,26,09:50,UTC,8,998.6,95,,,3,2.3,40796,352,4.7,2.9
2018,10,26,10:00,UTC,8,998.6,95,,,3.2,2.4,50000,358,5.2,3.5
2018,10,26,10:10,UTC,8,998.7,94,,,3,2.1,44412,355,5.7,3.7
2018,10,26,10:20,UTC,8,998.8,95,,,2.8,2,44761,12,4.9,2.8
2018,10,26,10:30,UTC,8,998.9,92,,,2.8,1.6,50000,359,4.6,3.1
2018,10,26,10:40,UTC,8,999,94,,,2.9,1.9,49752,1,4.9,2.7
2018,10,26,10:50,UTC,8,999.1,93,,,2.7,1.7,45112,13,4.4,2.4
2018,10,26,11:00,UTC,8,999.2,93,,,2.8,1.7,42427,1,3.5,2.1
2018,10,26,11:10,UTC,8,999.3,95,,,2.7,1.9,34680,1,3.3,2
2018,10,26,11:20,UTC,8,999.4,95,,,2.5,1.8,20745,12,3.3,1.8
2018,10,26,11:30,UTC,8,999.4,97,,,2.6,2.1,19836,2,2.7,1.9
2018,10,26,11:40,UTC,8,999.5,97,,,2.5,2,21902,1,3.8,2.5
2018,10,26,11:50,UTC,8,999.6,97,,,2.4,1.9,27474,357,4,2.8
2018,10,26,12:00,UTC,8,999.7,97,,,2.3,1.8,25995,1,4.1,2.5
2018,10,26,12:10,UTC,8,999.8,97,,,2.4,2,30636,360,3.3,1.9
2018,10,26,12:20,UTC,8,999.9,97,,,2.4,1.9,37512,8,3.2,1.6
2018,10,26,12:30,UTC,8,1000,97,,,2.3,1.8,34323,356,3.3,2
2018,10,26,12:40,UTC,8,1000,97,,,2.4,2,26281,5,2.6,1.4
2018,10,26,12:50,UTC,8,1000.1,97,,,2.4,1.9,25994,4,2.9,1.6
2018,10,26,13:00,UTC,8,1000.2,97,,,2.4,2,18810,350,3.1,2.1
2018,10,26,13:10,UTC,8,1000.3,98,,,2.1,1.8,19336,336,2.7,2.1
2018,10,26,13:20,UTC,8,1000.4,99,,,2,1.9,17371,329,3.7,2.7
2018,10,26,13:30,UTC,8,1000.5,99,,,2,1.9,18292,344,3.7,3
2018,10,26,13:40,UTC,8,1000.6,99,,,2.1,1.9,18772,359,3.6,2.3
2018,10,26,13:50,UTC,8,1000.7,99,,,2.1,1.9,22578,5,3,1.8
2018,10,26,14:00,UTC,8,1000.7,98,,,2.1,1.8,26506,359,3,1.9
2018,10,26,14:10,UTC,8,1000.8,98,,,2,1.7,26773,354,2.9,1.9
2018,10,26,14:20,UTC,8,1000.9,97,,,2,1.6,23211,350,3,2
2018,10,26,14:30,UTC,8,1001,96,,,2,1.4,34076,354,2.9,1.9
2018,10,26,14:40,UTC,8,1001,93,,,2,1,48997,357,2.6,1.6
2018,10,26,14:50,UTC,8,1001.1,90,,,2,0.5,50000,11,2.6,1.4
2018,10,26,15:00,UTC,8,1001.2,87,,,2,0,50000,44,2.2,1
2018,10,26,15:10,UTC,8,1001.3,87,,,2,0.1,50000,9,1.8,0.9
2018,10,26,15:20,UTC,8,1001.5,89,,,1.8,0.2,50000,52,1.9,0.7
2018,10,26,15:30,UTC,8,1001.6,91,,,1.7,0.4,50000,4,1.5,0.9
2018,10,26,15:40,UTC,8,1001.7,92,,,1.5,0.3,42584,355,2.3,1.6
2018,10,26,15:50,UTC,8,1001.8,92,,,1.7,0.5,46634,359,2.4,1.5
2018,10,26,16:00,UTC,8,1001.8,93,,,1.8,0.7,45949,8,2.5,1.6
2018,10,26,16:10,UTC,8,1001.9,95,,,1.8,1,40977,357,3,2.1
2018,10,26,16:20,UTC,8,1002,95,,,1.8,1.1,33944,6,3.1,1.8
2018,10,26,16:30,UTC,8,1002,95,,,1.8,1,35374,11,2.8,1.4
2018,10,26,16:40,UTC,8,1002,95,,,1.7,0.9,37090,8,2.4,1.3
2018,10,26,16:50,UTC,8,1002.1,95,,,1.7,0.9,37132,4,2.1,1.2
2018,10,26,17:00,UTC,8,1002.2,94,,,1.5,0.7,34748,351,2.3,1.1
2018,10,26,17:10,UTC,8,1002.3,96,,,1.3,0.7,37328,328,2.5,1.3
2018,10,26,17:20,UTC,8,1002.4,93,,,1.4,0.4,38226,355,2.8,1.5
2018,10,26,17:30,UTC,8,1002.4,90,,,1.5,0,44029,360,2.9,1.9
2018,10,26,17:40,UTC,7,1002.4,88,,,1.4,-0.3,44274,5,2.9,1.7
2018,10,26,17:50,UTC,6,1002.5,89,,,1.2,-0.5,47963,4,2.8,1.2
2018,10,26,18:00,UTC,5,1002.6,89,,,1,-0.5,49229,359,2.4,1.5
2018,10,26,18:10,UTC,7,1002.6,94,,,0.6,-0.3,36185,350,2.9,2.4
2018,10,26,18:20,UTC,7,1002.6,95,,,0.5,-0.1,33526,351,3.1,2.5
2018,10,26,18:30,UTC,8,1002.7,95,,,0.6,0,30257,355,3.2,2.3
2018,10,26,18:40,UTC,8,1002.9,95,,,0.6,-0.1,33606,356,2.9,2
2018,10,26,18:50,UTC,7,1003,95,,,0.6,-0.1,32712,360,3.4,1.9
2018,10,26,19:00,UTC,7,1003.1,95,,,0.5,-0.2,33219,1,2.9,1.8
2018,10,26,19:10,UTC,7,1003.2,95,,,0.5,-0.2,29291,5,2.8,1.4
2018,10,26,19:20,UTC,8,1003.3,96,,,0.3,-0.3,28615,360,2.2,1.5
2018,10,26,19:30,UTC,8,1003.3,97,,,0.3,-0.2,26933,359,2.4,1.5
2018,10,26,19:40,UTC,8,1003.3,97,,,0.4,-0.1,28653,359,2.8,1.7
2018,10,26,19:50,UTC,8,1003.3,96,,,0.3,-0.2,27386,358,2.6,1.5
2018,10,26,20:00,UTC,8,1003.3,96,,,0.2,-0.3,25094,358,2.5,1.4
2018,10,26,20:10,UTC,8,1003.4,96,,,0,-0.5,27048,354,2.7,1.7
2018,10,26,20:20,UTC,8,1003.5,96,,,0.1,-0.4,29841,353,2.5,1.6
2018,10,26,20:30,UTC,7,1003.5,96,,,-0.1,-0.6,24679,351,2.7,1.7
2018,10,26,20:40,UTC,7,1003.5,97,,,0,-0.4,27654,4,2.5,1.3
2018,10,26,20:50,UTC,7,1003.6,97,,,0.1,-0.4,26740,360,2.1,1.2
2018,10,26,21:00,UTC,7,1003.7,97,,,0.1,-0.4,28911,2,1.7,1
2018,10,26,21:10,UTC,7,1003.7,97,,,-0.1,-0.5,26665,354,1.4,0.8
2018,10,26,21:20,UTC,7,1003.7,96,,,0.2,-0.3,31137,360,2.6,1.3
2018,10,26,21:30,UTC,8,1003.7,95,,,0.6,-0.2,36430,1,2.8,1.5
2018,10,26,21:40,UTC,8,1003.7,94,,,0.6,-0.3,36189,360,2.9,1.5
2018,10,26,21:50,UTC,8,1003.7,93,,,0.7,-0.3,42539,7,3,1.5
2018,10,26,22:00,UTC,8,1003.7,92,,,0.8,-0.3,37720,10,3,1.6
2018,10,26,22:10,UTC,8,1003.7,92,,,0.7,-0.4,43227,6,3.9,1.6
2018,10,26,22:20,UTC,8,1003.8,92,,,0.7,-0.5,39418,4,2.9,1.4
2018,10,26,22:30,UTC,8,1003.9,93,,,0.7,-0.4,45580,2,2.8,1
2018,10,26,22:40,UTC,8,1003.9,92,,,0.8,-0.3,43159,2,2.2,1.3
2018,10,26,22:50,UTC,8,1003.8,93,,,0.7,-0.4,42911,9,3.8,2
2018,10,26,23:00,UTC,7,1003.8,93,,,0.6,-0.4,39765,6,2.9,1.6
2018,10,26,23:10,UTC,7,1003.8,93,,,0.5,-0.5,44424,16,4.1,1.5
2018,10,26,23:20,UTC,7,1003.8,93,,,0.6,-0.4,44507,34,3.6,1.5
2018,10,26,23:30,UTC,7,1003.7,91,,,0.8,-0.6,45322,50,5.4,2.8
2018,10,26,23:40,UTC,7,1003.5,89,,,0.8,-0.7,49883,56,7.6,3.9
2018,10,26,23:50,UTC,3,1003.5,88,,,0.8,-0.9,46831,59,6.2,4
2018,10,27,00:00,UTC,1,1003.6,88,,,0.7,-1,46156,57,6.3,3
2018,10,27,00:10,UTC,0,1003.6,88,,,0.6,-1.2,50000,57,6.4,3.2
2018,10,27,00:20,UTC,0,1003.6,87,,,0.5,-1.5,44854,61,5.2,3.1
2018,10,27,00:30,UTC,0,1003.7,85,,,0.6,-1.7,50000,66,6.8,3.4
2018,10,27,00:40,UTC,2,1003.6,85,,,0.5,-1.8,50000,60,7.6,3.3
2018,10,27,00:50,UTC,5,1003.8,83,,,0.5,-2,50000,59,5.8,3.3
2018,10,27,01:00,UTC,7,1003.9,84,,,0.4,-1.9,50000,61,5.2,2.9
2018,10,27,01:10,UTC,7,1003.8,85,,,0.4,-1.8,47495,69,5.3,2.9
2018,10,27,01:20,UTC,5,1003.9,86,,,0.4,-1.7,50000,67,5.6,2.9
2018,10,27,01:30,UTC,6,1003.8,87,,,0.3,-1.6,46247,61,6,3.2
2018,10,27,01:40,UTC,4,1003.8,87,,,0.2,-1.7,50000,60,5.9,2.9
2018,10,27,01:50,UTC,4,1003.8,88,,,0.3,-1.5,50000,59,5.8,3.3
2018,10,27,02:00,UTC,5,1003.8,88,,,0.2,-1.6,50000,56,5.6,3.2
2018,10,27,02:10,UTC,7,1003.8,87,,,0.3,-1.6,50000,57,6.1,3.2
2018,10,27,02:20,UTC,7,1003.8,87,,,0.3,-1.6,50000,57,5.9,3
2018,10,27,02:30,UTC,7,1003.8,86,,,0.3,-1.7,50000,58,5.4,3
2018,10,27,02:40,UTC,7,1003.9,87,,,0.3,-1.6,50000,61,5.8,3.2
2018,10,27,02:50,UTC,7,1003.9,87,,,0.2,-1.6,50000,58,5.3,3
2018,10,27,03:00,UTC,7,1003.9,86,,,0.2,-1.8,50000,58,4.7,2.6
2018,10,27,03:10,UTC,7,1003.8,84,,,0.3,-2.1,50000,60,5.5,2.7
2018,10,27,03:20,UTC,8,1003.9,82,,,0.4,-2.3,50000,58,6.3,3.2
2018,10,27,03:30,UTC,6,1004.1,82,,,0.4,-2.4,50000,54,6.6,3.3
2018,10,27,03:40,UTC,3,1003.9,83,,,0.2,-2.4,50000,53,5,2.8
2018,10,27,03:50,UTC,1,1004,84,,,0.1,-2.3,50000,54,6.4,3.1
2018,10,27,04:00,UTC,0,1004,83,,,0.1,-2.4,50000,62,6.6,3.5
2018,10,27,04:10,UTC,0,1004.1,84,,,0,-2.3,50000,62,5.8,2.9
2018,10,27,04:20,UTC,1,1003.9,85,,,0,-2.2,50000,52,5.9,2.8
2018,10,27,04:30,UTC,1,1004,86,,,-0.1,-2.2,50000,52,5.8,2.9
2018,10,27,04:40,UTC,1,1004.1,86,,,-0.2,-2.2,50000,61,5.3,2.8
2018,10,27,04:50,UTC,0,1003.9,86,,,-0.2,-2.2,50000,51,5.5,3.1
2018,10,27,05:00,UTC,0,1004,86,,,-0.2,-2.3,50000,51,5,2.9
2018,10,27,05:10,UTC,0,1003.8,84,,,-0.1,-2.6,50000,49,7.1,3.2
2018,10,27,05:20,UTC,0,1003.9,82,,,0,-2.7,50000,55,7.8,3.7
2018,10,27,05:30,UTC,0,1004,83,,,-0.1,-2.7,50000,58,6.1,3.2
2018,10,27,05:40,UTC,0,1004,82,,,-0.1,-2.8,50000,52,5.3,2.9
2018,10,27,05:50,UTC,0,1003.9,82,,,-0.3,-2.9,50000,49,5.9,2.5
2018,10,27,06:00,UTC,1,1003.9,81,,,-0.1,-3,50000,53,6.4,2.9
2018,10,27,06:10,UTC,4,1004,80,,,-0.1,-3.2,50000,55,6.4,2.7
2018,10,27,06:20,UTC,6,1003.9,78,,,0,-3.4,50000,44,6.6,3.2
2018,10,27,06:30,UTC,7,1003.9,76,,,0.2,-3.6,50000,49,7.3,3.5
2018,10,27,06:40,UTC,7,1003.9,75,,,0.2,-3.6,50000,51,6.8,3.5
2018,10,27,06:50,UTC,7,1004,74,,,0.3,-3.7,50000,53,8.3,4
2018,10,27,07:00,UTC,7,1003.9,73,,,0.4,-3.8,50000,53,8.4,4.1
2018,10,27,07:10,UTC,7,1003.9,73,,,0.4,-3.8,50000,49,7.5,3.6
2018,10,27,07:20,UTC,7,1003.9,72,,,0.5,-3.9,50000,51,10.1,4.3
2018,10,27,07:30,UTC,7,1003.8,73,,,0.5,-3.8,50000,53,7.5,3.8
2018,10,27,07:40,UTC,7,1003.8,72,,,0.6,-3.9,50000,49,7.1,4
2018,10,27,07:50,UTC,7,1003.8,72,,,0.7,-3.7,50000,52,8.4,3.8
2018,10,27,08:00,UTC,8,1003.5,70,,,0.9,-3.9,50000,49,7.4,3.9
2018,10,27,08:10,UTC,7,1003.5,69,,,1,-4.1,50000,48,10.1,4.3
2018,10,27,08:20,UTC,7,1003.5,67,,,1.1,-4.3,50000,50,8.5,4.1
2018,10,27,08:30,UTC,7,1003.6,67,,,1.2,-4.3,50000,50,8.4,4.3
2018,10,27,08:40,UTC,7,1003.7,65,,,1.2,-4.5,50000,52,8,4.2
2018,10,27,08:50,UTC,7,1003.4,65,,,1.3,-4.5,50000,50,9.7,4.3
2018,10,27,09:00,UTC,7,1003.5,67,,,1.3,-4.2,50000,45,9.2,4.7
2018,10,27,09:10,UTC,7,1003.2,66,,,1.4,-4.2,50000,47,8.3,4
2018,10,27,09:20,UTC,7,1003.3,67,,,1.5,-4.1,50000,49,6.5,3.5
2018,10,27,09:30,UTC,7,1003.4,65,,,1.6,-4.3,50000,48,8.5,4.3
2018,10,27,09:40,UTC,7,1003.4,65,,,1.6,-4.3,50000,53,9,4.5
2018,10,27,09:50,UTC,8,1003.3,65,,,1.6,-4.3,50000,52,8.7,4.7
2018,10,27,10:00,UTC,7,1003.2,67,,,1.5,-3.8,50000,45,7,3.6
2018,10,27,10:10,UTC,7,1003.1,68,,,1.5,-3.8,50000,43,9.1,4.4
2018,10,27,10:20,UTC,7,1003.1,69,,,1.4,-3.6,50000,39,9.6,3.4
2018,10,27,10:30,UTC,7,1003.3,69,,,1.4,-3.6,50000,47,9,4.3
2018,10,27,10:40,UTC,7,1003.2,69,,,1.5,-3.7,50000,44,9.3,4.2
2018,10,27,10:50,UTC,7,1003.2,68,,,1.5,-3.7,48841,44,8.5,4.6
2018,10,27,11:00,UTC,7,1003,67,,,1.6,-3.9,50000,52,9.8,4
2018,10,27,11:10,UTC,7,1002.8,67,,,1.6,-3.9,50000,39,10.5,4.7
2018,10,27,11:20,UTC,7,1002.8,67,,,1.6,-3.8,50000,47,9.8,4.7
2018,10,27,11:30,UTC,7,1003,68,,,1.6,-3.7,50000,49,10.7,4.4
2018,10,27,11:40,UTC,7,1002.9,68,,,1.7,-3.5,50000,49,10.5,4.9
2018,10,27,11:50,UTC,7,1003,70,,,1.6,-3.3,50000,49,9.9,4.7
2018,10,27,12:00,UTC,7,1002.9,69,,,1.7,-3.4,50000,37,10.4,4.3
2018,10,27,12:10,UTC,8,1002.9,69,,,1.7,-3.3,50000,40,10.6,4.6
2018,10,27,12:20,UTC,8,1002.7,69,,,1.7,-3.3,50000,40,9.5,4.4
2018,10,27,12:30,UTC,7,1002.7,69,,,1.8,-3.2,46408,41,10.1,4.2
2018,10,27,12:40,UTC,7,1002.6,69,,,1.8,-3.3,50000,40,10.8,4.5
2018,10,27,12:50,UTC,7,1002.6,69,,,1.8,-3.3,50000,41,11,4.6
2018,10,27,13:00,UTC,7,1002.3,68,,,1.9,-3.5,50000,37,8.9,4.3
2018,10,27,13:10,UTC,7,1002.4,67,,,1.8,-3.6,50000,34,10.3,4.3
2018,10,27,13:20,UTC,7,1002.4,65,,,1.9,-3.9,50000,36,11,4.5
2018,10,27,13:30,UTC,8,1002.5,65,,,1.9,-4.1,50000,35,11.1,5
2018,10,27,13:40,UTC,7,1002.5,64,,,1.9,-4.2,50000,30,12.3,5.2
2018,10,27,13:50,UTC,7,1002.6,64,,,1.8,-4.3,50000,31,7.7,3.9
2018,10,27,14:00,UTC,7,1002.6,63,,,1.9,-4.4,50000,37,9.7,4.8
2018,10,27,14:10,UTC,7,1002.6,63,,,1.9,-4.5,50000,31,11.1,4.9
2018,10,27,14:20,UTC,8,1002.7,63,,,1.8,-4.4,50000,29,8.7,4.1
2018,10,27,14:30,UTC,7,1002.7,63,,,1.9,-4.4,50000,33,10.6,5.1
2018,10,27,14:40,UTC,7,1002.7,63,,,1.9,-4.5,50000,24,9.9,4.7
2018,10,27,14:50,UTC,7,1002.8,64,,,1.8,-4.3,50000,28,9.3,5.1
2018,10,27,15:00,UTC,7,1002.8,64,,,1.8,-4.3,50000,23,9.9,4.8
2018,10,27,15:10,UTC,8,1002.9,64,,,1.8,-4.3,50000,26,10.6,5
2018,10,27,15:20,UTC,8,1003,65,,,1.8,-4.1,50000,27,9.9,4.4
2018,10,27,15:30,UTC,8,1003.1,65,,,1.8,-4,50000,27,9.8,4.7
2018,10,27,15:40,UTC,8,1003.2,66,,,1.7,-4,48931,24,8.8,4.6
2018,10,27,15:50,UTC,8,1003.3,66,,,1.7,-3.9,42864,21,8.9,4.4
2018,10,27,16:00,UTC,8,1003.4,67,,,1.7,-3.9,49405,22,10.2,4.9
2018,10,27,16:10,UTC,8,1003.5,67,,,1.7,-3.9,46646,26,10.6,5
2018,10,27,16:20,UTC,8,1003.6,67,,,1.6,-3.8,50000,28,10,4.4
2018,10,27,16:30,UTC,8,1003.6,68,,,1.6,-3.7,50000,29,10.7,4.5
2018,10,27,16:40,UTC,8,1003.7,68,,,1.6,-3.7,50000,32,7.2,3.7
2018,10,27,16:50,UTC,8,1003.7,69,,,1.5,-3.6,50000,25,8.9,3.6
2018,10,27,17:00,UTC,8,1003.8,69,,,1.5,-3.5,50000,29,9.7,4.3
2018,10,27,17:10,UTC,8,1003.9,69,,,1.5,-3.5,50000,22,11.5,4.8
2018,10,27,17:20,UTC,8,1004,70,,,1.4,-3.5,50000,21,8.8,3.7
2018,10,27,17:30,UTC,8,1004,69,,,1.4,-3.6,50000,21,9.4,4.2
2018,10,27,17:40,UTC,8,1004,69,,,1.4,-3.7,50000,24,9.4,4.3
2018,10,27,17:50,UTC,8,1004.1,68,,,1.3,-3.8,50000,22,11.4,4.8
2018,10,27,18:00,UTC,8,1004.2,69,,,1.3,-3.9,50000,16,9.9,4.5
2018,10,27,18:10,UTC,8,1004.3,69,,,1.3,-3.9,50000,16,8.9,4.1
2018,10,27,18:20,UTC,8,1004.4,68,,,1.2,-4,50000,18,11.4,4.9
2018,10,27,18:30,UTC,8,1004.5,68,,,1.2,-4.1,50000,13,10.3,4.7
2018,10,27,18:40,UTC,8,1004.6,68,,,1.2,-4.1,50000,13,9.3,4.4
2018,10,27,18:50,UTC,8,1004.6,68,,,1.1,-4.1,50000,11,8.6,4.5
2018,10,27,19:00,UTC,8,1004.8,67,,,1.1,-4.3,50000,15,7.7,4.2
2018,10,27,19:10,UTC,8,1004.8,66,,,1.2,-4.3,48830,13,10.3,4.9
2018,10,27,19:20,UTC,8,1004.8,67,,,1.1,-4.4,46412,9,9,4.9
2018,10,27,19:30,UTC,8,1004.9,67,,,1.1,-4.3,48470,15,9.4,5.1
2018,10,27,19:40,UTC,8,1005,67,,,1.2,-4.3,50000,10,10.2,4.9
2018,10,27,19:50,UTC,8,1005.1,67,,,1.2,-4.2,50000,11,9.8,4.7
2018,10,27,20:00,UTC,8,1005.3,67,,,1.2,-4.2,50000,10,7.2,4.1
2018,10,27,20:10,UTC,8,1005.3,70,,,1.1,-3.9,50000,5,8.5,5.2
2018,10,27,20:20,UTC,8,1005.4,72,,,1,-3.5,50000,7,8.5,5
2018,10,27,20:30,UTC,8,1005.5,74,,,0.9,-3.1,50000,5,9.5,5
2018,10,27,20:40,UTC,6,1005.7,75,,,1,-3,50000,6,10.4,5.3
2018,10,27,20:50,UTC,6,1005.8,75,,,1,-2.9,50000,8,9.4,5.5
2018,10,27,21:00,UTC,6,1006,75,,,1,-2.9,49425,8,9.4,4.9
2018,10,27,21:10,UTC,7,1006.1,75,,,0.9,-2.9,49549,6,8,4.7
2018,10,27,21:20,UTC,7,1006.1,75,,,0.9,-3.1,50000,7,8.8,4.4
2018,10,27,21:30,UTC,7,1006.3,74,,,1,-3.2,50000,7,10.9,6
2018,10,27,21:40,UTC,7,1006.6,74,,,0.9,-3.2,50000,9,9.5,4.8
2018,10,27,21:50,UTC,7,1006.8,74,,,0.9,-3.2,50000,7,11,5.7
2018,10,27,22:00,UTC,7,1006.9,74,,,0.9,-3.3,50000,8,10.9,5.8
2018,10,27,22:10,UTC,7,1007.1,74,,,0.8,-3.4,50000,6,13.2,5.4
2018,10,27,22:20,UTC,6,1007.2,73,,,0.9,-3.5,50000,5,10.1,5.6
2018,10,27,22:30,UTC,3,1007.4,73,,,0.7,-3.6,50000,9,9.3,5
2018,10,27,22:40,UTC,1,1007.6,73,,,0.6,-3.8,50000,9,9.3,4.5
2018,10,27,22:50,UTC,1,1007.8,71,,,0.6,-4,50000,4,9,5.2
2018,10,27,23:00,UTC,3,1008,71,,,0.6,-4.1,50000,4,9,5.1
2018,10,27,23:10,UTC,6,1008.2,70,,,0.6,-4.1,50000,5,9.6,4.9
2018,10,27,23:20,UTC,7,1008.4,70,,,0.5,-4.2,50000,3,9.4,5.1
2018,10,27,23:30,UTC,8,1008.6,70,,,0.6,-4.3,50000,1,9.3,5.5
2018,10,27,23:40,UTC,8,1008.8,70,,,0.4,-4.4,50000,358,9,5.3
2018,10,27,23:50,UTC,8,1009.1,70,,,0.5,-4.4,50000,1,10.2,5.3
2018,10,28,00:00,UTC,8,1009.3,70,,,0.4,-4.4,50000,2,9.4,5.1
2018,10,28,00:10,UTC,6,1009.6,70,,,0.3,-4.5,50000,2,8.2,4.7
2018,10,28,00:20,UTC,3,1009.8,70,,,0.3,-4.5,50000,4,9.7,5.3
2018,10,28,00:30,UTC,1,1009.9,70,,,0.1,-4.6,50000,1,9.6,5.3
2018,10,28,00:40,UTC,0,1010.1,71,,,0.1,-4.6,50000,2,10.7,5.8
2018,10,28,00:50,UTC,0,1010.4,70,,,0.2,-4.7,50000,360,8.4,5.2
2018,10,28,01:00,UTC,1,1010.5,70,,,0.1,-4.6,50000,1,9.4,5.1
2018,10,28,01:10,UTC,4,1010.7,71,,,0,-4.7,50000,1,9.6,4.9
2018,10,28,01:20,UTC,5,1010.9,71,,,0,-4.6,50000,357,10,5.3
2018,10,28,01:30,UTC,4,1011,72,,,-0.1,-4.6,50000,1,8.8,4.8
2018,10,28,01:40,UTC,6,1011.3,71,,,-0.1,-4.7,50000,360,9.3,5
2018,10,28,01:50,UTC,5,1011.5,71,,,0,-4.6,50000,359,9,5.2
2018,10,28,02:00,UTC,5,1011.7,72,,,-0.1,-4.5,50000,358,8.1,5
2018,10,28,02:10,UTC,5,1011.9,72,,,0.1,-4.3,50000,4,8.7,5.1
2018,10,28,02:20,UTC,6,1012.1,73,,,0,-4.3,50000,3,8.1,4.4
2018,10,28,02:30,UTC,6,1012.4,74,,,0.1,-4.1,50000,358,8.9,4.9
2018,10,28,02:40,UTC,6,1012.6,73,,,0.3,-3.9,50000,2,7.9,4.8
2018,10,28,02:50,UTC,7,1012.8,73,,,0.4,-3.9,50000,3,9.6,5.2
2018,10,28,03:00,UTC,7,1013,73,,,0.5,-3.8,50000,3,9.8,4.5
2018,10,28,03:10,UTC,7,1013.3,72,,,0.7,-3.8,50000,3,9,5.4
2018,10,28,03:20,UTC,7,1013.5,73,,,0.6,-3.7,50000,2,7.3,4.2
2018,10,28,03:30,UTC,7,1013.7,75,,,0.4,-3.4,50000,360,6.7,4.2
2018,10,28,03:40,UTC,7,1013.8,77,,,0.3,-3.2,48354,357,6.8,4.4
2018,10,28,03:50,UTC,4,1014,79,,,0.1,-3.2,50000,358,5.9,3.9
2018,10,28,04:00,UTC,4,1014.2,79,,,-0.1,-3.3,50000,356,6.8,4.5
2018,10,28,04:10,UTC,1,1014.4,80,,,-0.2,-3.1,50000,357,7,4.5
2018,10,28,04:20,UTC,1,1014.6,82,,,-0.4,-3.2,50000,357,6.6,4.2
2018,10,28,04:30,UTC,0,1014.7,82,,,-0.5,-3.2,49171,358,6.2,4.1
2018,10,28,04:40,UTC,0,1014.8,81,,,-0.5,-3.3,49431,359,7.5,4.5
2018,10,28,04:50,UTC,0,1015.2,81,,,-0.5,-3.4,48476,359,6.9,4.2
2018,10,28,05:00,UTC,0,1015.5,80,,,-0.6,-3.6,50000,360,8.6,4.4
2018,10,28,05:10,UTC,0,1015.7,80,,,-0.6,-3.7,48290,360,8,4.7
2018,10,28,05:20,UTC,0,1015.9,78,,,-0.5,-3.9,47016,1,7.3,4.4
2018,10,28,05:30,UTC,0,1016,77,,,-0.5,-4.1,45320,3,8.2,4
2018,10,28,05:40,UTC,0,1016.2,76,,,-0.7,-4.3,50000,2,7.8,4.1
2018,10,28,05:50,UTC,0,1016.6,76,,,-0.7,-4.5,50000,360,7.4,4.5
2018,10,28,06:00,UTC,0,1016.8,75,,,-0.6,-4.5,50000,360,7.5,4.2
2018,10,28,06:10,UTC,0,1017,76,,,-0.7,-4.4,49008,357,7,4.2
2018,10,28,06:20,UTC,0,1017.3,76,,,-0.6,-4.2,49035,356,6.4,4.3
2018,10,28,06:30,UTC,0,1017.4,77,,,-0.5,-4,41426,357,6.7,4
2018,10,28,06:40,UTC,0,1017.7,77,,,-0.4,-3.9,44237,358,7.1,4.3
2018,10,28,06:50,UTC,0,1018,77,,,-0.2,-3.7,42789,359,7.8,4.5
2018,10,28,07:00,UTC,0,1018.2,76,,,-0.1,-3.8,46941,358,7.8,4.5
2018,10,28,07:10,UTC,0,1018.3,76,,,0,-3.7,47086,1,8.2,4.5
2018,10,28,07:20,UTC,0,1018.6,76,,,0.2,-3.6,45467,3,7.6,4.6
2018,10,28,07:30,UTC,0,1018.8,76,,,0.3,-3.3,46614,360,6.9,4.2
2018,10,28,07:40,UTC,0,1019.1,76,,,0.5,-3.3,44280,359,7.1,4.7
2018,10,28,07:50,UTC,0,1019.3,74,,,0.7,-3.4,40248,1,7.1,4.1
2018,10,28,08:00,UTC,0,1019.5,73,,,0.8,-3.5,45084,1,7.2,4
2018,10,28,08:10,UTC,0,1019.8,70,,,0.9,-3.9,43433,7,8.3,4.3
2018,10,28,08:20,UTC,0,1020.1,70,,,1.1,-3.9,45980,8,7.1,4.6
2018,10,28,08:30,UTC,0,1020.2,68,,,1.2,-4.1,39364,3,8.5,5
2018,10,28,08:40,UTC,0,1020.4,65,,,1.6,-4.4,48981,9,7.4,3.8
2018,10,28,08:50,UTC,0,1020.5,62,,,1.6,-5,46065,15,7.1,4.7
2018,10,28,09:00,UTC,0,1020.8,61,,,1.7,-5,45274,7,11,4.7
2018,10,28,09:10,UTC,0,1021,60,,,1.6,-5.4,50000,16,8.5,4.4
2018,10,28,09:20,UTC,0,1021.1,60,,,2,-5.1,36685,7,7.1,3.3
2018,10,28,09:30,UTC,0,1021.2,59,,,1.9,-5.3,49433,14,7.8,4.2
2018,10,28,09:40,UTC,0,1021.5,59,,,1.8,-5.5,45528,5,10,5
2018,10,28,09:50,UTC,0,1021.7,58,,,1.8,-5.7,44024,11,8.9,4.7
2018,10,28,10:00,UTC,0,1021.8,57,,,2,-5.7,40932,13,8.5,4.5
2018,10,28,10:10,UTC,0,1022,60,,,2.1,-4.9,45014,13,7.3,3.6
2018,10,28,10:20,UTC,4,1022.1,65,,,2.1,-3.9,34983,351,9.2,6.3
2018,10,28,10:30,UTC,2,1022.4,67,,,1.6,-3.9,39320,357,9.6,5.1
2018,10,28,10:40,UTC,2,1022.6,64,,,2,-4.2,39996,1,8,4.3
2018,10,28,10:50,UTC,1,1022.6,61,,,2.1,-4.7,40062,12,7.3,4.3
2018,10,28,11:00,UTC,3,1022.8,62,,,2.4,-4.2,45548,4,7.5,4
2018,10,28,11:10,UTC,3,1023,65,,,1.3,-4.6,44483,356,9,5.7
2018,10,28,11:20,UTC,3,1023.1,62,,,2,-4.6,42872,1,7.1,4.7
2018,10,28,11:30,UTC,1,1023.2,60,,,2,-5.1,44233,2,7.3,4.4
2018,10,28,11:40,UTC,2,1023.4,59,,,2.2,-5.1,39707,10,7.2,3.6
2018,10,28,11:50,UTC,1,1023.5,58,,,2,-5.3,37004,9,7.4,4
2018,10,28,12:00,UTC,2,1023.6,61,,,1.9,-4.9,50000,353,8,4.9
2018,10,28,12:10,UTC,1,1023.8,60,,,2,-5,42191,355,7,4.9
2018,10,28,12:20,UTC,3,1024,59,,,2.1,-5.1,45423,5,6.8,3.8
2018,10,28,12:30,UTC,1,1024.1,58,,,1.7,-5.7,43502,11,5.5,3.1
2018,10,28,12:40,UTC,1,1024.3,58,,,2,-5.4,41919,32,4.8,2.5
2018,10,28,12:50,UTC,0,1024.4,58,,,1.8,-5.7,48893,5,5.8,3.2
2018,10,28,13:00,UTC,0,1024.6,58,,,1.7,-5.8,47180,1,6.7,4
2018,10,28,13:10,UTC,0,1024.7,58,,,1.6,-5.9,45142,11,5.5,3.2
2018,10,28,13:20,UTC,0,1024.8,58,,,1.4,-5.9,44226,12,6.7,3.3
2018,10,28,13:30,UTC,0,1024.9,59,,,1.4,-5.8,43127,17,6.5,3.2
2018,10,28,13:40,UTC,0,1025,60,,,1.3,-5.7,42441,25,5.3,2.3
2018,10,28,13:50,UTC,0,1025.1,61,,,1.1,-5.5,46885,14,4.6,2.2
2018,10,28,14:00,UTC,0,1025.3,63,,,0.9,-5.3,45332,5,5.3,2.2
2018,10,28,14:10,UTC,0,1025.5,64,,,0.8,-5.2,41847,10,3.4,1.9
2018,10,28,14:20,UTC,0,1025.7,65,,,0.5,-5.2,49544,10,4.2,1.9
2018,10,28,14:30,UTC,1,1025.9,66,,,0.4,-5.3,47568,8,3.6,2
2018,10,28,14:40,UTC,1,1026.1,67,,,0.1,-5.3,47080,5,3.1,1.8
2018,10,28,14:50,UTC,1,1026.3,69,,,-0.2,-5.1,47931,2,3.4,1.7
2018,10,28,15:00,UTC,0,1026.5,71,,,-0.6,-5.1,42979,3,2.7,1.7
2018,10,28,15:10,UTC,0,1026.8,72,,,-0.6,-5,47420,6,3,1.8
2018,10,28,15:20,UTC,0,1027,73,,,-0.6,-4.9,42197,4,4.3,2.3
2018,10,28,15:30,UTC,0,1027.2,74,,,-0.7,-4.9,42487,6,3.1,1.9
2018,10,28,15:40,UTC,0,1027.3,74,,,-1,-5,42788,1,4.2,2.3
2018,10,28,15:50,UTC,0,1027.5,75,,,-1.2,-5.1,46250,4,3.9,2.3
2018,10,28,16:00,UTC,0,1027.6,75,,,-1.3,-5.2,45461,1,3.9,2.3
2018,10,28,16:10,UTC,0,1027.7,75,,,-1.5,-5.3,46400,360,3.6,2.2
2018,10,28,16:20,UTC,0,1027.9,75,,,-1.5,-5.3,46161,3,3.6,2.1
2018,10,28,16:30,UTC,0,1028.1,76,,,-1.6,-5.3,46029,3,3.8,2
2018,10,28,16:40,UTC,0,1028.2,76,,,-1.6,-5.2,46804,2,2.9,1.9
2018,10,28,16:50,UTC,0,1028.4,76,,,-1.6,-5.2,43181,4,3,1.9
2018,10,28,17:00,UTC,0,1028.4,77,,,-1.7,-5.2,48521,6,3.7,1.9
2018,10,28,17:10,UTC,0,1028.6,76,,,-1.6,-5.2,43360,4,3.1,2
2018,10,28,17:20,UTC,0,1028.6,77,,,-2,-5.5,45050,1,3.5,2.1
2018,10,28,17:30,UTC,0,1028.7,78,,,-2.3,-5.6,44649,358,3.4,2.3
2018,10,28,17:40,UTC,0,1028.9,79,,,-2.1,-5.2,41591,2,3.6,2.1
2018,10,28,17:50,UTC,0,1029.1,78,,,-2.1,-5.4,45112,8,3.3,1.8
2018,10,28,18:00,UTC,0,1029.3,79,,,-2.2,-5.3,44356,9,2.9,1.2
2018,10,28,18:10,UTC,0,1029.4,80,,,-2.3,-5.2,42462,6,2.1,1
2018,10,28,18:20,UTC,0,1029.5,81,,,-2.5,-5.4,43497,8,2.6,1.3
2018,10,28,18:30,UTC,0,1029.5,82,,,-2.6,-5.2,45747,9,2.4,1.4
2018,10,28,18:40,UTC,0,1029.6,83,,,-2.8,-5.3,42716,8,2.6,1.3
2018,10,28,18:50,UTC,0,1029.7,83,,,-2.8,-5.3,46673,1,2.5,1.6
2018,10,28,19:00,UTC,0,1029.8,83,,,-3,-5.4,40365,5,3.1,1.7
2018,10,28,19:10,UTC,0,1029.9,84,,,-2.8,-5.1,44927,6,2.5,1.5
2018,10,28,19:20,UTC,0,1030,85,,,-3,-5.2,42117,2,2.6,1.6
2018,10,28,19:30,UTC,0,1030.2,86,,,-3.3,-5.3,43897,4,2.6,1.4
2018,10,28,19:40,UTC,0,1030.4,86,,,-3.2,-5.2,39183,359,3,1.8
2018,10,28,19:50,UTC,0,1030.7,86,,,-3.4,-5.4,39313,360,3.1,1.8
2018,10,28,20:00,UTC,0,1030.8,87,,,-3.3,-5.2,40483,5,2.6,1.6
2018,10,28,20:10,UTC,0,1031,88,,,-3.5,-5.2,37418,12,2.3,1.3
2018,10,28,20:20,UTC,0,1031.2,88,,,-3.5,-5.2,35452,11,2.6,1.4
2018,10,28,20:30,UTC,0,1031.3,89,,,-3.9,-5.4,44975,18,1.7,0.7
2018,10,28,20:40,UTC,0,1031.5,93,,,-4.3,-5.3,35834,358,2.1,1.2
2018,10,28,20:50,UTC,0,1031.5,90,,,-3.9,-5.3,41053,360,2.4,1.4
2018,10,28,21:00,UTC,0,1031.6,90,,,-4.3,-5.6,39837,3,1.8,0.8
2018,10,28,21:10,UTC,0,1031.6,90,,,-4.6,-5.9,40565,360,1.9,1.1
2018,10,28,21:20,UTC,0,1031.6,93,,,-4,-5,38444,355,2.8,1.5
2018,10,28,21:30,UTC,0,1031.7,90,,,-4.4,-5.7,43351,5,2.6,1.3
2018,10,28,21:40,UTC,0,1031.7,92,,,-4.4,-5.5,44913,360,1.8,1.1
2018,10,28,21:50,UTC,0,1031.8,93,,,-4.5,-5.5,39763,359,2.4,1.3
2018,10,28,22:00,UTC,0,1031.8,92,,,-4,-5.1,42630,360,3.2,1.9
2018,10,28,22:10,UTC,0,1031.9,92,,,-4.1,-5.2,43934,4,2.2,1.3
2018,10,28,22:20,UTC,0,1032,92,,,-4.2,-5.3,45357,356,2.2,1.4
2018,10,28,22:30,UTC,0,1032.1,92,,,-4.3,-5.4,46428,354,2.5,1.4
2018,10,28,22:40,UTC,0,1032.2,95,,,-5,-5.7,41341,347,2.8,1.7
2018,10,28,22:50,UTC,0,1032.2,94,,,-5.1,-5.9,43853,344,1.9,1.4
2018,10,28,23:00,UTC,0,1032.1,96,,,-5.4,-6,35982,338,2.5,1.7
2018,10,28,23:10,UTC,0,1032.2,95,,,-5.4,-6,38603,337,2.5,1.5
2018,10,28,23:20,UTC,0,1032.3,96,,,-5.5,-6,38153,313,1.5,0.8
2018,10,28,23:30,UTC,0,1032.3,96,,,-5.6,-6.1,39848,317,1.5,0.8
2018,10,28,23:40,UTC,0,1032.5,97,,,-5.5,-5.8,34741,339,1.7,1.1
2018,10,28,23:50,UTC,0,1032.5,98,,,-5.9,-6.2,28450,328,1.8,1
2018,10,29,00:00,UTC,0,1032.5,99,,,-5.3,-5.4,31138,331,1.9,1.3
2018,10,29,00:10,UTC,0,1032.6,98,,,-5.1,-5.3,33707,345,2.6,1.9
2018,10,29,00:20,UTC,0,1032.6,97,,,-5.3,-5.6,35249,350,2.9,2.1
2018,10,29,00:30,UTC,0,1032.8,97,,,-5.5,-6,34209,349,2.9,1.9
2018,10,29,00:40,UTC,0,1033.1,97,,,-5.4,-5.9,38308,352,2.4,1.4
2018,10,29,00:50,UTC,0,1033.2,96,,,-6,-6.5,34584,332,1.7,1.1
2018,10,29,01:00,UTC,0,1033.3,98,,,-5.4,-5.7,33176,343,2.2,1.3
2018,10,29,01:10,UTC,0,1033.2,97,,,-5.4,-5.8,35430,354,2.8,2.2
2018,10,29,01:20,UTC,0,1033.3,97,,,-5.5,-5.9,36605,355,3.2,2.2
2018,10,29,01:30,UTC,0,1033.4,96,,,-5.4,-5.9,36720,1,2.5,1.6
2018,10,29,01:40,UTC,0,1033.4,95,,,-6,-6.7,40469,1,2.1,1.5
2018,10,29,01:50,UTC,0,1033.4,95,,,-6.1,-6.8,35777,355,3,1.8
2018,10,29,02:00,UTC,0,1033.5,96,,,-5.8,-6.4,36327,356,3.2,2.1
2018,10,29,02:10,UTC,0,1033.6,95,,,-5.6,-6.2,42999,360,3.1,2
2018,10,29,02:20,UTC,0,1033.6,94,,,-5.4,-6.2,44115,2,2.8,1.7
2018,10,29,02:30,UTC,0,1033.7,94,,,-5.6,-6.4,44927,357,2.9,1.9
2018,10,29,02:40,UTC,0,1033.8,92,,,-5.6,-6.7,40305,1,2.3,1.2
2018,10,29,02:50,UTC,0,1033.8,92,,,-5.6,-6.7,43651,351,2.5,1.7
2018,10,29,03:00,UTC,0,1033.8,92,,,-5.3,-6.3,38874,356,3,1.8
2018,10,29,03:10,UTC,0,1033.9,92,,,-4.8,-5.9,43497,1,2.7,1.3
2018,10,29,03:20,UTC,0,1033.9,92,,,-5.1,-6.3,44787,359,2.6,1.4
2018,10,29,03:30,UTC,0,1033.9,91,,,-4.4,-5.7,43286,17,3.9,1.6
2018,10,29,03:40,UTC,0,1033.8,89,,,-4.3,-5.9,43739,28,4.2,1.2
2018,10,29,03:50,UTC,0,1034,88,,,-4.1,-5.8,50000,46,3.7,1.7
2018,10,29,04:00,UTC,0,1034,88,,,-4.1,-5.9,48189,41,3.5,1.3
2018,10,29,04:10,UTC,0,1034.1,86,,,-3.8,-5.8,50000,55,4.5,2
2018,10,29,04:20,UTC,0,1034.2,85,,,-3.9,-6,43066,54,5,2.2
2018,10,29,04:30,UTC,0,1034,85,,,-3.8,-5.9,43465,48,5.1,2.3
2018,10,29,04:40,UTC,0,1033.9,85,,,-4,-6.1,49547,40,4.5,1.7
2018,10,29,04:50,UTC,0,1033.9,86,,,-4,-6,43893,37,5.1,1.9
2018,10,29,05:00,UTC,0,1034,85,,,-4,-6.1,49458,51,5.7,2.4
2018,10,29,05:10,UTC,0,1034.1,85,,,-3.8,-6,41755,49,5.9,2.6
2018,10,29,05:20,UTC,0,1034.2,84,,,-3.8,-6,44977,56,5.4,2.8
2018,10,29,05:30,UTC,0,1034.4,85,,,-3.8,-6,45730,56,4.9,2.3
2018,10,29,05:40,UTC,0,1034.5,84,,,-3.8,-6,45379,48,4.3,2.1
2018,10,29,05:50,UTC,0,1034.5,85,,,-3.8,-6,40727,36,3.5,1.5
2018,10,29,06:00,UTC,0,1034.5,85,,,-3.6,-5.9,46712,54,5.1,2.5
2018,10,29,06:10,UTC,0,1034.6,84,,,-3.6,-5.9,44071,56,5.9,2.9
2018,10,29,06:20,UTC,0,1034.6,85,,,-3.6,-5.8,47546,57,5.3,2.7
2018,10,29,06:30,UTC,0,1034.5,85,,,-3.5,-5.7,42565,50,5,2.6
2018,10,29,06:40,UTC,0,1034.8,85,,,-3.6,-5.7,48337,56,4.2,2.4
2018,10,29,06:50,UTC,0,1034.9,86,,,-3.7,-5.7,42693,49,4.2,1.9
2018,10,29,07:00,UTC,1,1035.1,86,,,-3.5,-5.5,43774,60,4.7,2.4
2018,10,29,07:10,UTC,4,1035.1,86,,,-3.3,-5.3,44690,57,4.6,2.9
2018,10,29,07:20,UTC,6,1035.3,86,,,-3.1,-5.1,43847,61,4.7,2.3
2018,10,29,07:30,UTC,8,1035.1,85,,,-2.7,-4.9,32578,63,4,2.3
2018,10,29,07:40,UTC,8,1035.1,85,,,-2.4,-4.6,36005,43,3.9,1.9
2018,10,29,07:50,UTC,6,1035.1,83,,,-2.4,-4.9,43396,38,3.9,1.4
2018,10,29,08:00,UTC,4,1035.1,82,,,-1.8,-4.5,36181,34,2.8,1.1
2018,10,29,08:10,UTC,1,1035.3,77,,,-1.3,-4.8,39340,40,4.1,2.1
2018,10,29,08:20,UTC,1,1035.5,78,,,-1.2,-4.6,42155,59,5,2.5
2018,10,29,08:30,UTC,4,1035.8,79,,,-0.7,-4,42499,63,3.4,1.8
2018,10,29,08:40,UTC,5,1035.7,78,,,-0.4,-3.8,47502,61,4.5,2.2
2018,10,29,08:50,UTC,6,1035.7,78,,,-0.5,-3.8,46518,62,4.3,2.1
2018,10,29,09:00,UTC,7,1035.7,76,,,-0.2,-3.9,41323,70,4.7,2.3
2018,10,29,09:10,UTC,7,1035.6,76,,,-0.1,-3.9,40854,78,4.5,2.7
2018,10,29,09:20,UTC,7,1035.6,76,,,-0.1,-3.8,46621,72,5.4,2.5
2018,10,29,09:30,UTC,7,1035.6,76,,,0.1,-3.7,24633,74,5.4,2.3
2018,10,29,09:40,UTC,8,1035.7,75,,,0.3,-3.6,46879,60,4.3,2.1
2018,10,29,09:50,UTC,8,1035.9,78,,,0.2,-3.2,7575,59,4.4,2.2
2018,10,29,10:00,UTC,8,1035.8,84,,,-0.1,-2.6,2026,58,5.1,2.2
2018,10,29,10:10,UTC,8,1035.7,86,,,0.1,-1.9,4457,64,4.6,2.6
2018,10,29,10:20,UTC,7,1035.7,80,,,0.3,-2.6,23594,56,3.6,2.1
2018,10,29,10:30,UTC,6,1035.6,78,,,0.6,-2.9,26190,53,4.4,2.2
2018,10,29,10:40,UTC,7,1035.7,77,,,0.9,-2.8,46891,56,5.3,2.9
2018,10,29,10:50,UTC,6,1035.8,79,,,0.8,-2.5,15537,55,7.3,3.4
2018,10,29,11:00,UTC,4,1035.8,86,,,0.4,-1.7,41077,63,5.7,3.2
2018,10,29,11:10,UTC,3,1035.8,88,,,0.4,-1.3,38636,61,4.9,2.8
2018,10,29,11:20,UTC,5,1035.8,89,,,0.5,-1.1,42243,60,7.1,3.6
2018,10,29,11:30,UTC,6,1035.8,93,,,0.1,-0.8,2349,63,6.2,3.2
2018,10,29,11:40,UTC,7,1035.8,95,,,0,-0.6,3436,60,6.3,3.1
2018,10,29,11:50,UTC,8,1035.8,93,,,0.1,-0.9,14828,63,6.7,3.1
2018,10,29,12:00,UTC,8,1035.8,92,,,0.1,-1.1,28278,61,6.6,3.4
2018,10,29,12:10,UTC,8,1035.8,92,,,0.1,-1.1,24381,59,5.8,3.3
2018,10,29,12:20,UTC,7,1035.9,91,,,0.2,-1.1,41391,55,7,3.5
2018,10,29,12:30,UTC,7,1035.9,90,,,0.2,-1.3,50000,52,6.2,2.8
2018,10,29,12:40,UTC,7,1035.9,90,,,0.2,-1.3,45623,52,6.6,3.5
2018,10,29,12:50,UTC,6,1035.9,91,,,0.2,-1.2,46559,47,5.9,3.1
2018,10,29,13:00,UTC,5,1035.8,92,,,0.1,-1.1,42682,48,5.6,3.3
2018,10,29,13:10,UTC,2,1035.7,93,,,0,-1,42830,53,6.1,2.7
2018,10,29,13:20,UTC,3,1035.6,92,,,0.1,-1,47822,52,5.7,2.8
2018,10,29,13:30,UTC,3,1035.5,91,,,0.1,-1.1,48932,53,6.2,3.3
2018,10,29,13:40,UTC,5,1035.3,91,,,0.2,-1.2,47329,48,5.4,2.7
2018,10,29,13:50,UTC,6,1035.1,90,,,0.1,-1.3,47053,52,6.2,3.1
2018,10,29,14:00,UTC,4,1035,90,,,0,-1.5,45938,56,6.9,3.7
2018,10,29,14:10,UTC,3,1035,90,,,0,-1.5,50000,53,5.8,3.2
2018,10,29,14:20,UTC,3,1035.2,90,,,-0.1,-1.6,50000,53,5,2.9
2018,10,29,14:30,UTC,1,1035.3,90,,,-0.2,-1.7,49569,55,6.4,3.3
2018,10,29,14:40,UTC,1,1035.5,89,,,-0.3,-1.9,49923,54,7.2,3.4
2018,10,29,14:50,UTC,1,1035.9,88,,,-0.3,-2.1,50000,51,5,2.8
2018,10,29,15:00,UTC,1,1035.7,87,,,-0.3,-2.3,50000,58,4.8,2.5
2018,10,29,15:10,UTC,3,1035.9,86,,,-0.3,-2.4,50000,46,5.3,2.4
2018,10,29,15:20,UTC,5,1035.3,86,,,-0.3,-2.4,48860,50,5.6,2.6
2018,10,29,15:30,UTC,5,1035.2,84,,,-0.3,-2.7,50000,56,5.9,2.9
2018,10,29,15:40,UTC,4,1035.2,84,,,-0.4,-2.8,50000,53,5.7,2.8
2018,10,29,15:50,UTC,2,1035.3,82,,,-0.3,-2.9,50000,54,6.3,3.4
2018,10,29,16:00,UTC,1,1035.6,82,,,-0.3,-3.1,50000,61,4.9,2.8
2018,10,29,16:10,UTC,1,1035.4,81,,,-0.3,-3.1,50000,61,6,3.2
2018,10,29,16:20,UTC,3,1035.3,81,,,-0.2,-3.1,50000,57,5.9,3.2
2018,10,29,16:30,UTC,4,1035.1,80,,,-0.1,-3.2,48712,56,6.6,3.5
2018,10,29,16:40,UTC,4,1034.9,80,,,-0.3,-3.3,50000,55,6.2,3.2
2018,10,29,16:50,UTC,5,1034.9,80,,,-0.2,-3.3,50000,52,6.6,3.5
2018,10,29,17:00,UTC,5,1034.9,79,,,-0.2,-3.3,50000,55,6.5,3.6
2018,10,29,17:10,UTC,6,1034.7,79,,,-0.1,-3.4,50000,55,7.3,3.6
2018,10,29,17:20,UTC,7,1034.7,79,,,-0.2,-3.4,50000,66,6.5,3.4
2018,10,29,17:30,UTC,5,1035,79,,,-0.2,-3.5,50000,63,6.4,3.6
2018,10,29,17:40,UTC,5,1034.9,78,,,-0.2,-3.5,49792,62,5.5,2.9
2018,10,29,17:50,UTC,4,1034.9,79,,,-0.3,-3.5,50000,55,6.6,3
2018,10,29,18:00,UTC,5,1035.1,78,,,-0.2,-3.5,50000,54,5.6,2.9
2018,10,29,18:10,UTC,5,1034.9,79,,,-0.3,-3.6,50000,46,5.1,2.5
2018,10,29,18:20,UTC,4,1034.9,78,,,-0.3,-3.6,50000,50,4.6,2.5
2018,10,29,18:30,UTC,4,1034.8,79,,,-0.5,-3.7,50000,48,4.7,2.6
2018,10,29,18:40,UTC,2,1034.9,77,,,-0.3,-3.8,50000,54,5,3
2018,10,29,18:50,UTC,1,1035,79,,,-0.6,-3.8,50000,55,3.8,2.3
2018,10,29,19:00,UTC,1,1034.9,72,,,0.2,-4.2,50000,56,6.7,3
2018,10,29,19:10,UTC,1,1034.7,74,,,-0.1,-4.2,49702,52,4.8,2.6
2018,10,29,19:20,UTC,1,1034.5,69,,,0.5,-4.5,50000,61,9.6,3.3
2018,10,29,19:30,UTC,1,1034.3,57,,,2.3,-5.4,47723,82,11.3,4.9
2018,10,29,19:40,UTC,1,1034.2,60,,,1.7,-5.3,50000,76,7.9,4.2
2018,10,29,19:50,UTC,1,1034.2,57,,,1.9,-5.7,50000,82,7.6,3.9
2018,10,29,20:00,UTC,3,1033.8,56,,,2.2,-5.7,50000,89,11.5,6.2
2018,10,29,20:10,UTC,2,1033.8,55,,,2.2,-5.9,50000,87,10.1,5.6
2018,10,29,20:20,UTC,2,1033.7,53,,,2.4,-6.2,50000,88,11.8,7.1
2018,10,29,20:30,UTC,4,1034,53,,,2.4,-6.1,50000,91,12,6.7
2018,10,29,20:40,UTC,3,1033.8,56,,,2.5,-5.4,50000,95,14.3,7.5
2018,10,29,20:50,UTC,6,1034.1,56,,,2.6,-5.5,50000,97,14,8.2
2018,10,29,21:00,UTC,6,1034,59,,,2.5,-4.8,50000,100,12.6,8.3
2018,10,29,21:10,UTC,7,1033.7,58,,,2.6,-4.9,50000,99,11.6,7.6
2018,10,29,21:20,UTC,7,1033.6,55,,,2.6,-5.5,50000,101,17.2,8.7
2018,10,29,21:30,UTC,7,1033.5,58,,,2.4,-5,50000,102,13.2,8.6
2018,10,29,21:40,UTC,7,1033.7,55,,,2.4,-5.7,50000,98,13.7,9.4
2018,10,29,21:50,UTC,7,1033.6,59,,,2.4,-4.9,50000,96,11,7.2
2018,10,29,22:00,UTC,7,1033.4,59,,,2.4,-4.8,50000,99,12.3,7.4
2018,10,29,22:10,UTC,7,1033.2,58,,,2.4,-5.1,50000,98,11.6,7.9
2018,10,29,22:20,UTC,7,1032.9,58,,,2.4,-5,50000,98,14.1,8.2
2018,10,29,22:30,UTC,7,1032.7,59,,,2.5,-4.8,50000,94,12.2,7.5
2018,10,29,22:40,UTC,7,1032.6,57,,,2.6,-5.1,50000,96,13.1,8.1
2018,10,29,22:50,UTC,7,1032.4,58,,,2.5,-5,49224,96,14.9,7.5
2018,10,29,23:00,UTC,7,1032.1,58,,,2.5,-5,50000,95,12.8,7.6
2018,10,29,23:10,UTC,7,1031.9,59,,,2.4,-4.8,50000,92,12.1,7.7
2018,10,29,23:20,UTC,7,1032,58,,,2.5,-5,50000,94,10.7,7.3
2018,10,29,23:30,UTC,7,1031.9,57,,,2.6,-5.1,50000,96,14.9,8.6
2018,10,29,23:40,UTC,7,1032,60,,,2.6,-4.3,50000,99,12.4,7.2
2018,10,29,23:50,UTC,7,1032,60,,,2.6,-4.5,50000,103,13.4,8.8
2018,10,30,00:00,UTC,7,1032.5,60,,,2.4,-4.5,50000,105,15.4,9.3
2018,10,30,00:10,UTC,7,1032.1,63,,,2.5,-3.9,48341,102,14.4,8.4
2018,10,30,00:20,UTC,7,1031.9,65,,,2.4,-3.5,46081,99,12.9,7.9
2018,10,30,00:30,UTC,7,1031.6,62,,,2.4,-4.1,50000,102,15.2,9.8
2018,10,30,00:40,UTC,7,1031.7,64,,,2.3,-3.9,50000,100,14.8,8.6
2018,10,30,00:50,UTC,6,1031.4,67,,,2.1,-3.4,50000,96,14.1,8.5
2018,10,30,01:00,UTC,4,1031.4,68,,,2.1,-3.1,50000,97,12.3,7
2018,10,30,01:10,UTC,1,1031,69,,,2.1,-3,50000,97,13.8,8.3
2018,10,30,01:20,UTC,4,1030.9,70,,,2.1,-2.9,50000,96,12.1,7.1
2018,10,30,01:30,UTC,6,1030.8,70,,,2,-2.8,50000,93,12.2,6.3
2018,10,30,01:40,UTC,7,1030.5,70,,,2.2,-2.7,49713,92,12.5,7.4
2018,10,30,01:50,UTC,7,1030.4,71,,,2.1,-2.7,44469,96,11.3,6.8
2018,10,30,02:00,UTC,7,1030.4,70,,,2.3,-2.7,50000,98,12.1,7.5
2018,10,30,02:10,UTC,7,1030.3,70,,,2.3,-2.6,49422,97,12.9,7.9
2018,10,30,02:20,UTC,6,1030.2,72,,,2.3,-2.3,50000,96,12.4,7.3
2018,10,30,02:30,UTC,7,1030.2,72,,,2.4,-2,50000,97,13.9,7.9
2018,10,30,02:40,UTC,7,1030,73,,,2.5,-1.7,50000,95,12.5,7.7
2018,10,30,02:50,UTC,7,1030,74,,,2.5,-1.5,50000,98,12,7.3
2018,10,30,03:00,UTC,7,1030.1,76,,,2.6,-1.2,46747,96,10.4,6
2018,10,30,03:10,UTC,7,1030,77,,,2.7,-0.9,50000,100,11.8,7.2
2018,10,30,03:20,UTC,7,1030.2,78,,,2.7,-0.8,50000,101,12.8,7.9
2018,10,30,03:30,UTC,7,1030.2,78,,,2.6,-0.9,50000,103,13.5,8.3
2018,10,30,03:40,UTC,7,1030,78,,,2.6,-0.8,50000,101,12.9,7.5
2018,10,30,03:50,UTC,7,1029.9,80,,,2.6,-0.6,44100,103,12.9,8.7
2018,10,30,04:00,UTC,8,1029.9,79,,,2.6,-0.6,48497,99,11.3,7.1
2018,10,30,04:10,UTC,8,1029.6,80,,,2.7,-0.4,50000,98,13,8.5
2018,10,30,04:20,UTC,8,1029.6,81,,,2.6,-0.3,49116,100,15.3,8.8
2018,10,30,04:30,UTC,8,1029.3,81,,,2.7,-0.3,45094,98,12.9,8.7
2018,10,30,04:40,UTC,8,1029.4,82,,,2.7,-0.1,50000,103,13.3,8.5
2018,10,30,04:50,UTC,8,1029.4,82,,,2.7,0,50000,99,12,7.7
2018,10,30,05:00,UTC,8,1029.1,83,,,2.7,0.1,44327,97,11.3,7.9
2018,10,30,05:10,UTC,8,1028.6,84,,,2.7,0.2,45475,97,12.7,7.9
2018,10,30,05:20,UTC,8,1028.6,84,,,2.7,0.3,48391,99,14.2,9.4
2018,10,30,05:30,UTC,8,1028.5,85,,,2.7,0.4,50000,101,13.4,7.9
2018,10,30,05:40,UTC,8,1028.2,84,,,2.7,0.3,50000,94,13,8.3
2018,10,30,05:50,UTC,8,1028,85,,,2.7,0.5,49365,98,14.5,8.4
2018,10,30,06:00,UTC,8,1028,86,,,2.8,0.6,45410,96,13.9,8.9
2018,10,30,06:10,UTC,8,1027.8,86,,,2.8,0.7,43188,98,15.7,8.9
2018,10,30,06:20,UTC,8,1027.9,85,,,2.8,0.6,44940,96,16,9.4
2018,10,30,06:30,UTC,8,1027.8,87,,,2.8,0.7,46851,101,15.4,9.1
2018,10,30,06:40,UTC,8,1027.9,87,,,2.8,0.8,43268,98,13.5,9
2018,10,30,06:50,UTC,8,1027.9,88,,,2.8,0.9,46481,98,14.5,9.2
2018,10,30,07:00,UTC,8,1027.7,88,,,2.8,1,46326,100,14.9,8.7
2018,10,30,07:10,UTC,8,1027.9,88,,,2.8,1,44659,101,13.2,8.7
2018,10,30,07:20,UTC,8,1027.7,88,,,2.9,1.1,42453,103,14.3,8.8
2018,10,30,07:30,UTC,8,1027.4,88,,,2.9,1.2,50000,101,15.4,9.8
2018,10,30,07:40,UTC,8,1027.2,88,,,2.9,1.2,47904,98,14.3,9.5
2018,10,30,07:50,UTC,8,1027.2,89,,,2.9,1.2,45373,101,16.6,9.5
2018,10,30,08:00,UTC,8,1027.2,89,,,3,1.3,42013,104,15.2,9.2
2018,10,30,08:10,UTC,8,1027.2,90,,,2.9,1.4,38718,105,13.9,8.3
2018,10,30,08:20,UTC,8,1027.2,90,,,2.9,1.4,43952,103,12.7,7.9
2018,10,30,08:30,UTC,8,1027.1,89,,,2.9,1.4,43112,107,15.8,8.2
2018,10,30,08:40,UTC,8,1026.7,90,,,2.9,1.4,38857,107,15.1,9
2018,10,30,08:50,UTC,8,1026.5,90,,,2.9,1.4,45325,108,13.8,8.9
2018,10,30,09:00,UTC,8,1026.3,90,,,2.9,1.4,44057,110,14,8.7
2018,10,30,09:10,UTC,8,1026.2,90,,,2.9,1.4,49925,104,18.2,10
2018,10,30,09:20,UTC,8,1026,90,,,2.9,1.4,41390,106,16.7,9.6
2018,10,30,09:30,UTC,8,1026,90,,,2.9,1.4,47172,103,15.9,9.1
2018,10,30,09:40,UTC,8,1025.8,90,,,3,1.4,47156,105,14.7,9.8
2018,10,30,09:50,UTC,8,1026,89,,,3,1.4,45725,112,14.4,9
2018,10,30,10:00,UTC,8,1025.9,89,,,3,1.4,38190,106,16.1,9.1
2018,10,30,10:10,UTC,8,1025.8,89,,,3,1.4,39529,112,16,9.4
2018,10,30,10:20,UTC,8,1025.7,89,,,3,1.4,31134,106,12.9,9
2018,10,30,10:30,UTC,8,1025.5,90,,,3,1.5,21505,112,14.7,9.1
2018,10,30,10:40,UTC,8,1025.5,92,,,2.8,1.7,8934,110,14.7,8.7
2018,10,30,10:50,UTC,8,1025.8,94,,,2.7,1.9,4667,112,13.7,8.4
2018,10,30,11:00,UTC,8,1025.7,94,,,2.7,1.9,6670,113,12.6,8.1
2018,10,30,11:10,UTC,8,1025.8,95,,,2.7,1.9,15260,114,11.8,7
2018,10,30,11:20,UTC,8,1025.9,93,,,2.8,1.8,16835,111,15.1,8.3
2018,10,30,11:30,UTC,8,1025.5,92,,,2.7,1.6,22114,112,10.8,7.6
2018,10,30,11:40,UTC,8,1025.2,90,,,2.9,1.5,48102,108,14.2,9.2
2018,10,30,11:50,UTC,8,1025,90,,,2.9,1.4,42499,107,13.2,8.8
2018,10,30,12:00,UTC,8,1024.6,89,,,3,1.3,47856,108,14.1,8.8
2018,10,30,12:10,UTC,8,1024.8,89,,,3,1.4,45980,105,14.9,9
2018,10,30,12:20,UTC,8,1024.7,89,,,3,1.3,30208,110,12.6,7.9
2018,10,30,12:30,UTC,8,1024.3,88,,,3.1,1.3,32639,104,12.9,8.7
2018,10,30,12:40,UTC,8,1024.2,88,,,3.2,1.3,48076,104,12.8,9.1
2018,10,30,12:50,UTC,8,1024,87,,,3.3,1.3,47229,102,17.2,8.9
2018,10,30,13:00,UTC,8,1024.3,87,,,3.2,1.3,50000,102,13.3,9.3
2018,10,30,13:10,UTC,8,1024.2,88,,,3.3,1.4,50000,104,11.3,7.3
2018,10,30,13:20,UTC,8,1024.2,88,,,3.4,1.6,44439,103,13.1,7.9
2018,10,30,13:30,UTC,8,1024.1,88,,,3.5,1.6,50000,111,14.6,9.3
2018,10,30,13:40,UTC,8,1023.8,87,,,3.5,1.6,46447,103,14.4,8.9
2018,10,30,13:50,UTC,8,1023.7,87,,,3.6,1.7,46697,111,13.5,8.6
2018,10,30,14:00,UTC,8,1023.9,87,,,3.6,1.6,43721,111,14.2,8.9
2018,10,30,14:10,UTC,8,1023.6,86,,,3.7,1.6,40984,113,15,9.3
2018,10,30,14:20,UTC,8,1023.2,87,,,3.7,1.7,38655,112,13.6,9.4
2018,10,30,14:30,UTC,8,1023.4,88,,,3.6,1.8,22908,111,15.9,9
2018,10,30,14:40,UTC,8,1023,88,,,3.6,1.8,25694,109,14.8,8.9
2018,10,30,14:50,UTC,8,1022.7,88,,,3.6,1.9,29560,105,15.4,9.4
2018,10,30,15:00,UTC,8,1022.6,88,,,3.7,1.9,43266,107,14.5,9.2
2018,10,30,15:10,UTC,8,1022.7,89,,,3.7,2,44469,106,16.2,9.2
2018,10,30,15:20,UTC,8,1023,88,,,3.8,2.1,49942,117,16.6,9.3
2018,10,30,15:30,UTC,8,1022.7,89,,,3.8,2.1,45599,111,13.8,8.9
2018,10,30,15:40,UTC,8,1022.4,89,,,3.7,2,46840,110,13.8,8
2018,10,30,15:50,UTC,8,1021.9,89,,,3.8,2.1,48803,100,14.7,10.1
2018,10,30,16:00,UTC,8,1022,89,,,3.8,2.1,43581,105,15.1,10.2
2018,10,30,16:10,UTC,8,1022.1,90,,,3.8,2.3,43745,106,12.3,7.9
2018,10,30,16:20,UTC,8,1022.1,90,,,3.8,2.4,46269,107,13.9,7.9
2018,10,30,16:30,UTC,8,1021.7,90,,,3.9,2.4,45706,105,17.2,9.7
2018,10,30,16:40,UTC,8,1022,90,,,3.9,2.5,40447,105,13.7,9
2018,10,30,16:50,UTC,8,1021.6,91,,,3.9,2.6,43033,104,14.1,8.7
2018,10,30,17:00,UTC,8,1021.6,92,,,4,2.7,38893,106,14.9,9.7
2018,10,30,17:10,UTC,8,1021.2,92,,,3.9,2.7,36091,107,15.7,10.1
2018,10,30,17:20,UTC,8,1021.4,92,,,4,2.9,38337,109,16.4,10.1
2018,10,30,17:30,UTC,8,1021.3,92,,,4,2.9,32873,109,13.9,9.9
2018,10,30,17:40,UTC,8,1021.1,92,,,4,2.9,33173,109,16.3,10.4
2018,10,30,17:50,UTC,8,1021.4,92,,,4.1,2.9,36425,110,17,9.7
2018,10,30,18:00,UTC,8,1021.3,93,,,4.1,3,34134,114,15,9.6
2018,10,30,18:10,UTC,8,1021.1,93,,,4,3,31444,110,16.5,9.6
2018,10,30,18:20,UTC,8,1020.9,94,,,4,3.1,32561,107,14,9.1
2018,10,30,18:30,UTC,8,1021.2,94,,,4.1,3.3,28930,114,14.9,9.2
2018,10,30,18:40,UTC,8,1021.1,95,,,4.1,3.3,32950,112,15.3,9.2
2018,10,30,18:50,UTC,8,1021,95,,,4.1,3.4,36055,114,14.7,8.8
2018,10,30,19:00,UTC,8,1020.8,95,,,4.1,3.5,35749,113,15.3,8.2
2018,10,30,19:10,UTC,8,1020.8,96,,,4.1,3.5,31639,107,14.1,9.3
2018,10,30,19:20,UTC,8,1020.7,96,,,4.1,3.5,31228,108,12.3,9.1
2018,10,30,19:30,UTC,8,1020.8,96,,,4.2,3.7,28592,108,14.4,9
2018,10,30,19:40,UTC,8,1020.8,97,,,4.2,3.7,24721,106,11.8,7.8
2018,10,30,19:50,UTC,8,1020.7,97,,,4.3,3.9,22221,116,15.4,8.9
2018,10,30,20:00,UTC,8,1020.5,97,,,4.3,3.9,20822,112,12.1,8.3
2018,10,30,20:10,UTC,8,1020.5,98,,,4.4,4,20283,110,12,7.8
2018,10,30,20:20,UTC,8,1020.4,98,,,4.4,4.2,16361,111,12.1,7.7
2018,10,30,20:30,UTC,8,1020.2,98,,,4.5,4.3,14858,112,12.3,7.8
2018,10,30,20:40,UTC,8,1019.6,98,,,4.6,4.3,12092,109,13.2,8.7
2018,10,30,20:50,UTC,8,1019.8,99,,,4.6,4.4,10645,108,13.1,8.5
2018,10,30,21:00,UTC,8,1019.6,99,,,4.7,4.6,12022,111,13.5,8.7
2018,10,30,21:10,UTC,8,1019.6,99,,,4.8,4.6,14268,115,12.7,8.7
2018,10,30,21:20,UTC,8,1019.5,99,,,4.9,4.7,17283,116,13,7
2018,10,30,21:30,UTC,8,1019.4,98,,,5,4.7,17834,117,13.9,9
2018,10,30,21:40,UTC,8,1019.6,98,,,5.1,4.8,21016,118,12.3,7.6
2018,10,30,21:50,UTC,8,1019.6,98,,,5.2,4.9,18846,121,15.3,8.5
2018,10,30,22:00,UTC,8,1019.7,98,,,5.2,4.9,20926,117,12.5,7.9
2018,10,30,22:10,UTC,8,1019.4,98,,,5.3,5,18767,118,13.8,8.7
2018,10,30,22:20,UTC,8,1019.1,98,,,5.4,5.1,17988,118,13.8,8.3
2018,10,30,22:30,UTC,8,1019.2,98,,,5.4,5.1,17380,115,14,8.3
2018,10,30,22:40,UTC,8,1019.1,98,,,5.5,5.1,19069,120,11.6,7
2018,10,30,22:50,UTC,8,1019.4,97,,,5.5,5.1,23385,127,13.9,7.9
2018,10,30,23:00,UTC,8,1019.6,97,,,5.5,5,27818,124,12.2,7.4
2018,10,30,23:10,UTC,8,1019.5,96,,,5.5,5,29337,122,11.8,7.3
2018,10,30,23:20,UTC,8,1019.1,96,,,5.5,5,27876,120,11.4,7
2018,10,30,23:30,UTC,8,1019.1,97,,,5.5,5,31376,118,11.3,7.1
2018,10,30,23:40,UTC,8,1019.2,97,,,5.6,5.1,28395,122,9.4,6.3
2018,10,30,23:50,UTC,8,1019.1,97,,,5.6,5.1,26237,123,12.4,7.2
2018,10,31,00:00,UTC,8,1019,97,,,5.6,5.1,22675,125,11.5,7.6
2018,10,31,00:10,UTC,8,1019,97,,,5.6,5.2,23031,128,11.3,6.8
2018,10,31,00:20,UTC,8,1019,97,,,5.6,5.2,21403,121,10.3,6.2
2018,10,31,00:30,UTC,8,1019,97,,,5.7,5.2,21398,126,9.5,5.9
2018,10,31,00:40,UTC,8,1018.9,97,,,5.7,5.2,22696,128,8.5,5.5
2018,10,31,00:50,UTC,8,1018.7,96,,,5.9,5.3,25620,132,10.1,6
2018,10,31,01:00,UTC,8,1019,95,,,5.9,5.2,30535,131,9.6,6.1
2018,10,31,01:10,UTC,8,1019,95,,,5.9,5.2,27275,142,8.9,5.9
2018,10,31,01:20,UTC,8,1019,94,,,5.9,5,29199,142,9.8,6.5
2018,10,31,01:30,UTC,8,1018.8,94,,,5.8,4.9,30083,134,10.5,5.7
2018,10,31,01:40,UTC,8,1018.8,94,,,5.6,4.8,30370,134,9.5,6.2
2018,10,31,01:50,UTC,8,1018.6,94,,,5.6,4.7,29742,137,9.3,6
2018,10,31,02:00,UTC,8,1018.5,94,,,5.6,4.7,29294,134,8.7,5.7
2018,10,31,02:10,UTC,8,1018.8,95,,,5.5,4.7,26969,139,9.4,6
2018,10,31,02:20,UTC,8,1018.4,94,,,5.5,4.7,29954,134,9.9,6.4
2018,10,31,02:30,UTC,8,1018.1,94,,,5.5,4.6,28339,132,11,6.9
2018,10,31,02:40,UTC,8,1018.1,94,,,5.5,4.6,28503,132,10.4,6.5
2018,10,31,02:50,UTC,8,1017.9,95,,,5.4,4.7,27726,129,9.5,6.6
2018,10,31,03:00,UTC,8,1018.1,95,,,5.5,4.7,25580,134,9.7,5.9
2018,10,31,03:10,UTC,8,1018,95,,,5.4,4.7,24648,137,11,6.4
2018,10,31,03:20,UTC,8,1018,95,,,5.5,4.8,20249,132,9.5,5.9
2018,10,31,03:30,UTC,8,1018,96,,,5.6,4.9,17686,134,11.5,6.5
2018,10,31,03:40,UTC,8,1017.8,96,,,5.5,4.9,15654,130,11.2,6.7
2018,10,31,03:50,UTC,8,1017.8,96,,,5.6,4.9,18897,136,9.5,5.7
2018,10,31,04:00,UTC,8,1017.9,96,,,5.6,5,20448,128,8.8,5.2
2018,10,31,04:10,UTC,8,1017.7,96,,,5.6,5,23271,135,8.4,5.2
2018,10,31,04:20,UTC,8,1017.6,96,,,5.6,5,23833,129,8.7,5.3
2018,10,31,04:30,UTC,8,1017.6,96,,,5.7,5,21211,136,7.8,5.1
2018,10,31,04:40,UTC,8,1017.7,96,,,5.8,5.1,20246,133,8.5,5.2
2018,10,31,04:50,UTC,8,1017.8,96,,,5.9,5.3,18095,139,8.2,5.5
2018,10,31,05:00,UTC,8,1017.8,96,,,5.9,5.3,14896,137,7.5,5
2018,10,31,05:10,UTC,8,1017.8,97,,,5.9,5.4,12957,138,8,5
2018,10,31,05:20,UTC,8,1017.6,96,,,6,5.5,12710,138,8.5,5.4
2018,10,31,05:30,UTC,8,1017.6,97,,,6,5.5,10621,140,8.9,5.7
2018,10,31,05:40,UTC,8,1017.7,97,,,6.1,5.6,12619,141,9.2,5.2
2018,10,31,05:50,UTC,8,1017.8,97,,,6.1,5.6,14007,143,7.7,4.8
2018,10,31,06:00,UTC,8,1017.7,97,,,6.1,5.7,13052,136,7.8,4.3
2018,10,31,06:10,UTC,8,1017.8,97,,,6.2,5.8,14241,141,9.4,5.3
2018,10,31,06:20,UTC,8,1017.5,97,,,6.3,5.8,15264,136,7.7,5.4
2018,10,31,06:30,UTC,8,1017.1,97,,,6.3,5.9,16169,129,9.5,5.9
2018,10,31,06:40,UTC,8,1017.2,97,,,6.4,6,16958,130,8.5,5.7
2018,10,31,06:50,UTC,8,1017.2,97,,,6.4,6,18481,130,8.2,5.2
2018,10,31,07:00,UTC,8,1017.6,97,,,6.5,6.1,16331,145,8.5,5.5
2018,10,31,07:10,UTC,8,1017.6,97,,,6.5,6.1,15836,140,7.1,4.8
2018,10,31,07:20,UTC,8,1018,97,,,6.6,6.2,16941,146,7,4.1
2018,10,31,07:30,UTC,8,1017.7,97,,,6.7,6.3,17388,147,8.5,4.4
2018,10,31,07:40,UTC,8,1017.6,97,,,6.8,6.3,17235,144,9.2,5.4
2018,10,31,07:50,UTC,8,1017.4,97,,,6.8,6.4,17494,146,8.4,5.6
2018,10,31,08:00,UTC,8,1017.5,97,,,6.9,6.4,14003,146,8.4,6
2018,10,31,08:10,UTC,8,1017.6,98,,,6.8,6.5,13008,144,8.8,6
2018,10,31,08:20,UTC,8,1017.6,98,,,6.8,6.5,16047,142,8.7,5.7
2018,10,31,08:30,UTC,8,1017.5,98,,,6.8,6.5,19294,143,8.1,5.7
2018,10,31,08:40,UTC,8,1017.6,98,,,6.9,6.6,18952,144,8.5,5.1
2018,10,31,08:50,UTC,8,1017.4,98,,,6.9,6.6,14521,138,7.4,5.2
2018,10,31,09:00,UTC,8,1017.3,98,,,6.9,6.6,10984,139,8,4.8
2018,10,31,09:10,UTC,8,1017.5,99,,,6.9,6.7,10810,140,7.3,5.3
2018,10,31,09:20,UTC,8,1017.6,99,,,7,6.8,12687,143,8.2,5.2
2018,10,31,09:30,UTC,8,1017.5,99,,,7,6.9,14653,142,6.7,4.8
2018,10,31,09:40,UTC,8,1017.3,99,,,7.1,6.9,16974,140,8.5,4.7
2018,10,31,09:50,UTC,8,1017.7,99,,,7.2,7,19195,139,7.6,5.6
2018,10,31,10:00,UTC,8,1017.7,98,,,7.3,7,18160,146,8.7,5.8
2018,10,31,10:10,UTC,8,1017.6,99,,,7.2,7,17105,146,6.8,4.5
2018,10,31,10:20,UTC,8,1017.3,99,,,7.3,7.1,14590,136,8.3,5.7
2018,10,31,10:30,UTC,8,1017.4,99,,,7.3,7.1,13480,134,8.1,5.3
2018,10,31,10:40,UTC,8,1017.5,99,,,7.4,7.2,15705,137,7.5,4.8
2018,10,31,10:50,UTC,8,1017.6,99,,,7.4,7.2,19460,142,8.6,5.2
2018,10,31,11:00,UTC,8,1017.3,99,,,7.5,7.3,22906,147,6.6,4.2
2018,10,31,11:10,UTC,8,1017.3,98,,,7.7,7.4,24535,145,6.5,4.4
2018,10,31,11:20,UTC,8,1017.3,98,,,7.8,7.5,22175,146,7.7,4.6
2018,10,31,11:30,UTC,8,1017.2,98,,,7.8,7.6,22379,146,6.8,4.4
2018,10,31,11:40,UTC,8,1017,98,,,7.9,7.7,21530,150,5.9,4.2
2018,10,31,11:50,UTC,8,1016.8,98,,,8.1,7.9,22225,151,8.1,5.1
2018,10,31,12:00,UTC,8,1016.9,98,,,8.3,8,22069,153,8.1,4.8
2018,10,31,12:10,UTC,8,1016.9,98,,,8.4,8.1,23554,152,8.9,5.4
2018,10,31,12:20,UTC,8,1016.9,97,,,8.5,8.1,21091,166,8.4,5.4
2018,10,31,12:30,UTC,8,1017.3,97,,,8.6,8.1,19971,163,10.8,5.7
2018,10,31,12:40,UTC,8,1017.1,97,,,8.6,8.1,20213,171,12.6,6.8
2018,10,31,12:50,UTC,8,1017.1,97,,,8.6,8.2,20512,162,12.4,6.1
2018,10,31,13:00,UTC,8,1017.1,97,,,8.8,8.3,19780,166,11.4,5.9
2018,10,31,13:10,UTC,8,1017.2,96,,,8.9,8.3,20527,168,10.8,5.7
2018,10,31,13:20,UTC,8,1017.3,96,,,8.9,8.3,14895,167,8.6,5.7
2018,10,31,13:30,UTC,8,1017.4,97,,,8.8,8.4,16543,171,9.1,5.7
2018,10,31,13:40,UTC,8,1017.5,97,,,8.9,8.5,16558,170,9.5,5.7
2018,10,31,13:50,UTC,8,1017.5,97,,,9,8.6,18798,169,7.8,5
2018,10,31,14:00,UTC,8,1017.6,97,,,9.1,8.6,18810,171,8.2,5.6
2018,10,31,14:10,UTC,8,1017.6,97,,,9.1,8.7,17618,171,8.6,4.8
2018,10,31,14:20,UTC,8,1017.7,97,,,9.2,8.7,18041,169,7.6,4.8
2018,10,31,14:30,UTC,8,1017.7,97,,,9.4,8.9,18935,173,7.3,4.9
2018,10,31,14:40,UTC,8,1017.8,96,,,9.5,8.9,18962,169,9.1,5.7
2018,10,31,14:50,UTC,8,1017.9,96,,,9.3,8.7,18551,175,8.2,5.2
2018,10,31,15:00,UTC,7,1018.1,97,,,9.5,9,18755,172,7.8,5.1
2018,10,31,15:10,UTC,7,1018,96,,,9.6,9.1,18480,181,8,5
2018,10,31,15:20,UTC,7,1018,96,,,9.8,9.1,17875,180,7.3,5
2018,10,31,15:30,UTC,7,1018.1,95,,,9.7,9,18836,176,8.1,5.3
2018,10,31,15:40,UTC,7,1018.1,94,,,10,9.1,19906,176,7.4,5.3
2018,10,31,15:50,UTC,7,1018.2,94,,,9.9,9,19783,178,7.9,5
2018,10,31,16:00,UTC,7,1018.2,94,,,9.9,9,20351,180,8.9,5.3
2018,10,31,16:10,UTC,7,1018.2,94,,,10,9,21302,180,9.1,5.9
2018,10,31,16:20,UTC,7,1018.4,93,,,9.9,8.8,22683,182,8.4,5.3
2018,10,31,16:30,UTC,7,1018.5,92,,,10,8.8,22932,188,7.7,5.3
2018,10,31,16:40,UTC,6,1018.6,91,,,9.8,8.3,25399,187,8.3,5.1
2018,10,31,16:50,UTC,3,1018.7,91,,,9.5,8.1,25411,189,7,4.8
2018,10,31,17:00,UTC,1,1018.7,91,,,9.6,8.2,25481,188,8,5.7
2018,10,31,17:10,UTC,0,1018.7,91,,,9.6,8.1,27399,185,7.4,5.2
2018,10,31,17:20,UTC,2,1018.8,88,,,9.6,7.7,29779,185,7.2,4.8
2018,10,31,17:30,UTC,5,1018.8,85,,,9.9,7.4,40613,184,8,5.3
2018,10,31,17:40,UTC,7,1018.9,84,,,9.9,7.3,46144,187,9.5,6
2018,10,31,17:50,UTC,8,1018.9,84,,,10,7.3,45862,187,8.6,6.1
2018,10,31,18:00,UTC,8,1019,84,,,9.9,7.3,44428,186,9.5,6.1
2018,10,31,18:10,UTC,8,1019.1,83,,,9.8,7.1,43714,189,9.5,6.4
2018,10,31,18:20,UTC,8,1019.1,84,,,9.8,7.3,45028,189,11,6.6
2018,10,31,18:30,UTC,8,1019.3,84,,,9.7,7.2,42739,191,10.6,6.8
2018,10,31,18:40,UTC,8,1019.5,85,,,9.5,7,42856,192,10.4,6.4
2018,10,31,18:50,UTC,8,1019.6,85,,,9.5,7.1,41687,189,9.6,6.4
2018,10,31,19:00,UTC,8,1019.5,86,,,9.5,7.2,41055,190,9.2,5.8
2018,10,31,19:10,UTC,8,1019.7,86,,,9.4,7.1,44069,188,9.1,6
2018,10,31,19:20,UTC,8,1019.6,86,,,9.3,7.1,40144,187,11.5,7.3
2018,10,31,19:30,UTC,8,1019.4,86,,,9.4,7.2,45922,183,10.1,7.1
2018,10,31,19:40,UTC,8,1019.8,86,,,9.3,7.1,39323,190,10.7,7.2
2018,10,31,19:50,UTC,8,1019.8,87,,,9.3,7.1,37272,192,11.2,7.3
2018,10,31,20:00,UTC,8,1019.8,86,,,9.4,7.2,35725,192,12.2,7.5
2018,10,31,20:10,UTC,8,1019.9,87,,,9.2,7.2,39543,189,11.1,7.4
2018,10,31,20:20,UTC,8,1019.9,87,,,9.3,7.2,38648,192,10.8,7.7
2018,10,31,20:30,UTC,8,1020.1,87,,,9.3,7.2,41157,192,10.9,6.7
2018,10,31,20:40,UTC,8,1020.1,87,,,9.3,7.2,39612,193,11,7.1
2018,10,31,20:50,UTC,8,1020.1,87,,,9.3,7.2,36227,191,10.8,6.7
2018,10,31,21:00,UTC,8,1020.4,87,,,9.3,7.3,42136,195,10.1,6.4
2018,10,31,21:10,UTC,8,1020.5,87,,,9.3,7.3,40431,195,12.3,7.5
2018,10,31,21:20,UTC,8,1020.7,87,,,9.3,7.3,38405,199,11.8,6.2
2018,10,31,21:30,UTC,8,1020.7,88,,,9.3,7.4,37138,200,10.3,6.5
2018,10,31,21:40,UTC,8,1020.8,88,,,9.3,7.4,37022,199,9.3,6
2018,10,31,21:50,UTC,8,1020.9,86,,,9.6,7.4,35476,201,11.6,7
2018,10,31,22:00,UTC,8,1021,87,,,9.5,7.5,32303,202,11.2,7
2018,10,31,22:10,UTC,8,1021.1,87,,,9.6,7.5,35294,205,12.8,7.3
2018,10,31,22:20,UTC,8,1021.1,88,,,9.5,7.5,35623,202,10.4,6.9
2018,10,31,22:30,UTC,8,1021.3,87,,,9.5,7.5,32802,202,11.8,7.2
2018,10,31,22:40,UTC,8,1021.4,88,,,9.5,7.5,34257,204,12.6,7.2
2018,10,31,22:50,UTC,8,1021.5,88,,,9.5,7.6,33221,204,10.4,7
2018,10,31,23:00,UTC,8,1021.5,88,,,9.4,7.6,33693,201,11.1,6.8
2018,10,31,23:10,UTC,8,1021.5,88,,,9.6,7.6,33030,203,13.1,6.9
2018,10,31,23:20,UTC,8,1021.5,88,,,9.6,7.7,32404,199,12.2,8.4
2018,10,31,23:30,UTC,8,1021.7,88,,,9.5,7.6,32408,202,12,7.5
2018,10,31,23:40,UTC,8,1021.7,88,,,9.5,7.6,29921,198,11,7.1
2018,10,31,23:50,UTC,8,1021.8,87,,,9.6,7.5,32199,203,10.3,7
2018,11,1,00:00,UTC,8,1022,86,,,9.6,7.4,30262,202,11.1,7